<?xml version='1.0' encoding='utf-8'?>
<gpx xmlns="http://www.topografix.com/GPX/1/1" xmlns:xsi="http://www.w3.org/2001/XMLSchema-instance" xsi:schemaLocation="http://www.topografix.com/GPX/1/1 http://www.topografix.com/GPX/1/1/gpx.xsd" version="1.1" creator="gpx.py -- https://github.com/tkrajina/gpxpy">
  <trk>
    <name>fronalpstock-sz-morschach</name>
    <trkseg>
      <trkpt lat="46.99013021267561" lon="8.63820325212173">
      <ele>798.1</ele></trkpt>
      <trkpt lat="46.98979818737319" lon="8.638123524806362">
      <ele>797.9</ele></trkpt>
      <trkpt lat="46.989466161995146" lon="8.638043798475913">
      <ele>797.8</ele></trkpt>
      <trkpt lat="46.989325936123315" lon="8.63772539375455">
      <ele>797.6</ele></trkpt>
      <trkpt lat="46.989185709363845" lon="8.637406990697306">
      <ele>797.4</ele></trkpt>
      <trkpt lat="46.989158136927784" lon="8.637339772614895">
      <ele>797.3</ele></trkpt>
      <trkpt lat="46.98901784650742" lon="8.636970840640288">
      <ele>797.1</ele></trkpt>
      <trkpt lat="46.98895333323753" lon="8.636808259189065">
      <ele>796.9</ele></trkpt>
      <trkpt lat="46.988830706666015" lon="8.63652918857252">
      <ele>796.8</ele></trkpt>
      <trkpt lat="46.988650171119055" lon="8.636113980566883">
      <ele>796.6</ele></trkpt>
      <trkpt lat="46.98848543731148" lon="8.635769739070254">
      <ele>796.5</ele></trkpt>
      <trkpt lat="46.98831328303649" lon="8.63540888773492">
      <ele>796.3</ele></trkpt>
      <trkpt lat="46.988169599586236" lon="8.63509642198477">
      <ele>796.1</ele></trkpt>
      <trkpt lat="46.98814349957636" lon="8.635014698952787">
      <ele>796.0</ele></trkpt>
      <trkpt lat="46.98811200662527" lon="8.635009264413121">
      <ele>795.8</ele></trkpt>
      <trkpt lat="46.988078224082614" lon="8.634989606738927">
      <ele>795.6</ele></trkpt>
      <trkpt lat="46.98805022801192" lon="8.634959416065284">
      <ele>795.5</ele></trkpt>
      <trkpt lat="46.98801200819119" lon="8.634899430779631">
      <ele>795.3</ele></trkpt>
      <trkpt lat="46.987977869219115" lon="8.634837183244903">
      <ele>795.1</ele></trkpt>
      <trkpt lat="46.987935334835605" lon="8.634725093873028">
      <ele>795.0</ele></trkpt>
      <trkpt lat="46.98791246165873" lon="8.634654828254105">
      <ele>794.8</ele></trkpt>
      <trkpt lat="46.98790267591136" lon="8.634695167655021">
      <ele>795.6</ele></trkpt>
      <trkpt lat="46.98788865996036" lon="8.634754672627587">
      <ele>796.3</ele></trkpt>
      <trkpt lat="46.98787468802785" lon="8.63482892907234">
      <ele>797.1</ele></trkpt>
      <trkpt lat="46.98787313602451" lon="8.634904408752861">
      <ele>797.8</ele></trkpt>
      <trkpt lat="46.987877235360465" lon="8.635021110727378">
      <ele>798.6</ele></trkpt>
      <trkpt lat="46.987891809709794" lon="8.635154716088136">
      <ele>799.3</ele></trkpt>
      <trkpt lat="46.98791577800405" lon="8.635332953399912">
      <ele>800.1</ele></trkpt>
      <trkpt lat="46.98792837797657" lon="8.635437618608401">
      <ele>800.8</ele></trkpt>
      <trkpt lat="46.98792772902814" lon="8.635499800932449">
      <ele>801.6</ele></trkpt>
      <trkpt lat="46.98791964231388" lon="8.635546264969102">
      <ele>802.3</ele></trkpt>
      <trkpt lat="46.98790407134815" lon="8.635581466381202">
      <ele>803.1</ele></trkpt>
      <trkpt lat="46.98786626543137" lon="8.635636141818525">
      <ele>803.9</ele></trkpt>
      <trkpt lat="46.98777551364387" lon="8.635738529017065">
      <ele>804.6</ele></trkpt>
      <trkpt lat="46.987721638845336" lon="8.635802837348908">
      <ele>805.4</ele></trkpt>
      <trkpt lat="46.98769686148917" lon="8.635847824690421">
      <ele>806.1</ele></trkpt>
      <trkpt lat="46.987685028034974" lon="8.635888657071218">
      <ele>806.9</ele></trkpt>
      <trkpt lat="46.987676217843074" lon="8.63593288293672">
      <ele>807.6</ele></trkpt>
      <trkpt lat="46.987673388555905" lon="8.635985011794311">
      <ele>808.4</ele></trkpt>
      <trkpt lat="46.98767744087197" lon="8.636032876860392">
      <ele>809.1</ele></trkpt>
      <trkpt lat="46.98769134323693" lon="8.636084261402889">
      <ele>809.9</ele></trkpt>
      <trkpt lat="46.98772332311341" lon="8.636151614726556">
      <ele>811.1</ele></trkpt>
      <trkpt lat="46.98777178216098" lon="8.636241540316824">
      <ele>812.2</ele></trkpt>
      <trkpt lat="46.98779611286107" lon="8.636314284232794">
      <ele>813.4</ele></trkpt>
      <trkpt lat="46.987802368687476" lon="8.636369941949015">
      <ele>814.6</ele></trkpt>
      <trkpt lat="46.9878018816344" lon="8.636416575288578">
      <ele>815.7</ele></trkpt>
      <trkpt lat="46.987793690075364" lon="8.636473041323491">
      <ele>816.9</ele></trkpt>
      <trkpt lat="46.98776963590211" lon="8.636520253186989">
      <ele>818.1</ele></trkpt>
      <trkpt lat="46.98771671051349" lon="8.636566834011548">
      <ele>819.2</ele></trkpt>
      <trkpt lat="46.98764248199999" lon="8.636615148059992">
      <ele>820.4</ele></trkpt>
      <trkpt lat="46.98753927537594" lon="8.636673924236186">
      <ele>821.5</ele></trkpt>
      <trkpt lat="46.98746824912354" lon="8.636706770223997">
      <ele>822.7</ele></trkpt>
      <trkpt lat="46.98742325995427" lon="8.636721331850474">
      <ele>823.9</ele></trkpt>
      <trkpt lat="46.98735089679453" lon="8.636737478098553">
      <ele>825.0</ele></trkpt>
      <trkpt lat="46.98724814510919" lon="8.636751841902443">
      <ele>826.2</ele></trkpt>
      <trkpt lat="46.987177313480444" lon="8.636766917928746">
      <ele>827.4</ele></trkpt>
      <trkpt lat="46.987117054788314" lon="8.63678779079637">
      <ele>828.5</ele></trkpt>
      <trkpt lat="46.98703910015021" lon="8.636829368754924">
      <ele>829.7</ele></trkpt>
      <trkpt lat="46.98692590451615" lon="8.636897912208193">
      <ele>830.9</ele></trkpt>
      <trkpt lat="46.98685637244224" lon="8.636934116907764">
      <ele>832.0</ele></trkpt>
      <trkpt lat="46.986806779489406" lon="8.636951901465668">
      <ele>833.2</ele></trkpt>
      <trkpt lat="46.98676039560211" lon="8.636955296608818">
      <ele>834.4</ele></trkpt>
      <trkpt lat="46.986722497364255" lon="8.636945563868492">
      <ele>835.6</ele></trkpt>
      <trkpt lat="46.986670386561215" lon="8.636913309780944">
      <ele>836.8</ele></trkpt>
      <trkpt lat="46.986602744421944" lon="8.636841822319912">
      <ele>838.0</ele></trkpt>
      <trkpt lat="46.9865171402678" lon="8.636743312963294">
      <ele>839.2</ele></trkpt>
      <trkpt lat="46.98639549964261" lon="8.636600656613663">
      <ele>840.3</ele></trkpt>
      <trkpt lat="46.986283450735094" lon="8.636487097195007">
      <ele>841.5</ele></trkpt>
      <trkpt lat="46.98616966124691" lon="8.636394612254431">
      <ele>842.7</ele></trkpt>
      <trkpt lat="46.98607089495923" lon="8.636331450164583">
      <ele>843.9</ele></trkpt>
      <trkpt lat="46.98602176471104" lon="8.63631183130122">
      <ele>845.1</ele></trkpt>
      <trkpt lat="46.985995655492175" lon="8.63630429459554">
      <ele>846.3</ele></trkpt>
      <trkpt lat="46.985974095169276" lon="8.636317735480892">
      <ele>847.5</ele></trkpt>
      <trkpt lat="46.98596901045252" lon="8.636348923094037">
      <ele>848.7</ele></trkpt>
      <trkpt lat="46.98598284825204" lon="8.636390970862857">
      <ele>849.9</ele></trkpt>
      <trkpt lat="46.98603454919968" lon="8.636454726292783">
      <ele>851.0</ele></trkpt>
      <trkpt lat="46.98608628635589" lon="8.636515012057503">
      <ele>852.2</ele></trkpt>
      <trkpt lat="46.98611664476957" lon="8.636571350371675">
      <ele>853.4</ele></trkpt>
      <trkpt lat="46.986141982132295" lon="8.63665191036393">
      <ele>854.6</ele></trkpt>
      <trkpt lat="46.9861647633273" lon="8.636749805844556">
      <ele>855.8</ele></trkpt>
      <trkpt lat="46.98618007600382" lon="8.63687884904961">
      <ele>857.0</ele></trkpt>
      <trkpt lat="46.986193441163934" lon="8.636966109596248">
      <ele>858.4</ele></trkpt>
      <trkpt lat="46.98621867818642" lon="8.637057105766011">
      <ele>859.8</ele></trkpt>
      <trkpt lat="46.98627209894676" lon="8.637183516084797">
      <ele>861.2</ele></trkpt>
      <trkpt lat="46.98632779392315" lon="8.63732041555928">
      <ele>862.6</ele></trkpt>
      <trkpt lat="46.98635313975279" lon="8.63740097642313">
      <ele>864.0</ele></trkpt>
      <trkpt lat="46.98638507249356" lon="8.637533861998529">
      <ele>865.4</ele></trkpt>
      <trkpt lat="46.986423964585256" lon="8.63768429567903">
      <ele>866.8</ele></trkpt>
      <trkpt lat="46.98644879196628" lon="8.637813552295889">
      <ele>868.2</ele></trkpt>
      <trkpt lat="46.986470772049444" lon="8.637987955554241">
      <ele>869.6</ele></trkpt>
      <trkpt lat="46.98648092540066" lon="8.638155140357748">
      <ele>871.0</ele></trkpt>
      <trkpt lat="46.98648804015885" lon="8.638384873176813">
      <ele>872.5</ele></trkpt>
      <trkpt lat="46.986494126362075" lon="8.638485880760317">
      <ele>873.9</ele></trkpt>
      <trkpt lat="46.986516760486" lon="8.638597683206873">
      <ele>875.3</ele></trkpt>
      <trkpt lat="46.986539612638836" lon="8.638688640566174">
      <ele>876.7</ele></trkpt>
      <trkpt lat="46.98655092961552" lon="8.638744541867839">
      <ele>878.1</ele></trkpt>
      <trkpt lat="46.98655027460933" lon="8.638807129997765">
      <ele>879.5</ele></trkpt>
      <trkpt lat="46.98654024021938" lon="8.63885561280968">
      <ele>880.9</ele></trkpt>
      <trkpt lat="46.98651853419854" lon="8.638882945207731">
      <ele>882.3</ele></trkpt>
      <trkpt lat="46.98647042790076" lon="8.638930563753547">
      <ele>883.7</ele></trkpt>
      <trkpt lat="46.98640545504311" lon="8.638998681455792">
      <ele>885.1</ele></trkpt>
      <trkpt lat="46.98637404208516" lon="8.639043202387693">
      <ele>885.9</ele></trkpt>
      <trkpt lat="46.98634490344065" lon="8.639098199106991">
      <ele>886.7</ele></trkpt>
      <trkpt lat="46.986325025701625" lon="8.639177749709743">
      <ele>887.5</ele></trkpt>
      <trkpt lat="46.986314599725716" lon="8.63926447911988">
      <ele>888.3</ele></trkpt>
      <trkpt lat="46.986297178104266" lon="8.63933713017212">
      <ele>889.1</ele></trkpt>
      <trkpt lat="46.9862799748397" lon="8.639388922955915">
      <ele>889.9</ele></trkpt>
      <trkpt lat="46.98623399688252" lon="8.639460935281313">
      <ele>890.7</ele></trkpt>
      <trkpt lat="46.98618578106144" lon="8.639518988720328">
      <ele>891.5</ele></trkpt>
      <trkpt lat="46.986149610023055" lon="8.639563402750234">
      <ele>892.3</ele></trkpt>
      <trkpt lat="46.986118242314035" lon="8.639604440409384">
      <ele>893.1</ele></trkpt>
      <trkpt lat="46.98609162347314" lon="8.639645584241885">
      <ele>893.9</ele></trkpt>
      <trkpt lat="46.98609104079455" lon="8.639701219110059">
      <ele>894.7</ele></trkpt>
      <trkpt lat="46.986102430100914" lon="8.639750167441498">
      <ele>895.5</ele></trkpt>
      <trkpt lat="46.98612813835495" lon="8.639795965514727">
      <ele>896.3</ele></trkpt>
      <trkpt lat="46.986161124701304" lon="8.63982800459921">
      <ele>897.1</ele></trkpt>
      <trkpt lat="46.98622259432648" lon="8.639867648450085">
      <ele>897.9</ele></trkpt>
      <trkpt lat="46.986262925258444" lon="8.639889887093183">
      <ele>898.7</ele></trkpt>
      <trkpt lat="46.986295116155425" lon="8.639917990934656">
      <ele>899.5</ele></trkpt>
      <trkpt lat="46.986304417291734" lon="8.639952431892372">
      <ele>900.3</ele></trkpt>
      <trkpt lat="46.986306164518766" lon="8.639990029854749">
      <ele>901.1</ele></trkpt>
      <trkpt lat="46.986297175851334" lon="8.640030529562182">
      <ele>901.8</ele></trkpt>
      <trkpt lat="46.98627977979261" lon="8.640055183944828">
      <ele>902.5</ele></trkpt>
      <trkpt lat="46.98625621526225" lon="8.640054656680597">
      <ele>903.2</ele></trkpt>
      <trkpt lat="46.986228542530085" lon="8.640038380318778">
      <ele>903.9</ele></trkpt>
      <trkpt lat="46.98619450442031" lon="8.640015717088804">
      <ele>904.6</ele></trkpt>
      <trkpt lat="46.98615390458528" lon="8.640005409134663">
      <ele>905.3</ele></trkpt>
      <trkpt lat="46.98609380972932" lon="8.640016592890298">
      <ele>906.0</ele></trkpt>
      <trkpt lat="46.98604869917324" lon="8.640028098744455">
      <ele>906.7</ele></trkpt>
      <trkpt lat="46.98598880107627" lon="8.640020500957466">
      <ele>907.4</ele></trkpt>
      <trkpt lat="46.98592250496963" lon="8.640009631247652">
      <ele>908.1</ele></trkpt>
      <trkpt lat="46.985879633318966" lon="8.640011800808697">
      <ele>908.8</ele></trkpt>
      <trkpt lat="46.98585405475031" lon="8.640034352585113">
      <ele>909.5</ele></trkpt>
      <trkpt lat="46.98580696745052" lon="8.640030170236608">
      <ele>910.2</ele></trkpt>
      <trkpt lat="46.98575573017992" lon="8.640013366782105">
      <ele>910.9</ele></trkpt>
      <trkpt lat="46.985717378102564" lon="8.639993736023358">
      <ele>911.6</ele></trkpt>
      <trkpt lat="46.98568125606752" lon="8.639964755718786">
      <ele>912.3</ele></trkpt>
      <trkpt lat="46.98565122042218" lon="8.63992843149149">
      <ele>913.0</ele></trkpt>
      <trkpt lat="46.985639060937274" lon="8.639901486016667">
      <ele>913.7</ele></trkpt>
      <trkpt lat="46.98563934000669" lon="8.639874845118236">
      <ele>914.4</ele></trkpt>
      <trkpt lat="46.9856513359972" lon="8.639837528785177">
      <ele>915.1</ele></trkpt>
      <trkpt lat="46.98570070827667" lon="8.639796197640809">
      <ele>916.0</ele></trkpt>
      <trkpt lat="46.98574672877257" lon="8.639759655509">
      <ele>916.8</ele></trkpt>
      <trkpt lat="46.98576355873823" lon="8.639735790527801">
      <ele>917.7</ele></trkpt>
      <trkpt lat="46.98576381257818" lon="8.639711554744746">
      <ele>918.6</ele></trkpt>
      <trkpt lat="46.98574325889694" lon="8.639694123339652">
      <ele>919.4</ele></trkpt>
      <trkpt lat="46.9856944197951" lon="8.63968455164629">
      <ele>920.3</ele></trkpt>
      <trkpt lat="46.98565553729529" lon="8.63967518953357">
      <ele>921.2</ele></trkpt>
      <trkpt lat="46.98563898131531" lon="8.63967117774022">
      <ele>922.0</ele></trkpt>
      <trkpt lat="46.98562840042655" lon="8.639651550577147">
      <ele>922.9</ele></trkpt>
      <trkpt lat="46.9856327878641" lon="8.639628616752628">
      <ele>923.8</ele></trkpt>
      <trkpt lat="46.98567661036671" lon="8.639600938423794">
      <ele>924.6</ele></trkpt>
      <trkpt lat="46.98570879192648" lon="8.639596439209775">
      <ele>925.5</ele></trkpt>
      <trkpt lat="46.98573982274021" lon="8.639588430529734">
      <ele>926.3</ele></trkpt>
      <trkpt lat="46.9857698029614" lon="8.639566489737312">
      <ele>927.2</ele></trkpt>
      <trkpt lat="46.985790267285694" lon="8.639544349237681">
      <ele>928.1</ele></trkpt>
      <trkpt lat="46.98580129810775" lon="8.639513281849823">
      <ele>928.9</ele></trkpt>
      <trkpt lat="46.98580871248215" lon="8.639487365732831">
      <ele>929.8</ele></trkpt>
      <trkpt lat="46.985812738273424" lon="8.639443981483108">
      <ele>930.7</ele></trkpt>
      <trkpt lat="46.985816618445284" lon="8.639414502587673">
      <ele>931.5</ele></trkpt>
      <trkpt lat="46.98582055324398" lon="8.639379805891558">
      <ele>932.4</ele></trkpt>
      <trkpt lat="46.9858232007165" lon="8.639353783149607">
      <ele>933.8</ele></trkpt>
      <trkpt lat="46.98583537307003" lon="8.639327960250732">
      <ele>935.1</ele></trkpt>
      <trkpt lat="46.98585109777244" lon="8.639303965212616">
      <ele>936.5</ele></trkpt>
      <trkpt lat="46.98585739767201" lon="8.639271069809753">
      <ele>937.9</ele></trkpt>
      <trkpt lat="46.98586125064183" lon="8.639243325562063">
      <ele>939.3</ele></trkpt>
      <trkpt lat="46.985856784064566" lon="8.639215395289433">
      <ele>940.6</ele></trkpt>
      <trkpt lat="46.985854828329416" lon="8.639175347827035">
      <ele>942.0</ele></trkpt>
      <trkpt lat="46.98584679094115" lon="8.639147350872824">
      <ele>943.4</ele></trkpt>
      <trkpt lat="46.98583159420826" lon="8.639120916005343">
      <ele>944.8</ele></trkpt>
      <trkpt lat="46.985793065933606" lon="8.639098337186738">
      <ele>946.1</ele></trkpt>
      <trkpt lat="46.98570724973749" lon="8.639093316087383">
      <ele>947.5</ele></trkpt>
      <trkpt lat="46.98564841994643" lon="8.639085927322627">
      <ele>948.9</ele></trkpt>
      <trkpt lat="46.98559638515818" lon="8.639065373504003">
      <ele>950.3</ele></trkpt>
      <trkpt lat="46.985558435261595" lon="8.63904512146416">
      <ele>951.6</ele></trkpt>
      <trkpt lat="46.985527195285314" lon="8.639018972267213">
      <ele>953.0</ele></trkpt>
      <trkpt lat="46.98551358725381" lon="8.638971394798514">
      <ele>954.4</ele></trkpt>
      <trkpt lat="46.98549800416276" lon="8.63887529052972">
      <ele>955.8</ele></trkpt>
      <trkpt lat="46.985482918601434" lon="8.638810721684564">
      <ele>957.1</ele></trkpt>
      <trkpt lat="46.985467487263755" lon="8.638780048820346">
      <ele>958.5</ele></trkpt>
      <trkpt lat="46.98543556669791" lon="8.638738122502932">
      <ele>959.9</ele></trkpt>
      <trkpt lat="46.9854036296658" lon="8.638698627884686">
      <ele>962.3</ele></trkpt>
      <trkpt lat="46.98538818902873" lon="8.638667981182913">
      <ele>964.6</ele></trkpt>
      <trkpt lat="46.985383519518194" lon="8.638638797799123">
      <ele>967.0</ele></trkpt>
      <trkpt lat="46.98538491406549" lon="8.63858548236374">
      <ele>969.4</ele></trkpt>
      <trkpt lat="46.98540334099911" lon="8.638488928990812">
      <ele>971.8</ele></trkpt>
      <trkpt lat="46.98541222054396" lon="8.638432152477472">
      <ele>974.1</ele></trkpt>
      <trkpt lat="46.98541262632704" lon="8.638393367582971">
      <ele>976.5</ele></trkpt>
      <trkpt lat="46.9854046850057" lon="8.638360469655503">
      <ele>978.9</ele></trkpt>
      <trkpt lat="46.985389121298226" lon="8.638340718364287">
      <ele>981.2</ele></trkpt>
      <trkpt lat="46.985349461828434" lon="8.638326502184336">
      <ele>983.6</ele></trkpt>
      <trkpt lat="46.98530825622412" lon="8.638300130856639">
      <ele>986.0</ele></trkpt>
      <trkpt lat="46.985262938763114" lon="8.638271235693185">
      <ele>988.3</ele></trkpt>
      <trkpt lat="46.98522701634184" lon="8.638217112977541">
      <ele>990.7</ele></trkpt>
      <trkpt lat="46.98516472458409" lon="8.638144207220579">
      <ele>993.1</ele></trkpt>
      <trkpt lat="46.98509419642241" lon="8.63806746307294">
      <ele>995.4</ele></trkpt>
      <trkpt lat="46.985005283308084" lon="8.638002442176433">
      <ele>997.8</ele></trkpt>
      <trkpt lat="46.98486342789813" lon="8.637925341059972">
      <ele>1000.2</ele></trkpt>
      <trkpt lat="46.984683604326975" lon="8.63782798909951">
      <ele>1002.6</ele></trkpt>
      <trkpt lat="46.984568893494355" lon="8.637772094610073">
      <ele>1004.9</ele></trkpt>
      <trkpt lat="46.98445489967376" lon="8.637725917974134">
      <ele>1007.3</ele></trkpt>
      <trkpt lat="46.98438124606193" lon="8.637709733965274">
      <ele>1009.4</ele></trkpt>
      <trkpt lat="46.98432487846125" lon="8.637706043261737">
      <ele>1011.6</ele></trkpt>
      <trkpt lat="46.984258474604786" lon="8.637710620607104">
      <ele>1013.7</ele></trkpt>
      <trkpt lat="46.9842217864727" lon="8.63772798189746">
      <ele>1015.9</ele></trkpt>
      <trkpt lat="46.98419269549828" lon="8.637734601856668">
      <ele>1018.0</ele></trkpt>
      <trkpt lat="46.9841711276392" lon="8.637734120219596">
      <ele>1020.1</ele></trkpt>
      <trkpt lat="46.98414785415364" lon="8.637738451267728">
      <ele>1022.3</ele></trkpt>
      <trkpt lat="46.984115676135936" lon="8.637721970973073">
      <ele>1024.4</ele></trkpt>
      <trkpt lat="46.98408688029301" lon="8.637699506050948">
      <ele>1026.6</ele></trkpt>
      <trkpt lat="46.984037251481546" lon="8.637686290623037">
      <ele>1028.7</ele></trkpt>
      <trkpt lat="46.98398906602702" lon="8.637692484194773">
      <ele>1030.8</ele></trkpt>
      <trkpt lat="46.9839249127628" lon="8.637720143003738">
      <ele>1033.0</ele></trkpt>
      <trkpt lat="46.98380829738778" lon="8.637767229422462">
      <ele>1035.1</ele></trkpt>
      <trkpt lat="46.98370509130578" lon="8.637800076045389">
      <ele>1037.3</ele></trkpt>
      <trkpt lat="46.98357197407206" lon="8.637837105263024">
      <ele>1039.4</ele></trkpt>
      <trkpt lat="46.98348789152634" lon="8.63786673738056">
      <ele>1041.5</ele></trkpt>
      <trkpt lat="46.983440475495605" lon="8.637880217402596">
      <ele>1043.7</ele></trkpt>
      <trkpt lat="46.98341972609768" lon="8.637879753992808">
      <ele>1045.8</ele></trkpt>
      <trkpt lat="46.983399983153774" lon="8.63786477408857">
      <ele>1048.0</ele></trkpt>
      <trkpt lat="46.9833793783293" lon="8.637852206871791">
      <ele>1050.1</ele></trkpt>
      <trkpt lat="46.98336680011551" lon="8.637865255535377">
      <ele>1051.0</ele></trkpt>
      <trkpt lat="46.98336658473844" lon="8.637885849781261">
      <ele>1052.0</ele></trkpt>
      <trkpt lat="46.98336311754824" lon="8.637899101919299">
      <ele>1052.9</ele></trkpt>
      <trkpt lat="46.983347356226744" lon="8.637899959295323">
      <ele>1053.8</ele></trkpt>
      <trkpt lat="46.98332671347053" lon="8.63789101939555">
      <ele>1054.8</ele></trkpt>
      <trkpt lat="46.98329777828692" lon="8.637881881157067">
      <ele>1055.7</ele></trkpt>
      <trkpt lat="46.98329070973679" lon="8.637922934490115">
      <ele>1056.6</ele></trkpt>
      <trkpt lat="46.98327219431682" lon="8.63794799696515">
      <ele>1057.6</ele></trkpt>
      <trkpt lat="46.98325965065263" lon="8.63795860128714">
      <ele>1058.5</ele></trkpt>
      <trkpt lat="46.98323991502168" lon="8.637941202788568">
      <ele>1059.4</ele></trkpt>
      <trkpt lat="46.98322181070342" lon="8.6379286782817">
      <ele>1060.4</ele></trkpt>
      <trkpt lat="46.983209210840734" lon="8.637942935791564">
      <ele>1061.3</ele></trkpt>
      <trkpt lat="46.98319489255683" lon="8.63796322813247">
      <ele>1062.3</ele></trkpt>
      <trkpt lat="46.98317927061361" lon="8.637950759072147">
      <ele>1063.2</ele></trkpt>
      <trkpt lat="46.98315730620496" lon="8.637909057402972">
      <ele>1064.1</ele></trkpt>
      <trkpt lat="46.98313250452133" lon="8.637901234030322">
      <ele>1065.1</ele></trkpt>
      <trkpt lat="46.983130460423894" lon="8.637937548772365">
      <ele>1066.0</ele></trkpt>
      <trkpt lat="46.98312173328643" lon="8.637979774309285">
      <ele>1066.9</ele></trkpt>
      <trkpt lat="46.98310491112003" lon="8.638001206919341">
      <ele>1067.9</ele></trkpt>
      <trkpt lat="46.983085944926316" lon="8.637991095084738">
      <ele>1068.8</ele></trkpt>
      <trkpt lat="46.98306975264862" lon="8.637953163684193">
      <ele>1069.6</ele></trkpt>
      <trkpt lat="46.9830575329802" lon="8.637931069294062">
      <ele>1070.4</ele></trkpt>
      <trkpt lat="46.98304514106437" lon="8.637927164381065">
      <ele>1071.2</ele></trkpt>
      <trkpt lat="46.98303243976077" lon="8.6379511209245">
      <ele>1072.0</ele></trkpt>
      <trkpt lat="46.98301304277729" lon="8.637982197341053">
      <ele>1072.8</ele></trkpt>
      <trkpt lat="46.98299978012513" lon="8.637980691733553">
      <ele>1073.6</ele></trkpt>
      <trkpt lat="46.98299163972527" lon="8.63796595790715">
      <ele>1074.4</ele></trkpt>
      <trkpt lat="46.982991027659146" lon="8.637945345324479">
      <ele>1075.2</ele></trkpt>
      <trkpt lat="46.98298459275222" lon="8.637925812074013">
      <ele>1076.0</ele></trkpt>
      <trkpt lat="46.98297224269862" lon="8.63791704428959">
      <ele>1076.8</ele></trkpt>
      <trkpt lat="46.98296797868072" lon="8.637929069151305">
      <ele>1077.7</ele></trkpt>
      <trkpt lat="46.98296602337051" lon="8.63795689381083">
      <ele>1078.5</ele></trkpt>
      <trkpt lat="46.98295829187342" lon="8.63798219698539">
      <ele>1079.3</ele></trkpt>
      <trkpt lat="46.982949298724165" lon="8.637969862883901">
      <ele>1080.1</ele></trkpt>
      <trkpt lat="46.98292583142674" lon="8.637913588975119">
      <ele>1080.9</ele></trkpt>
      <trkpt lat="46.98289549856894" lon="8.637878956895944">
      <ele>1081.7</ele></trkpt>
      <trkpt lat="46.98285936422792" lon="8.637844221583883">
      <ele>1082.5</ele></trkpt>
      <trkpt lat="46.98282886655962" lon="8.637825347247082">
      <ele>1083.3</ele></trkpt>
      <trkpt lat="46.98281475102093" lon="8.637826254535808">
      <ele>1084.1</ele></trkpt>
      <trkpt lat="46.98279523999199" lon="8.63786823900295">
      <ele>1084.9</ele></trkpt>
      <trkpt lat="46.98276061229066" lon="8.637926856521396">
      <ele>1085.8</ele></trkpt>
      <trkpt lat="46.982731255049345" lon="8.637958932849033">
      <ele>1086.7</ele></trkpt>
      <trkpt lat="46.98271622353027" lon="8.637968285265899">
      <ele>1087.6</ele></trkpt>
      <trkpt lat="46.98269884888077" lon="8.637964269080074">
      <ele>1088.4</ele></trkpt>
      <trkpt lat="46.982689973329805" lon="8.637939830780986">
      <ele>1089.3</ele></trkpt>
      <trkpt lat="46.982679873894284" lon="8.63787414128006">
      <ele>1090.2</ele></trkpt>
      <trkpt lat="46.98267044594646" lon="8.637824241239606">
      <ele>1091.1</ele></trkpt>
      <trkpt lat="46.98266079348454" lon="8.637794948133564">
      <ele>1092.0</ele></trkpt>
      <trkpt lat="46.98264759053697" lon="8.637788593277563">
      <ele>1092.9</ele></trkpt>
      <trkpt lat="46.98263587785648" lon="8.637798019842844">
      <ele>1093.8</ele></trkpt>
      <trkpt lat="46.982618874499515" lon="8.637837641437816">
      <ele>1094.6</ele></trkpt>
      <trkpt lat="46.98259537298563" lon="8.637863775354951">
      <ele>1095.5</ele></trkpt>
      <trkpt lat="46.982581922382835" lon="8.637865617653718">
      <ele>1096.4</ele></trkpt>
      <trkpt lat="46.982564608995375" lon="8.63785918413681">
      <ele>1097.3</ele></trkpt>
      <trkpt lat="46.982553230690876" lon="8.637838357573198">
      <ele>1098.2</ele></trkpt>
      <trkpt lat="46.982556979562126" lon="8.637797309531582">
      <ele>1099.1</ele></trkpt>
      <trkpt lat="46.98254980161705" lon="8.637770543074636">
      <ele>1099.9</ele></trkpt>
      <trkpt lat="46.98253839057243" lon="8.637754566432829">
      <ele>1100.8</ele></trkpt>
      <trkpt lat="46.98252680981388" lon="8.637753098453102">
      <ele>1101.7</ele></trkpt>
      <trkpt lat="46.98251840879907" lon="8.637765004553124">
      <ele>1102.6</ele></trkpt>
      <trkpt lat="46.98251646293492" lon="8.637792789759585">
      <ele>1103.6</ele></trkpt>
      <trkpt lat="46.98251197525651" lon="8.637825342535077">
      <ele>1104.6</ele></trkpt>
      <trkpt lat="46.982490237266745" lon="8.63784542950571">
      <ele>1105.6</ele></trkpt>
      <trkpt lat="46.98244102527081" lon="8.637881820897702">
      <ele>1106.6</ele></trkpt>
      <trkpt lat="46.98241858640266" lon="8.637889785340468">
      <ele>1107.6</ele></trkpt>
      <trkpt lat="46.98239297666219" lon="8.637884389063105">
      <ele>1108.6</ele></trkpt>
      <trkpt lat="46.98239073468068" lon="8.637861347866638">
      <ele>1109.6</ele></trkpt>
      <trkpt lat="46.98239797406179" lon="8.6378022373882">
      <ele>1110.6</ele></trkpt>
      <trkpt lat="46.98240257931517" lon="8.637757580484093">
      <ele>1111.6</ele></trkpt>
      <trkpt lat="46.9823953940619" lon="8.637733232681377">
      <ele>1112.6</ele></trkpt>
      <trkpt lat="46.98238390180676" lon="8.637723301116084">
      <ele>1113.6</ele></trkpt>
      <trkpt lat="46.98235556959699" lon="8.637740808947957">
      <ele>1114.6</ele></trkpt>
      <trkpt lat="46.98231879843704" lon="8.637773850066317">
      <ele>1115.6</ele></trkpt>
      <trkpt lat="46.982286375719326" lon="8.63778765155332">
      <ele>1116.6</ele></trkpt>
      <trkpt lat="46.982267398554406" lon="8.637781167797403">
      <ele>1117.6</ele></trkpt>
      <trkpt lat="46.9822560798042" lon="8.637755505238529">
      <ele>1118.6</ele></trkpt>
      <trkpt lat="46.98224583224094" lon="8.637705692474206">
      <ele>1119.6</ele></trkpt>
      <trkpt lat="46.98223428576162" lon="8.63770180655082">
      <ele>1120.6</ele></trkpt>
      <trkpt lat="46.9822050338061" lon="8.63772898185758">
      <ele>1121.6</ele></trkpt>
      <trkpt lat="46.982170596807855" lon="8.63777539114697">
      <ele>1122.6</ele></trkpt>
      <trkpt lat="46.98215826094203" lon="8.637767846354464">
      <ele>1123.4</ele></trkpt>
      <trkpt lat="46.98215302505468" lon="8.637714517503776">
      <ele>1124.3</ele></trkpt>
      <trkpt lat="46.98213793942854" lon="8.637652476906764">
      <ele>1125.1</ele></trkpt>
      <trkpt lat="46.98211100008942" lon="8.637616790766682">
      <ele>1125.9</ele></trkpt>
      <trkpt lat="46.982087095956445" lon="8.637606582146546">
      <ele>1126.8</ele></trkpt>
      <trkpt lat="46.98208116819807" lon="8.637618556540218">
      <ele>1127.6</ele></trkpt>
      <trkpt lat="46.98207658842146" lon="8.637660781890764">
      <ele>1128.4</ele></trkpt>
      <trkpt lat="46.98206638964152" lon="8.637687173227944">
      <ele>1129.2</ele></trkpt>
      <trkpt lat="46.98204791093246" lon="8.637712170304969">
      <ele>1130.1</ele></trkpt>
      <trkpt lat="46.98203309633787" lon="8.637703360835461">
      <ele>1130.9</ele></trkpt>
      <trkpt lat="46.98202506197774" lon="8.637680203606944">
      <ele>1131.7</ele></trkpt>
      <trkpt lat="46.98202366904969" lon="8.637655972177253">
      <ele>1132.6</ele></trkpt>
      <trkpt lat="46.98201386976782" lon="8.637642437277616">
      <ele>1133.4</ele></trkpt>
      <trkpt lat="46.982001331199726" lon="8.637654277184366">
      <ele>1134.2</ele></trkpt>
      <trkpt lat="46.981990908632724" lon="8.637701209435274">
      <ele>1135.0</ele></trkpt>
      <trkpt lat="46.9819831489416" lon="8.637730073904597">
      <ele>1135.9</ele></trkpt>
      <trkpt lat="46.981970560064866" lon="8.63774672380205">
      <ele>1136.7</ele></trkpt>
      <trkpt lat="46.98195402720177" lon="8.637743935898817">
      <ele>1137.5</ele></trkpt>
      <trkpt lat="46.981928180853025" lon="8.637682877745348">
      <ele>1138.4</ele></trkpt>
      <trkpt lat="46.981894844215596" lon="8.637624057973804">
      <ele>1139.2</ele></trkpt>
      <trkpt lat="46.98187432211882" lon="8.637607878127335">
      <ele>1140.2</ele></trkpt>
      <trkpt lat="46.98185942787758" lon="8.637607545569594">
      <ele>1141.2</ele></trkpt>
      <trkpt lat="46.98185928881301" lon="8.63762084537344">
      <ele>1142.2</ele></trkpt>
      <trkpt lat="46.98186072867027" lon="8.637641449709545">
      <ele>1143.2</ele></trkpt>
      <trkpt lat="46.981852264452584" lon="8.637659401043745">
      <ele>1144.2</ele></trkpt>
      <trkpt lat="46.981832573466924" lon="8.63764203039927">
      <ele>1145.2</ele></trkpt>
      <trkpt lat="46.981821614232885" lon="8.637661135367528">
      <ele>1146.2</ele></trkpt>
      <trkpt lat="46.981829420884125" lon="8.63770606895041">
      <ele>1147.2</ele></trkpt>
      <trkpt lat="46.98181735953571" lon="8.63775055888265">
      <ele>1148.2</ele></trkpt>
      <trkpt lat="46.981784611724365" lon="8.637794586837655">
      <ele>1149.2</ele></trkpt>
      <trkpt lat="46.98177061715586" lon="8.637788227552585">
      <ele>1150.3</ele></trkpt>
      <trkpt lat="46.98175940320577" lon="8.637751683391679">
      <ele>1151.3</ele></trkpt>
      <trkpt lat="46.98175485947993" lon="8.637710450779648">
      <ele>1152.3</ele></trkpt>
      <trkpt lat="46.98172947379192" lon="8.637684487520977">
      <ele>1153.3</ele></trkpt>
      <trkpt lat="46.98170136929694" lon="8.63768021876661">
      <ele>1154.3</ele></trkpt>
      <trkpt lat="46.981683739545915" lon="8.637704038426591">
      <ele>1155.3</ele></trkpt>
      <trkpt lat="46.98167017514258" lon="8.637733969315939">
      <ele>1156.3</ele></trkpt>
      <trkpt lat="46.98164547966584" lon="8.63780115463794">
      <ele>1157.3</ele></trkpt>
      <trkpt lat="46.98163372174867" lon="8.637816626765808">
      <ele>1158.3</ele></trkpt>
      <trkpt lat="46.981604853021736" lon="8.637806294134839">
      <ele>1159.3</ele></trkpt>
      <trkpt lat="46.98159362264599" lon="8.637772181559964">
      <ele>1160.2</ele></trkpt>
      <trkpt lat="46.98154468713582" lon="8.63770212964444">
      <ele>1161.2</ele></trkpt>
      <trkpt lat="46.98152490765436" lon="8.63769322254241">
      <ele>1162.1</ele></trkpt>
      <trkpt lat="46.981510629448074" lon="8.63771226642414">
      <ele>1163.1</ele></trkpt>
      <trkpt lat="46.98151778212096" lon="8.637741450485914">
      <ele>1164.0</ele></trkpt>
      <trkpt lat="46.98152324545132" lon="8.637773028671903">
      <ele>1165.0</ele></trkpt>
      <trkpt lat="46.981503995403415" lon="8.637871778433045">
      <ele>1165.9</ele></trkpt>
      <trkpt lat="46.9814814517204" lon="8.637890624522033">
      <ele>1166.9</ele></trkpt>
      <trkpt lat="46.98145044715047" lon="8.637926238772032">
      <ele>1167.8</ele></trkpt>
      <trkpt lat="46.98143998117944" lon="8.637898176925676">
      <ele>1168.8</ele></trkpt>
      <trkpt lat="46.9814346189048" lon="8.6378569394103">
      <ele>1169.7</ele></trkpt>
      <trkpt lat="46.98141264816097" lon="8.637820142100463">
      <ele>1170.6</ele></trkpt>
      <trkpt lat="46.98139150458826" lon="8.637783389582747">
      <ele>1171.6</ele></trkpt>
      <trkpt lat="46.98137516152017" lon="8.637762452624216">
      <ele>1172.5</ele></trkpt>
      <trkpt lat="46.981357822835676" lon="8.637758437408406">
      <ele>1173.5</ele></trkpt>
      <trkpt lat="46.98134357890015" lon="8.637775063291485">
      <ele>1174.4</ele></trkpt>
      <trkpt lat="46.98134309842152" lon="8.637821007625048">
      <ele>1175.4</ele></trkpt>
      <trkpt lat="46.98133914722167" lon="8.637881399717486">
      <ele>1176.3</ele></trkpt>
      <trkpt lat="46.9813363322836" lon="8.637914002275194">
      <ele>1177.3</ele></trkpt>
      <trkpt lat="46.98132782095407" lon="8.637935593515182">
      <ele>1178.2</ele></trkpt>
      <trkpt lat="46.98131450223995" lon="8.637943748314386">
      <ele>1179.5</ele></trkpt>
      <trkpt lat="46.98129640284592" lon="8.637932473143357">
      <ele>1180.9</ele></trkpt>
      <trkpt lat="46.981267035448056" lon="8.637890686483562">
      <ele>1182.2</ele></trkpt>
      <trkpt lat="46.98123862193917" lon="8.637836827758065">
      <ele>1183.5</ele></trkpt>
      <trkpt lat="46.98121060595883" lon="8.637824095553885">
      <ele>1184.9</ele></trkpt>
      <trkpt lat="46.98118597188672" lon="8.63780540532986">
      <ele>1186.2</ele></trkpt>
      <trkpt lat="46.981170033424554" lon="8.637745778604417">
      <ele>1187.5</ele></trkpt>
      <trkpt lat="46.98114548798058" lon="8.637718611889744">
      <ele>1188.9</ele></trkpt>
      <trkpt lat="46.981123769910226" lon="8.637657646846801">
      <ele>1190.2</ele></trkpt>
      <trkpt lat="46.981098969530386" lon="8.637574844946082">
      <ele>1191.6</ele></trkpt>
      <trkpt lat="46.98106779525029" lon="8.637547543492689">
      <ele>1192.9</ele></trkpt>
      <trkpt lat="46.98106964539415" lon="8.637608064822427">
      <ele>1194.2</ele></trkpt>
      <trkpt lat="46.981063587562545" lon="8.637633338796315">
      <ele>1195.6</ele></trkpt>
      <trkpt lat="46.981028648476" lon="8.63764947624171">
      <ele>1196.9</ele></trkpt>
      <trkpt lat="46.98099482383972" lon="8.637639046305864">
      <ele>1198.2</ele></trkpt>
      <trkpt lat="46.98096040295329" lon="8.637605625703209">
      <ele>1199.6</ele></trkpt>
      <trkpt lat="46.98093311677795" lon="8.637601388467063">
      <ele>1200.9</ele></trkpt>
      <trkpt lat="46.98092686566225" lon="8.637646007411357">
      <ele>1202.2</ele></trkpt>
      <trkpt lat="46.98091209438442" lon="8.63771220411069">
      <ele>1203.6</ele></trkpt>
      <trkpt lat="46.980903212913056" lon="8.637770053816217">
      <ele>1204.9</ele></trkpt>
      <trkpt lat="46.980889635708934" lon="8.637801206446676">
      <ele>1206.4</ele></trkpt>
      <trkpt lat="46.980873086549686" lon="8.637800836885038">
      <ele>1207.9</ele></trkpt>
      <trkpt lat="46.9808478778919" lon="8.637757947306177">
      <ele>1209.4</ele></trkpt>
      <trkpt lat="46.98078485745492" lon="8.637687595019285">
      <ele>1210.9</ele></trkpt>
      <trkpt lat="46.98077808607392" lon="8.637701955793359">
      <ele>1212.4</ele></trkpt>
      <trkpt lat="46.98078582584265" lon="8.637754143002837">
      <ele>1213.9</ele></trkpt>
      <trkpt lat="46.98078373190148" lon="8.637795226648912">
      <ele>1215.4</ele></trkpt>
      <trkpt lat="46.98077109243515" lon="8.637816712352938">
      <ele>1216.9</ele></trkpt>
      <trkpt lat="46.980748868656086" lon="8.637804109616559">
      <ele>1218.4</ele></trkpt>
      <trkpt lat="46.98068901169998" lon="8.63774954932167">
      <ele>1220.0</ele></trkpt>
      <trkpt lat="46.980655355085155" lon="8.637722192544759">
      <ele>1221.5</ele></trkpt>
      <trkpt lat="46.9806362854833" lon="8.63772540785699">
      <ele>1223.0</ele></trkpt>
      <trkpt lat="46.9806277238884" lon="8.637751808742834">
      <ele>1224.5</ele></trkpt>
      <trkpt lat="46.98063706797356" lon="8.63780886895145">
      <ele>1226.0</ele></trkpt>
      <trkpt lat="46.980639799530486" lon="8.637863375996938">
      <ele>1227.5</ele></trkpt>
      <trkpt lat="46.980628867261345" lon="8.637959891216244">
      <ele>1229.0</ele></trkpt>
      <trkpt lat="46.98061955540142" lon="8.63805887439117">
      <ele>1230.5</ele></trkpt>
      <trkpt lat="46.98062513769908" lon="8.638158190234769">
      <ele>1232.0</ele></trkpt>
      <trkpt lat="46.98063102348355" lon="8.638228489012823">
      <ele>1233.5</ele></trkpt>
      <trkpt lat="46.98061849390113" lon="8.638317712498434">
      <ele>1235.0</ele></trkpt>
      <trkpt lat="46.98059976204874" lon="8.638366889574607">
      <ele>1236.6</ele></trkpt>
      <trkpt lat="46.980590377910886" lon="8.63839450758288">
      <ele>1238.2</ele></trkpt>
      <trkpt lat="46.980574622053005" lon="8.638396561072659">
      <ele>1239.8</ele></trkpt>
      <trkpt lat="46.980568268047115" lon="8.638371023255278">
      <ele>1241.4</ele></trkpt>
      <trkpt lat="46.98056136866651" lon="8.638317645610394">
      <ele>1243.0</ele></trkpt>
      <trkpt lat="46.98052735302138" lon="8.638245509185188">
      <ele>1244.7</ele></trkpt>
      <trkpt lat="46.98043659673597" lon="8.63813825747451">
      <ele>1246.3</ele></trkpt>
      <trkpt lat="46.980404532028224" lon="8.638116969606951">
      <ele>1247.9</ele></trkpt>
      <trkpt lat="46.9803805772051" lon="8.638111610388414">
      <ele>1249.5</ele></trkpt>
      <trkpt lat="46.9803205939216" lon="8.63806914050771">
      <ele>1251.1</ele></trkpt>
      <trkpt lat="46.980239328139334" lon="8.638003205170971">
      <ele>1252.7</ele></trkpt>
      <trkpt lat="46.980196285985784" lon="8.63800103452235">
      <ele>1254.3</ele></trkpt>
      <trkpt lat="46.980160945567825" lon="8.63797726818268">
      <ele>1255.9</ele></trkpt>
      <trkpt lat="46.98008010604415" lon="8.637948844622121">
      <ele>1257.5</ele></trkpt>
      <trkpt lat="46.98001257427407" lon="8.637915894239036">
      <ele>1259.2</ele></trkpt>
      <trkpt lat="46.97993337700409" lon="8.637888716837141">
      <ele>1260.8</ele></trkpt>
      <trkpt lat="46.979863312398805" lon="8.637860534154484">
      <ele>1262.4</ele></trkpt>
      <trkpt lat="46.97978304348109" lon="8.637857545440658">
      <ele>1264.0</ele></trkpt>
      <trkpt lat="46.979699595102126" lon="8.637841157069552">
      <ele>1265.6</ele></trkpt>
      <trkpt lat="46.97964776856931" lon="8.637810989521844">
      <ele>1267.2</ele></trkpt>
      <trkpt lat="46.97961649710954" lon="8.637792125342443">
      <ele>1268.6</ele></trkpt>
      <trkpt lat="46.97958098314174" lon="8.637784089619801">
      <ele>1270.0</ele></trkpt>
      <trkpt lat="46.97954625532435" lon="8.637780882386615">
      <ele>1271.5</ele></trkpt>
      <trkpt lat="46.979507202238345" lon="8.637714694849247">
      <ele>1272.9</ele></trkpt>
      <trkpt lat="46.97945790891296" lon="8.63775714217141">
      <ele>1274.3</ele></trkpt>
      <trkpt lat="46.97944608222836" lon="8.637622619384244">
      <ele>1275.8</ele></trkpt>
      <trkpt lat="46.97942770635531" lon="8.637479472202905">
      <ele>1277.2</ele></trkpt>
      <trkpt lat="46.97941701954346" lon="8.637393360159738">
      <ele>1278.6</ele></trkpt>
      <trkpt lat="46.97940751993152" lon="8.63735201875393">
      <ele>1280.0</ele></trkpt>
      <trkpt lat="46.97939289124645" lon="8.637326283771237">
      <ele>1281.5</ele></trkpt>
      <trkpt lat="46.97937645048435" lon="8.6373138237923">
      <ele>1282.9</ele></trkpt>
      <trkpt lat="46.97936719677365" lon="8.63732812882567">
      <ele>1284.3</ele></trkpt>
      <trkpt lat="46.97936031154356" lon="8.637353383558798">
      <ele>1285.7</ele></trkpt>
      <trkpt lat="46.979348727127906" lon="8.637353124969398">
      <ele>1287.2</ele></trkpt>
      <trkpt lat="46.97931285359332" lon="8.637300311239848">
      <ele>1288.6</ele></trkpt>
      <trkpt lat="46.97927021235091" lon="8.637260648791292">
      <ele>1290.0</ele></trkpt>
      <trkpt lat="46.979212673063586" lon="8.637221876326985">
      <ele>1291.4</ele></trkpt>
      <trkpt lat="46.97916752049924" lon="8.6371857858492">
      <ele>1292.9</ele></trkpt>
      <trkpt lat="46.97911134922137" lon="8.637173635380192">
      <ele>1294.3</ele></trkpt>
      <trkpt lat="46.97903932958321" lon="8.637173250431376">
      <ele>1295.7</ele></trkpt>
      <trkpt lat="46.978941760110125" lon="8.63716259464074">
      <ele>1296.6</ele></trkpt>
      <trkpt lat="46.97889368270616" lon="8.637168777358724">
      <ele>1297.5</ele></trkpt>
      <trkpt lat="46.97887690956733" lon="8.637188974047962">
      <ele>1298.4</ele></trkpt>
      <trkpt lat="46.97886721339924" lon="8.637245607313224">
      <ele>1299.3</ele></trkpt>
      <trkpt lat="46.9788640988156" lon="8.637306028474166">
      <ele>1300.2</ele></trkpt>
      <trkpt lat="46.97885469357168" lon="8.637334828296575">
      <ele>1301.1</ele></trkpt>
      <trkpt lat="46.97883543802847" lon="8.637354969507692">
      <ele>1302.0</ele></trkpt>
      <trkpt lat="46.97880133892767" lon="8.637369929071248">
      <ele>1302.9</ele></trkpt>
      <trkpt lat="46.97876322879322" lon="8.637372719368326">
      <ele>1303.8</ele></trkpt>
      <trkpt lat="46.97874655322865" lon="8.637384439983107">
      <ele>1304.8</ele></trkpt>
      <trkpt lat="46.97874655322865" lon="8.637384439983107">
      <ele>1305.7</ele></trkpt>
      <trkpt lat="46.97870902843306" lon="8.637330380681627">
      <ele>1306.6</ele></trkpt>
      <trkpt lat="46.97861576739209" lon="8.637224274402083">
      <ele>1307.5</ele></trkpt>
      <trkpt lat="46.978544733895056" lon="8.637129548080999">
      <ele>1308.4</ele></trkpt>
      <trkpt lat="46.978520368850724" lon="8.637084247805335">
      <ele>1309.3</ele></trkpt>
      <trkpt lat="46.97850278408328" lon="8.637024587524609">
      <ele>1310.2</ele></trkpt>
      <trkpt lat="46.978492659046225" lon="8.636963884465185">
      <ele>1311.1</ele></trkpt>
      <trkpt lat="46.97846614384198" lon="8.63688587266191">
      <ele>1312.0</ele></trkpt>
      <trkpt lat="46.978436901605214" lon="8.636754591858278">
      <ele>1312.9</ele></trkpt>
      <trkpt lat="46.978423735647034" lon="8.636667203831749">
      <ele>1313.8</ele></trkpt>
      <trkpt lat="46.97842217916698" lon="8.636577669415777">
      <ele>1314.6</ele></trkpt>
      <trkpt lat="46.978410064241444" lon="8.636469747188505">
      <ele>1315.4</ele></trkpt>
      <trkpt lat="46.97836796482027" lon="8.63630067929531">
      <ele>1316.2</ele></trkpt>
      <trkpt lat="46.9783566338497" lon="8.636195193279992">
      <ele>1317.1</ele></trkpt>
      <trkpt lat="46.978355821573984" lon="8.636115336656893">
      <ele>1317.9</ele></trkpt>
      <trkpt lat="46.97837158729767" lon="8.636032221851742">
      <ele>1318.7</ele></trkpt>
      <trkpt lat="46.97839998845255" lon="8.635928831004808">
      <ele>1319.5</ele></trkpt>
      <trkpt lat="46.97843317740004" lon="8.635842489819076">
      <ele>1320.3</ele></trkpt>
      <trkpt lat="46.97847595496981" lon="8.635789012802693">
      <ele>1321.1</ele></trkpt>
      <trkpt lat="46.97856360098813" lon="8.635719605967227">
      <ele>1321.9</ele></trkpt>
      <trkpt lat="46.97870644545232" lon="8.635596985228007">
      <ele>1322.8</ele></trkpt>
      <trkpt lat="46.97881684570652" lon="8.635489374622642">
      <ele>1323.6</ele></trkpt>
      <trkpt lat="46.978875458258585" lon="8.63542537940484">
      <ele>1324.4</ele></trkpt>
      <trkpt lat="46.978910889588036" lon="8.635362050456648">
      <ele>1325.2</ele></trkpt>
      <trkpt lat="46.978939764164856" lon="8.635292542016199">
      <ele>1326.0</ele></trkpt>
      <trkpt lat="46.9789419455309" lon="8.635242996629065">
      <ele>1326.8</ele></trkpt>
      <trkpt lat="46.97893347822825" lon="8.635181107934393">
      <ele>1327.7</ele></trkpt>
      <trkpt lat="46.978929358895954" lon="8.6350999806591">
      <ele>1328.5</ele></trkpt>
      <trkpt lat="46.97893346363358" lon="8.6350238737728">
      <ele>1329.3</ele></trkpt>
      <trkpt lat="46.97894392309087" lon="8.63497330351097">
      <ele>1330.1</ele></trkpt>
      <trkpt lat="46.9789766446078" lon="8.634931694184274">
      <ele>1331.0</ele></trkpt>
      <trkpt lat="46.97902794498179" lon="8.634855429236545">
      <ele>1331.9</ele></trkpt>
      <trkpt lat="46.97906775292386" lon="8.634769220681909">
      <ele>1332.8</ele></trkpt>
      <trkpt lat="46.97910257444299" lon="8.634684110234241">
      <ele>1333.7</ele></trkpt>
      <trkpt lat="46.979115928659866" lon="8.634594906850445">
      <ele>1334.5</ele></trkpt>
      <trkpt lat="46.97912501056119" lon="8.634517688069028">
      <ele>1335.4</ele></trkpt>
      <trkpt lat="46.97911989039202" lon="8.63445225908685">
      <ele>1336.3</ele></trkpt>
      <trkpt lat="46.97910441723634" lon="8.634428937972418">
      <ele>1337.2</ele></trkpt>
      <trkpt lat="46.97908622936657" lon="8.63442611438834">
      <ele>1338.1</ele></trkpt>
      <trkpt lat="46.979058645834364" lon="8.63445210458426">
      <ele>1339.0</ele></trkpt>
      <trkpt lat="46.979027806375626" lon="8.634471988939566">
      <ele>1339.9</ele></trkpt>
      <trkpt lat="46.97898048105823" lon="8.634485433415657">
      <ele>1340.8</ele></trkpt>
      <trkpt lat="46.978895150028464" lon="8.63449080208813">
      <ele>1341.7</ele></trkpt>
      <trkpt lat="46.978822517550306" lon="8.634469822939316">
      <ele>1342.6</ele></trkpt>
      <trkpt lat="46.97873640963356" lon="8.634470324039393">
      <ele>1343.5</ele></trkpt>
      <trkpt lat="46.97859822224517" lon="8.634464828299087">
      <ele>1344.3</ele></trkpt>
      <trkpt lat="46.978529651262505" lon="8.634451208563073">
      <ele>1345.2</ele></trkpt>
      <trkpt lat="46.9784479923766" lon="8.63442277295005">
      <ele>1346.1</ele></trkpt>
      <trkpt lat="46.97837965181414" lon="8.63438619533348">
      <ele>1347.0</ele></trkpt>
      <trkpt lat="46.97832629940829" lon="8.634342669595092">
      <ele>1347.9</ele></trkpt>
      <trkpt lat="46.978292827600725" lon="8.634298377307745">
      <ele>1349.1</ele></trkpt>
      <trkpt lat="46.97823924107624" lon="8.634228124211383">
      <ele>1350.2</ele></trkpt>
      <trkpt lat="46.97820331332519" lon="8.634173472290575">
      <ele>1351.4</ele></trkpt>
      <trkpt lat="46.97815404394194" lon="8.63412919657108">
      <ele>1352.6</ele></trkpt>
      <trkpt lat="46.97812750352016" lon="8.634080169200239">
      <ele>1353.8</ele></trkpt>
      <trkpt lat="46.97808548130514" lon="8.634065590042987">
      <ele>1355.0</ele></trkpt>
      <trkpt lat="46.978021419336784" lon="8.63405178214616">
      <ele>1356.1</ele></trkpt>
      <trkpt lat="46.977951621608526" lon="8.634044510714935">
      <ele>1357.3</ele></trkpt>
      <trkpt lat="46.97788672928542" lon="8.634050808140984">
      <ele>1358.5</ele></trkpt>
      <trkpt lat="46.97784663249925" lon="8.63403361680838">
      <ele>1359.7</ele></trkpt>
      <trkpt lat="46.977784067674264" lon="8.633997010931676">
      <ele>1360.8</ele></trkpt>
      <trkpt lat="46.9777380392135" lon="8.634005147856044">
      <ele>1362.0</ele></trkpt>
      <trkpt lat="46.9777116767356" lon="8.633997726096595">
      <ele>1363.2</ele></trkpt>
      <trkpt lat="46.97767282500609" lon="8.633981916418694">
      <ele>1364.4</ele></trkpt>
      <trkpt lat="46.977618071679395" lon="8.633980421656663">
      <ele>1365.5</ele></trkpt>
      <trkpt lat="46.97757944366163" lon="8.633943152667962">
      <ele>1366.7</ele></trkpt>
      <trkpt lat="46.97755211622448" lon="8.63396788624605">
      <ele>1367.9</ele></trkpt>
      <trkpt lat="46.97751945834163" lon="8.634020682088611">
      <ele>1369.1</ele></trkpt>
      <trkpt lat="46.97750584112603" lon="8.634059219768577">
      <ele>1370.2</ele></trkpt>
      <trkpt lat="46.97749194894126" lon="8.634062866898445">
      <ele>1371.4</ele></trkpt>
      <trkpt lat="46.97747516464796" lon="8.634043631517788">
      <ele>1372.8</ele></trkpt>
      <trkpt lat="46.977445128706734" lon="8.63399766843802">
      <ele>1374.2</ele></trkpt>
      <trkpt lat="46.9774261479982" lon="8.63396475380349">
      <ele>1375.6</ele></trkpt>
      <trkpt lat="46.97739256989652" lon="8.633959984330387">
      <ele>1377.0</ele></trkpt>
      <trkpt lat="46.977357574975265" lon="8.633972034006032">
      <ele>1378.4</ele></trkpt>
      <trkpt lat="46.97733352057449" lon="8.634011587944336">
      <ele>1379.7</ele></trkpt>
      <trkpt lat="46.97731634182676" lon="8.63405003307">
      <ele>1381.1</ele></trkpt>
      <trkpt lat="46.977296276442345" lon="8.634065070097925">
      <ele>1382.5</ele></trkpt>
      <trkpt lat="46.97727565358338" lon="8.634072313436258">
      <ele>1383.9</ele></trkpt>
      <trkpt lat="46.97726073746362" lon="8.63406803819109">
      <ele>1385.3</ele></trkpt>
      <trkpt lat="46.97726001448869" lon="8.634014854491236">
      <ele>1386.7</ele></trkpt>
      <trkpt lat="46.977254812255225" lon="8.633971941732929">
      <ele>1388.1</ele></trkpt>
      <trkpt lat="46.9772361955335" lon="8.633966243457914">
      <ele>1389.5</ele></trkpt>
      <trkpt lat="46.97721308144605" lon="8.633973418231363">
      <ele>1390.9</ele></trkpt>
      <trkpt lat="46.977198853456606" lon="8.63396267833533">
      <ele>1392.2</ele></trkpt>
      <trkpt lat="46.97719061147471" lon="8.633914492945253">
      <ele>1393.6</ele></trkpt>
      <trkpt lat="46.97717469302772" lon="8.63388555042317">
      <ele>1395.0</ele></trkpt>
      <trkpt lat="46.97715059004489" lon="8.633866770093404">
      <ele>1396.4</ele></trkpt>
      <trkpt lat="46.97712874413847" lon="8.63387138375555">
      <ele>1397.8</ele></trkpt>
      <trkpt lat="46.97710292721687" lon="8.633900514586845">
      <ele>1399.2</ele></trkpt>
      <trkpt lat="46.97707311186216" lon="8.633956790732647">
      <ele>1401.0</ele></trkpt>
      <trkpt lat="46.97706102840019" lon="8.633983690390886">
      <ele>1402.9</ele></trkpt>
      <trkpt lat="46.97705297437997" lon="8.633979607358576">
      <ele>1404.7</ele></trkpt>
      <trkpt lat="46.977049836803026" lon="8.633917274490175">
      <ele>1406.5</ele></trkpt>
      <trkpt lat="46.977028540457006" lon="8.633864855506957">
      <ele>1408.3</ele></trkpt>
      <trkpt lat="46.97701561674868" lon="8.63384895283645">
      <ele>1410.2</ele></trkpt>
      <trkpt lat="46.976973593878455" lon="8.633815446844617">
      <ele>1412.0</ele></trkpt>
      <trkpt lat="46.976931670214995" lon="8.633771559392663">
      <ele>1413.8</ele></trkpt>
      <trkpt lat="46.97688724173958" lon="8.633728904374527">
      <ele>1415.7</ele></trkpt>
      <trkpt lat="46.9768199512829" lon="8.633667510063093">
      <ele>1417.5</ele></trkpt>
      <trkpt lat="46.97677607584157" lon="8.633631347475">
      <ele>1419.3</ele></trkpt>
      <trkpt lat="46.97673316237106" lon="8.63362631796508">
      <ele>1421.2</ele></trkpt>
      <trkpt lat="46.97667274218708" lon="8.633627339415975">
      <ele>1423.0</ele></trkpt>
      <trkpt lat="46.97656612997644" lon="8.633640108848136">
      <ele>1424.8</ele></trkpt>
      <trkpt lat="46.97647528887815" lon="8.63363122638443">
      <ele>1426.7</ele></trkpt>
      <trkpt lat="46.97644860897202" lon="8.63362145831817">
      <ele>1428.5</ele></trkpt>
      <trkpt lat="46.97644266894773" lon="8.63359148964984">
      <ele>1430.3</ele></trkpt>
      <trkpt lat="46.97642753772484" lon="8.633545701615677">
      <ele>1432.1</ele></trkpt>
      <trkpt lat="46.97638581206218" lon="8.63348107828702">
      <ele>1434.0</ele></trkpt>
      <trkpt lat="46.976316620075394" lon="8.633358694763961">
      <ele>1435.8</ele></trkpt>
      <trkpt lat="46.97624309318985" lon="8.633233586376956">
      <ele>1440.2</ele></trkpt>
      <trkpt lat="46.97616872028801" lon="8.633131815983159">
      <ele>1444.6</ele></trkpt>
      <trkpt lat="46.97612719255662" lon="8.633046443711944">
      <ele>1449.0</ele></trkpt>
      <trkpt lat="46.9760851964122" lon="8.633010350185222">
      <ele>1453.4</ele></trkpt>
      <trkpt lat="46.97603802902056" lon="8.63299224062579">
      <ele>1457.8</ele></trkpt>
      <trkpt lat="46.97600790010175" lon="8.632952573148977">
      <ele>1462.3</ele></trkpt>
      <trkpt lat="46.97598755648803" lon="8.632931287939925">
      <ele>1466.7</ele></trkpt>
      <trkpt lat="46.97596072358643" lon="8.63293706591828">
      <ele>1471.1</ele></trkpt>
      <trkpt lat="46.975941504048485" lon="8.632928778568521">
      <ele>1475.5</ele></trkpt>
      <trkpt lat="46.97592033270004" lon="8.632928228890504">
      <ele>1479.9</ele></trkpt>
      <trkpt lat="46.97590894491758" lon="8.63297213846905">
      <ele>1484.3</ele></trkpt>
      <trkpt lat="46.97591496100273" lon="8.633028501006793">
      <ele>1488.7</ele></trkpt>
      <trkpt lat="46.97594936726633" lon="8.633103173278379">
      <ele>1493.1</ele></trkpt>
      <trkpt lat="46.975974080922526" lon="8.633158335081779">
      <ele>1497.5</ele></trkpt>
      <trkpt lat="46.975977792725274" lon="8.633224307085705">
      <ele>1502.0</ele></trkpt>
      <trkpt lat="46.97595375989617" lon="8.633315344725867">
      <ele>1506.4</ele></trkpt>
      <trkpt lat="46.975886441379416" lon="8.633443969751976">
      <ele>1510.8</ele></trkpt>
      <trkpt lat="46.97577781371277" lon="8.633631137268662">
      <ele>1515.2</ele></trkpt>
      <trkpt lat="46.97558017840911" lon="8.633919158868055">
      <ele>1519.6</ele></trkpt>
      <trkpt lat="46.975362034471964" lon="8.634169748947304">
      <ele>1524.0</ele></trkpt>
      <trkpt lat="46.97524898265223" lon="8.634315202244878">
      <ele>1527.2</ele></trkpt>
      <trkpt lat="46.97520711346627" lon="8.634368763146817">
      <ele>1530.3</ele></trkpt>
      <trkpt lat="46.975174303098385" lon="8.634411143378607">
      <ele>1533.5</ele></trkpt>
      <trkpt lat="46.9751434192559" lon="8.634450806317759">
      <ele>1536.7</ele></trkpt>
      <trkpt lat="46.97511253000255" lon="8.634491849159367">
      <ele>1539.9</ele></trkpt>
      <trkpt lat="46.97507489458843" lon="8.634539694641472">
      <ele>1543.0</ele></trkpt>
      <trkpt lat="46.975040148343915" lon="8.634584817975881">
      <ele>1546.2</ele></trkpt>
      <trkpt lat="46.97500443403743" lon="8.634631326046245">
      <ele>1549.4</ele></trkpt>
      <trkpt lat="46.974969658695585" lon="8.634679235030989">
      <ele>1552.6</ele></trkpt>
      <trkpt lat="46.97493394448742" lon="8.634725729837065">
      <ele>1555.8</ele></trkpt>
      <trkpt lat="46.97490208722591" lon="8.634768144009179">
      <ele>1558.9</ele></trkpt>
      <trkpt lat="46.97486164401707" lon="8.634811760101957">
      <ele>1562.1</ele></trkpt>
      <trkpt lat="46.97482216870093" lon="8.634854004483763">
      <ele>1565.3</ele></trkpt>
      <trkpt lat="46.974786554150434" lon="8.63489007852892">
      <ele>1568.5</ele></trkpt>
      <trkpt lat="46.97473000486142" lon="8.634927066261987">
      <ele>1571.6</ele></trkpt>
      <trkpt lat="46.974695490592445" lon="8.634949942440683">
      <ele>1574.8</ele></trkpt>
      <trkpt lat="46.974670550099816" lon="8.634967472196685">
      <ele>1578.0</ele></trkpt>
      <trkpt lat="46.97464748742733" lon="8.634987817023212">
      <ele>1581.2</ele></trkpt>
      <trkpt lat="46.97462925517713" lon="8.635001316584402">
      <ele>1584.3</ele></trkpt>
      <trkpt lat="46.974615853214544" lon="8.63500798403126">
      <ele>1587.5</ele></trkpt>
      <trkpt lat="46.97459967278672" lon="8.635007623587127">
      <ele>1590.5</ele></trkpt>
      <trkpt lat="46.9745796878447" lon="8.635007178391835">
      <ele>1593.5</ele></trkpt>
      <trkpt lat="46.97455487801656" lon="8.635012185361386">
      <ele>1596.5</ele></trkpt>
      <trkpt lat="46.97452320932596" lon="8.63503651799859">
      <ele>1599.6</ele></trkpt>
      <trkpt lat="46.97449154617096" lon="8.635059457534847">
      <ele>1602.6</ele></trkpt>
      <trkpt lat="46.97445758449226" lon="8.635081964680758">
      <ele>1605.6</ele></trkpt>
      <trkpt lat="46.974409897950075" lon="8.635155871917032">
      <ele>1608.6</ele></trkpt>
      <trkpt lat="46.97438694610892" lon="8.635247482173897">
      <ele>1611.6</ele></trkpt>
      <trkpt lat="46.97438291856034" lon="8.63538339961704">
      <ele>1614.6</ele></trkpt>
      <trkpt lat="46.97438286135948" lon="8.635479370941423">
      <ele>1617.7</ele></trkpt>
      <trkpt lat="46.97437844710478" lon="8.635537694668708">
      <ele>1620.7</ele></trkpt>
      <trkpt lat="46.97437406176633" lon="8.635593245789185">
      <ele>1623.7</ele></trkpt>
      <trkpt lat="46.974367914930944" lon="8.63563483885657">
      <ele>1626.7</ele></trkpt>
      <trkpt lat="46.97435801274253" lon="8.635670775442238">
      <ele>1629.7</ele></trkpt>
      <trkpt lat="46.974347136936956" lon="8.635709489841211">
      <ele>1632.7</ele></trkpt>
      <trkpt lat="46.97433147427781" lon="8.635750870764962">
      <ele>1635.7</ele></trkpt>
      <trkpt lat="46.97432355138888" lon="8.635779898611514">
      <ele>1638.8</ele></trkpt>
      <trkpt lat="46.97431345897105" lon="8.635868509306016">
      <ele>1641.8</ele></trkpt>
      <trkpt lat="46.97432272123733" lon="8.635892137175599">
      <ele>1644.8</ele></trkpt>
      <trkpt lat="46.974336945048464" lon="8.635890338191244">
      <ele>1647.8</ele></trkpt>
      <trkpt lat="46.97434851960773" lon="8.63587431164411">
      <ele>1649.1</ele></trkpt>
      <trkpt lat="46.974365313495575" lon="8.635894322154606">
      <ele>1650.4</ele></trkpt>
      <trkpt lat="46.97438015131445" lon="8.635912120420711">
      <ele>1651.7</ele></trkpt>
      <trkpt lat="46.97437116046439" lon="8.635947788129528">
      <ele>1653.1</ele></trkpt>
      <trkpt lat="46.97434636928622" lon="8.635986323678447">
      <ele>1654.4</ele></trkpt>
      <trkpt lat="46.97431831763058" lon="8.636037285792217">
      <ele>1655.7</ele></trkpt>
      <trkpt lat="46.974259208815425" lon="8.636121189095789">
      <ele>1657.0</ele></trkpt>
      <trkpt lat="46.97422972082759" lon="8.636195106653085">
      <ele>1658.3</ele></trkpt>
      <trkpt lat="46.97422649751954" lon="8.636229811934669">
      <ele>1659.6</ele></trkpt>
      <trkpt lat="46.974225102787756" lon="8.636272903980917">
      <ele>1660.9</ele></trkpt>
      <trkpt lat="46.97422662293356" lon="8.636309095083208">
      <ele>1662.3</ele></trkpt>
      <trkpt lat="46.97422913440299" lon="8.636342535060344">
      <ele>1663.6</ele></trkpt>
      <trkpt lat="46.974228858349726" lon="8.636368960070637">
      <ele>1664.9</ele></trkpt>
      <trkpt lat="46.974222856471926" lon="8.636396650571214">
      <ele>1666.2</ele></trkpt>
      <trkpt lat="46.974219647654564" lon="8.63642996297174">
      <ele>1667.5</ele></trkpt>
      <trkpt lat="46.974213631347254" lon="8.636459033184845">
      <ele>1668.8</ele></trkpt>
      <trkpt lat="46.97420842302185" lon="8.636502040157524">
      <ele>1670.2</ele></trkpt>
      <trkpt lat="46.97420139510756" lon="8.63653666054778">
      <ele>1671.5</ele></trkpt>
      <trkpt lat="46.97419244031638" lon="8.636574024326015">
      <ele>1672.8</ele></trkpt>
      <trkpt lat="46.97418236346001" lon="8.636626648702908">
      <ele>1674.1</ele></trkpt>
      <trkpt lat="46.97417633241105" lon="8.636657124877395">
      <ele>1675.8</ele></trkpt>
      <trkpt lat="46.974161739087954" lon="8.63668739689755">
      <ele>1677.5</ele></trkpt>
      <trkpt lat="46.974148148222916" lon="8.63671213165862">
      <ele>1679.2</ele></trkpt>
      <trkpt lat="46.97413252873074" lon="8.6367493466903">
      <ele>1680.8</ele></trkpt>
      <trkpt lat="46.974116822164625" lon="8.636794892590563">
      <ele>1682.5</ele></trkpt>
      <trkpt lat="46.974103923046584" lon="8.636844680658621">
      <ele>1684.2</ele></trkpt>
      <trkpt lat="46.97408914626786" lon="8.636891640438243">
      <ele>1685.9</ele></trkpt>
      <trkpt lat="46.97407345406558" lon="8.636935806539643">
      <ele>1687.6</ele></trkpt>
      <trkpt lat="46.97404807720391" lon="8.636995055267164">
      <ele>1689.3</ele></trkpt>
      <trkpt lat="46.97403037656866" lon="8.637048902492786">
      <ele>1690.9</ele></trkpt>
      <trkpt lat="46.974014611644" lon="8.637100019654909">
      <ele>1692.6</ele></trkpt>
      <trkpt lat="46.97400369181137" lon="8.63714289895298">
      <ele>1694.3</ele></trkpt>
      <trkpt lat="46.97399189125272" lon="8.637178805805302">
      <ele>1696.0</ele></trkpt>
      <trkpt lat="46.97398580208667" lon="8.637214826962365">
      <ele>1697.7</ele></trkpt>
      <trkpt lat="46.97397796592101" lon="8.637235523538298">
      <ele>1699.4</ele></trkpt>
      <trkpt lat="46.97397486764931" lon="8.637259099072088">
      <ele>1701.1</ele></trkpt>
      <trkpt lat="46.97397271375534" lon="8.637282695680524">
      <ele>1702.7</ele></trkpt>
      <trkpt lat="46.973976227435855" lon="8.637310598331492">
      <ele>1704.4</ele></trkpt>
      <trkpt lat="46.97398371466822" lon="8.637323277802844">
      <ele>1706.1</ele></trkpt>
      <trkpt lat="46.973984493567905" lon="8.637339987099617">
      <ele>1707.8</ele></trkpt>
      <trkpt lat="46.973977697996744" lon="8.637352360928363">
      <ele>1709.5</ele></trkpt>
      <trkpt lat="46.973956512525206" lon="8.637375532742208">
      <ele>1711.3</ele></trkpt>
      <trkpt lat="46.973940061380944" lon="8.63740020339397">
      <ele>1713.0</ele></trkpt>
      <trkpt lat="46.973921750593625" lon="8.63742204615787">
      <ele>1714.8</ele></trkpt>
      <trkpt lat="46.97390354704472" lon="8.637432772137974">
      <ele>1716.5</ele></trkpt>
      <trkpt lat="46.97388264329285" lon="8.63742813913755">
      <ele>1718.2</ele></trkpt>
      <trkpt lat="46.97386653568936" lon="8.63742081369324">
      <ele>1720.0</ele></trkpt>
      <trkpt lat="46.97384943088022" lon="8.637417658677087">
      <ele>1721.7</ele></trkpt>
      <trkpt lat="46.973824644501356" lon="8.637421271811169">
      <ele>1723.5</ele></trkpt>
      <trkpt lat="46.9738064555161" lon="8.637430604918528">
      <ele>1725.2</ele></trkpt>
      <trkpt lat="46.973783465085745" lon="8.637443997234861">
      <ele>1726.9</ele></trkpt>
      <trkpt lat="46.97376520341501" lon="8.63746028144957">
      <ele>1728.7</ele></trkpt>
      <trkpt lat="46.97370603254306" lon="8.637550016527856">
      <ele>1730.4</ele></trkpt>
      <trkpt lat="46.973623326238936" lon="8.637747394105396">
      <ele>1732.2</ele></trkpt>
      <trkpt lat="46.9735223777467" lon="8.638006451848854">
      <ele>1733.9</ele></trkpt>
      <trkpt lat="46.97343276608805" lon="8.638162982777084">
      <ele>1735.6</ele></trkpt>
      <trkpt lat="46.97336404665076" lon="8.638285676411536">
      <ele>1737.4</ele></trkpt>
      <trkpt lat="46.97333029222637" lon="8.638428444874322">
      <ele>1739.1</ele></trkpt>
      <trkpt lat="46.973303697490515" lon="8.638588511695563">
      <ele>1740.9</ele></trkpt>
      <trkpt lat="46.97330018261731" lon="8.638783358093823">
      <ele>1742.6</ele></trkpt>
      <trkpt lat="46.97331621604223" lon="8.63888111973585">
      <ele>1743.2</ele></trkpt>
      <trkpt lat="46.97332418155104" lon="8.63893832557664">
      <ele>1743.9</ele></trkpt>
      <trkpt lat="46.973332301578154" lon="8.638981629507157">
      <ele>1744.5</ele></trkpt>
      <trkpt lat="46.97334328730763" lon="8.639023604335065">
      <ele>1745.2</ele></trkpt>
      <trkpt lat="46.973356054385484" lon="8.63907673804956">
      <ele>1745.8</ele></trkpt>
      <trkpt lat="46.973374381404824" lon="8.639145307774204">
      <ele>1746.5</ele></trkpt>
      <trkpt lat="46.97339088900529" lon="8.639205491007566">
      <ele>1747.1</ele></trkpt>
      <trkpt lat="46.97340654516275" lon="8.639255916206125">
      <ele>1747.8</ele></trkpt>
      <trkpt lat="46.973424151673186" lon="8.639302218672345">
      <ele>1748.4</ele></trkpt>
      <trkpt lat="46.97344269709175" lon="8.639349922187169">
      <ele>1749.1</ele></trkpt>
      <trkpt lat="46.9734584259866" lon="8.63939339639656">
      <ele>1749.8</ele></trkpt>
      <trkpt lat="46.97347970593315" lon="8.639452293337222">
      <ele>1750.4</ele></trkpt>
      <trkpt lat="46.973506580675426" lon="8.639522434510148">
      <ele>1751.0</ele></trkpt>
      <trkpt lat="46.973537152158684" lon="8.639603803797023">
      <ele>1751.7</ele></trkpt>
      <trkpt lat="46.97356486359255" lon="8.639685096074693">
      <ele>1752.3</ele></trkpt>
      <trkpt lat="46.973587067581214" lon="8.639746800263993">
      <ele>1753.0</ele></trkpt>
      <trkpt lat="46.973599907148724" lon="8.639792983294203">
      <ele>1753.6</ele></trkpt>
      <trkpt lat="46.97360909669774" lon="8.639825192397696">
      <ele>1754.3</ele></trkpt>
      <trkpt lat="46.97361164192761" lon="8.639854453410655">
      <ele>1754.9</ele></trkpt>
      <trkpt lat="46.97361025143281" lon="8.639896151821084">
      <ele>1755.6</ele></trkpt>
      <trkpt lat="46.9736059805993" lon="8.63994057215051">
      <ele>1756.2</ele></trkpt>
      <trkpt lat="46.97359978853872" lon="8.63998632952842">
      <ele>1756.8</ele></trkpt>
      <trkpt lat="46.97359932218137" lon="8.640030834947957">
      <ele>1757.4</ele></trkpt>
      <trkpt lat="46.973602762351675" lon="8.640065688682846">
      <ele>1758.0</ele></trkpt>
      <trkpt lat="46.97360824049234" lon="8.64008806258907">
      <ele>1758.6</ele></trkpt>
      <trkpt lat="46.97361374768374" lon="8.64010766394427">
      <ele>1759.2</ele></trkpt>
      <trkpt lat="46.973632482250224" lon="8.640137287158035">
      <ele>1759.8</ele></trkpt>
      <trkpt lat="46.973642543236444" lon="8.640176468570907">
      <ele>1760.4</ele></trkpt>
      <trkpt lat="46.97365077943909" lon="8.640208643295676">
      <ele>1761.0</ele></trkpt>
      <trkpt lat="46.973655289577614" lon="8.640232388755038">
      <ele>1761.5</ele></trkpt>
      <trkpt lat="46.973667534374506" lon="8.640245175010072">
      <ele>1762.1</ele></trkpt>
      <trkpt lat="46.97368367099435" lon="8.640249715575544">
      <ele>1762.7</ele></trkpt>
      <trkpt lat="46.97369980775172" lon="8.640254243003664">
      <ele>1763.3</ele></trkpt>
      <trkpt lat="46.97371208160492" lon="8.640264256713696">
      <ele>1763.9</ele></trkpt>
      <trkpt lat="46.97371664998831" lon="8.640282443943093">
      <ele>1764.5</ele></trkpt>
      <trkpt lat="46.9737250901309" lon="8.64029515823947">
      <ele>1765.1</ele></trkpt>
      <trkpt lat="46.97373456224673" lon="8.64029953656476">
      <ele>1765.7</ele></trkpt>
      <trkpt lat="46.97374501679844" lon="8.640301163661066">
      <ele>1766.3</ele></trkpt>
      <trkpt lat="46.97375840433465" lon="8.640295903635355">
      <ele>1766.9</ele></trkpt>
      <trkpt lat="46.973772750989056" lon="8.640289258745174">
      <ele>1767.5</ele></trkpt>
      <trkpt lat="46.97378411512115" lon="8.640295085728717">
      <ele>1768.9</ele></trkpt>
      <trkpt lat="46.97378778291406" lon="8.640309073297635">
      <ele>1770.2</ele></trkpt>
      <trkpt lat="46.973791295858035" lon="8.640336976050982">
      <ele>1771.6</ele></trkpt>
      <trkpt lat="46.97380705322936" lon="8.640364824209836">
      <ele>1773.0</ele></trkpt>
      <trkpt lat="46.973835588401286" lon="8.640440431581615">
      <ele>1774.4</ele></trkpt>
      <trkpt lat="46.97386693420724" lon="8.640526826799263">
      <ele>1775.8</ele></trkpt>
      <trkpt lat="46.973891205876924" lon="8.640589484851844">
      <ele>1777.1</ele></trkpt>
      <trkpt lat="46.97389057713848" lon="8.640649456453131">
      <ele>1778.5</ele></trkpt>
      <trkpt lat="46.97387640396127" lon="8.640743376127922">
      <ele>1779.9</ele></trkpt>
      <trkpt lat="46.97385795820657" lon="8.640824359191667">
      <ele>1781.2</ele></trkpt>
      <trkpt lat="46.9738293848712" lon="8.640892261425137">
      <ele>1782.6</ele></trkpt>
      <trkpt lat="46.973776318521374" lon="8.640993261842608">
      <ele>1784.0</ele></trkpt>
      <trkpt lat="46.973776318521374" lon="8.640993261842608">
      <ele>1785.4</ele></trkpt>
      <trkpt lat="46.97355140744324" lon="8.640769866465796">
      <ele>1786.8</ele></trkpt>
      <trkpt lat="46.97332649592085" lon="8.640546472960352">
      <ele>1788.1</ele></trkpt>
      <trkpt lat="46.973206978771614" lon="8.64045315060845">
      <ele>1789.5</ele></trkpt>
      <trkpt lat="46.97313213407105" lon="8.64042359939578">
      <ele>1790.9</ele></trkpt>
      <trkpt lat="46.97308674890522" lon="8.640427814743855">
      <ele>1792.2</ele></trkpt>
      <trkpt lat="46.97303738209574" lon="8.640472014038238">
      <ele>1793.6</ele></trkpt>
      <trkpt lat="46.97297187901908" lon="8.640575140212285">
      <ele>1795.0</ele></trkpt>
      <trkpt lat="46.97291863045882" lon="8.640685821625507">
      <ele>1797.0</ele></trkpt>
      <trkpt lat="46.972891713807805" lon="8.640183761981483">
      <ele>1799.0</ele></trkpt>
      <trkpt lat="46.972868572475086" lon="8.64011709567819">
      <ele>1801.0</ele></trkpt>
      <trkpt lat="46.97281801698393" lon="8.640051537912361">
      <ele>1803.0</ele></trkpt>
      <trkpt lat="46.972698788356226" lon="8.639942662779326">
      <ele>1805.0</ele></trkpt>
      <trkpt lat="46.97262663571809" lon="8.639890566965324">
      <ele>1807.1</ele></trkpt>
      <trkpt lat="46.97245300883345" lon="8.639855337769937">
      <ele>1809.1</ele></trkpt>
      <trkpt lat="46.97231401961648" lon="8.639812169783461">
      <ele>1811.1</ele></trkpt>
      <trkpt lat="46.97224402247702" lon="8.639781019806215">
      <ele>1813.1</ele></trkpt>
      <trkpt lat="46.97219792366411" lon="8.63974516039075">
      <ele>1815.1</ele></trkpt>
      <trkpt lat="46.97216986941549" lon="8.63969230350334">
      <ele>1817.1</ele></trkpt>
      <trkpt lat="46.9721586999229" lon="8.639620662048026">
      <ele>1819.1</ele></trkpt>
      <trkpt lat="46.97215968460367" lon="8.63952666049636">
      <ele>1821.1</ele></trkpt>
      <trkpt lat="46.972177189111946" lon="8.63944870765509">
      <ele>1823.1</ele></trkpt>
      <trkpt lat="46.97228296586744" lon="8.639198822376748">
      <ele>1825.2</ele></trkpt>
      <trkpt lat="46.97229104060857" lon="8.639130463028025">
      <ele>1827.2</ele></trkpt>
      <trkpt lat="46.97228786224426" lon="8.639026760791543">
      <ele>1829.2</ele></trkpt>
      <trkpt lat="46.972269685788476" lon="8.638849281293258">
      <ele>1831.2</ele></trkpt>
      <trkpt lat="46.97227036935878" lon="8.638517545459655">
      <ele>1833.2</ele></trkpt>
      <trkpt lat="46.972255455282415" lon="8.638461513003026">
      <ele>1835.2</ele></trkpt>
      <trkpt lat="46.97221806685744" lon="8.638391034006732">
      <ele>1838.2</ele></trkpt>
      <trkpt lat="46.97217079883498" lon="8.638351666853213">
      <ele>1841.2</ele></trkpt>
      <trkpt lat="46.97212613786166" lon="8.638341705843565">
      <ele>1844.3</ele></trkpt>
      <trkpt lat="46.97189409412532" lon="8.638408294994868">
      <ele>1847.3</ele></trkpt>
      <trkpt lat="46.97184756751508" lon="8.63839436264092">
      <ele>1850.3</ele></trkpt>
      <trkpt lat="46.97180334901423" lon="8.638367050024032">
      <ele>1853.4</ele></trkpt>
      <trkpt lat="46.97149139442109" lon="8.638037035779908">
      <ele>1856.4</ele></trkpt>
      <trkpt lat="46.97125963448317" lon="8.637862386730779">
      <ele>1859.4</ele></trkpt>
      <trkpt lat="46.97115120362536" lon="8.63774621691875">
      <ele>1862.4</ele></trkpt>
      <trkpt lat="46.9709803833854" lon="8.637616327134033">
      <ele>1865.5</ele></trkpt>
      <trkpt lat="46.97078677489094" lon="8.637547580777568">
      <ele>1868.5</ele></trkpt>
      <trkpt lat="46.97061614152732" lon="8.637447976803132">
      <ele>1871.5</ele></trkpt>
      <trkpt lat="46.97057808839751" lon="8.637438427171231">
      <ele>1874.5</ele></trkpt>
      <trkpt lat="46.970517124046125" lon="8.637454480102216">
      <ele>1877.5</ele></trkpt>
      <trkpt lat="46.97037204750015" lon="8.637533092514452">
      <ele>1880.6</ele></trkpt>
      <trkpt lat="46.97034343718625" lon="8.637532453878798">
      <ele>1883.6</ele></trkpt>
      <trkpt lat="46.97031976654056" lon="8.637516259835454">
      <ele>1886.6</ele></trkpt>
      <trkpt lat="46.97030117248174" lon="8.637470556295291">
      <ele>1889.7</ele></trkpt>
      <trkpt lat="46.97027522029101" lon="8.637215699225255">
      <ele>1892.7</ele></trkpt>
      <trkpt lat="46.970254442945446" lon="8.637150785600694">
      <ele>1895.7</ele></trkpt>
      <trkpt lat="46.970231063447585" lon="8.63710673653511">
      <ele>1896.6</ele></trkpt>
      <trkpt lat="46.970203749554315" lon="8.637095678918632">
      <ele>1897.4</ele></trkpt>
      <trkpt lat="46.9701629770014" lon="8.637109606793091">
      <ele>1898.3</ele></trkpt>
      <trkpt lat="46.970118239855914" lon="8.637152530069855">
      <ele>1899.2</ele></trkpt>
      <trkpt lat="46.97007790393181" lon="8.637223649688089">
      <ele>1900.0</ele></trkpt>
      <trkpt lat="46.9700465125517" lon="8.637302289065186">
      <ele>1900.9</ele></trkpt>
      <trkpt lat="46.970013396715636" lon="8.637343657824296">
      <ele>1901.8</ele></trkpt>
      <trkpt lat="46.969970549645346" lon="8.637370142584652">
      <ele>1902.6</ele></trkpt>
      <trkpt lat="46.96990547882797" lon="8.637385735776213">
      <ele>1903.5</ele></trkpt>
      <trkpt lat="46.96977798597574" lon="8.637371811395363">
      <ele>1904.3</ele></trkpt>
      <trkpt lat="46.96967009721746" lon="8.637372386745723">
      <ele>1905.2</ele></trkpt>
      <trkpt lat="46.96964024705946" lon="8.637350942754365">
      <ele>1906.1</ele></trkpt>
      <trkpt lat="46.96955916921925" lon="8.637143944789775">
      <ele>1906.9</ele></trkpt>
      <trkpt lat="46.96953638076776" lon="8.637106178290617">
      <ele>1907.8</ele></trkpt>
      <trkpt lat="46.96949821507683" lon="8.637072970731342">
      <ele>1908.7</ele></trkpt>
      <trkpt lat="46.969407172461786" lon="8.637047230926665">
      <ele>1909.5</ele></trkpt>
      <trkpt lat="46.96935396512271" lon="8.637045859752995">
      <ele>1910.4</ele></trkpt>
      <trkpt lat="46.969002153091274" lon="8.637352721940303">
      <ele>1911.3</ele></trkpt>
      <trkpt lat="46.96893721786018" lon="8.637381157633609">
      <ele>1912.1</ele></trkpt>
      <trkpt lat="46.968692941910945" lon="8.637414842499204">
      <ele>1913.0</ele></trkpt>
      <trkpt lat="46.96844710960727" lon="8.637415834742397">
      <ele>1916.3</ele></trkpt>
      <trkpt lat="46.96808711623109" lon="8.637357361927759">
      <ele>1919.7</ele></trkpt>
    </trkseg>
  </trk>
</gpx>