<?xml version='1.0' encoding='utf-8'?>
<gpx xmlns="http://www.topografix.com/GPX/1/1" xmlns:xsi="http://www.w3.org/2001/XMLSchema-instance" xsi:schemaLocation="http://www.topografix.com/GPX/1/1 http://www.topografix.com/GPX/1/1/gpx.xsd" version="1.1" creator="gpx.py -- https://github.com/tkrajina/gpxpy">
  <trk>
    <name>pilatus-esel</name>
    <trkseg>
      <trkpt lat="46.970133692189954" lon="8.271345120948173">
      <ele>1358.6</ele></trkpt>
      <trkpt lat="46.97018393920408" lon="8.271308354606719">
      <ele>1359.4</ele></trkpt>
      <trkpt lat="46.9702308219014" lon="8.27129015755947">
      <ele>1360.3</ele></trkpt>
      <trkpt lat="46.97025386557041" lon="8.27129556108553">
      <ele>1361.1</ele></trkpt>
      <trkpt lat="46.970276877585285" lon="8.271321425463649">
      <ele>1361.9</ele></trkpt>
      <trkpt lat="46.97030602479124" lon="8.271341077038345">
      <ele>1362.8</ele></trkpt>
      <trkpt lat="46.97032436248175" lon="8.271349127940056">
      <ele>1363.6</ele></trkpt>
      <trkpt lat="46.97045019444416" lon="8.271332969468814">
      <ele>1364.4</ele></trkpt>
      <trkpt lat="46.97048007004592" lon="8.271324167776283">
      <ele>1365.2</ele></trkpt>
      <trkpt lat="46.97049288503058" lon="8.271308596542179">
      <ele>1366.1</ele></trkpt>
      <trkpt lat="46.970519812367606" lon="8.271269746915825">
      <ele>1366.9</ele></trkpt>
      <trkpt lat="46.97054163764541" lon="8.271213760402217">
      <ele>1367.7</ele></trkpt>
      <trkpt lat="46.9705508911954" lon="8.27112002036717">
      <ele>1368.6</ele></trkpt>
      <trkpt lat="46.970538355899855" lon="8.271076012082142">
      <ele>1369.4</ele></trkpt>
      <trkpt lat="46.97048740567546" lon="8.271012642396826">
      <ele>1370.2</ele></trkpt>
      <trkpt lat="46.97044221252877" lon="8.27094309351178">
      <ele>1371.0</ele></trkpt>
      <trkpt lat="46.970453968935296" lon="8.270897372206782">
      <ele>1371.9</ele></trkpt>
      <trkpt lat="46.970470519186165" lon="8.270883987682218">
      <ele>1372.7</ele></trkpt>
      <trkpt lat="46.97052606957409" lon="8.270872547807176">
      <ele>1373.5</ele></trkpt>
      <trkpt lat="46.97055483504978" lon="8.270830782702745">
      <ele>1374.4</ele></trkpt>
      <trkpt lat="46.97055758056203" lon="8.270788391067022">
      <ele>1375.2</ele></trkpt>
      <trkpt lat="46.97053987841701" lon="8.270669211844444">
      <ele>1375.6</ele></trkpt>
      <trkpt lat="46.970533426834" lon="8.270575228497254">
      <ele>1375.9</ele></trkpt>
      <trkpt lat="46.97051605745266" lon="8.270410151045958">
      <ele>1376.3</ele></trkpt>
      <trkpt lat="46.97050759265208" lon="8.270199308057041">
      <ele>1376.6</ele></trkpt>
      <trkpt lat="46.97050123755734" lon="8.270090726041305">
      <ele>1377.0</ele></trkpt>
      <trkpt lat="46.97051222899951" lon="8.269953198801083">
      <ele>1377.4</ele></trkpt>
      <trkpt lat="46.97050157706332" lon="8.269846639830382">
      <ele>1377.7</ele></trkpt>
      <trkpt lat="46.970495266973195" lon="8.269731803185126">
      <ele>1378.1</ele></trkpt>
      <trkpt lat="46.970507612521374" lon="8.269604731245044">
      <ele>1378.4</ele></trkpt>
      <trkpt lat="46.97052669147374" lon="8.26953410131312">
      <ele>1378.8</ele></trkpt>
      <trkpt lat="46.97059719014399" lon="8.269462163960904">
      <ele>1379.2</ele></trkpt>
      <trkpt lat="46.97067445868427" lon="8.269440413786976">
      <ele>1379.5</ele></trkpt>
      <trkpt lat="46.97071047596061" lon="8.269397156682643">
      <ele>1379.9</ele></trkpt>
      <trkpt lat="46.9708477567102" lon="8.26917396617912">
      <ele>1380.2</ele></trkpt>
      <trkpt lat="46.970897352398154" lon="8.269030792361043">
      <ele>1380.6</ele></trkpt>
      <trkpt lat="46.97093534964115" lon="8.268910371233464">
      <ele>1381.0</ele></trkpt>
      <trkpt lat="46.97096616860326" lon="8.268796107584544">
      <ele>1381.3</ele></trkpt>
      <trkpt lat="46.97096133298975" lon="8.268675024289776">
      <ele>1381.7</ele></trkpt>
      <trkpt lat="46.97097574160426" lon="8.268460367313029">
      <ele>1382.0</ele></trkpt>
      <trkpt lat="46.97097655677356" lon="8.268347729421382">
      <ele>1382.4</ele></trkpt>
      <trkpt lat="46.97101006047752" lon="8.268256452220998">
      <ele>1382.8</ele></trkpt>
      <trkpt lat="46.97105771188174" lon="8.268184159730536">
      <ele>1383.2</ele></trkpt>
      <trkpt lat="46.97112096222" lon="8.26812672157055">
      <ele>1383.5</ele></trkpt>
      <trkpt lat="46.971151674796495" lon="8.26802705590061">
      <ele>1383.9</ele></trkpt>
      <trkpt lat="46.97119368081601" lon="8.267944254467489">
      <ele>1384.3</ele></trkpt>
      <trkpt lat="46.97119263678125" lon="8.267892091955224">
      <ele>1384.7</ele></trkpt>
      <trkpt lat="46.97125564558681" lon="8.267868029619924">
      <ele>1385.0</ele></trkpt>
      <trkpt lat="46.97131090913285" lon="8.267927297852175">
      <ele>1385.4</ele></trkpt>
      <trkpt lat="46.9713578210134" lon="8.26795722310249">
      <ele>1385.8</ele></trkpt>
      <trkpt lat="46.97140295560466" lon="8.268035114760423">
      <ele>1386.2</ele></trkpt>
      <trkpt lat="46.9714638703129" lon="8.268102815631918">
      <ele>1386.5</ele></trkpt>
      <trkpt lat="46.971534808288624" lon="8.268166492346232">
      <ele>1386.9</ele></trkpt>
      <trkpt lat="46.971580320090766" lon="8.268192230350058">
      <ele>1387.3</ele></trkpt>
      <trkpt lat="46.971633049047114" lon="8.268207658376845">
      <ele>1387.7</ele></trkpt>
      <trkpt lat="46.971666730096956" lon="8.268289539714651">
      <ele>1388.0</ele></trkpt>
      <trkpt lat="46.97173608068288" lon="8.26837615123883">
      <ele>1388.4</ele></trkpt>
      <trkpt lat="46.971853884881085" lon="8.268476022594246">
      <ele>1388.8</ele></trkpt>
      <trkpt lat="46.971910917571" lon="8.268524477374447">
      <ele>1389.2</ele></trkpt>
      <trkpt lat="46.97195892012779" lon="8.268565262418822">
      <ele>1389.5</ele></trkpt>
      <trkpt lat="46.97201014345021" lon="8.268591089211936">
      <ele>1389.9</ele></trkpt>
      <trkpt lat="46.9720759734558" lon="8.268571250055986">
      <ele>1387.9</ele></trkpt>
      <trkpt lat="46.97211743017509" lon="8.26856563500275">
      <ele>1385.8</ele></trkpt>
      <trkpt lat="46.97217322192187" lon="8.268551883123694">
      <ele>1383.8</ele></trkpt>
      <trkpt lat="46.97216420595617" lon="8.268614339036693">
      <ele>1381.7</ele></trkpt>
      <trkpt lat="46.97215231462232" lon="8.268678826929257">
      <ele>1379.7</ele></trkpt>
      <trkpt lat="46.972088550459596" lon="8.268807197869645">
      <ele>1377.6</ele></trkpt>
      <trkpt lat="46.97203797804134" lon="8.268887778044691">
      <ele>1375.6</ele></trkpt>
      <trkpt lat="46.972119098918455" lon="8.268926578448772">
      <ele>1373.5</ele></trkpt>
      <trkpt lat="46.97219458363074" lon="8.268954870258451">
      <ele>1371.5</ele></trkpt>
      <trkpt lat="46.9722190721706" lon="8.268964487605695">
      <ele>1369.4</ele></trkpt>
      <trkpt lat="46.97214790538597" lon="8.269051714701959">
      <ele>1367.4</ele></trkpt>
      <trkpt lat="46.97207017647337" lon="8.269146974978442">
      <ele>1365.3</ele></trkpt>
      <trkpt lat="46.972017065140776" lon="8.269212914860313">
      <ele>1363.2</ele></trkpt>
      <trkpt lat="46.97199559453649" lon="8.269218838436032">
      <ele>1361.2</ele></trkpt>
      <trkpt lat="46.97197258188113" lon="8.269241428408646">
      <ele>1359.2</ele></trkpt>
      <trkpt lat="46.97200521878342" lon="8.269271147584071">
      <ele>1357.1</ele></trkpt>
      <trkpt lat="46.97204220373195" lon="8.269290499330875">
      <ele>1355.1</ele></trkpt>
      <trkpt lat="46.972077858245264" lon="8.269297306250612">
      <ele>1353.0</ele></trkpt>
      <trkpt lat="46.97234235236072" lon="8.26931298762107">
      <ele>1351.0</ele></trkpt>
      <trkpt lat="46.9724619211161" lon="8.269309500989479">
      <ele>1348.9</ele></trkpt>
      <trkpt lat="46.97250911075975" lon="8.269299795945297">
      <ele>1346.5</ele></trkpt>
      <trkpt lat="46.972518946511485" lon="8.269322907223225">
      <ele>1344.1</ele></trkpt>
      <trkpt lat="46.972502734143255" lon="8.269391494595368">
      <ele>1341.7</ele></trkpt>
      <trkpt lat="46.972501056009264" lon="8.269426939049003">
      <ele>1339.3</ele></trkpt>
      <trkpt lat="46.97247160610922" lon="8.26954957198974">
      <ele>1336.9</ele></trkpt>
      <trkpt lat="46.97246234699966" lon="8.269619436443605">
      <ele>1334.5</ele></trkpt>
      <trkpt lat="46.97253431744642" lon="8.269610049314405">
      <ele>1332.1</ele></trkpt>
      <trkpt lat="46.972625353800524" lon="8.269448653469345">
      <ele>1329.7</ele></trkpt>
      <trkpt lat="46.97269367845873" lon="8.269450787887147">
      <ele>1327.3</ele></trkpt>
      <trkpt lat="46.97276193062048" lon="8.269491480166788">
      <ele>1325.0</ele></trkpt>
      <trkpt lat="46.972799907348445" lon="8.269571340897347">
      <ele>1322.6</ele></trkpt>
      <trkpt lat="46.972800778090196" lon="8.269648551232507">
      <ele>1320.2</ele></trkpt>
      <trkpt lat="46.972795816201945" lon="8.269742361831048">
      <ele>1317.8</ele></trkpt>
      <trkpt lat="46.972839655540966" lon="8.269801456934777">
      <ele>1315.4</ele></trkpt>
      <trkpt lat="46.97288077967099" lon="8.269841729987924">
      <ele>1313.0</ele></trkpt>
      <trkpt lat="46.97284592021013" lon="8.269922553558068">
      <ele>1310.6</ele></trkpt>
      <trkpt lat="46.97277889231135" lon="8.270086476200962">
      <ele>1308.2</ele></trkpt>
      <trkpt lat="46.97293719774875" lon="8.27006792539748">
      <ele>1305.8</ele></trkpt>
      <trkpt lat="46.9729259213286" lon="8.270115732884186">
      <ele>1303.4</ele></trkpt>
      <trkpt lat="46.972897060710444" lon="8.270157012479302">
      <ele>1301.0</ele></trkpt>
      <trkpt lat="46.972892558405796" lon="8.270186157788173">
      <ele>1299.8</ele></trkpt>
      <trkpt lat="46.97285635322123" lon="8.270256525459573">
      <ele>1298.5</ele></trkpt>
      <trkpt lat="46.97281895085241" lon="8.270293506620575">
      <ele>1297.3</ele></trkpt>
      <trkpt lat="46.97278966646632" lon="8.270393196234828">
      <ele>1296.1</ele></trkpt>
      <trkpt lat="46.972770511297846" lon="8.270474262511842">
      <ele>1294.8</ele></trkpt>
      <trkpt lat="46.97276472399114" lon="8.270484607734605">
      <ele>1293.6</ele></trkpt>
      <trkpt lat="46.97275997336902" lon="8.2705492065415">
      <ele>1292.4</ele></trkpt>
      <trkpt lat="46.97274253581591" lon="8.27059066270009">
      <ele>1291.1</ele></trkpt>
      <trkpt lat="46.97272642246201" lon="8.270646740229566">
      <ele>1289.9</ele></trkpt>
      <trkpt lat="46.972688520365274" lon="8.270752564770914">
      <ele>1288.7</ele></trkpt>
      <trkpt lat="46.97271127601983" lon="8.270765428569165">
      <ele>1287.4</ele></trkpt>
      <trkpt lat="46.97273425874174" lon="8.27074700452062">
      <ele>1286.2</ele></trkpt>
      <trkpt lat="46.97278431770682" lon="8.270737358278664">
      <ele>1284.9</ele></trkpt>
      <trkpt lat="46.972831507468655" lon="8.270727654430667">
      <ele>1283.7</ele></trkpt>
      <trkpt lat="46.972851684267575" lon="8.270702931199825">
      <ele>1282.5</ele></trkpt>
      <trkpt lat="46.97286731323205" lon="8.270713608160968">
      <ele>1281.2</ele></trkpt>
      <trkpt lat="46.97285118465493" lon="8.270771775149775">
      <ele>1280.0</ele></trkpt>
      <trkpt lat="46.972814591556265" lon="8.27089429750042">
      <ele>1278.8</ele></trkpt>
      <trkpt lat="46.972753473152245" lon="8.271051923365">
      <ele>1277.5</ele></trkpt>
      <trkpt lat="46.97277330779458" lon="8.27107310043085">
      <ele>1276.3</ele></trkpt>
      <trkpt lat="46.97282178532677" lon="8.271084273406952">
      <ele>1275.2</ele></trkpt>
      <trkpt lat="46.972927990832744" lon="8.271010811850639">
      <ele>1274.0</ele></trkpt>
      <trkpt lat="46.97298108284972" lon="8.270976176974438">
      <ele>1272.9</ele></trkpt>
      <trkpt lat="46.97302100354871" lon="8.270985140847738">
      <ele>1271.8</ele></trkpt>
      <trkpt lat="46.97306230899043" lon="8.271000381877032">
      <ele>1270.7</ele></trkpt>
      <trkpt lat="46.973123661144676" lon="8.27100758827243">
      <ele>1269.5</ele></trkpt>
      <trkpt lat="46.9731908611318" lon="8.270996118202923">
      <ele>1268.4</ele></trkpt>
      <trkpt lat="46.97329535772857" lon="8.270962266522792">
      <ele>1267.3</ele></trkpt>
      <trkpt lat="46.97335104367836" lon="8.270963129387427">
      <ele>1266.1</ele></trkpt>
      <trkpt lat="46.97340369659909" lon="8.27098898129784">
      <ele>1265.0</ele></trkpt>
      <trkpt lat="46.9734661154402" lon="8.271046276396588">
      <ele>1263.9</ele></trkpt>
      <trkpt lat="46.97358958337466" lon="8.271152513531383">
      <ele>1262.7</ele></trkpt>
      <trkpt lat="46.97374552105436" lon="8.27131140336125">
      <ele>1261.6</ele></trkpt>
      <trkpt lat="46.97379802852308" lon="8.271356034004794">
      <ele>1260.5</ele></trkpt>
      <trkpt lat="46.97383797953509" lon="8.271360819488335">
      <ele>1259.3</ele></trkpt>
      <trkpt lat="46.97390479467371" lon="8.271403582435797">
      <ele>1258.2</ele></trkpt>
      <trkpt lat="46.973941370168646" lon="8.271479258368204">
      <ele>1257.1</ele></trkpt>
      <trkpt lat="46.97397041878557" lon="8.27160906959439">
      <ele>1256.0</ele></trkpt>
      <trkpt lat="46.9740155562109" lon="8.27188307953689">
      <ele>1254.8</ele></trkpt>
      <trkpt lat="46.97402994282343" lon="8.271945860695405">
      <ele>1253.7</ele></trkpt>
      <trkpt lat="46.974073796203044" lon="8.27200286954269">
      <ele>1254.0</ele></trkpt>
      <trkpt lat="46.974127581967316" lon="8.27206837805389">
      <ele>1254.3</ele></trkpt>
      <trkpt lat="46.974195939305815" lon="8.272094475103234">
      <ele>1254.6</ele></trkpt>
      <trkpt lat="46.9742486829003" lon="8.272107818291822">
      <ele>1254.8</ele></trkpt>
      <trkpt lat="46.97429013977671" lon="8.272102205740548">
      <ele>1255.1</ele></trkpt>
      <trkpt lat="46.97432603672799" lon="8.272075636608795">
      <ele>1255.4</ele></trkpt>
      <trkpt lat="46.97434772599295" lon="8.272038411844711">
      <ele>1255.7</ele></trkpt>
      <trkpt lat="46.9743551103506" lon="8.272005144431922">
      <ele>1256.0</ele></trkpt>
      <trkpt lat="46.97437078465252" lon="8.272009566937784">
      <ele>1256.3</ele></trkpt>
      <trkpt lat="46.97438638321398" lon="8.272024410290593">
      <ele>1256.6</ele></trkpt>
      <trkpt lat="46.97440329062105" lon="8.272055964966977">
      <ele>1256.8</ele></trkpt>
      <trkpt lat="46.97442886086216" lon="8.272075142389419">
      <ele>1257.1</ele></trkpt>
      <trkpt lat="46.974454482759896" lon="8.272085975119998">
      <ele>1257.4</ele></trkpt>
      <trkpt lat="46.97451024453108" lon="8.272076405158506">
      <ele>1257.7</ele></trkpt>
      <trkpt lat="46.97456734542373" lon="8.272079380820287">
      <ele>1258.0</ele></trkpt>
      <trkpt lat="46.974630127644204" lon="8.272086610840416">
      <ele>1258.3</ele></trkpt>
      <trkpt lat="46.97469135220861" lon="8.272112597477772">
      <ele>1258.5</ele></trkpt>
      <trkpt lat="46.97475563133047" lon="8.272109428689788">
      <ele>1258.8</ele></trkpt>
      <trkpt lat="46.97479870041346" lon="8.27207879126469">
      <ele>1259.1</ele></trkpt>
      <trkpt lat="46.974830170412055" lon="8.272070933995813">
      <ele>1259.4</ele></trkpt>
      <trkpt lat="46.97485284997237" lon="8.272094246082382">
      <ele>1263.7</ele></trkpt>
      <trkpt lat="46.97484820457477" lon="8.272144247438906">
      <ele>1267.9</ele></trkpt>
      <trkpt lat="46.97486207865565" lon="8.272200792078632">
      <ele>1272.2</ele></trkpt>
      <trkpt lat="46.974918967265324" lon="8.272232967570593">
      <ele>1276.5</ele></trkpt>
      <trkpt lat="46.974977246639654" lon="8.272269344083366">
      <ele>1280.8</ele></trkpt>
      <trkpt lat="46.975063649651915" lon="8.272249604188987">
      <ele>1285.0</ele></trkpt>
      <trkpt lat="46.97518240778684" lon="8.272247504462921">
      <ele>1289.3</ele></trkpt>
      <trkpt lat="46.97556175300444" lon="8.272284934550386">
      <ele>1293.6</ele></trkpt>
      <trkpt lat="46.975657820177695" lon="8.272280892426137">
      <ele>1297.8</ele></trkpt>
      <trkpt lat="46.975724656746785" lon="8.272330558300757">
      <ele>1302.1</ele></trkpt>
      <trkpt lat="46.9758146928277" lon="8.272401297574605">
      <ele>1306.4</ele></trkpt>
      <trkpt lat="46.97589547393145" lon="8.272491607749126">
      <ele>1310.6</ele></trkpt>
      <trkpt lat="46.97593585253811" lon="8.27249943691298">
      <ele>1314.9</ele></trkpt>
      <trkpt lat="46.97608746387521" lon="8.2724823522114">
      <ele>1319.2</ele></trkpt>
      <trkpt lat="46.97622580064271" lon="8.272605862003106">
      <ele>1323.5</ele></trkpt>
      <trkpt lat="46.976269941953596" lon="8.27262323895775">
      <ele>1327.7</ele></trkpt>
      <trkpt lat="46.97632514229386" lon="8.27269086247647">
      <ele>1332.0</ele></trkpt>
      <trkpt lat="46.976369207692215" lon="8.27271867390277">
      <ele>1336.3</ele></trkpt>
      <trkpt lat="46.9764591267243" lon="8.272726326318082">
      <ele>1340.5</ele></trkpt>
      <trkpt lat="46.97653638069933" lon="8.272706654829385">
      <ele>1344.8</ele></trkpt>
      <trkpt lat="46.97658520693674" lon="8.27266986330768">
      <ele>1346.1</ele></trkpt>
      <trkpt lat="46.976605557228396" lon="8.27262010422525">
      <ele>1347.4</ele></trkpt>
      <trkpt lat="46.97660881936872" lon="8.27253644668719">
      <ele>1348.7</ele></trkpt>
      <trkpt lat="46.97667612222752" lon="8.272735952145833">
      <ele>1350.0</ele></trkpt>
      <trkpt lat="46.9767210714048" lon="8.272838890299116">
      <ele>1351.2</ele></trkpt>
      <trkpt lat="46.976724882370085" lon="8.272903626659305">
      <ele>1352.5</ele></trkpt>
      <trkpt lat="46.97675160043722" lon="8.272960372987283">
      <ele>1353.8</ele></trkpt>
      <trkpt lat="46.97678398446769" lon="8.273023476653186">
      <ele>1355.1</ele></trkpt>
      <trkpt lat="46.976823403968446" lon="8.273101291702993">
      <ele>1356.4</ele></trkpt>
      <trkpt lat="46.97684959952476" lon="8.273231053326768">
      <ele>1357.7</ele></trkpt>
      <trkpt lat="46.976847653035186" lon="8.273301969675632">
      <ele>1359.0</ele></trkpt>
      <trkpt lat="46.97683401376159" lon="8.273386254861366">
      <ele>1360.3</ele></trkpt>
      <trkpt lat="46.9767691124853" lon="8.273502062147058">
      <ele>1361.6</ele></trkpt>
      <trkpt lat="46.97671028994984" lon="8.273608290335957">
      <ele>1362.9</ele></trkpt>
      <trkpt lat="46.9767219936646" lon="8.273679891858588">
      <ele>1364.1</ele></trkpt>
      <trkpt lat="46.976699970517906" lon="8.273766596159977">
      <ele>1365.4</ele></trkpt>
      <trkpt lat="46.97673912196961" lon="8.273845327490529">
      <ele>1366.7</ele></trkpt>
      <trkpt lat="46.976809770261006" lon="8.274002671448022">
      <ele>1368.0</ele></trkpt>
      <trkpt lat="46.97689104067373" lon="8.274171339582367">
      <ele>1369.3</ele></trkpt>
      <trkpt lat="46.976947359183754" lon="8.274408805556156">
      <ele>1370.6</ele></trkpt>
      <trkpt lat="46.976986298676316" lon="8.274516554528297">
      <ele>1374.4</ele></trkpt>
      <trkpt lat="46.97699638239864" lon="8.274599289959738">
      <ele>1378.3</ele></trkpt>
      <trkpt lat="46.977023146848595" lon="8.274700146637358">
      <ele>1382.1</ele></trkpt>
      <trkpt lat="46.97703338585603" lon="8.274762801809294">
      <ele>1386.0</ele></trkpt>
      <trkpt lat="46.97705961297224" lon="8.274937317803388">
      <ele>1389.8</ele></trkpt>
      <trkpt lat="46.97708047241061" lon="8.275009062664035">
      <ele>1393.7</ele></trkpt>
      <trkpt lat="46.977109058643094" lon="8.275069769339012">
      <ele>1397.5</ele></trkpt>
      <trkpt lat="46.97717416045465" lon="8.2751511407363">
      <ele>1401.4</ele></trkpt>
      <trkpt lat="46.97718127593339" lon="8.275222671764427">
      <ele>1405.2</ele></trkpt>
      <trkpt lat="46.977221868177544" lon="8.27536517194522">
      <ele>1409.1</ele></trkpt>
      <trkpt lat="46.9772486763211" lon="8.275409409092688">
      <ele>1412.9</ele></trkpt>
      <trkpt lat="46.97728115939392" lon="8.27545999088007">
      <ele>1416.8</ele></trkpt>
      <trkpt lat="46.97732089700725" lon="8.275493993839792">
      <ele>1420.6</ele></trkpt>
      <trkpt lat="46.977221868177544" lon="8.27536517194522">
      <ele>1424.5</ele></trkpt>
      <trkpt lat="46.9772486763211" lon="8.275409409092688">
      <ele>1428.3</ele></trkpt>
      <trkpt lat="46.97728115939392" lon="8.27545999088007">
      <ele>1432.2</ele></trkpt>
      <trkpt lat="46.97732089700725" lon="8.275493993839792">
      <ele>1436.0</ele></trkpt>
      <trkpt lat="46.97746945582098" lon="8.27510239119555">
      <ele>1439.9</ele></trkpt>
      <trkpt lat="46.97761801329319" lon="8.274710786385047">
      <ele>1443.8</ele></trkpt>
      <trkpt lat="46.977879720456706" lon="8.274596569762956">
      <ele>1447.6</ele></trkpt>
      <trkpt lat="46.97789158861845" lon="8.27420245297309">
      <ele>1455.7</ele></trkpt>
      <trkpt lat="46.978096026769045" lon="8.273923049582844">
      <ele>1463.8</ele></trkpt>
      <trkpt lat="46.978300464231125" lon="8.273643644065137">
      <ele>1471.9</ele></trkpt>
      <trkpt lat="46.97832050779573" lon="8.273027419031049">
      <ele>1480.0</ele></trkpt>
      <trkpt lat="46.97834054804851" lon="8.272411193538469">
      <ele>1488.0</ele></trkpt>
      <trkpt lat="46.97859043198549" lon="8.272137657640389">
      <ele>1496.1</ele></trkpt>
      <trkpt lat="46.97884031525848" lon="8.271864119196316">
      <ele>1504.2</ele></trkpt>
      <trkpt lat="46.97860480569288" lon="8.271692931322312">
      <ele>1512.3</ele></trkpt>
      <trkpt lat="46.97824733250321" lon="8.271312302576534">
      <ele>1520.4</ele></trkpt>
      <trkpt lat="46.97814191271907" lon="8.271053537892787">
      <ele>1528.5</ele></trkpt>
      <trkpt lat="46.97819888342595" lon="8.271037268634045">
      <ele>1536.6</ele></trkpt>
      <trkpt lat="46.97818134596101" lon="8.271006964059776">
      <ele>1544.7</ele></trkpt>
      <trkpt lat="46.97818450639832" lon="8.27097557390818">
      <ele>1552.8</ele></trkpt>
      <trkpt lat="46.97817724116121" lon="8.270898282998434">
      <ele>1560.9</ele></trkpt>
      <trkpt lat="46.97816872433069" lon="8.27085957501606">
      <ele>1569.0</ele></trkpt>
      <trkpt lat="46.978169564361586" lon="8.270743820568129">
      <ele>1577.0</ele></trkpt>
      <trkpt lat="46.978184649464545" lon="8.270686880272605">
      <ele>1585.1</ele></trkpt>
      <trkpt lat="46.97821926673171" lon="8.270634540416573">
      <ele>1593.2</ele></trkpt>
      <trkpt lat="46.97828025220132" lon="8.270586893695757">
      <ele>1601.3</ele></trkpt>
      <trkpt lat="46.97833048903898" lon="8.270539080384411">
      <ele>1609.4</ele></trkpt>
      <trkpt lat="46.978364229448985" lon="8.270472439735565">
      <ele>1612.0</ele></trkpt>
      <trkpt lat="46.978398042458" lon="8.270395784780693">
      <ele>1614.6</ele></trkpt>
      <trkpt lat="46.978437782075744" lon="8.270310651933196">
      <ele>1617.2</ele></trkpt>
      <trkpt lat="46.978477468485224" lon="8.270234087711465">
      <ele>1619.8</ele></trkpt>
      <trkpt lat="46.97852572365907" lon="8.270189095362532">
      <ele>1622.5</ele></trkpt>
      <trkpt lat="46.978552422053134" lon="8.270149499785598">
      <ele>1625.1</ele></trkpt>
      <trkpt lat="46.97856553563871" lon="8.270093961047825">
      <ele>1627.7</ele></trkpt>
      <trkpt lat="46.978601534646096" lon="8.270120240256992">
      <ele>1630.3</ele></trkpt>
      <trkpt lat="46.97859202684511" lon="8.27008293625897">
      <ele>1632.9</ele></trkpt>
      <trkpt lat="46.97859908931765" lon="8.270053038866187">
      <ele>1635.5</ele></trkpt>
      <trkpt lat="46.97863328152168" lon="8.270059285600366">
      <ele>1638.1</ele></trkpt>
      <trkpt lat="46.97864044765483" lon="8.270015089594148">
      <ele>1640.7</ele></trkpt>
      <trkpt lat="46.978630290956886" lon="8.269932035968615">
      <ele>1643.3</ele></trkpt>
      <trkpt lat="46.97863004599192" lon="8.269830563924346">
      <ele>1645.9</ele></trkpt>
      <trkpt lat="46.978625061901376" lon="8.269709000916933">
      <ele>1648.5</ele></trkpt>
      <trkpt lat="46.97861021893038" lon="8.269597300792336">
      <ele>1651.2</ele></trkpt>
      <trkpt lat="46.97861133724638" lon="8.26944296023311">
      <ele>1653.8</ele></trkpt>
      <trkpt lat="46.978633659930374" lon="8.269331835030235">
      <ele>1656.4</ele></trkpt>
      <trkpt lat="46.97865841884192" lon="8.26917371974712">
      <ele>1659.0</ele></trkpt>
      <trkpt lat="46.97866637656166" lon="8.269061163029962">
      <ele>1661.6</ele></trkpt>
      <trkpt lat="46.9786570784043" lon="8.268965044985327">
      <ele>1667.0</ele></trkpt>
      <trkpt lat="46.97864245233104" lon="8.268814588013788">
      <ele>1672.4</ele></trkpt>
      <trkpt lat="46.97861068520578" lon="8.268665942912364">
      <ele>1677.8</ele></trkpt>
      <trkpt lat="46.97857849501586" lon="8.268575727636385">
      <ele>1683.3</ele></trkpt>
      <trkpt lat="46.978542467275986" lon="8.268422850534476">
      <ele>1688.7</ele></trkpt>
      <trkpt lat="46.9784709598018" lon="8.268240220714763">
      <ele>1694.1</ele></trkpt>
      <trkpt lat="46.97845208750966" lon="8.268195372717358">
      <ele>1699.5</ele></trkpt>
      <trkpt lat="46.97838547031855" lon="8.268015644878798">
      <ele>1704.9</ele></trkpt>
      <trkpt lat="46.97835633607948" lon="8.267898349409059">
      <ele>1710.3</ele></trkpt>
      <trkpt lat="46.978347960327675" lon="8.267871091941588">
      <ele>1715.8</ele></trkpt>
      <trkpt lat="46.97832988804733" lon="8.267454879658057">
      <ele>1721.2</ele></trkpt>
      <trkpt lat="46.978402317894385" lon="8.266993139950591">
      <ele>1726.6</ele></trkpt>
      <trkpt lat="46.97847474588101" lon="8.266531398998355">
      <ele>1732.0</ele></trkpt>
      <trkpt lat="46.97845974017913" lon="8.266433090840557">
      <ele>1737.4</ele></trkpt>
      <trkpt lat="46.97847020907989" lon="8.266368572974578">
      <ele>1742.8</ele></trkpt>
      <trkpt lat="46.978472353050186" lon="8.266268452461837">
      <ele>1748.2</ele></trkpt>
      <trkpt lat="46.97846915564982" lon="8.266118172873398">
      <ele>1753.7</ele></trkpt>
      <trkpt lat="46.97846056255638" lon="8.265923989738992">
      <ele>1759.1</ele></trkpt>
      <trkpt lat="46.97844616718971" lon="8.265742243080544">
      <ele>1764.5</ele></trkpt>
      <trkpt lat="46.97842145349965" lon="8.265604158082605">
      <ele>1769.9</ele></trkpt>
      <trkpt lat="46.978406771838564" lon="8.265462048019117">
      <ele>1772.2</ele></trkpt>
      <trkpt lat="46.97836864191601" lon="8.26540303825414">
      <ele>1774.5</ele></trkpt>
      <trkpt lat="46.97836916843285" lon="8.265330008018271">
      <ele>1776.7</ele></trkpt>
      <trkpt lat="46.97835378559904" lon="8.265283874217483">
      <ele>1779.0</ele></trkpt>
      <trkpt lat="46.978366774348935" lon="8.265265292087953">
      <ele>1781.3</ele></trkpt>
      <trkpt lat="46.978367030038065" lon="8.265229821761805">
      <ele>1783.6</ele></trkpt>
      <trkpt lat="46.97838320087657" lon="8.265165391528498">
      <ele>1785.8</ele></trkpt>
      <trkpt lat="46.97838366700175" lon="8.265100719601389">
      <ele>1788.1</ele></trkpt>
      <trkpt lat="46.97839558642714" lon="8.265032044267297">
      <ele>1790.4</ele></trkpt>
      <trkpt lat="46.978446531932576" lon="8.264899290142031">
      <ele>1792.7</ele></trkpt>
      <trkpt lat="46.97850603120609" lon="8.264766667335039">
      <ele>1794.9</ele></trkpt>
      <trkpt lat="46.978545222512196" lon="8.264679642259946">
      <ele>1797.2</ele></trkpt>
      <trkpt lat="46.97851805561054" lon="8.264683390938188">
      <ele>1799.5</ele></trkpt>
      <trkpt lat="46.97846638055136" lon="8.2647201603331">
      <ele>1801.8</ele></trkpt>
      <trkpt lat="46.97843904228458" lon="8.26474894471711">
      <ele>1804.0</ele></trkpt>
      <trkpt lat="46.97843941804816" lon="8.264696783945084">
      <ele>1806.3</ele></trkpt>
      <trkpt lat="46.978495840304134" lon="8.264595421467513">
      <ele>1808.6</ele></trkpt>
      <trkpt lat="46.978577834051116" lon="8.26451322093675">
      <ele>1810.9</ele></trkpt>
      <trkpt lat="46.97858661636744" lon="8.264484137898842">
      <ele>1813.1</ele></trkpt>
      <trkpt lat="46.97855081140453" lon="8.264498189819628">
      <ele>1815.4</ele></trkpt>
      <trkpt lat="46.97846474653628" lon="8.264551122856785">
      <ele>1817.2</ele></trkpt>
      <trkpt lat="46.978423124790325" lon="8.264579687677381">
      <ele>1818.9</ele></trkpt>
      <trkpt lat="46.97844360076613" lon="8.264513233568396">
      <ele>1820.7</ele></trkpt>
      <trkpt lat="46.978519873850544" lon="8.264430945037738">
      <ele>1822.5</ele></trkpt>
      <trkpt lat="46.9785831371751" lon="8.264371418023549">
      <ele>1824.2</ele></trkpt>
      <trkpt lat="46.978663865916516" lon="8.264266235784296">
      <ele>1826.0</ele></trkpt>
      <trkpt lat="46.97872492375098" lon="8.264116943372601">
      <ele>1827.8</ele></trkpt>
      <trkpt lat="46.97876267541655" lon="8.264029895352497">
      <ele>1829.6</ele></trkpt>
      <trkpt lat="46.97877162276508" lon="8.263977865982765">
      <ele>1831.3</ele></trkpt>
      <trkpt lat="46.978773293168" lon="8.26394450695715">
      <ele>1833.1</ele></trkpt>
      <trkpt lat="46.97873453782806" lon="8.263971039772283">
      <ele>1834.9</ele></trkpt>
      <trkpt lat="46.978660226835444" lon="8.26397824402924">
      <ele>1836.6</ele></trkpt>
      <trkpt lat="46.97867192038537" lon="8.263940859437902">
      <ele>1838.4</ele></trkpt>
      <trkpt lat="46.97870831081596" lon="8.263845444304286">
      <ele>1840.2</ele></trkpt>
      <trkpt lat="46.97875449914886" lon="8.263777294757956">
      <ele>1842.0</ele></trkpt>
      <trkpt lat="46.978720319515176" lon="8.26376425698394">
      <ele>1843.7</ele></trkpt>
      <trkpt lat="46.97868289829668" lon="8.263805412891498">
      <ele>1845.5</ele></trkpt>
      <trkpt lat="46.97867589167366" lon="8.263786523104034">
      <ele>1847.3</ele></trkpt>
      <trkpt lat="46.97871210193775" lon="8.263716130440846">
      <ele>1849.0</ele></trkpt>
      <trkpt lat="46.97873566887595" lon="8.263616338462413">
      <ele>1850.8</ele></trkpt>
      <trkpt lat="46.97874034052082" lon="8.263562166698346">
      <ele>1851.7</ele></trkpt>
      <trkpt lat="46.9787258018249" lon="8.26359741789026">
      <ele>1852.6</ele></trkpt>
      <trkpt lat="46.9787099170335" lon="8.26362221239695">
      <ele>1853.6</ele></trkpt>
      <trkpt lat="46.978707200833995" lon="8.263603388523782">
      <ele>1854.5</ele></trkpt>
      <trkpt lat="46.97872033035573" lon="8.26356394919154">
      <ele>1855.4</ele></trkpt>
      <trkpt lat="46.97872352088344" lon="8.26351808771361">
      <ele>1856.3</ele></trkpt>
      <trkpt lat="46.97874541739941" lon="8.263451654652755">
      <ele>1857.3</ele></trkpt>
      <trkpt lat="46.97875148915391" lon="8.263401670878588">
      <ele>1858.2</ele></trkpt>
      <trkpt lat="46.97877302548703" lon="8.263385309243043">
      <ele>1859.1</ele></trkpt>
      <trkpt lat="46.97878903925892" lon="8.263343824267901">
      <ele>1860.0</ele></trkpt>
      <trkpt lat="46.978822163824525" lon="8.263304691819767">
      <ele>1861.0</ele></trkpt>
      <trkpt lat="46.97881372696795" lon="8.263285780090479">
      <ele>1861.9</ele></trkpt>
      <trkpt lat="46.97877942725184" lon="8.263289433119533">
      <ele>1862.8</ele></trkpt>
      <trkpt lat="46.97874667780858" lon="8.263276404465854">
      <ele>1863.8</ele></trkpt>
      <trkpt lat="46.97874681286015" lon="8.263257624374086">
      <ele>1864.7</ele></trkpt>
      <trkpt lat="46.978788479257716" lon="8.26322280270189">
      <ele>1865.6</ele></trkpt>
      <trkpt lat="46.97883001069877" lon="8.263206747954555">
      <ele>1866.5</ele></trkpt>
      <trkpt lat="46.978854638334106" lon="8.263157048933925">
      <ele>1867.5</ele></trkpt>
      <trkpt lat="46.978894814641386" lon="8.263130537288077">
      <ele>1868.4</ele></trkpt>
      <trkpt lat="46.97891779611042" lon="8.26311210784979">
      <ele>1869.3</ele></trkpt>
      <trkpt lat="46.97895632617808" lon="8.26311687898079">
      <ele>1870.4</ele></trkpt>
      <trkpt lat="46.97901202715337" lon="8.263115644190233">
      <ele>1871.5</ele></trkpt>
      <trkpt lat="46.97901502851004" lon="8.263094818165918">
      <ele>1872.7</ele></trkpt>
      <trkpt lat="46.97895959748146" lon="8.263058505787098">
      <ele>1873.8</ele></trkpt>
      <trkpt lat="46.97892415267443" lon="8.263022487106074">
      <ele>1874.9</ele></trkpt>
      <trkpt lat="46.97888709169839" lon="8.263013572071232">
      <ele>1876.0</ele></trkpt>
      <trkpt lat="46.97888871685049" lon="8.262986468610668">
      <ele>1877.1</ele></trkpt>
      <trkpt lat="46.97893878113322" lon="8.262974724283414">
      <ele>1878.3</ele></trkpt>
      <trkpt lat="46.97901586844894" lon="8.262977984116853">
      <ele>1879.4</ele></trkpt>
      <trkpt lat="46.979085747888526" lon="8.262991582537687">
      <ele>1880.5</ele></trkpt>
      <trkpt lat="46.97913299090513" lon="8.262975615184818">
      <ele>1881.6</ele></trkpt>
      <trkpt lat="46.97917158699485" lon="8.262969951171328">
      <ele>1882.7</ele></trkpt>
      <trkpt lat="46.97921472851493" lon="8.26292888210251">
      <ele>1883.9</ele></trkpt>
      <trkpt lat="46.97928479404165" lon="8.26291534161748">
      <ele>1885.0</ele></trkpt>
      <trkpt lat="46.9792436165368" lon="8.262883414532356">
      <ele>1886.1</ele></trkpt>
      <trkpt lat="46.97921953491482" lon="8.262855916395198">
      <ele>1887.2</ele></trkpt>
      <trkpt lat="46.979244006375964" lon="8.26282917649159">
      <ele>1888.3</ele></trkpt>
      <trkpt lat="46.97928539387947" lon="8.262831888304456">
      <ele>1889.5</ele></trkpt>
      <trkpt lat="46.979319678464634" lon="8.26283033771059">
      <ele>1890.6</ele></trkpt>
      <trkpt lat="46.97934663070018" lon="8.262828911183785">
      <ele>1891.7</ele></trkpt>
      <trkpt lat="46.979409924843296" lon="8.262837571543939">
      <ele>1894.7</ele></trkpt>
      <trkpt lat="46.979507756734606" lon="8.262889558009574">
      <ele>1897.8</ele></trkpt>
      <trkpt lat="46.97956899834907" lon="8.262913446888252">
      <ele>1900.8</ele></trkpt>
      <trkpt lat="46.97963740267093" lon="8.262933279169701">
      <ele>1903.8</ele></trkpt>
      <trkpt lat="46.979582322599185" lon="8.262846880991923">
      <ele>1906.8</ele></trkpt>
      <trkpt lat="46.97954259627091" lon="8.262810796333603">
      <ele>1909.9</ele></trkpt>
      <trkpt lat="46.979518808488734" lon="8.26274366100295">
      <ele>1912.9</ele></trkpt>
      <trkpt lat="46.97948182841293" lon="8.262722234452134">
      <ele>1915.9</ele></trkpt>
      <trkpt lat="46.9794605320682" lon="8.262705215134822">
      <ele>1918.9</ele></trkpt>
      <trkpt lat="46.979453960056134" lon="8.262625818088283">
      <ele>1922.0</ele></trkpt>
      <trkpt lat="46.97942469139896" lon="8.26252521378067">
      <ele>1925.0</ele></trkpt>
      <trkpt lat="46.97938918045322" lon="8.262499630248387">
      <ele>1928.0</ele></trkpt>
      <trkpt lat="46.97933096390299" lon="8.262452839398962">
      <ele>1931.0</ele></trkpt>
      <trkpt lat="46.97901118219019" lon="8.262239279271629">
      <ele>1934.0</ele></trkpt>
      <trkpt lat="46.97908038079838" lon="8.262148531976086">
      <ele>1937.1</ele></trkpt>
      <trkpt lat="46.97914939955788" lon="8.262082820379952">
      <ele>1940.1</ele></trkpt>
      <trkpt lat="46.97922716995415" lon="8.261992204054764">
      <ele>1943.1</ele></trkpt>
      <trkpt lat="46.97930616669019" lon="8.261928734877166">
      <ele>1946.2</ele></trkpt>
      <trkpt lat="46.97937921222713" lon="8.261898546214061">
      <ele>1949.2</ele></trkpt>
      <trkpt lat="46.97941923841327" lon="8.26189290332181">
      <ele>1952.2</ele></trkpt>
      <trkpt lat="46.979479005078396" lon="8.26192303798098">
      <ele>1953.1</ele></trkpt>
      <trkpt lat="46.979544399525196" lon="8.261963681982458">
      <ele>1953.9</ele></trkpt>
      <trkpt lat="46.97960138079065" lon="8.261983337930022">
      <ele>1954.8</ele></trkpt>
      <trkpt lat="46.979666679368535" lon="8.262038583384975">
      <ele>1955.7</ele></trkpt>
      <trkpt lat="46.97970353063144" lon="8.262076713337489">
      <ele>1956.5</ele></trkpt>
      <trkpt lat="46.97973031397177" lon="8.262125112021312">
      <ele>1957.4</ele></trkpt>
      <trkpt lat="46.97975009939575" lon="8.262154620939102">
      <ele>1958.3</ele></trkpt>
      <trkpt lat="46.9797491819697" lon="8.26212704429026">
      <ele>1959.1</ele></trkpt>
      <trkpt lat="46.97973696756442" lon="8.262076700223638">
      <ele>1960.0</ele></trkpt>
      <trkpt lat="46.97972557756626" lon="8.262024292096944">
      <ele>1960.8</ele></trkpt>
      <trkpt lat="46.97970955696942" lon="8.261997890318824">
      <ele>1961.7</ele></trkpt>
      <trkpt lat="46.97969094737134" lon="8.261934909100681">
      <ele>1962.6</ele></trkpt>
      <trkpt lat="46.97965702161941" lon="8.261860166059389">
      <ele>1963.4</ele></trkpt>
      <trkpt lat="46.97964191387148" lon="8.261818124102904">
      <ele>1964.3</ele></trkpt>
      <trkpt lat="46.97960034177755" lon="8.261730843151746">
      <ele>1965.2</ele></trkpt>
      <trkpt lat="46.97956609314908" lon="8.261706081178295">
      <ele>1966.0</ele></trkpt>
      <trkpt lat="46.97956378303236" lon="8.261688288543864">
      <ele>1966.9</ele></trkpt>
      <trkpt lat="46.97957981114807" lon="8.261657251981148">
      <ele>1967.8</ele></trkpt>
      <trkpt lat="46.97960064383681" lon="8.261633610105658">
      <ele>1968.6</ele></trkpt>
      <trkpt lat="46.97963257116169" lon="8.261588240664485">
      <ele>1969.5</ele></trkpt>
      <trkpt lat="46.97967000160478" lon="8.26156699548788">
      <ele>1967.9</ele></trkpt>
      <trkpt lat="46.97967000160478" lon="8.26156699548788">
      <ele>1966.4</ele></trkpt>
      <trkpt lat="46.979722739118586" lon="8.261501111849086">
      <ele>1964.8</ele></trkpt>
      <trkpt lat="46.97975002084411" lon="8.261483851395646">
      <ele>1963.3</ele></trkpt>
      <trkpt lat="46.97976375540125" lon="8.261490370848376">
      <ele>1961.7</ele></trkpt>
      <trkpt lat="46.97980796157109" lon="8.261427471412539">
      <ele>1960.1</ele></trkpt>
      <trkpt lat="46.979839473344526" lon="8.261324656743296">
      <ele>1958.6</ele></trkpt>
      <trkpt lat="46.9799111584686" lon="8.261181869014457">
      <ele>1957.0</ele></trkpt>
      <trkpt lat="46.979944037358194" lon="8.261077799986966">
      <ele>1955.5</ele></trkpt>
      <trkpt lat="46.97997600095287" lon="8.26089687775966">
      <ele>1953.9</ele></trkpt>
      <trkpt lat="46.980008650048944" lon="8.260824823402912">
      <ele>1952.3</ele></trkpt>
      <trkpt lat="46.98002779080631" lon="8.26080377075096">
      <ele>1950.8</ele></trkpt>
      <trkpt lat="46.98002073193251" lon="8.260769514894484">
      <ele>1949.2</ele></trkpt>
      <trkpt lat="46.980048017662135" lon="8.260631211986157">
      <ele>1947.7</ele></trkpt>
      <trkpt lat="46.980049948915365" lon="8.260565088361309">
      <ele>1946.1</ele></trkpt>
      <trkpt lat="46.980036191705295" lon="8.260447502951472">
      <ele>1944.5</ele></trkpt>
      <trkpt lat="46.9800161048666" lon="8.260395973904679">
      <ele>1943.0</ele></trkpt>
      <trkpt lat="46.98001793799954" lon="8.260344780257576">
      <ele>1941.4</ele></trkpt>
      <trkpt lat="46.980073604780735" lon="8.260117283089256">
      <ele>1939.9</ele></trkpt>
      <trkpt lat="46.980078406901306" lon="8.260059733712179">
      <ele>1938.3</ele></trkpt>
      <trkpt lat="46.98006436513397" lon="8.259980550470296">
      <ele>1940.0</ele></trkpt>
      <trkpt lat="46.98002984775694" lon="8.25990533908165">
      <ele>1941.6</ele></trkpt>
      <trkpt lat="46.98000373979582" lon="8.259879322450297">
      <ele>1943.2</ele></trkpt>
      <trkpt lat="46.97998961514003" lon="8.259812953374164">
      <ele>1944.9</ele></trkpt>
      <trkpt lat="46.979950915993726" lon="8.259709918434428">
      <ele>1946.5</ele></trkpt>
      <trkpt lat="46.979913505752144" lon="8.259630391409093">
      <ele>1948.2</ele></trkpt>
      <trkpt lat="46.979831253082004" lon="8.25949041410074">
      <ele>1949.8</ele></trkpt>
      <trkpt lat="46.97976671406575" lon="8.2593251037497">
      <ele>1951.5</ele></trkpt>
      <trkpt lat="46.97972631301208" lon="8.259256191199405">
      <ele>1953.1</ele></trkpt>
      <trkpt lat="46.979681415595394" lon="8.2592021545532">
      <ele>1954.8</ele></trkpt>
      <trkpt lat="46.97957628279513" lon="8.258993533994069">
      <ele>1956.5</ele></trkpt>
      <trkpt lat="46.97952981498974" lon="8.25895654747547">
      <ele>1958.1</ele></trkpt>
      <trkpt lat="46.97948131545233" lon="8.25879361291941">
      <ele>1959.8</ele></trkpt>
      <trkpt lat="46.97946735811995" lon="8.258703759474464">
      <ele>1961.4</ele></trkpt>
      <trkpt lat="46.97937145810003" lon="8.258429129345608">
      <ele>1963.0</ele></trkpt>
      <trkpt lat="46.97931372412043" lon="8.258332220234509">
      <ele>1964.7</ele></trkpt>
      <trkpt lat="46.97939845111214" lon="8.258331384027336">
      <ele>1966.3</ele></trkpt>
      <trkpt lat="46.979424657341085" lon="8.258342443542869">
      <ele>1968.0</ele></trkpt>
      <trkpt lat="46.97936119254982" lon="8.258230502574943">
      <ele>1969.6</ele></trkpt>
      <trkpt lat="46.97934260127471" lon="8.25817473927942">
      <ele>1971.3</ele></trkpt>
      <trkpt lat="46.979343257015984" lon="8.258082979906607">
      <ele>1978.1</ele></trkpt>
      <trkpt lat="46.97932469618879" lon="8.258022945442432">
      <ele>1984.9</ele></trkpt>
      <trkpt lat="46.979323604995606" lon="8.257971707779694">
      <ele>1991.7</ele></trkpt>
      <trkpt lat="46.97930498317264" lon="8.257920202707474">
      <ele>1998.4</ele></trkpt>
      <trkpt lat="46.979293765128574" lon="8.257520721488183">
      <ele>2005.2</ele></trkpt>
      <trkpt lat="46.97928254569275" lon="8.257121240436406">
      <ele>2012.0</ele></trkpt>
      <trkpt lat="46.97916497506431" lon="8.256981867470307">
      <ele>2018.8</ele></trkpt>
      <trkpt lat="46.97885897927459" lon="8.256927012466505">
      <ele>2025.6</ele></trkpt>
      <trkpt lat="46.97884550341812" lon="8.256683729693776">
      <ele>2032.4</ele></trkpt>
      <trkpt lat="46.97892017510927" lon="8.256482993093638">
      <ele>2039.2</ele></trkpt>
      <trkpt lat="46.97905558222955" lon="8.256568484186921">
      <ele>2045.9</ele></trkpt>
      <trkpt lat="46.979188620858544" lon="8.256530491673905">
      <ele>2052.7</ele></trkpt>
      <trkpt lat="46.979212811992475" lon="8.25633370888589">
      <ele>2059.5</ele></trkpt>
      <trkpt lat="46.979212811992475" lon="8.25633370888589">
      <ele>2066.3</ele></trkpt>
      <trkpt lat="46.97924935968796" lon="8.256326365949652">
      <ele>2073.1</ele></trkpt>
      <trkpt lat="46.979276476823514" lon="8.256335861078291">
      <ele>2079.9</ele></trkpt>
      <trkpt lat="46.979298331119594" lon="8.256358025475995">
      <ele>2086.6</ele></trkpt>
      <trkpt lat="46.97931296729086" lon="8.256375650567161">
      <ele>2093.4</ele></trkpt>
      <trkpt lat="46.979336761576995" lon="8.256417165779633">
      <ele>2100.2</ele></trkpt>
      <trkpt lat="46.9793473382661" lon="8.256422518584627">
      <ele>2107.0</ele></trkpt>
      <trkpt lat="46.97935726484904" lon="8.256409289431312">
      <ele>2106.1</ele></trkpt>
      <trkpt lat="46.979352585908266" lon="8.256374137632484">
      <ele>2105.2</ele></trkpt>
      <trkpt lat="46.97934736492997" lon="8.256341829772133">
      <ele>2104.2</ele></trkpt>
      <trkpt lat="46.979356421343674" lon="8.256342138520592">
      <ele>2103.3</ele></trkpt>
      <trkpt lat="46.97936928538811" lon="8.256354715747749">
      <ele>2102.4</ele></trkpt>
      <trkpt lat="46.97939101756429" lon="8.256394004596569">
      <ele>2101.5</ele></trkpt>
      <trkpt lat="46.97941165816479" lon="8.256442556325148">
      <ele>2100.6</ele></trkpt>
      <trkpt lat="46.979423627843374" lon="8.25643295964924">
      <ele>2099.6</ele></trkpt>
      <trkpt lat="46.9794001350537" lon="8.25634790380835">
      <ele>2098.7</ele></trkpt>
      <trkpt lat="46.97936978281241" lon="8.256281171105444">
      <ele>2097.8</ele></trkpt>
      <trkpt lat="46.97934260957209" lon="8.256241694340893">
      <ele>2096.9</ele></trkpt>
      <trkpt lat="46.979306901594754" lon="8.256201916832886">
      <ele>2096.0</ele></trkpt>
      <trkpt lat="46.97934049527757" lon="8.256210196125249">
      <ele>2095.0</ele></trkpt>
      <trkpt lat="46.97937276720952" lon="8.256223436775135">
      <ele>2094.1</ele></trkpt>
      <trkpt lat="46.9794085974627" lon="8.256246063650623">
      <ele>2093.2</ele></trkpt>
      <trkpt lat="46.979431108090274" lon="8.256284680860606">
      <ele>2092.3</ele></trkpt>
      <trkpt lat="46.97944896405639" lon="8.256323844994704">
      <ele>2091.4</ele></trkpt>
      <trkpt lat="46.979469958407115" lon="8.256358114891878">
      <ele>2090.4</ele></trkpt>
      <trkpt lat="46.979476311486025" lon="8.25633762852227">
      <ele>2089.5</ele></trkpt>
      <trkpt lat="46.9794619718062" lon="8.256277159325366">
      <ele>2088.6</ele></trkpt>
      <trkpt lat="46.97945252726442" lon="8.256181145161108">
      <ele>2087.4</ele></trkpt>
      <trkpt lat="46.97945022957286" lon="8.256099658479625">
      <ele>2086.2</ele></trkpt>
      <trkpt lat="46.979419328931016" lon="8.256075766051957">
      <ele>2085.0</ele></trkpt>
      <trkpt lat="46.979430616751664" lon="8.256053291207127">
      <ele>2083.9</ele></trkpt>
      <trkpt lat="46.979462751185906" lon="8.256010103638403">
      <ele>2082.7</ele></trkpt>
      <trkpt lat="46.979477592091136" lon="8.25599775093639">
      <ele>2081.5</ele></trkpt>
      <trkpt lat="46.97948663829499" lon="8.255999492139859">
      <ele>2080.3</ele></trkpt>
      <trkpt lat="46.97950967584852" lon="8.256037394414536">
      <ele>2079.1</ele></trkpt>
      <trkpt lat="46.97952011377302" lon="8.256025618745054">
      <ele>2077.9</ele></trkpt>
      <trkpt lat="46.97951155463797" lon="8.255989619200953">
      <ele>2076.8</ele></trkpt>
      <trkpt lat="46.979496483362695" lon="8.255959829567194">
      <ele>2075.6</ele></trkpt>
      <trkpt lat="46.97947250336237" lon="8.255946872951098">
      <ele>2074.4</ele></trkpt>
      <trkpt lat="46.97946276229187" lon="8.255931556848823">
      <ele>2073.2</ele></trkpt>
      <trkpt lat="46.97951302374271" lon="8.25592611782871">
      <ele>2072.0</ele></trkpt>
      <trkpt lat="46.979556092610586" lon="8.255950418823495">
      <ele>2070.8</ele></trkpt>
      <trkpt lat="46.9795600298231" lon="8.255941987869544">
      <ele>2069.6</ele></trkpt>
      <trkpt lat="46.97954932845756" lon="8.255917522220193">
      <ele>2068.5</ele></trkpt>
      <trkpt lat="46.97953114163617" lon="8.255888158354287">
      <ele>2067.3</ele></trkpt>
      <trkpt lat="46.979556436713985" lon="8.255822614162081">
      <ele>2066.1</ele></trkpt>
      <trkpt lat="46.979614564760055" lon="8.255764798496484">
      <ele>2064.9</ele></trkpt>
      <trkpt lat="46.97964264912731" lon="8.25571809218094">
      <ele>2064.4</ele></trkpt>
      <trkpt lat="46.97965528876576" lon="8.255646019958906">
      <ele>2063.9</ele></trkpt>
      <trkpt lat="46.979649920709534" lon="8.255566142414013">
      <ele>2063.3</ele></trkpt>
      <trkpt lat="46.979630863664255" lon="8.255458139315689">
      <ele>2062.8</ele></trkpt>
      <trkpt lat="46.97957141608086" lon="8.255367818223778">
      <ele>2062.3</ele></trkpt>
    </trkseg>
  </trk>
</gpx>