<?xml version='1.0' encoding='utf-8'?>
<gpx xmlns="http://www.topografix.com/GPX/1/1" xmlns:xsi="http://www.w3.org/2001/XMLSchema-instance" xsi:schemaLocation="http://www.topografix.com/GPX/1/1 http://www.topografix.com/GPX/1/1/gpx.xsd" version="1.1" creator="gpx.py -- https://github.com/tkrajina/gpxpy">
  <trk>
    <name>klein-mythen</name>
    <trkseg>
      <trkpt lat="47.04200685716668" lon="8.703341874254598">
      <ele>1098.9</ele></trkpt>
    <trkpt lat="47.04197354932776" lon="8.703333320504871">
      <ele>1099.3</ele></trkpt>
      <trkpt lat="47.041817339839184" lon="8.703293223493509">
      <ele>1099.7</ele></trkpt>
      <trkpt lat="47.0417385275688" lon="8.70327574433905">
      <ele>1100.1</ele></trkpt>
      <trkpt lat="47.041632855144705" lon="8.703252315316897">
      <ele>1100.5</ele></trkpt>
      <trkpt lat="47.04156474340128" lon="8.703233654124757">
      <ele>1100.9</ele></trkpt>
      <trkpt lat="47.04151329761734" lon="8.703215359577479">
      <ele>1101.3</ele></trkpt>
      <trkpt lat="47.0414136436236" lon="8.703186216484731">
      <ele>1102.3</ele></trkpt>
      <trkpt lat="47.04132576237275" lon="8.703147573217729">
      <ele>1103.2</ele></trkpt>
      <trkpt lat="47.04116009913004" lon="8.703060799982405">
      <ele>1104.2</ele></trkpt>
      <trkpt lat="47.041009348061614" lon="8.70298169565869">
      <ele>1105.2</ele></trkpt>
      <trkpt lat="47.04090990888735" lon="8.702933042323117">
      <ele>1106.2</ele></trkpt>
      <trkpt lat="47.040807499702595" lon="8.702852643537096">
      <ele>1107.1</ele></trkpt>
      <trkpt lat="47.04067870103348" lon="8.702747238084026">
      <ele>1108.1</ele></trkpt>
      <trkpt lat="47.04053482005391" lon="8.702648781375407">
      <ele>1109.1</ele></trkpt>
      <trkpt lat="47.040415557245154" lon="8.70258504153879">
      <ele>1110.1</ele></trkpt>
      <trkpt lat="47.04031115307974" lon="8.70253383795204">
      <ele>1111.0</ele></trkpt>
      <trkpt lat="47.04018839268682" lon="8.702484623433497">
      <ele>1112.0</ele></trkpt>
      <trkpt lat="47.04008716413918" lon="8.702448128575712">
      <ele>1113.0</ele></trkpt>
      <trkpt lat="47.04000763775592" lon="8.70240724979706">
      <ele>1114.0</ele></trkpt>
      <trkpt lat="47.039946539092426" lon="8.702357067196774">
      <ele>1115.0</ele></trkpt>
      <trkpt lat="47.03990054054199" lon="8.70229748920311">
      <ele>1115.9</ele></trkpt>
      <trkpt lat="47.03988711627588" lon="8.702272327685531">
      <ele>1116.9</ele></trkpt>
      <trkpt lat="47.03985973025068" lon="8.70222097874074">
      <ele>1117.9</ele></trkpt>
      <trkpt lat="47.0398124969746" lon="8.702122366971095">
      <ele>1118.8</ele></trkpt>
      <trkpt lat="47.039760075062304" lon="8.702040714247678">
      <ele>1119.8</ele></trkpt>
      <trkpt lat="47.03970908473534" lon="8.701981019168946">
      <ele>1120.8</ele></trkpt>
      <trkpt lat="47.03966071162728" lon="8.701929557899945">
      <ele>1121.6</ele></trkpt>
      <trkpt lat="47.039648155876336" lon="8.701916207963196">
      <ele>1122.5</ele></trkpt>
      <trkpt lat="47.03960863379236" lon="8.701873851075169">
      <ele>1123.3</ele></trkpt>
      <trkpt lat="47.039579264896076" lon="8.701817099996525">
      <ele>1124.1</ele></trkpt>
      <trkpt lat="47.039566731284275" lon="8.701743690722083">
      <ele>1124.9</ele></trkpt>
      <trkpt lat="47.03954282775631" lon="8.701645629241746">
      <ele>1125.8</ele></trkpt>
      <trkpt lat="47.03950727670229" lon="8.701544872277585">
      <ele>1126.6</ele></trkpt>
      <trkpt lat="47.039446955008465" lon="8.701424029978647">
      <ele>1127.4</ele></trkpt>
      <trkpt lat="47.0393737331588" lon="8.701263879712144">
      <ele>1128.2</ele></trkpt>
      <trkpt lat="47.039319870342574" lon="8.701162679166776">
      <ele>1129.0</ele></trkpt>
      <trkpt lat="47.039239590574645" lon="8.701038933535804">
      <ele>1129.9</ele></trkpt>
      <trkpt lat="47.03913630195675" lon="8.700885406688048">
      <ele>1130.7</ele></trkpt>
      <trkpt lat="47.039016779243966" lon="8.70074376298515">
      <ele>1131.5</ele></trkpt>
      <trkpt lat="47.03895812967208" lon="8.700671230497196">
      <ele>1132.3</ele></trkpt>
      <trkpt lat="47.03891873394225" lon="8.700616521448046">
      <ele>1133.2</ele></trkpt>
      <trkpt lat="47.038878530311244" lon="8.700530553256788">
      <ele>1134.0</ele></trkpt>
      <trkpt lat="47.03875618721278" lon="8.700222313935674">
      <ele>1134.8</ele></trkpt>
      <trkpt lat="47.03865186891474" lon="8.699955267246771">
      <ele>1135.6</ele></trkpt>
      <trkpt lat="47.03853275116209" lon="8.699635815782237">
      <ele>1136.5</ele></trkpt>
      <trkpt lat="47.03848595433363" lon="8.699520204175213">
      <ele>1137.3</ele></trkpt>
      <trkpt lat="47.038454458498535" lon="8.699459602597349">
      <ele>1138.6</ele></trkpt>
      <trkpt lat="47.038421163270804" lon="8.699429317075765">
      <ele>1139.9</ele></trkpt>
      <trkpt lat="47.03832370883573" lon="8.699362822877259">
      <ele>1141.2</ele></trkpt>
      <trkpt lat="47.03817839709478" lon="8.699252673858808">
      <ele>1142.5</ele></trkpt>
      <trkpt lat="47.03810810746322" lon="8.699196345847316">
      <ele>1143.8</ele></trkpt>
      <trkpt lat="47.03803742345942" lon="8.699122678174495">
      <ele>1145.1</ele></trkpt>
      <trkpt lat="47.037937426859834" lon="8.698977170793729">
      <ele>1146.4</ele></trkpt>
      <trkpt lat="47.037826567464315" lon="8.698813196633953">
      <ele>1147.7</ele></trkpt>
      <trkpt lat="47.03778207345456" lon="8.698740145086786">
      <ele>1149.0</ele></trkpt>
      <trkpt lat="47.03774604050573" lon="8.698656015117464">
      <ele>1150.3</ele></trkpt>
      <trkpt lat="47.03771701195373" lon="8.698545165891177">
      <ele>1151.6</ele></trkpt>
      <trkpt lat="47.03769235296444" lon="8.698481265516438">
      <ele>1152.9</ele></trkpt>
      <trkpt lat="47.03765963775929" lon="8.698443191367222">
      <ele>1154.2</ele></trkpt>
      <trkpt lat="47.037621009981095" lon="8.698425795950676">
      <ele>1155.5</ele></trkpt>
      <trkpt lat="47.037573312388005" lon="8.69842986041404">
      <ele>1156.8</ele></trkpt>
      <trkpt lat="47.03751018938903" lon="8.698464788849066">
      <ele>1158.1</ele></trkpt>
      <trkpt lat="47.03743437507868" lon="8.698515894142743">
      <ele>1159.4</ele></trkpt>
      <trkpt lat="47.037399553864944" lon="8.698537736017967">
      <ele>1160.7</ele></trkpt>
      <trkpt lat="47.03737524049743" lon="8.698543981301237">
      <ele>1162.0</ele></trkpt>
      <trkpt lat="47.0373574775999" lon="8.698547656531323">
      <ele>1163.3</ele></trkpt>
      <trkpt lat="47.0373410287405" lon="8.698543901506879">
      <ele>1164.1</ele></trkpt>
      <trkpt lat="47.03732435971535" lon="8.698532338068656">
      <ele>1164.8</ele></trkpt>
      <trkpt lat="47.03729993619566" lon="8.698480589383982">
      <ele>1165.6</ele></trkpt>
      <trkpt lat="47.037287489714295" lon="8.69839986974835">
      <ele>1166.4</ele></trkpt>
      <trkpt lat="47.03727168242908" lon="8.698170414961703">
      <ele>1167.2</ele></trkpt>
      <trkpt lat="47.03726669411937" lon="8.698092107568776">
      <ele>1167.9</ele></trkpt>
      <trkpt lat="47.03725330276151" lon="8.698049105652023">
      <ele>1168.7</ele></trkpt>
      <trkpt lat="47.0372315343441" lon="8.698022645215737">
      <ele>1169.5</ele></trkpt>
      <trkpt lat="47.037194176055486" lon="8.698012530597852">
      <ele>1170.2</ele></trkpt>
      <trkpt lat="47.03714294173897" lon="8.698019986308674">
      <ele>1171.0</ele></trkpt>
      <trkpt lat="47.03708580887935" lon="8.698035369909748">
      <ele>1171.8</ele></trkpt>
      <trkpt lat="47.03705425481583" lon="8.698030023497346">
      <ele>1172.5</ele></trkpt>
      <trkpt lat="47.03702556981845" lon="8.698009164365395">
      <ele>1173.3</ele></trkpt>
      <trkpt lat="47.03699441334151" lon="8.697953639467075">
      <ele>1174.1</ele></trkpt>
      <trkpt lat="47.03691771621476" lon="8.697794946229235">
      <ele>1174.8</ele></trkpt>
      <trkpt lat="47.03686893930958" lon="8.697709598032397">
      <ele>1175.6</ele></trkpt>
      <trkpt lat="47.03683737848416" lon="8.697663038290239">
      <ele>1176.4</ele></trkpt>
      <trkpt lat="47.036806330810776" lon="8.697642689816753">
      <ele>1177.2</ele></trkpt>
      <trkpt lat="47.03678372181575" lon="8.69763872473677">
      <ele>1177.9</ele></trkpt>
      <trkpt lat="47.03676238826505" lon="8.697648066812635">
      <ele>1178.7</ele></trkpt>
      <trkpt lat="47.036741283158086" lon="8.697671849428449">
      <ele>1179.4</ele></trkpt>
      <trkpt lat="47.03670487023951" lon="8.697679705905003">
      <ele>1180.1</ele></trkpt>
      <trkpt lat="47.036663687235254" lon="8.697682831686457">
      <ele>1180.7</ele></trkpt>
      <trkpt lat="47.03660021689758" lon="8.69768547383775">
      <ele>1181.4</ele></trkpt>
      <trkpt lat="47.03652536675749" lon="8.697697099477358">
      <ele>1182.1</ele></trkpt>
      <trkpt lat="47.03647705466751" lon="8.697735862782487">
      <ele>1182.8</ele></trkpt>
      <trkpt lat="47.03642654066081" lon="8.697792470175138">
      <ele>1183.5</ele></trkpt>
      <trkpt lat="47.03639179217033" lon="8.697851158168426">
      <ele>1184.1</ele></trkpt>
      <trkpt lat="47.0363630857065" lon="8.697882275717804">
      <ele>1184.8</ele></trkpt>
      <trkpt lat="47.036340705134506" lon="8.697892751009894">
      <ele>1185.5</ele></trkpt>
      <trkpt lat="47.03630511170003" lon="8.697883309695701">
      <ele>1186.2</ele></trkpt>
      <trkpt lat="47.03623777409943" lon="8.697854687942986">
      <ele>1186.9</ele></trkpt>
      <trkpt lat="47.0362113966622" lon="8.697850634356003">
      <ele>1187.5</ele></trkpt>
      <trkpt lat="47.03618560831974" lon="8.697859305855026">
      <ele>1188.2</ele></trkpt>
      <trkpt lat="47.03616595727236" lon="8.697872726937764">
      <ele>1188.9</ele></trkpt>
      <trkpt lat="47.03614711316742" lon="8.697869994986426">
      <ele>1189.6</ele></trkpt>
      <trkpt lat="47.036106521085685" lon="8.697841395848483">
      <ele>1190.3</ele></trkpt>
      <trkpt lat="47.03607812926519" lon="8.697831531517286">
      <ele>1190.9</ele></trkpt>
      <trkpt lat="47.03604889533936" lon="8.697841845902659">
      <ele>1191.6</ele></trkpt>
      <trkpt lat="47.03602148874502" lon="8.697838939294503">
      <ele>1192.3</ele></trkpt>
      <trkpt lat="47.03599536430919" lon="8.697801982008942">
      <ele>1193.6</ele></trkpt>
      <trkpt lat="47.035954037102975" lon="8.697779708189607">
      <ele>1195.0</ele></trkpt>
      <trkpt lat="47.035921787900776" lon="8.697736856921253">
      <ele>1196.3</ele></trkpt>
      <trkpt lat="47.03581794764827" lon="8.69763815163891">
      <ele>1197.6</ele></trkpt>
      <trkpt lat="47.0357880897136" lon="8.697597093614364">
      <ele>1198.9</ele></trkpt>
      <trkpt lat="47.03574103873123" lon="8.697560250796013">
      <ele>1200.2</ele></trkpt>
      <trkpt lat="47.0357112940729" lon="8.697504760624684">
      <ele>1201.6</ele></trkpt>
      <trkpt lat="47.03565621363659" lon="8.697442925714634">
      <ele>1202.9</ele></trkpt>
      <trkpt lat="47.03559238859345" lon="8.697358963680418">
      <ele>1204.2</ele></trkpt>
      <trkpt lat="47.03551385852731" lon="8.697268906571955">
      <ele>1205.5</ele></trkpt>
      <trkpt lat="47.03549394891937" lon="8.697226332317065">
      <ele>1206.9</ele></trkpt>
      <trkpt lat="47.03546387408219" lon="8.697124635460199">
      <ele>1208.2</ele></trkpt>
      <trkpt lat="47.03543664488376" lon="8.697053033082264">
      <ele>1209.5</ele></trkpt>
      <trkpt lat="47.03541606434979" lon="8.69700928528819">
      <ele>1210.8</ele></trkpt>
      <trkpt lat="47.03538745027035" lon="8.696984402521451">
      <ele>1212.2</ele></trkpt>
      <trkpt lat="47.03536029376076" lon="8.696948014016787">
      <ele>1213.5</ele></trkpt>
      <trkpt lat="47.03534414892918" lon="8.696906673095505">
      <ele>1214.8</ele></trkpt>
      <trkpt lat="47.0353400175862" lon="8.696865008687164">
      <ele>1216.1</ele></trkpt>
      <trkpt lat="47.03532558791246" lon="8.696823129063745">
      <ele>1217.5</ele></trkpt>
      <trkpt lat="47.0353129014386" lon="8.696778974463305">
      <ele>1218.8</ele></trkpt>
      <trkpt lat="47.03528945440962" lon="8.696751331355557">
      <ele>1219.7</ele></trkpt>
      <trkpt lat="47.035268657388514" lon="8.696734711384519">
      <ele>1220.5</ele></trkpt>
      <trkpt lat="47.035243544166015" lon="8.696700673729957">
      <ele>1221.4</ele></trkpt>
      <trkpt lat="47.03521920863619" lon="8.696653956482114">
      <ele>1222.3</ele></trkpt>
      <trkpt lat="47.035187457916855" lon="8.696635355949425">
      <ele>1223.2</ele></trkpt>
      <trkpt lat="47.03515194229507" lon="8.69661552237088">
      <ele>1224.0</ele></trkpt>
      <trkpt lat="47.03515176536594" lon="8.696594727964534">
      <ele>1224.9</ele></trkpt>
      <trkpt lat="47.0351580936811" lon="8.696574665072005">
      <ele>1225.8</ele></trkpt>
      <trkpt lat="47.03515511281748" lon="8.696560173575346">
      <ele>1226.6</ele></trkpt>
      <trkpt lat="47.035135066287864" lon="8.696536636849281">
      <ele>1227.5</ele></trkpt>
      <trkpt lat="47.035106294939084" lon="8.696487513045225">
      <ele>1228.4</ele></trkpt>
      <trkpt lat="47.035076578569814" lon="8.69647126306622">
      <ele>1229.2</ele></trkpt>
      <trkpt lat="47.035041598272045" lon="8.696427204484799">
      <ele>1230.1</ele></trkpt>
      <trkpt lat="47.03500705769535" lon="8.69636928736514">
      <ele>1231.0</ele></trkpt>
      <trkpt lat="47.03496933421483" lon="8.696325164595084">
      <ele>1231.8</ele></trkpt>
      <trkpt lat="47.034949260370546" lon="8.696293442911555">
      <ele>1232.7</ele></trkpt>
      <trkpt lat="47.03494843187228" lon="8.696272172769191">
      <ele>1233.6</ele></trkpt>
      <trkpt lat="47.03495730497682" lon="8.696239892841387">
      <ele>1234.5</ele></trkpt>
      <trkpt lat="47.03494742529772" lon="8.69618833054852">
      <ele>1235.3</ele></trkpt>
      <trkpt lat="47.03493865019127" lon="8.69612380688899">
      <ele>1236.2</ele></trkpt>
      <trkpt lat="47.0349511170189" lon="8.696055004679856">
      <ele>1237.0</ele></trkpt>
      <trkpt lat="47.03495831970367" lon="8.696023277688244">
      <ele>1237.7</ele></trkpt>
      <trkpt lat="47.034955401503716" lon="8.695971852284048">
      <ele>1238.5</ele></trkpt>
      <trkpt lat="47.034943110360395" lon="8.695932641839814">
      <ele>1239.2</ele></trkpt>
      <trkpt lat="47.03493448133501" lon="8.69589172770806">
      <ele>1240.0</ele></trkpt>
      <trkpt lat="47.034908071993165" lon="8.695833909507064">
      <ele>1240.8</ele></trkpt>
      <trkpt lat="47.034862291831935" lon="8.695753268279978">
      <ele>1241.5</ele></trkpt>
      <trkpt lat="47.03483357481268" lon="8.69569422506143">
      <ele>1242.3</ele></trkpt>
      <trkpt lat="47.034810816899665" lon="8.695636492628466">
      <ele>1243.0</ele></trkpt>
      <trkpt lat="47.03477018391237" lon="8.695575433436385">
      <ele>1243.8</ele></trkpt>
      <trkpt lat="47.034707986475176" lon="8.695516882339463">
      <ele>1244.6</ele></trkpt>
      <trkpt lat="47.03466958710324" lon="8.695467086531933">
      <ele>1245.3</ele></trkpt>
      <trkpt lat="47.034636368698294" lon="8.695390253523588">
      <ele>1246.1</ele></trkpt>
      <trkpt lat="47.034612692739046" lon="8.695279959017903">
      <ele>1246.8</ele></trkpt>
      <trkpt lat="47.034591663542024" lon="8.695170305570267">
      <ele>1247.6</ele></trkpt>
      <trkpt lat="47.034594318176865" lon="8.695126682360248">
      <ele>1248.4</ele></trkpt>
      <trkpt lat="47.034598270330015" lon="8.695087800189793">
      <ele>1249.1</ele></trkpt>
      <trkpt lat="47.03456925375422" lon="8.695024039959705">
      <ele>1249.9</ele></trkpt>
      <trkpt lat="47.0345268256222" lon="8.694938741483767">
      <ele>1250.6</ele></trkpt>
      <trkpt lat="47.034476640913674" lon="8.694869222429224">
      <ele>1251.4</ele></trkpt>
      <trkpt lat="47.0344170200729" lon="8.694820167247896">
      <ele>1252.7</ele></trkpt>
      <trkpt lat="47.034379039997305" lon="8.694759158093568">
      <ele>1254.1</ele></trkpt>
      <trkpt lat="47.03432469975027" lon="8.69471258208118">
      <ele>1255.4</ele></trkpt>
      <trkpt lat="47.03429547467094" lon="8.694719647959973">
      <ele>1256.7</ele></trkpt>
      <trkpt lat="47.0342548401184" lon="8.694744183889789">
      <ele>1258.1</ele></trkpt>
      <trkpt lat="47.03422789925655" lon="8.69475543488918">
      <ele>1259.4</ele></trkpt>
      <trkpt lat="47.03421333409065" lon="8.694752172733592">
      <ele>1260.7</ele></trkpt>
      <trkpt lat="47.034207534042785" lon="8.694731391781742">
      <ele>1262.0</ele></trkpt>
      <trkpt lat="47.034217181065195" lon="8.694640681647238">
      <ele>1263.4</ele></trkpt>
      <trkpt lat="47.03421103900443" lon="8.694577983977618">
      <ele>1264.7</ele></trkpt>
      <trkpt lat="47.03421390584286" lon="8.694550300546855">
      <ele>1266.0</ele></trkpt>
      <trkpt lat="47.03421394575532" lon="8.694503076863626">
      <ele>1267.4</ele></trkpt>
      <trkpt lat="47.03423599415822" lon="8.69443742063915">
      <ele>1268.7</ele></trkpt>
      <trkpt lat="47.034225853287225" lon="8.694377589954678">
      <ele>1270.0</ele></trkpt>
      <trkpt lat="47.03423382065195" lon="8.694333486091502">
      <ele>1271.3</ele></trkpt>
      <trkpt lat="47.034223217647714" lon="8.694289579141062">
      <ele>1272.7</ele></trkpt>
      <trkpt lat="47.03418844710632" lon="8.694199131984528">
      <ele>1274.0</ele></trkpt>
      <trkpt lat="47.03413832845644" lon="8.694036350756475">
      <ele>1275.3</ele></trkpt>
      <trkpt lat="47.0340896894741" lon="8.693874801849567">
      <ele>1276.7</ele></trkpt>
      <trkpt lat="47.03403038085985" lon="8.693661410679498">
      <ele>1278.0</ele></trkpt>
      <trkpt lat="47.033967539726916" lon="8.693464990249531">
      <ele>1280.0</ele></trkpt>
      <trkpt lat="47.03391233439001" lon="8.69333209185303">
      <ele>1281.9</ele></trkpt>
      <trkpt lat="47.03389183134615" lon="8.693226808273032">
      <ele>1283.9</ele></trkpt>
      <trkpt lat="47.03389984575056" lon="8.693091112272114">
      <ele>1285.8</ele></trkpt>
      <trkpt lat="47.03388928763191" lon="8.692982140241003">
      <ele>1287.8</ele></trkpt>
      <trkpt lat="47.033849407286134" lon="8.69289077241033">
      <ele>1289.8</ele></trkpt>
      <trkpt lat="47.03379030542214" lon="8.692799086928368">
      <ele>1291.7</ele></trkpt>
      <trkpt lat="47.03377272160757" lon="8.692771570280279">
      <ele>1293.7</ele></trkpt>
      <trkpt lat="47.033770135370936" lon="8.692736562062537">
      <ele>1295.6</ele></trkpt>
      <trkpt lat="47.03378155431411" lon="8.692638327892004">
      <ele>1297.6</ele></trkpt>
      <trkpt lat="47.03378052820646" lon="8.6925865006904">
      <ele>1299.6</ele></trkpt>
      <trkpt lat="47.03376641981384" lon="8.69256942072977">
      <ele>1301.5</ele></trkpt>
      <trkpt lat="47.03371201639456" lon="8.692515372254213">
      <ele>1303.5</ele></trkpt>
      <trkpt lat="47.03366223662878" lon="8.692416063122383">
      <ele>1305.4</ele></trkpt>
      <trkpt lat="47.033631324904995" lon="8.69226787890634">
      <ele>1307.4</ele></trkpt>
      <trkpt lat="47.03356958028549" lon="8.692055684502613">
      <ele>1309.4</ele></trkpt>
      <trkpt lat="47.033554417136486" lon="8.69198936923953">
      <ele>1311.3</ele></trkpt>
      <trkpt lat="47.033553971282814" lon="8.691820107654337">
      <ele>1313.3</ele></trkpt>
      <trkpt lat="47.03355347791555" lon="8.691712858550835">
      <ele>1315.2</ele></trkpt>
      <trkpt lat="47.03353263616502" lon="8.691636818608035">
      <ele>1317.2</ele></trkpt>
      <trkpt lat="47.03353200951467" lon="8.691541763886953">
      <ele>1318.9</ele></trkpt>
      <trkpt lat="47.03355319967369" lon="8.691432600140262">
      <ele>1320.6</ele></trkpt>
      <trkpt lat="47.03355584748431" lon="8.691342490305665">
      <ele>1322.4</ele></trkpt>
      <trkpt lat="47.03355895614292" lon="8.691210969887868">
      <ele>1324.1</ele></trkpt>
      <trkpt lat="47.033552435750046" lon="8.691045092848448">
      <ele>1325.8</ele></trkpt>
      <trkpt lat="47.03355317997419" lon="8.690976886081383">
      <ele>1327.5</ele></trkpt>
      <trkpt lat="47.033578767526365" lon="8.690921430373496">
      <ele>1329.2</ele></trkpt>
      <trkpt lat="47.03363107513819" lon="8.690861729860954">
      <ele>1331.0</ele></trkpt>
      <trkpt lat="47.03371521846887" lon="8.690785706360954">
      <ele>1332.7</ele></trkpt>
      <trkpt lat="47.03376069308593" lon="8.690740464659973">
      <ele>1334.4</ele></trkpt>
      <trkpt lat="47.0338083455143" lon="8.690648970552209">
      <ele>1336.1</ele></trkpt>
      <trkpt lat="47.03381723206285" lon="8.690597993148225">
      <ele>1337.8</ele></trkpt>
      <trkpt lat="47.03384698886637" lon="8.690467093900269">
      <ele>1339.6</ele></trkpt>
      <trkpt lat="47.03385621151463" lon="8.690384465992215">
      <ele>1341.3</ele></trkpt>
      <trkpt lat="47.033842727094324" lon="8.690305189883698">
      <ele>1343.0</ele></trkpt>
      <trkpt lat="47.03384531945319" lon="8.690234933735708">
      <ele>1344.7</ele></trkpt>
      <trkpt lat="47.033872878622546" lon="8.690128983272734">
      <ele>1346.4</ele></trkpt>
      <trkpt lat="47.033893280009615" lon="8.690041708082846">
      <ele>1348.2</ele></trkpt>
      <trkpt lat="47.033870981569926" lon="8.689971279163268">
      <ele>1349.9</ele></trkpt>
      <trkpt lat="47.03386231398255" lon="8.689893273401635">
      <ele>1351.6</ele></trkpt>
      <trkpt lat="47.03387099502405" lon="8.689792619368742">
      <ele>1352.3</ele></trkpt>
      <trkpt lat="47.03387508818616" lon="8.689740635235772">
      <ele>1353.0</ele></trkpt>
      <trkpt lat="47.033815501148155" lon="8.689736153441695">
      <ele>1353.7</ele></trkpt>
      <trkpt lat="47.033765089283214" lon="8.689730109299546">
      <ele>1354.3</ele></trkpt>
      <trkpt lat="47.03374741837811" lon="8.689702262706795">
      <ele>1355.0</ele></trkpt>
      <trkpt lat="47.03369691127629" lon="8.689648005418228">
      <ele>1355.7</ele></trkpt>
      <trkpt lat="47.03369529843032" lon="8.68964658621578">
      <ele>1356.4</ele></trkpt>
      <trkpt lat="47.03361443623937" lon="8.689575989499149">
      <ele>1357.1</ele></trkpt>
      <trkpt lat="47.03353940969577" lon="8.689535371353848">
      <ele>1357.8</ele></trkpt>
      <trkpt lat="47.033519686828924" lon="8.689510898170408">
      <ele>1358.4</ele></trkpt>
      <trkpt lat="47.03350860588272" lon="8.689479310674773">
      <ele>1359.1</ele></trkpt>
      <trkpt lat="47.03349261533446" lon="8.68943925341404">
      <ele>1359.8</ele></trkpt>
      <trkpt lat="47.03347692963584" lon="8.689372045256302">
      <ele>1360.5</ele></trkpt>
      <trkpt lat="47.033473645916196" lon="8.689344810671368">
      <ele>1361.2</ele></trkpt>
      <trkpt lat="47.03346567100551" lon="8.68932869045953">
      <ele>1361.9</ele></trkpt>
      <trkpt lat="47.03344862914238" lon="8.689307503587791">
      <ele>1362.6</ele></trkpt>
      <trkpt lat="47.033434202711845" lon="8.689294798789891">
      <ele>1363.2</ele></trkpt>
      <trkpt lat="47.03340939714581" lon="8.689278562547663">
      <ele>1363.9</ele></trkpt>
      <trkpt lat="47.033392411778784" lon="8.689264574423744">
      <ele>1364.6</ele></trkpt>
      <trkpt lat="47.0333697492357" lon="8.689247335531817">
      <ele>1365.3</ele></trkpt>
      <trkpt lat="47.03335212375522" lon="8.68922604301357">
      <ele>1365.8</ele></trkpt>
      <trkpt lat="47.03333867471546" lon="8.689215282102078">
      <ele>1366.3</ele></trkpt>
      <trkpt lat="47.033328190550904" lon="8.689194142920208">
      <ele>1366.9</ele></trkpt>
      <trkpt lat="47.033313953627875" lon="8.689189639982828">
      <ele>1367.4</ele></trkpt>
      <trkpt lat="47.0333106081653" lon="8.68916971985616">
      <ele>1367.9</ele></trkpt>
      <trkpt lat="47.033319395507924" lon="8.689150082550018">
      <ele>1368.5</ele></trkpt>
      <trkpt lat="47.033335246812136" lon="8.689136873069105">
      <ele>1369.0</ele></trkpt>
      <trkpt lat="47.033340443100435" lon="8.689118204676712">
      <ele>1369.5</ele></trkpt>
      <trkpt lat="47.033330712684375" lon="8.689093938339232">
      <ele>1370.0</ele></trkpt>
      <trkpt lat="47.0333230315283" lon="8.689078101371953">
      <ele>1370.5</ele></trkpt>
      <trkpt lat="47.03332970341422" lon="8.689055283152918">
      <ele>1371.1</ele></trkpt>
      <trkpt lat="47.03332358900258" lon="8.689026930052727">
      <ele>1371.6</ele></trkpt>
      <trkpt lat="47.03331375710307" lon="8.688991332406715">
      <ele>1372.1</ele></trkpt>
      <trkpt lat="47.033310528903456" lon="8.688979638724954">
      <ele>1372.6</ele></trkpt>
      <trkpt lat="47.033305855684915" lon="8.688950292915658">
      <ele>1373.2</ele></trkpt>
      <trkpt lat="47.03329182133953" lon="8.688928018425935">
      <ele>1373.7</ele></trkpt>
      <trkpt lat="47.033275637154325" lon="8.688905720160529">
      <ele>1374.2</ele></trkpt>
      <trkpt lat="47.033263564962425" lon="8.688889136165269">
      <ele>1374.8</ele></trkpt>
      <trkpt lat="47.03326839458569" lon="8.688874393443902">
      <ele>1375.3</ele></trkpt>
      <trkpt lat="47.033288971979566" lon="8.688821254508929">
      <ele>1375.8</ele></trkpt>
      <trkpt lat="47.0333279987937" lon="8.688785624443826">
      <ele>1376.8</ele></trkpt>
      <trkpt lat="47.03340140919553" lon="8.688748335024925">
      <ele>1377.7</ele></trkpt>
      <trkpt lat="47.03344672369544" lon="8.688717719790393">
      <ele>1378.7</ele></trkpt>
      <trkpt lat="47.03347892150596" lon="8.68866729877014">
      <ele>1379.7</ele></trkpt>
      <trkpt lat="47.033529882672504" lon="8.688578301499625">
      <ele>1380.6</ele></trkpt>
      <trkpt lat="47.03354712303745" lon="8.688525097604915">
      <ele>1381.6</ele></trkpt>
      <trkpt lat="47.03353903345372" lon="8.68850297478858">
      <ele>1382.6</ele></trkpt>
      <trkpt lat="47.03349932058758" lon="8.68847769416163">
      <ele>1383.5</ele></trkpt>
      <trkpt lat="47.03344773972906" lon="8.688471597688986">
      <ele>1384.5</ele></trkpt>
      <trkpt lat="47.03338782121112" lon="8.68846533329771">
      <ele>1385.4</ele></trkpt>
      <trkpt lat="47.033306944138424" lon="8.688395212122582">
      <ele>1386.4</ele></trkpt>
      <trkpt lat="47.03327891402013" lon="8.688367756471182">
      <ele>1387.4</ele></trkpt>
      <trkpt lat="47.03326926666069" lon="8.688335847493041">
      <ele>1388.3</ele></trkpt>
      <trkpt lat="47.03328633014869" lon="8.688299705470728">
      <ele>1389.3</ele></trkpt>
      <trkpt lat="47.03333190991359" lon="8.688244714477156">
      <ele>1390.3</ele></trkpt>
      <trkpt lat="47.03341260879292" lon="8.688178343985184">
      <ele>1391.2</ele></trkpt>
      <trkpt lat="47.0334549932068" lon="8.688111107232613">
      <ele>1392.2</ele></trkpt>
      <trkpt lat="47.03347767590168" lon="8.68801659561453">
      <ele>1393.2</ele></trkpt>
      <trkpt lat="47.03348603768186" lon="8.687860815919654">
      <ele>1394.1</ele></trkpt>
      <trkpt lat="47.03352742101419" lon="8.687732620970307">
      <ele>1395.1</ele></trkpt>
      <trkpt lat="47.03355374072723" lon="8.687611390956983">
      <ele>1396.1</ele></trkpt>
      <trkpt lat="47.03356019049213" lon="8.687477500826033">
      <ele>1397.1</ele></trkpt>
      <trkpt lat="47.033561091745746" lon="8.687394666038053">
      <ele>1398.1</ele></trkpt>
      <trkpt lat="47.03353219278685" lon="8.687294071735536">
      <ele>1399.1</ele></trkpt>
      <trkpt lat="47.03351477312758" lon="8.687210823746073">
      <ele>1400.1</ele></trkpt>
      <trkpt lat="47.03349433488542" lon="8.687098242264177">
      <ele>1401.1</ele></trkpt>
      <trkpt lat="47.03347475334876" lon="8.686907706780138">
      <ele>1402.1</ele></trkpt>
      <trkpt lat="47.033485990919544" lon="8.686793428263202">
      <ele>1403.1</ele></trkpt>
      <trkpt lat="47.03350274980941" lon="8.686630541071848">
      <ele>1404.1</ele></trkpt>
      <trkpt lat="47.03350441874655" lon="8.686477039677694">
      <ele>1405.1</ele></trkpt>
      <trkpt lat="47.033509141647755" lon="8.686350438385391">
      <ele>1406.1</ele></trkpt>
      <trkpt lat="47.03352003434707" lon="8.686267836043017">
      <ele>1407.1</ele></trkpt>
      <trkpt lat="47.033545990376105" lon="8.686178268135853">
      <ele>1408.1</ele></trkpt>
      <trkpt lat="47.03358554911519" lon="8.686064647876382">
      <ele>1409.1</ele></trkpt>
      <trkpt lat="47.033667014256956" lon="8.685927646351395">
      <ele>1410.1</ele></trkpt>
      <trkpt lat="47.033727965556395" lon="8.685838878472788">
      <ele>1411.1</ele></trkpt>
      <trkpt lat="47.03380977458647" lon="8.685670199702374">
      <ele>1412.1</ele></trkpt>
      <trkpt lat="47.03388103534806" lon="8.685552446905888">
      <ele>1413.1</ele></trkpt>
      <trkpt lat="47.0339305328535" lon="8.685443924960847">
      <ele>1414.1</ele></trkpt>
      <trkpt lat="47.03399065761824" lon="8.685277162147054">
      <ele>1415.1</ele></trkpt>
      <trkpt lat="47.03404098387274" lon="8.685093131573659">
      <ele>1416.2</ele></trkpt>
      <trkpt lat="47.03411103825784" lon="8.684931493531888">
      <ele>1417.3</ele></trkpt>
      <trkpt lat="47.03418397141447" lon="8.684813751643139">
      <ele>1418.3</ele></trkpt>
      <trkpt lat="47.03421967145195" lon="8.684723145103817">
      <ele>1419.4</ele></trkpt>
      <trkpt lat="47.034247938758625" lon="8.68466253741605">
      <ele>1420.5</ele></trkpt>
      <trkpt lat="47.03427735602348" lon="8.684583837611058">
      <ele>1421.6</ele></trkpt>
      <trkpt lat="47.034290351260594" lon="8.68452704623567">
      <ele>1422.7</ele></trkpt>
      <trkpt lat="47.03430240824764" lon="8.684468838280385">
      <ele>1423.7</ele></trkpt>
      <trkpt lat="47.03431656837962" lon="8.68439257352216">
      <ele>1424.8</ele></trkpt>
      <trkpt lat="47.034315477602085" lon="8.684317349356107">
      <ele>1425.9</ele></trkpt>
      <trkpt lat="47.0343156573372" lon="8.68421291728233">
      <ele>1427.0</ele></trkpt>
      <trkpt lat="47.03431830435749" lon="8.684144740567124">
      <ele>1428.1</ele></trkpt>
      <trkpt lat="47.03433446776298" lon="8.684058772020418">
      <ele>1429.1</ele></trkpt>
      <trkpt lat="47.03434597892992" lon="8.683962958389223">
      <ele>1430.2</ele></trkpt>
      <trkpt lat="47.03436307429437" lon="8.683879800909844">
      <ele>1431.3</ele></trkpt>
      <trkpt lat="47.034359138236255" lon="8.683803115890433">
      <ele>1432.4</ele></trkpt>
      <trkpt lat="47.03435149729952" lon="8.683717989464576">
      <ele>1433.5</ele></trkpt>
      <trkpt lat="47.03432502759947" lon="8.683612925711202">
      <ele>1434.5</ele></trkpt>
      <trkpt lat="47.03428051622474" lon="8.683503272269865">
      <ele>1435.6</ele></trkpt>
      <trkpt lat="47.03423382625864" lon="8.68341863469842">
      <ele>1436.7</ele></trkpt>
      <trkpt lat="47.03420924773482" lon="8.68331502312747">
      <ele>1437.4</ele></trkpt>
      <trkpt lat="47.03420220360385" lon="8.683261937729576">
      <ele>1438.2</ele></trkpt>
      <trkpt lat="47.03418926714471" lon="8.683225426454953">
      <ele>1438.9</ele></trkpt>
      <trkpt lat="47.03415722390506" lon="8.683195445731467">
      <ele>1439.6</ele></trkpt>
      <trkpt lat="47.03411547507318" lon="8.683181937512897">
      <ele>1440.3</ele></trkpt>
      <trkpt lat="47.03407079956446" lon="8.68317533520642">
      <ele>1441.0</ele></trkpt>
      <trkpt lat="47.033997764568085" lon="8.683149969497212">
      <ele>1441.8</ele></trkpt>
      <trkpt lat="47.03394749871504" lon="8.683132092669695">
      <ele>1442.5</ele></trkpt>
      <trkpt lat="47.03390972032923" lon="8.683103360690945">
      <ele>1443.2</ele></trkpt>
      <trkpt lat="47.03387885570685" lon="8.68307502597684">
      <ele>1444.0</ele></trkpt>
      <trkpt lat="47.03387885570685" lon="8.68307502597684">
      <ele>1444.7</ele></trkpt>
      <trkpt lat="47.0339115718351" lon="8.683052074092624">
      <ele>1445.4</ele></trkpt>
      <trkpt lat="47.03392754556687" lon="8.682980206921236">
      <ele>1446.1</ele></trkpt>
      <trkpt lat="47.033933094054674" lon="8.682913190071588">
      <ele>1446.9</ele></trkpt>
      <trkpt lat="47.03397901579083" lon="8.682876202062296">
      <ele>1447.6</ele></trkpt>
      <trkpt lat="47.03401080510584" lon="8.682855754869205">
      <ele>1448.3</ele></trkpt>
      <trkpt lat="47.03404312621828" lon="8.682825254054146">
      <ele>1449.0</ele></trkpt>
      <trkpt lat="47.034088525253" lon="8.682797477594066">
      <ele>1449.8</ele></trkpt>
      <trkpt lat="47.034114772172614" lon="8.682767967427042">
      <ele>1450.5</ele></trkpt>
      <trkpt lat="47.03415971091113" lon="8.682760246323067">
      <ele>1451.2</ele></trkpt>
      <trkpt lat="47.03418923158217" lon="8.682739114791088">
      <ele>1452.5</ele></trkpt>
      <trkpt lat="47.034238018056755" lon="8.682734956630206">
      <ele>1453.7</ele></trkpt>
      <trkpt lat="47.034259411951474" lon="8.682705820658148">
      <ele>1455.0</ele></trkpt>
      <trkpt lat="47.03430616389028" lon="8.682687680804806">
      <ele>1456.3</ele></trkpt>
      <trkpt lat="47.03433669345485" lon="8.682698796886001">
      <ele>1457.5</ele></trkpt>
      <trkpt lat="47.03436197495935" lon="8.682718515133788">
      <ele>1458.8</ele></trkpt>
      <trkpt lat="47.03436862277764" lon="8.68269862942328">
      <ele>1460.1</ele></trkpt>
      <trkpt lat="47.03438431822005" lon="8.682679808802312">
      <ele>1461.3</ele></trkpt>
      <trkpt lat="47.034391147614485" lon="8.68263901896473">
      <ele>1462.6</ele></trkpt>
      <trkpt lat="47.03441662953145" lon="8.682636096638143">
      <ele>1463.8</ele></trkpt>
      <trkpt lat="47.034449952285655" lon="8.682672541190378">
      <ele>1465.1</ele></trkpt>
      <trkpt lat="47.034466971080555" lon="8.682651145900767">
      <ele>1466.4</ele></trkpt>
      <trkpt lat="47.0344828596233" lon="8.682659330311019">
      <ele>1467.6</ele></trkpt>
      <trkpt lat="47.03450376435515" lon="8.682637143517002">
      <ele>1468.9</ele></trkpt>
      <trkpt lat="47.034533757028186" lon="8.682660444811773">
      <ele>1470.2</ele></trkpt>
      <trkpt lat="47.03455635292138" lon="8.682690561608183">
      <ele>1471.4</ele></trkpt>
      <trkpt lat="47.0345833021436" lon="8.682667633366178">
      <ele>1472.7</ele></trkpt>
      <trkpt lat="47.03460330736439" lon="8.682698558557114">
      <ele>1474.0</ele></trkpt>
      <trkpt lat="47.03465516647029" lon="8.682736275280378">
      <ele>1475.2</ele></trkpt>
      <trkpt lat="47.0347103258608" lon="8.682792371734049">
      <ele>1476.5</ele></trkpt>
      <trkpt lat="47.03473786168345" lon="8.68280081319299">
      <ele>1477.7</ele></trkpt>
      <trkpt lat="47.034753757568176" lon="8.682759351764123">
      <ele>1478.9</ele></trkpt>
      <trkpt lat="47.034786016011864" lon="8.68281928575462">
      <ele>1480.1</ele></trkpt>
      <trkpt lat="47.03479810442268" lon="8.682818684513972">
      <ele>1481.3</ele></trkpt>
      <trkpt lat="47.03480810920051" lon="8.682759664870522">
      <ele>1482.5</ele></trkpt>
      <trkpt lat="47.0348300510708" lon="8.682767121306474">
      <ele>1483.6</ele></trkpt>
      <trkpt lat="47.03484129544451" lon="8.682763881981899">
      <ele>1484.8</ele></trkpt>
      <trkpt lat="47.0348726863446" lon="8.682726240435107">
      <ele>1486.0</ele></trkpt>
      <trkpt lat="47.034875131116415" lon="8.68269407249345">
      <ele>1487.2</ele></trkpt>
      <trkpt lat="47.03489527972291" lon="8.68270844805998">
      <ele>1488.4</ele></trkpt>
      <trkpt lat="47.03493464637635" lon="8.68274503314931">
      <ele>1489.6</ele></trkpt>
      <trkpt lat="47.03496472540101" lon="8.682757875840979">
      <ele>1490.8</ele></trkpt>
      <trkpt lat="47.03498895039377" lon="8.682750568987888">
      <ele>1492.0</ele></trkpt>
      <trkpt lat="47.035011717895856" lon="8.68276153154722">
      <ele>1493.2</ele></trkpt>
      <trkpt lat="47.03501693508572" lon="8.682707637642496">
      <ele>1494.3</ele></trkpt>
      <trkpt lat="47.03504053736153" lon="8.68272209334622">
      <ele>1495.5</ele></trkpt>
      <trkpt lat="47.03505841803684" lon="8.682651058289373">
      <ele>1496.7</ele></trkpt>
      <trkpt lat="47.03508642653487" lon="8.6825984560125">
      <ele>1497.9</ele></trkpt>
      <trkpt lat="47.03513205629929" lon="8.682538590962693">
      <ele>1499.1</ele></trkpt>
      <trkpt lat="47.035174076737334" lon="8.68250545885577">
      <ele>1500.3</ele></trkpt>
      <trkpt lat="47.035244542225605" lon="8.682460788423459">
      <ele>1504.2</ele></trkpt>
      <trkpt lat="47.03529001354609" lon="8.682415538374158">
      <ele>1508.1</ele></trkpt>
      <trkpt lat="47.03532425105632" lon="8.682331039477397">
      <ele>1512.0</ele></trkpt>
      <trkpt lat="47.03539741897232" lon="8.68219137498012">
      <ele>1515.9</ele></trkpt>
      <trkpt lat="47.0354563421763" lon="8.682134251694487">
      <ele>1519.8</ele></trkpt>
      <trkpt lat="47.03555496195498" lon="8.682104865338633">
      <ele>1523.7</ele></trkpt>
      <trkpt lat="47.03566580135376" lon="8.682024562483637">
      <ele>1527.6</ele></trkpt>
      <trkpt lat="47.035702529480005" lon="8.681864577612778">
      <ele>1531.5</ele></trkpt>
      <trkpt lat="47.03573095682568" lon="8.681855499141044">
      <ele>1535.4</ele></trkpt>
      <trkpt lat="47.03581910051472" lon="8.681869713511373">
      <ele>1539.3</ele></trkpt>
      <trkpt lat="47.03591286066468" lon="8.681828015886456">
      <ele>1543.3</ele></trkpt>
      <trkpt lat="47.035950029702434" lon="8.681780138015293">
      <ele>1547.2</ele></trkpt>
      <trkpt lat="47.03602028375419" lon="8.681754962079864">
      <ele>1551.1</ele></trkpt>
      <trkpt lat="47.03610222943418" lon="8.681727609511585">
      <ele>1555.0</ele></trkpt>
      <trkpt lat="47.03615528985831" lon="8.681750787614805">
      <ele>1558.9</ele></trkpt>
      <trkpt lat="47.03617129595808" lon="8.681812082847356">
      <ele>1562.8</ele></trkpt>
      <trkpt lat="47.036235009820906" lon="8.68192810513667">
      <ele>1566.7</ele></trkpt>
      <trkpt lat="47.03627910032178" lon="8.682011973724382">
      <ele>1570.6</ele></trkpt>
      <trkpt lat="47.036314543837584" lon="8.681968924353699">
      <ele>1574.5</ele></trkpt>
      <trkpt lat="47.03638972032277" lon="8.682104727127397">
      <ele>1578.4</ele></trkpt>
      <trkpt lat="47.03640894852342" lon="8.682175834838139">
      <ele>1581.2</ele></trkpt>
      <trkpt lat="47.036432657607236" lon="8.682293364981991">
      <ele>1584.1</ele></trkpt>
      <trkpt lat="47.03646195692061" lon="8.682357416413529">
      <ele>1587.0</ele></trkpt>
      <trkpt lat="47.0365084147289" lon="8.682375547184366">
      <ele>1589.8</ele></trkpt>
      <trkpt lat="47.03658940105856" lon="8.68243591530837">
      <ele>1592.7</ele></trkpt>
      <trkpt lat="47.0366743667536" lon="8.68243788535343">
      <ele>1595.5</ele></trkpt>
      <trkpt lat="47.03670228364441" lon="8.68247508760337">
      <ele>1598.4</ele></trkpt>
      <trkpt lat="47.03675434968645" lon="8.682590841740382">
      <ele>1601.2</ele></trkpt>
      <trkpt lat="47.03679160765197" lon="8.682689185779346">
      <ele>1604.1</ele></trkpt>
      <trkpt lat="47.036823564676695" lon="8.682776103635222">
      <ele>1606.9</ele></trkpt>
      <trkpt lat="47.03684237144588" lon="8.682846215489626">
      <ele>1609.8</ele></trkpt>
      <trkpt lat="47.036864049695986" lon="8.682907038111784">
      <ele>1612.6</ele></trkpt>
      <trkpt lat="47.03688309873612" lon="8.682922428330137">
      <ele>1615.5</ele></trkpt>
      <trkpt lat="47.0369060581363" lon="8.682925645277406">
      <ele>1618.3</ele></trkpt>
      <trkpt lat="47.03693887073152" lon="8.682927814376075">
      <ele>1621.2</ele></trkpt>
      <trkpt lat="47.036960103228566" lon="8.682925188242942">
      <ele>1624.0</ele></trkpt>
      <trkpt lat="47.03697892567754" lon="8.682938244131531">
      <ele>1626.9</ele></trkpt>
      <trkpt lat="47.03700922016229" lon="8.682995108634154">
      <ele>1629.7</ele></trkpt>
      <trkpt lat="47.0370283743094" lon="8.683054741295313">
      <ele>1632.6</ele></trkpt>
      <trkpt lat="47.037040285664666" lon="8.683078769279634">
      <ele>1635.4</ele></trkpt>
      <trkpt lat="47.03705618864821" lon="8.683078980299323">
      <ele>1636.5</ele></trkpt>
      <trkpt lat="47.03707458071349" lon="8.683111817154371">
      <ele>1637.7</ele></trkpt>
      <trkpt lat="47.03708213206169" lon="8.683142191847313">
      <ele>1638.8</ele></trkpt>
      <trkpt lat="47.03711209135863" lon="8.683181008038142">
      <ele>1640.0</ele></trkpt>
      <trkpt lat="47.03713793619661" lon="8.683226755633456">
      <ele>1641.1</ele></trkpt>
      <trkpt lat="47.03715736383058" lon="8.683312594131351">
      <ele>1642.3</ele></trkpt>
      <trkpt lat="47.03718916304273" lon="8.6833974302019">
      <ele>1643.4</ele></trkpt>
      <trkpt lat="47.0372028501746" lon="8.683447672510594">
      <ele>1644.6</ele></trkpt>
      <trkpt lat="47.037211835764744" lon="8.683459434504275">
      <ele>1645.7</ele></trkpt>
      <trkpt lat="47.037228015829406" lon="8.683457322948472">
      <ele>1646.8</ele></trkpt>
      <trkpt lat="47.03725348400655" lon="8.68348967946654">
      <ele>1648.0</ele></trkpt>
      <trkpt lat="47.03727408475758" lon="8.683502171586166">
      <ele>1649.1</ele></trkpt>
      <trkpt lat="47.03729063781026" lon="8.683514609258093">
      <ele>1650.3</ele></trkpt>
      <trkpt lat="47.03729821430552" lon="8.68354265559429">
      <ele>1651.4</ele></trkpt>
      <trkpt lat="47.037306645545236" lon="8.683531705686187">
      <ele>1652.6</ele></trkpt>
      <trkpt lat="47.03733147616019" lon="8.68352330756958">
      <ele>1653.7</ele></trkpt>
      <trkpt lat="47.037344733264796" lon="8.683509508893325">
      <ele>1654.9</ele></trkpt>
      <trkpt lat="47.03735771324084" lon="8.68347066240066">
      <ele>1656.0</ele></trkpt>
      <trkpt lat="47.03737160124656" lon="8.68344348258612">
      <ele>1657.2</ele></trkpt>
      <trkpt lat="47.03738390513997" lon="8.683451216042052">
      <ele>1658.3</ele></trkpt>
      <trkpt lat="47.037396617116414" lon="8.683469433459944">
      <ele>1659.5</ele></trkpt>
      <trkpt lat="47.03742008386276" lon="8.683471491302834">
      <ele>1660.6</ele></trkpt>
      <trkpt lat="47.037425853186626" lon="8.683503588184019">
      <ele>1661.8</ele></trkpt>
      <trkpt lat="47.03745049891604" lon="8.683515555751065">
      <ele>1662.9</ele></trkpt>
      <trkpt lat="47.037453664039425" lon="8.683556342900108">
      <ele>1664.0</ele></trkpt>
      <trkpt lat="47.037476037718065" lon="8.683567112941903">
      <ele>1665.2</ele></trkpt>
      <trkpt lat="47.037501174377844" lon="8.683552892511152">
      <ele>1666.3</ele></trkpt>
      <trkpt lat="47.037511827323584" lon="8.683575154636017">
      <ele>1667.5</ele></trkpt>
      <trkpt lat="47.03753333963362" lon="8.683570785085614">
      <ele>1668.6</ele></trkpt>
      <trkpt lat="47.03754656454568" lon="8.683616358769646">
      <ele>1669.8</ele></trkpt>
      <trkpt lat="47.037574461804134" lon="8.68365865430486">
      <ele>1671.0</ele></trkpt>
      <trkpt lat="47.037579673338115" lon="8.683696554609634">
      <ele>1672.1</ele></trkpt>
      <trkpt lat="47.03759128221243" lon="8.683725234235542">
      <ele>1673.2</ele></trkpt>
      <trkpt lat="47.037615433970444" lon="8.683708096016602">
      <ele>1674.4</ele></trkpt>
      <trkpt lat="47.037635311718645" lon="8.68374328389625">
      <ele>1675.5</ele></trkpt>
      <trkpt lat="47.03766878047457" lon="8.683757114445974">
      <ele>1676.7</ele></trkpt>
      <trkpt lat="47.03768034153049" lon="8.683791030295348">
      <ele>1677.8</ele></trkpt>
      <trkpt lat="47.03770509282165" lon="8.683790775808175">
      <ele>1679.0</ele></trkpt>
      <trkpt lat="47.03771951632775" lon="8.68381541525357">
      <ele>1680.1</ele></trkpt>
      <trkpt lat="47.037746811463975" lon="8.683812864367008">
      <ele>1681.3</ele></trkpt>
      <trkpt lat="47.03777848211215" lon="8.68385810325989">
      <ele>1682.9</ele></trkpt>
      <trkpt lat="47.03781595168334" lon="8.683902845191659">
      <ele>1684.6</ele></trkpt>
      <trkpt lat="47.037844869062475" lon="8.683916609707186">
      <ele>1686.2</ele></trkpt>
      <trkpt lat="47.037851537241366" lon="8.683905645135207">
      <ele>1687.9</ele></trkpt>
      <trkpt lat="47.03785597139025" lon="8.683862612806218">
      <ele>1689.5</ele></trkpt>
      <trkpt lat="47.03786090904034" lon="8.683819605317147">
      <ele>1691.2</ele></trkpt>
      <trkpt lat="47.03787713334937" lon="8.683813415573736">
      <ele>1692.8</ele></trkpt>
      <trkpt lat="47.03787503000415" lon="8.683766810124624">
      <ele>1694.5</ele></trkpt>
      <trkpt lat="47.03788971521399" lon="8.683762347948408">
      <ele>1696.1</ele></trkpt>
      <trkpt lat="47.03789464669046" lon="8.683719906118819">
      <ele>1697.8</ele></trkpt>
      <trkpt lat="47.03792130361428" lon="8.683733065408255">
      <ele>1699.4</ele></trkpt>
      <trkpt lat="47.03793371949462" lon="8.683727984706913">
      <ele>1701.0</ele></trkpt>
      <trkpt lat="47.037930225840896" lon="8.683695927156302">
      <ele>1702.7</ele></trkpt>
      <trkpt lat="47.03795987619216" lon="8.683712616750519">
      <ele>1704.3</ele></trkpt>
      <trkpt lat="47.03800676471245" lon="8.683749905629561">
      <ele>1706.0</ele></trkpt>
      <trkpt lat="47.03806723848731" lon="8.683825250131896">
      <ele>1707.6</ele></trkpt>
      <trkpt lat="47.03812638154395" lon="8.683902182481084">
      <ele>1709.3</ele></trkpt>
      <trkpt lat="47.038166518259715" lon="8.683888481314366">
      <ele>1710.9</ele></trkpt>
      <trkpt lat="47.03819039467633" lon="8.683837846680461">
      <ele>1712.6</ele></trkpt>
      <trkpt lat="47.03825170382369" lon="8.683868522575409">
      <ele>1714.2</ele></trkpt>
      <trkpt lat="47.038294949601855" lon="8.683723289099234">
      <ele>1719.0</ele></trkpt>
      <trkpt lat="47.0383559690519" lon="8.683627235667721">
      <ele>1723.8</ele></trkpt>
      <trkpt lat="47.03837564550025" lon="8.683656931966489">
      <ele>1728.6</ele></trkpt>
      <trkpt lat="47.03839266325475" lon="8.68362320526989">
      <ele>1733.4</ele></trkpt>
      <trkpt lat="47.03842359929308" lon="8.683689732219769">
      <ele>1738.2</ele></trkpt>
      <trkpt lat="47.038475664092594" lon="8.683805491251565">
      <ele>1743.0</ele></trkpt>
      <trkpt lat="47.0385098749733" lon="8.68387696333041">
      <ele>1747.8</ele></trkpt>
      <trkpt lat="47.03854351458839" lon="8.683848504526132">
      <ele>1752.6</ele></trkpt>
      <trkpt lat="47.03856063814553" lon="8.683805029278256">
      <ele>1757.4</ele></trkpt>
      <trkpt lat="47.03859136396473" lon="8.683737498900365">
      <ele>1762.2</ele></trkpt>
      <trkpt lat="47.038623859355376" lon="8.683660258545782">
      <ele>1767.1</ele></trkpt>
      <trkpt lat="47.03864661703922" lon="8.683592490439937">
      <ele>1771.9</ele></trkpt>
      <trkpt lat="47.038815671098035" lon="8.683777505062075">
      <ele>1776.7</ele></trkpt>
      <trkpt lat="47.0391183324908" lon="8.683862612756165">
      <ele>1781.5</ele></trkpt>
      <trkpt lat="47.03929143043409" lon="8.684077181009933">
      <ele>1786.3</ele></trkpt>
      <trkpt lat="47.03946452797038" lon="8.684291750648889">
      <ele>1791.1</ele></trkpt>
      <trkpt lat="47.03976484864864" lon="8.684526822588543">
      <ele>1795.9</ele></trkpt>
      <trkpt lat="47.040065168827645" lon="8.68476189716034">
      <ele>1800.7</ele></trkpt>
      <trkpt lat="47.04036548850739" lon="8.684996974364337">
      <ele>1805.5</ele></trkpt>
      <trkpt lat="47.04072046606592" lon="8.684782313933471">
      <ele>1810.3</ele></trkpt>
      </trkseg>
  </trk>
</gpx>