<?xml version="1.0" encoding="UTF-8"?>
<gpx version="1.1" creator="hike-planner" xmlns="http://www.topografix.com/GPX/1/1">
  <metadata><name>Säntis -> Säntis-Alpstein Traverse</name>
    <desc>Routed from OSM (ODbL); elevations from SwissTopo / Open-Elevation</desc>
  </metadata>
  <wpt lat="47.251503" lon="9.269244">
    <ele>1375.0</ele>
    <name>Säntis</name>
  </wpt>
  <wpt lat="47.251655" lon="9.258288">
    <ele>1198.8</ele>
    <name>Säntis-Alpstein Traverse</name>
  </wpt>
  <trk>
    <name>Säntis -> Säntis-Alpstein Traverse</name>
    <trkseg>
      <trkpt lat="47.251503" lon="9.269244">
        <ele>1375.0</ele>
      </trkpt>
      <trkpt lat="47.251453" lon="9.269090">
        <ele>1376.7</ele>
      </trkpt>
      <trkpt lat="47.251413" lon="9.268940">
        <ele>1378.5</ele>
      </trkpt>
      <trkpt lat="47.251309" lon="9.268771">
        <ele>1381.2</ele>
      </trkpt>
      <trkpt lat="47.251207" lon="9.268632">
        <ele>1382.4</ele>
      </trkpt>
      <trkpt lat="47.251171" lon="9.268495">
        <ele>1384.1</ele>
      </trkpt>
      <trkpt lat="47.251129" lon="9.268332">
        <ele>1385.8</ele>
      </trkpt>
      <trkpt lat="47.251097" lon="9.268168">
        <ele>1387.5</ele>
      </trkpt>
      <trkpt lat="47.251077" lon="9.268044">
        <ele>1389.0</ele>
      </trkpt>
      <trkpt lat="47.251037" lon="9.267921">
        <ele>1390.2</ele>
      </trkpt>
      <trkpt lat="47.251025" lon="9.267838">
        <ele>1390.9</ele>
      </trkpt>
      <trkpt lat="47.251007" lon="9.267765">
        <ele>1391.8</ele>
      </trkpt>
      <trkpt lat="47.250962" lon="9.267665">
        <ele>1392.8</ele>
      </trkpt>
      <trkpt lat="47.250918" lon="9.267473">
        <ele>1395.2</ele>
      </trkpt>
      <trkpt lat="47.250866" lon="9.267214">
        <ele>1398.3</ele>
      </trkpt>
      <trkpt lat="47.250817" lon="9.266893">
        <ele>1401.8</ele>
      </trkpt>
      <trkpt lat="47.250798" lon="9.266820">
        <ele>1402.8</ele>
      </trkpt>
      <trkpt lat="47.250774" lon="9.266762">
        <ele>1403.5</ele>
      </trkpt>
      <trkpt lat="47.250741" lon="9.266682">
        <ele>1404.5</ele>
      </trkpt>
      <trkpt lat="47.250724" lon="9.266608">
        <ele>1405.4</ele>
      </trkpt>
      <trkpt lat="47.250683" lon="9.266306">
        <ele>1408.9</ele>
      </trkpt>
      <trkpt lat="47.250577" lon="9.265695">
        <ele>1415.9</ele>
      </trkpt>
      <trkpt lat="47.250533" lon="9.265441">
        <ele>1419.1</ele>
      </trkpt>
      <trkpt lat="47.250556" lon="9.265316">
        <ele>1420.2</ele>
      </trkpt>
      <trkpt lat="47.250733" lon="9.264970">
        <ele>1416.8</ele>
      </trkpt>
      <trkpt lat="47.250858" lon="9.264625">
        <ele>1412.2</ele>
      </trkpt>
      <trkpt lat="47.250914" lon="9.264614">
        <ele>1411.4</ele>
      </trkpt>
      <trkpt lat="47.250959" lon="9.264632">
        <ele>1410.3</ele>
      </trkpt>
      <trkpt lat="47.251011" lon="9.264627">
        <ele>1409.6</ele>
      </trkpt>
      <trkpt lat="47.251097" lon="9.264654">
        <ele>1407.5</ele>
      </trkpt>
      <trkpt lat="47.251212" lon="9.264665">
        <ele>1405.4</ele>
      </trkpt>
      <trkpt lat="47.251327" lon="9.264626">
        <ele>1404.3</ele>
      </trkpt>
      <trkpt lat="47.251400" lon="9.264598">
        <ele>1403.6</ele>
      </trkpt>
      <trkpt lat="47.251512" lon="9.264484">
        <ele>1402.2</ele>
      </trkpt>
      <trkpt lat="47.251974" lon="9.264116">
        <ele>1396.4</ele>
      </trkpt>
      <trkpt lat="47.252141" lon="9.263963">
        <ele>1392.9</ele>
      </trkpt>
      <trkpt lat="47.252269" lon="9.263844">
        <ele>1391.5</ele>
      </trkpt>
      <trkpt lat="47.252337" lon="9.263753">
        <ele>1390.0</ele>
      </trkpt>
      <trkpt lat="47.252481" lon="9.263494">
        <ele>1388.2</ele>
      </trkpt>
      <trkpt lat="47.252515" lon="9.263380">
        <ele>1387.3</ele>
      </trkpt>
      <trkpt lat="47.252778" lon="9.263076">
        <ele>1384.3</ele>
      </trkpt>
      <trkpt lat="47.252932" lon="9.262944">
        <ele>1382.1</ele>
      </trkpt>
      <trkpt lat="47.253163" lon="9.262747">
        <ele>1375.5</ele>
      </trkpt>
      <trkpt lat="47.253509" lon="9.262882">
        <ele>1365.4</ele>
      </trkpt>
      <trkpt lat="47.253545" lon="9.262829">
        <ele>1363.3</ele>
      </trkpt>
      <trkpt lat="47.253540" lon="9.262561">
        <ele>1359.1</ele>
      </trkpt>
      <trkpt lat="47.253521" lon="9.262381">
        <ele>1355.4</ele>
      </trkpt>
      <trkpt lat="47.253634" lon="9.262310">
        <ele>1351.3</ele>
      </trkpt>
      <trkpt lat="47.253761" lon="9.262167">
        <ele>1346.3</ele>
      </trkpt>
      <trkpt lat="47.253887" lon="9.261365">
        <ele>1330.6</ele>
      </trkpt>
      <trkpt lat="47.254041" lon="9.260974">
        <ele>1318.9</ele>
      </trkpt>
      <trkpt lat="47.253989" lon="9.260401">
        <ele>1305.4</ele>
      </trkpt>
      <trkpt lat="47.253775" lon="9.259807">
        <ele>1290.6</ele>
      </trkpt>
      <trkpt lat="47.253629" lon="9.259464">
        <ele>1281.2</ele>
      </trkpt>
      <trkpt lat="47.253754" lon="9.258490">
        <ele>1268.5</ele>
      </trkpt>
      <trkpt lat="47.253685" lon="9.258430">
        <ele>1268.4</ele>
      </trkpt>
      <trkpt lat="47.253467" lon="9.258263">
        <ele>1266.4</ele>
      </trkpt>
      <trkpt lat="47.253028" lon="9.258161">
        <ele>1257.0</ele>
      </trkpt>
      <trkpt lat="47.252955" lon="9.258159">
        <ele>1255.3</ele>
      </trkpt>
      <trkpt lat="47.252844" lon="9.258216">
        <ele>1254.4</ele>
      </trkpt>
      <trkpt lat="47.252707" lon="9.258150">
        <ele>1250.7</ele>
      </trkpt>
      <trkpt lat="47.252657" lon="9.258152">
        <ele>1249.3</ele>
      </trkpt>
      <trkpt lat="47.252611" lon="9.258249">
        <ele>1250.3</ele>
      </trkpt>
      <trkpt lat="47.252270" lon="9.258733">
        <ele>1236.7</ele>
      </trkpt>
      <trkpt lat="47.252264" lon="9.258630">
        <ele>1234.6</ele>
      </trkpt>
      <trkpt lat="47.252237" lon="9.258601">
        <ele>1232.7</ele>
      </trkpt>
      <trkpt lat="47.252196" lon="9.258679">
        <ele>1231.0</ele>
      </trkpt>
      <trkpt lat="47.252120" lon="9.258538">
        <ele>1223.5</ele>
      </trkpt>
      <trkpt lat="47.252068" lon="9.258569">
        <ele>1220.9</ele>
      </trkpt>
      <trkpt lat="47.252028" lon="9.258499">
        <ele>1218.8</ele>
      </trkpt>
      <trkpt lat="47.251957" lon="9.258510">
        <ele>1215.6</ele>
      </trkpt>
      <trkpt lat="47.251923" lon="9.258430">
        <ele>1213.2</ele>
      </trkpt>
      <trkpt lat="47.251875" lon="9.258448">
        <ele>1211.8</ele>
      </trkpt>
      <trkpt lat="47.251851" lon="9.258368">
        <ele>1209.0</ele>
      </trkpt>
      <trkpt lat="47.251759" lon="9.258391">
        <ele>1205.7</ele>
      </trkpt>
      <trkpt lat="47.251770" lon="9.258268">
        <ele>1201.3</ele>
      </trkpt>
      <trkpt lat="47.251655" lon="9.258288">
        <ele>1198.8</ele>
      </trkpt>
    </trkseg>
  </trk>
</gpx>
