<?xml version="1.0" encoding="UTF-8"?>
<gpx version="1.1" creator="hike-planner" xmlns="http://www.topografix.com/GPX/1/1">
  <metadata><name>Braunwald -> Bächistock</name>
    <desc>Routed from OSM (ODbL); elevations from SwissTopo / Open-Elevation</desc>
  </metadata>
  <wpt lat="46.934944" lon="8.995773">
    <ele>1155.2</ele>
    <name>Braunwald</name>
  </wpt>
  <wpt lat="46.977684" lon="9.016750">
    <ele>1430.6</ele>
    <name>Oberblegisee</name>
  </wpt>
  <wpt lat="46.983485" lon="8.991097">
    <ele>2158.3</ele>
    <name>Bächistock</name>
  </wpt>
  <trk>
    <name>Braunwald -> Bächistock</name>
    <trkseg>
      <trkpt lat="46.934944" lon="8.995773">
        <ele>1155.2</ele>
      </trkpt>
      <trkpt lat="46.934899" lon="8.995263">
        <ele>1157.4</ele>
      </trkpt>
      <trkpt lat="46.935022" lon="8.995457">
        <ele>1158.7</ele>
      </trkpt>
      <trkpt lat="46.935207" lon="8.995775">
        <ele>1158.7</ele>
      </trkpt>
      <trkpt lat="46.935566" lon="8.996033">
        <ele>1154.6</ele>
      </trkpt>
      <trkpt lat="46.935702" lon="8.996152">
        <ele>1152.9</ele>
      </trkpt>
      <trkpt lat="46.935870" lon="8.996210">
        <ele>1151.0</ele>
      </trkpt>
      <trkpt lat="46.936093" lon="8.996362">
        <ele>1152.4</ele>
      </trkpt>
      <trkpt lat="46.936139" lon="8.996320">
        <ele>1154.4</ele>
      </trkpt>
      <trkpt lat="46.936079" lon="8.995960">
        <ele>1160.0</ele>
      </trkpt>
      <trkpt lat="46.935832" lon="8.995758">
        <ele>1168.4</ele>
      </trkpt>
      <trkpt lat="46.935726" lon="8.995621">
        <ele>1171.3</ele>
      </trkpt>
      <trkpt lat="46.935892" lon="8.995299">
        <ele>1173.9</ele>
      </trkpt>
      <trkpt lat="46.936015" lon="8.995033">
        <ele>1178.5</ele>
      </trkpt>
      <trkpt lat="46.935972" lon="8.994620">
        <ele>1182.7</ele>
      </trkpt>
      <trkpt lat="46.936130" lon="8.995095">
        <ele>1183.9</ele>
      </trkpt>
      <trkpt lat="46.936210" lon="8.995363">
        <ele>1185.5</ele>
      </trkpt>
      <trkpt lat="46.936369" lon="8.995418">
        <ele>1186.5</ele>
      </trkpt>
      <trkpt lat="46.936647" lon="8.995408">
        <ele>1194.5</ele>
      </trkpt>
      <trkpt lat="46.937353" lon="8.996140">
        <ele>1218.8</ele>
      </trkpt>
      <trkpt lat="46.937506" lon="8.996130">
        <ele>1226.9</ele>
      </trkpt>
      <trkpt lat="46.937581" lon="8.995757">
        <ele>1230.9</ele>
      </trkpt>
      <trkpt lat="46.937829" lon="8.996211">
        <ele>1235.6</ele>
      </trkpt>
      <trkpt lat="46.938139" lon="8.996632">
        <ele>1240.3</ele>
      </trkpt>
      <trkpt lat="46.938489" lon="8.997374">
        <ele>1248.0</ele>
      </trkpt>
      <trkpt lat="46.938680" lon="8.997934">
        <ele>1251.7</ele>
      </trkpt>
      <trkpt lat="46.938752" lon="8.998299">
        <ele>1252.6</ele>
      </trkpt>
      <trkpt lat="46.938918" lon="8.998236">
        <ele>1255.7</ele>
      </trkpt>
      <trkpt lat="46.939464" lon="8.999003">
        <ele>1263.6</ele>
      </trkpt>
      <trkpt lat="46.939573" lon="8.999078">
        <ele>1264.8</ele>
      </trkpt>
      <trkpt lat="46.939673" lon="8.999116">
        <ele>1267.3</ele>
      </trkpt>
      <trkpt lat="46.940054" lon="8.999437">
        <ele>1277.4</ele>
      </trkpt>
      <trkpt lat="46.940196" lon="8.999552">
        <ele>1281.9</ele>
      </trkpt>
      <trkpt lat="46.940442" lon="8.999659">
        <ele>1288.7</ele>
      </trkpt>
      <trkpt lat="46.940527" lon="8.999535">
        <ele>1292.1</ele>
      </trkpt>
      <trkpt lat="46.940659" lon="8.999218">
        <ele>1295.9</ele>
      </trkpt>
      <trkpt lat="46.940804" lon="8.999432">
        <ele>1298.4</ele>
      </trkpt>
      <trkpt lat="46.940894" lon="8.999493">
        <ele>1299.2</ele>
      </trkpt>
      <trkpt lat="46.940951" lon="8.999395">
        <ele>1301.2</ele>
      </trkpt>
      <trkpt lat="46.940856" lon="8.998985">
        <ele>1306.1</ele>
      </trkpt>
      <trkpt lat="46.940695" lon="8.998694">
        <ele>1309.7</ele>
      </trkpt>
      <trkpt lat="46.940821" lon="8.998620">
        <ele>1312.1</ele>
      </trkpt>
      <trkpt lat="46.940984" lon="8.998662">
        <ele>1314.4</ele>
      </trkpt>
      <trkpt lat="46.941136" lon="8.998774">
        <ele>1317.8</ele>
      </trkpt>
      <trkpt lat="46.941183" lon="8.998575">
        <ele>1320.3</ele>
      </trkpt>
      <trkpt lat="46.941335" lon="8.998565">
        <ele>1325.6</ele>
      </trkpt>
      <trkpt lat="46.941475" lon="8.998690">
        <ele>1326.7</ele>
      </trkpt>
      <trkpt lat="46.941523" lon="8.998750">
        <ele>1326.8</ele>
      </trkpt>
      <trkpt lat="46.941589" lon="8.998845">
        <ele>1327.4</ele>
      </trkpt>
      <trkpt lat="46.941843" lon="8.999013">
        <ele>1329.9</ele>
      </trkpt>
      <trkpt lat="46.942189" lon="8.999228">
        <ele>1334.7</ele>
      </trkpt>
      <trkpt lat="46.942598" lon="8.999602">
        <ele>1340.1</ele>
      </trkpt>
      <trkpt lat="46.942796" lon="8.999662">
        <ele>1342.3</ele>
      </trkpt>
      <trkpt lat="46.942994" lon="9.000046">
        <ele>1344.6</ele>
      </trkpt>
      <trkpt lat="46.943040" lon="9.000231">
        <ele>1345.9</ele>
      </trkpt>
      <trkpt lat="46.943186" lon="9.000702">
        <ele>1353.2</ele>
      </trkpt>
      <trkpt lat="46.943429" lon="9.001268">
        <ele>1365.8</ele>
      </trkpt>
      <trkpt lat="46.943638" lon="9.001348">
        <ele>1368.8</ele>
      </trkpt>
      <trkpt lat="46.944107" lon="9.001758">
        <ele>1377.7</ele>
      </trkpt>
      <trkpt lat="46.944222" lon="9.002096">
        <ele>1381.9</ele>
      </trkpt>
      <trkpt lat="46.944485" lon="9.002099">
        <ele>1384.6</ele>
      </trkpt>
      <trkpt lat="46.944679" lon="9.002444">
        <ele>1385.2</ele>
      </trkpt>
      <trkpt lat="46.944743" lon="9.002788">
        <ele>1385.0</ele>
      </trkpt>
      <trkpt lat="46.944970" lon="9.003197">
        <ele>1386.6</ele>
      </trkpt>
      <trkpt lat="46.945071" lon="9.003349">
        <ele>1388.1</ele>
      </trkpt>
      <trkpt lat="46.945248" lon="9.003398">
        <ele>1388.7</ele>
      </trkpt>
      <trkpt lat="46.945531" lon="9.003665">
        <ele>1389.6</ele>
      </trkpt>
      <trkpt lat="46.946074" lon="9.004122">
        <ele>1390.3</ele>
      </trkpt>
      <trkpt lat="46.946223" lon="9.004245">
        <ele>1389.9</ele>
      </trkpt>
      <trkpt lat="46.946345" lon="9.004554">
        <ele>1388.9</ele>
      </trkpt>
      <trkpt lat="46.946405" lon="9.004900">
        <ele>1387.2</ele>
      </trkpt>
      <trkpt lat="46.946566" lon="9.005170">
        <ele>1387.0</ele>
      </trkpt>
      <trkpt lat="46.946722" lon="9.005267">
        <ele>1387.4</ele>
      </trkpt>
      <trkpt lat="46.946891" lon="9.005403">
        <ele>1388.2</ele>
      </trkpt>
      <trkpt lat="46.947008" lon="9.005392">
        <ele>1387.8</ele>
      </trkpt>
      <trkpt lat="46.947227" lon="9.005291">
        <ele>1387.1</ele>
      </trkpt>
      <trkpt lat="46.947338" lon="9.005336">
        <ele>1386.5</ele>
      </trkpt>
      <trkpt lat="46.947394" lon="9.005463">
        <ele>1385.8</ele>
      </trkpt>
      <trkpt lat="46.947393" lon="9.005759">
        <ele>1383.7</ele>
      </trkpt>
      <trkpt lat="46.947488" lon="9.006112">
        <ele>1380.6</ele>
      </trkpt>
      <trkpt lat="46.947771" lon="9.006358">
        <ele>1377.8</ele>
      </trkpt>
      <trkpt lat="46.947849" lon="9.006498">
        <ele>1376.4</ele>
      </trkpt>
      <trkpt lat="46.947900" lon="9.006746">
        <ele>1374.7</ele>
      </trkpt>
      <trkpt lat="46.947874" lon="9.006910">
        <ele>1374.5</ele>
      </trkpt>
      <trkpt lat="46.947765" lon="9.007143">
        <ele>1376.7</ele>
      </trkpt>
      <trkpt lat="46.947676" lon="9.007555">
        <ele>1377.9</ele>
      </trkpt>
      <trkpt lat="46.947933" lon="9.007888">
        <ele>1378.3</ele>
      </trkpt>
      <trkpt lat="46.948549" lon="9.008637">
        <ele>1380.7</ele>
      </trkpt>
      <trkpt lat="46.948688" lon="9.008960">
        <ele>1381.1</ele>
      </trkpt>
      <trkpt lat="46.948828" lon="9.009393">
        <ele>1381.7</ele>
      </trkpt>
      <trkpt lat="46.949005" lon="9.009653">
        <ele>1382.2</ele>
      </trkpt>
      <trkpt lat="46.949046" lon="9.009814">
        <ele>1381.0</ele>
      </trkpt>
      <trkpt lat="46.949118" lon="9.010046">
        <ele>1380.1</ele>
      </trkpt>
      <trkpt lat="46.949223" lon="9.010231">
        <ele>1379.2</ele>
      </trkpt>
      <trkpt lat="46.949697" lon="9.010739">
        <ele>1375.9</ele>
      </trkpt>
      <trkpt lat="46.949989" lon="9.010959">
        <ele>1374.4</ele>
      </trkpt>
      <trkpt lat="46.950166" lon="9.010973">
        <ele>1374.5</ele>
      </trkpt>
      <trkpt lat="46.950531" lon="9.011167">
        <ele>1375.9</ele>
      </trkpt>
      <trkpt lat="46.950832" lon="9.011290">
        <ele>1374.6</ele>
      </trkpt>
      <trkpt lat="46.951197" lon="9.011369">
        <ele>1376.9</ele>
      </trkpt>
      <trkpt lat="46.951407" lon="9.011336">
        <ele>1379.5</ele>
      </trkpt>
      <trkpt lat="46.951655" lon="9.011372">
        <ele>1381.7</ele>
      </trkpt>
      <trkpt lat="46.951909" lon="9.011374">
        <ele>1382.8</ele>
      </trkpt>
      <trkpt lat="46.952048" lon="9.011463">
        <ele>1384.3</ele>
      </trkpt>
      <trkpt lat="46.952142" lon="9.011710">
        <ele>1386.3</ele>
      </trkpt>
      <trkpt lat="46.952293" lon="9.011975">
        <ele>1388.2</ele>
      </trkpt>
      <trkpt lat="46.952400" lon="9.011989">
        <ele>1389.7</ele>
      </trkpt>
      <trkpt lat="46.952550" lon="9.011904">
        <ele>1383.1</ele>
      </trkpt>
      <trkpt lat="46.952801" lon="9.011686">
        <ele>1379.6</ele>
      </trkpt>
      <trkpt lat="46.952905" lon="9.011477">
        <ele>1377.0</ele>
      </trkpt>
      <trkpt lat="46.953027" lon="9.011364">
        <ele>1372.4</ele>
      </trkpt>
      <trkpt lat="46.953198" lon="9.011439">
        <ele>1369.8</ele>
      </trkpt>
      <trkpt lat="46.953288" lon="9.011542">
        <ele>1369.1</ele>
      </trkpt>
      <trkpt lat="46.953406" lon="9.011741">
        <ele>1367.5</ele>
      </trkpt>
      <trkpt lat="46.953536" lon="9.011825">
        <ele>1365.8</ele>
      </trkpt>
      <trkpt lat="46.953638" lon="9.011913">
        <ele>1365.5</ele>
      </trkpt>
      <trkpt lat="46.953714" lon="9.012206">
        <ele>1367.9</ele>
      </trkpt>
      <trkpt lat="46.953861" lon="9.012586">
        <ele>1370.1</ele>
      </trkpt>
      <trkpt lat="46.954002" lon="9.012814">
        <ele>1372.7</ele>
      </trkpt>
      <trkpt lat="46.954060" lon="9.012894">
        <ele>1372.6</ele>
      </trkpt>
      <trkpt lat="46.954193" lon="9.012946">
        <ele>1371.7</ele>
      </trkpt>
      <trkpt lat="46.954438" lon="9.013222">
        <ele>1370.4</ele>
      </trkpt>
      <trkpt lat="46.954545" lon="9.013386">
        <ele>1371.8</ele>
      </trkpt>
      <trkpt lat="46.954868" lon="9.013751">
        <ele>1372.8</ele>
      </trkpt>
      <trkpt lat="46.955197" lon="9.014310">
        <ele>1375.2</ele>
      </trkpt>
      <trkpt lat="46.955273" lon="9.014966">
        <ele>1379.0</ele>
      </trkpt>
      <trkpt lat="46.955295" lon="9.015129">
        <ele>1379.4</ele>
      </trkpt>
      <trkpt lat="46.955446" lon="9.015441">
        <ele>1378.4</ele>
      </trkpt>
      <trkpt lat="46.955686" lon="9.015930">
        <ele>1377.5</ele>
      </trkpt>
      <trkpt lat="46.955956" lon="9.016191">
        <ele>1379.3</ele>
      </trkpt>
      <trkpt lat="46.956470" lon="9.016697">
        <ele>1372.6</ele>
      </trkpt>
      <trkpt lat="46.956929" lon="9.017195">
        <ele>1356.7</ele>
      </trkpt>
      <trkpt lat="46.957119" lon="9.017046">
        <ele>1350.5</ele>
      </trkpt>
      <trkpt lat="46.957320" lon="9.016693">
        <ele>1345.2</ele>
      </trkpt>
      <trkpt lat="46.957411" lon="9.016611">
        <ele>1342.6</ele>
      </trkpt>
      <trkpt lat="46.957517" lon="9.016818">
        <ele>1335.9</ele>
      </trkpt>
      <trkpt lat="46.957615" lon="9.017181">
        <ele>1323.1</ele>
      </trkpt>
      <trkpt lat="46.957506" lon="9.017421">
        <ele>1317.4</ele>
      </trkpt>
      <trkpt lat="46.957453" lon="9.017556">
        <ele>1314.2</ele>
      </trkpt>
      <trkpt lat="46.957575" lon="9.017574">
        <ele>1306.3</ele>
      </trkpt>
      <trkpt lat="46.958263" lon="9.016552">
        <ele>1282.3</ele>
      </trkpt>
      <trkpt lat="46.958592" lon="9.016347">
        <ele>1276.4</ele>
      </trkpt>
      <trkpt lat="46.958588" lon="9.016660">
        <ele>1257.9</ele>
      </trkpt>
      <trkpt lat="46.958753" lon="9.016874">
        <ele>1248.4</ele>
      </trkpt>
      <trkpt lat="46.958875" lon="9.017114">
        <ele>1241.3</ele>
      </trkpt>
      <trkpt lat="46.959025" lon="9.017148">
        <ele>1237.2</ele>
      </trkpt>
      <trkpt lat="46.959260" lon="9.017813">
        <ele>1221.4</ele>
      </trkpt>
      <trkpt lat="46.959598" lon="9.018228">
        <ele>1208.0</ele>
      </trkpt>
      <trkpt lat="46.959985" lon="9.018512">
        <ele>1198.3</ele>
      </trkpt>
      <trkpt lat="46.960558" lon="9.019010">
        <ele>1184.8</ele>
      </trkpt>
      <trkpt lat="46.960745" lon="9.019126">
        <ele>1181.1</ele>
      </trkpt>
      <trkpt lat="46.960952" lon="9.019149">
        <ele>1178.9</ele>
      </trkpt>
      <trkpt lat="46.961568" lon="9.019428">
        <ele>1169.8</ele>
      </trkpt>
      <trkpt lat="46.962083" lon="9.019354">
        <ele>1166.6</ele>
      </trkpt>
      <trkpt lat="46.962602" lon="9.019346">
        <ele>1165.0</ele>
      </trkpt>
      <trkpt lat="46.963208" lon="9.019429">
        <ele>1160.0</ele>
      </trkpt>
      <trkpt lat="46.963504" lon="9.019420">
        <ele>1158.8</ele>
      </trkpt>
      <trkpt lat="46.963736" lon="9.019512">
        <ele>1158.2</ele>
      </trkpt>
      <trkpt lat="46.963994" lon="9.019622">
        <ele>1154.1</ele>
      </trkpt>
      <trkpt lat="46.964310" lon="9.019366">
        <ele>1143.7</ele>
      </trkpt>
      <trkpt lat="46.964678" lon="9.019089">
        <ele>1136.7</ele>
      </trkpt>
      <trkpt lat="46.964998" lon="9.018596">
        <ele>1131.7</ele>
      </trkpt>
      <trkpt lat="46.965301" lon="9.018434">
        <ele>1133.9</ele>
      </trkpt>
      <trkpt lat="46.965573" lon="9.018198">
        <ele>1136.3</ele>
      </trkpt>
      <trkpt lat="46.965908" lon="9.017943">
        <ele>1137.9</ele>
      </trkpt>
      <trkpt lat="46.966100" lon="9.017894">
        <ele>1136.7</ele>
      </trkpt>
      <trkpt lat="46.966317" lon="9.017524">
        <ele>1137.3</ele>
      </trkpt>
      <trkpt lat="46.966482" lon="9.017433">
        <ele>1136.0</ele>
      </trkpt>
      <trkpt lat="46.966692" lon="9.017337">
        <ele>1134.7</ele>
      </trkpt>
      <trkpt lat="46.967146" lon="9.017078">
        <ele>1131.8</ele>
      </trkpt>
      <trkpt lat="46.967565" lon="9.016979">
        <ele>1131.6</ele>
      </trkpt>
      <trkpt lat="46.967689" lon="9.016912">
        <ele>1130.0</ele>
      </trkpt>
      <trkpt lat="46.967938" lon="9.016601">
        <ele>1128.8</ele>
      </trkpt>
      <trkpt lat="46.968169" lon="9.016407">
        <ele>1128.3</ele>
      </trkpt>
      <trkpt lat="46.968283" lon="9.016447">
        <ele>1128.7</ele>
      </trkpt>
      <trkpt lat="46.968535" lon="9.016006">
        <ele>1128.4</ele>
      </trkpt>
      <trkpt lat="46.968696" lon="9.015461">
        <ele>1126.5</ele>
      </trkpt>
      <trkpt lat="46.968897" lon="9.015057">
        <ele>1125.3</ele>
      </trkpt>
      <trkpt lat="46.969110" lon="9.014647">
        <ele>1126.3</ele>
      </trkpt>
      <trkpt lat="46.969335" lon="9.014676">
        <ele>1125.0</ele>
      </trkpt>
      <trkpt lat="46.969406" lon="9.014876">
        <ele>1125.5</ele>
      </trkpt>
      <trkpt lat="46.969447" lon="9.015432">
        <ele>1129.9</ele>
      </trkpt>
      <trkpt lat="46.969725" lon="9.015756">
        <ele>1135.6</ele>
      </trkpt>
      <trkpt lat="46.970044" lon="9.015945">
        <ele>1137.1</ele>
      </trkpt>
      <trkpt lat="46.970398" lon="9.015937">
        <ele>1141.1</ele>
      </trkpt>
      <trkpt lat="46.970730" lon="9.015666">
        <ele>1144.3</ele>
      </trkpt>
      <trkpt lat="46.971084" lon="9.015642">
        <ele>1148.5</ele>
      </trkpt>
      <trkpt lat="46.971329" lon="9.015746">
        <ele>1151.4</ele>
      </trkpt>
      <trkpt lat="46.971442" lon="9.015854">
        <ele>1153.3</ele>
      </trkpt>
      <trkpt lat="46.971724" lon="9.016319">
        <ele>1161.2</ele>
      </trkpt>
      <trkpt lat="46.971850" lon="9.016447">
        <ele>1163.7</ele>
      </trkpt>
      <trkpt lat="46.971979" lon="9.016734">
        <ele>1167.7</ele>
      </trkpt>
      <trkpt lat="46.972142" lon="9.016993">
        <ele>1172.3</ele>
      </trkpt>
      <trkpt lat="46.972342" lon="9.017244">
        <ele>1176.8</ele>
      </trkpt>
      <trkpt lat="46.972537" lon="9.017894">
        <ele>1185.8</ele>
      </trkpt>
      <trkpt lat="46.972653" lon="9.018269">
        <ele>1190.3</ele>
      </trkpt>
      <trkpt lat="46.972663" lon="9.018650">
        <ele>1195.5</ele>
      </trkpt>
      <trkpt lat="46.972714" lon="9.018887">
        <ele>1198.6</ele>
      </trkpt>
      <trkpt lat="46.972821" lon="9.019110">
        <ele>1201.8</ele>
      </trkpt>
      <trkpt lat="46.972885" lon="9.019421">
        <ele>1206.3</ele>
      </trkpt>
      <trkpt lat="46.973170" lon="9.019568">
        <ele>1211.5</ele>
      </trkpt>
      <trkpt lat="46.973396" lon="9.019767">
        <ele>1216.5</ele>
      </trkpt>
      <trkpt lat="46.973488" lon="9.019764">
        <ele>1217.9</ele>
      </trkpt>
      <trkpt lat="46.973457" lon="9.019454">
        <ele>1220.5</ele>
      </trkpt>
      <trkpt lat="46.973518" lon="9.019235">
        <ele>1222.8</ele>
      </trkpt>
      <trkpt lat="46.973700" lon="9.018801">
        <ele>1229.1</ele>
      </trkpt>
      <trkpt lat="46.973791" lon="9.018351">
        <ele>1234.5</ele>
      </trkpt>
      <trkpt lat="46.973987" lon="9.018826">
        <ele>1239.3</ele>
      </trkpt>
      <trkpt lat="46.974199" lon="9.019003">
        <ele>1243.0</ele>
      </trkpt>
      <trkpt lat="46.974467" lon="9.019315">
        <ele>1248.2</ele>
      </trkpt>
      <trkpt lat="46.974748" lon="9.019763">
        <ele>1254.9</ele>
      </trkpt>
      <trkpt lat="46.975163" lon="9.020444">
        <ele>1264.5</ele>
      </trkpt>
      <trkpt lat="46.975463" lon="9.020981">
        <ele>1271.8</ele>
      </trkpt>
      <trkpt lat="46.975675" lon="9.021451">
        <ele>1278.0</ele>
      </trkpt>
      <trkpt lat="46.975841" lon="9.021836">
        <ele>1283.0</ele>
      </trkpt>
      <trkpt lat="46.975959" lon="9.022153">
        <ele>1287.0</ele>
      </trkpt>
      <trkpt lat="46.976113" lon="9.022146">
        <ele>1289.6</ele>
      </trkpt>
      <trkpt lat="46.976317" lon="9.022061">
        <ele>1293.4</ele>
      </trkpt>
      <trkpt lat="46.976493" lon="9.022103">
        <ele>1296.1</ele>
      </trkpt>
      <trkpt lat="46.976795" lon="9.022272">
        <ele>1301.0</ele>
      </trkpt>
      <trkpt lat="46.976758" lon="9.022036">
        <ele>1303.1</ele>
      </trkpt>
      <trkpt lat="46.976784" lon="9.021641">
        <ele>1307.7</ele>
      </trkpt>
      <trkpt lat="46.976739" lon="9.021257">
        <ele>1312.4</ele>
      </trkpt>
      <trkpt lat="46.976825" lon="9.020984">
        <ele>1316.3</ele>
      </trkpt>
      <trkpt lat="46.976814" lon="9.020508">
        <ele>1322.7</ele>
      </trkpt>
      <trkpt lat="46.976719" lon="9.020104">
        <ele>1327.4</ele>
      </trkpt>
      <trkpt lat="46.976760" lon="9.020026">
        <ele>1328.3</ele>
      </trkpt>
      <trkpt lat="46.976882" lon="9.020212">
        <ele>1330.9</ele>
      </trkpt>
      <trkpt lat="46.976983" lon="9.020382">
        <ele>1333.4</ele>
      </trkpt>
      <trkpt lat="46.977149" lon="9.020600">
        <ele>1337.5</ele>
      </trkpt>
      <trkpt lat="46.977303" lon="9.019424">
        <ele>1363.8</ele>
      </trkpt>
      <trkpt lat="46.977272" lon="9.018902">
        <ele>1379.1</ele>
      </trkpt>
      <trkpt lat="46.977449" lon="9.018721">
        <ele>1393.2</ele>
      </trkpt>
      <trkpt lat="46.977604" lon="9.018169">
        <ele>1411.6</ele>
      </trkpt>
      <trkpt lat="46.977538" lon="9.017857">
        <ele>1417.3</ele>
      </trkpt>
      <trkpt lat="46.977580" lon="9.017459">
        <ele>1423.6</ele>
      </trkpt>
      <trkpt lat="46.977640" lon="9.016850">
        <ele>1429.8</ele>
      </trkpt>
      <trkpt lat="46.977684" lon="9.016750">
        <ele>1430.6</ele>
      </trkpt>
      <trkpt lat="46.977653" lon="9.016523">
        <ele>1429.6</ele>
      </trkpt>
      <trkpt lat="46.977518" lon="9.016188">
        <ele>1429.1</ele>
      </trkpt>
      <trkpt lat="46.977367" lon="9.015994">
        <ele>1428.5</ele>
      </trkpt>
      <trkpt lat="46.977324" lon="9.015429">
        <ele>1429.3</ele>
      </trkpt>
      <trkpt lat="46.977316" lon="9.015242">
        <ele>1429.3</ele>
      </trkpt>
      <trkpt lat="46.977217" lon="9.014642">
        <ele>1430.1</ele>
      </trkpt>
      <trkpt lat="46.977162" lon="9.014337">
        <ele>1431.2</ele>
      </trkpt>
      <trkpt lat="46.977193" lon="9.014189">
        <ele>1431.5</ele>
      </trkpt>
      <trkpt lat="46.977150" lon="9.014047">
        <ele>1432.6</ele>
      </trkpt>
      <trkpt lat="46.977004" lon="9.013768">
        <ele>1433.8</ele>
      </trkpt>
      <trkpt lat="46.976847" lon="9.013533">
        <ele>1434.2</ele>
      </trkpt>
      <trkpt lat="46.976748" lon="9.013295">
        <ele>1434.3</ele>
      </trkpt>
      <trkpt lat="46.976650" lon="9.013191">
        <ele>1433.6</ele>
      </trkpt>
      <trkpt lat="46.976370" lon="9.012997">
        <ele>1433.1</ele>
      </trkpt>
      <trkpt lat="46.976209" lon="9.012953">
        <ele>1435.0</ele>
      </trkpt>
      <trkpt lat="46.976014" lon="9.012956">
        <ele>1436.7</ele>
      </trkpt>
      <trkpt lat="46.975884" lon="9.013000">
        <ele>1437.6</ele>
      </trkpt>
      <trkpt lat="46.975721" lon="9.012983">
        <ele>1438.9</ele>
      </trkpt>
      <trkpt lat="46.975568" lon="9.012849">
        <ele>1437.6</ele>
      </trkpt>
      <trkpt lat="46.975441" lon="9.012841">
        <ele>1438.4</ele>
      </trkpt>
      <trkpt lat="46.975313" lon="9.012719">
        <ele>1440.2</ele>
      </trkpt>
      <trkpt lat="46.975227" lon="9.012716">
        <ele>1439.1</ele>
      </trkpt>
      <trkpt lat="46.975123" lon="9.012625">
        <ele>1439.1</ele>
      </trkpt>
      <trkpt lat="46.975055" lon="9.012438">
        <ele>1438.6</ele>
      </trkpt>
      <trkpt lat="46.974973" lon="9.012217">
        <ele>1437.5</ele>
      </trkpt>
      <trkpt lat="46.974822" lon="9.011919">
        <ele>1435.7</ele>
      </trkpt>
      <trkpt lat="46.974694" lon="9.011788">
        <ele>1435.6</ele>
      </trkpt>
      <trkpt lat="46.974577" lon="9.011651">
        <ele>1436.9</ele>
      </trkpt>
      <trkpt lat="46.974458" lon="9.011576">
        <ele>1439.4</ele>
      </trkpt>
      <trkpt lat="46.974379" lon="9.011254">
        <ele>1438.5</ele>
      </trkpt>
      <trkpt lat="46.974331" lon="9.011066">
        <ele>1438.9</ele>
      </trkpt>
      <trkpt lat="46.974233" lon="9.010784">
        <ele>1441.8</ele>
      </trkpt>
      <trkpt lat="46.974229" lon="9.010499">
        <ele>1442.8</ele>
      </trkpt>
      <trkpt lat="46.974229" lon="9.010205">
        <ele>1444.3</ele>
      </trkpt>
      <trkpt lat="46.974262" lon="9.010017">
        <ele>1440.6</ele>
      </trkpt>
      <trkpt lat="46.974333" lon="9.009804">
        <ele>1436.5</ele>
      </trkpt>
      <trkpt lat="46.974203" lon="9.009453">
        <ele>1435.7</ele>
      </trkpt>
      <trkpt lat="46.974158" lon="9.009364">
        <ele>1434.8</ele>
      </trkpt>
      <trkpt lat="46.973974" lon="9.009167">
        <ele>1432.3</ele>
      </trkpt>
      <trkpt lat="46.973841" lon="9.008993">
        <ele>1434.5</ele>
      </trkpt>
      <trkpt lat="46.973735" lon="9.008780">
        <ele>1436.3</ele>
      </trkpt>
      <trkpt lat="46.973660" lon="9.008556">
        <ele>1435.7</ele>
      </trkpt>
      <trkpt lat="46.973622" lon="9.008475">
        <ele>1434.4</ele>
      </trkpt>
      <trkpt lat="46.973543" lon="9.008231">
        <ele>1433.1</ele>
      </trkpt>
      <trkpt lat="46.973488" lon="9.008051">
        <ele>1431.8</ele>
      </trkpt>
      <trkpt lat="46.973405" lon="9.007822">
        <ele>1430.2</ele>
      </trkpt>
      <trkpt lat="46.973342" lon="9.007635">
        <ele>1429.7</ele>
      </trkpt>
      <trkpt lat="46.973281" lon="9.007493">
        <ele>1428.2</ele>
      </trkpt>
      <trkpt lat="46.973173" lon="9.007321">
        <ele>1424.8</ele>
      </trkpt>
      <trkpt lat="46.973032" lon="9.007109">
        <ele>1420.7</ele>
      </trkpt>
      <trkpt lat="46.972908" lon="9.006979">
        <ele>1416.6</ele>
      </trkpt>
      <trkpt lat="46.972766" lon="9.006693">
        <ele>1412.1</ele>
      </trkpt>
      <trkpt lat="46.972574" lon="9.006240">
        <ele>1408.5</ele>
      </trkpt>
      <trkpt lat="46.972448" lon="9.006323">
        <ele>1410.1</ele>
      </trkpt>
      <trkpt lat="46.972296" lon="9.006254">
        <ele>1412.5</ele>
      </trkpt>
      <trkpt lat="46.972063" lon="9.006319">
        <ele>1415.9</ele>
      </trkpt>
      <trkpt lat="46.971912" lon="9.006384">
        <ele>1418.6</ele>
      </trkpt>
      <trkpt lat="46.971767" lon="9.006424">
        <ele>1421.0</ele>
      </trkpt>
      <trkpt lat="46.971653" lon="9.006278">
        <ele>1418.5</ele>
      </trkpt>
      <trkpt lat="46.971415" lon="9.006094">
        <ele>1416.2</ele>
      </trkpt>
      <trkpt lat="46.971264" lon="9.006100">
        <ele>1414.4</ele>
      </trkpt>
      <trkpt lat="46.971119" lon="9.006013">
        <ele>1414.2</ele>
      </trkpt>
      <trkpt lat="46.970786" lon="9.005721">
        <ele>1411.5</ele>
      </trkpt>
      <trkpt lat="46.970554" lon="9.005587">
        <ele>1410.8</ele>
      </trkpt>
      <trkpt lat="46.970516" lon="9.005386">
        <ele>1410.8</ele>
      </trkpt>
      <trkpt lat="46.970580" lon="9.005171">
        <ele>1412.1</ele>
      </trkpt>
      <trkpt lat="46.970927" lon="9.005191">
        <ele>1418.0</ele>
      </trkpt>
      <trkpt lat="46.971229" lon="9.005065">
        <ele>1418.3</ele>
      </trkpt>
      <trkpt lat="46.971704" lon="9.004831">
        <ele>1422.6</ele>
      </trkpt>
      <trkpt lat="46.972062" lon="9.004978">
        <ele>1433.6</ele>
      </trkpt>
      <trkpt lat="46.972216" lon="9.004975">
        <ele>1439.6</ele>
      </trkpt>
      <trkpt lat="46.972224" lon="9.004435">
        <ele>1449.5</ele>
      </trkpt>
      <trkpt lat="46.972385" lon="9.003551">
        <ele>1459.2</ele>
      </trkpt>
      <trkpt lat="46.972515" lon="9.002674">
        <ele>1466.5</ele>
      </trkpt>
      <trkpt lat="46.972562" lon="9.002195">
        <ele>1474.0</ele>
      </trkpt>
      <trkpt lat="46.972708" lon="9.001345">
        <ele>1479.8</ele>
      </trkpt>
      <trkpt lat="46.972807" lon="9.001053">
        <ele>1479.2</ele>
      </trkpt>
      <trkpt lat="46.972892" lon="9.000902">
        <ele>1481.7</ele>
      </trkpt>
      <trkpt lat="46.973053" lon="9.000158">
        <ele>1493.5</ele>
      </trkpt>
      <trkpt lat="46.973292" lon="8.999595">
        <ele>1505.4</ele>
      </trkpt>
      <trkpt lat="46.973491" lon="8.999348">
        <ele>1515.9</ele>
      </trkpt>
      <trkpt lat="46.973723" lon="8.999183">
        <ele>1526.8</ele>
      </trkpt>
      <trkpt lat="46.973977" lon="8.999193">
        <ele>1538.4</ele>
      </trkpt>
      <trkpt lat="46.973915" lon="8.999640">
        <ele>1545.5</ele>
      </trkpt>
      <trkpt lat="46.973971" lon="8.999785">
        <ele>1553.1</ele>
      </trkpt>
      <trkpt lat="46.974214" lon="8.999708">
        <ele>1564.3</ele>
      </trkpt>
      <trkpt lat="46.974435" lon="8.999596">
        <ele>1575.3</ele>
      </trkpt>
      <trkpt lat="46.974617" lon="8.999410">
        <ele>1580.8</ele>
      </trkpt>
      <trkpt lat="46.974648" lon="8.999115">
        <ele>1585.4</ele>
      </trkpt>
      <trkpt lat="46.974617" lon="8.998932">
        <ele>1587.5</ele>
      </trkpt>
      <trkpt lat="46.974553" lon="8.998667">
        <ele>1594.8</ele>
      </trkpt>
      <trkpt lat="46.974515" lon="8.998561">
        <ele>1597.5</ele>
      </trkpt>
      <trkpt lat="46.974571" lon="8.998539">
        <ele>1602.3</ele>
      </trkpt>
      <trkpt lat="46.974688" lon="8.998355">
        <ele>1609.5</ele>
      </trkpt>
      <trkpt lat="46.974673" lon="8.998294">
        <ele>1609.1</ele>
      </trkpt>
      <trkpt lat="46.974600" lon="8.998238">
        <ele>1612.1</ele>
      </trkpt>
      <trkpt lat="46.974666" lon="8.998056">
        <ele>1620.3</ele>
      </trkpt>
      <trkpt lat="46.974652" lon="8.997896">
        <ele>1624.7</ele>
      </trkpt>
      <trkpt lat="46.974559" lon="8.997725">
        <ele>1631.1</ele>
      </trkpt>
      <trkpt lat="46.974436" lon="8.997264">
        <ele>1645.8</ele>
      </trkpt>
      <trkpt lat="46.974433" lon="8.997067">
        <ele>1653.3</ele>
      </trkpt>
      <trkpt lat="46.974514" lon="8.996881">
        <ele>1662.1</ele>
      </trkpt>
      <trkpt lat="46.974478" lon="8.996716">
        <ele>1667.1</ele>
      </trkpt>
      <trkpt lat="46.974603" lon="8.996660">
        <ele>1674.0</ele>
      </trkpt>
      <trkpt lat="46.974747" lon="8.996700">
        <ele>1678.9</ele>
      </trkpt>
      <trkpt lat="46.974866" lon="8.996746">
        <ele>1684.9</ele>
      </trkpt>
      <trkpt lat="46.975015" lon="8.996722">
        <ele>1693.6</ele>
      </trkpt>
      <trkpt lat="46.975160" lon="8.996959">
        <ele>1697.5</ele>
      </trkpt>
      <trkpt lat="46.975262" lon="8.996926">
        <ele>1707.5</ele>
      </trkpt>
      <trkpt lat="46.975400" lon="8.997009">
        <ele>1718.8</ele>
      </trkpt>
      <trkpt lat="46.975421" lon="8.997132">
        <ele>1724.7</ele>
      </trkpt>
      <trkpt lat="46.975611" lon="8.997611">
        <ele>1727.0</ele>
      </trkpt>
      <trkpt lat="46.975691" lon="8.997702">
        <ele>1732.4</ele>
      </trkpt>
      <trkpt lat="46.975721" lon="8.997944">
        <ele>1735.6</ele>
      </trkpt>
      <trkpt lat="46.975861" lon="8.998290">
        <ele>1743.3</ele>
      </trkpt>
      <trkpt lat="46.976056" lon="8.998378">
        <ele>1750.9</ele>
      </trkpt>
      <trkpt lat="46.976131" lon="8.998765">
        <ele>1762.2</ele>
      </trkpt>
      <trkpt lat="46.976405" lon="8.999017">
        <ele>1774.3</ele>
      </trkpt>
      <trkpt lat="46.976435" lon="8.998804">
        <ele>1781.5</ele>
      </trkpt>
      <trkpt lat="46.976508" lon="8.998747">
        <ele>1786.6</ele>
      </trkpt>
      <trkpt lat="46.976545" lon="8.998363">
        <ele>1793.0</ele>
      </trkpt>
      <trkpt lat="46.976531" lon="8.998049">
        <ele>1798.2</ele>
      </trkpt>
      <trkpt lat="46.976464" lon="8.997662">
        <ele>1806.6</ele>
      </trkpt>
      <trkpt lat="46.976478" lon="8.997475">
        <ele>1810.6</ele>
      </trkpt>
      <trkpt lat="46.976599" lon="8.997557">
        <ele>1814.1</ele>
      </trkpt>
      <trkpt lat="46.976701" lon="8.997455">
        <ele>1819.2</ele>
      </trkpt>
      <trkpt lat="46.976883" lon="8.998185">
        <ele>1826.3</ele>
      </trkpt>
      <trkpt lat="46.977069" lon="8.998337">
        <ele>1833.6</ele>
      </trkpt>
      <trkpt lat="46.977255" lon="8.998991">
        <ele>1843.5</ele>
      </trkpt>
      <trkpt lat="46.977285" lon="8.999655">
        <ele>1852.1</ele>
      </trkpt>
      <trkpt lat="46.977382" lon="8.999891">
        <ele>1856.7</ele>
      </trkpt>
      <trkpt lat="46.977485" lon="9.000058">
        <ele>1859.3</ele>
      </trkpt>
      <trkpt lat="46.978111" lon="9.000400">
        <ele>1878.2</ele>
      </trkpt>
      <trkpt lat="46.978369" lon="9.000536">
        <ele>1891.7</ele>
      </trkpt>
      <trkpt lat="46.978718" lon="9.000974">
        <ele>1916.1</ele>
      </trkpt>
      <trkpt lat="46.978741" lon="9.001470">
        <ele>1928.5</ele>
      </trkpt>
      <trkpt lat="46.978889" lon="9.002166">
        <ele>1947.5</ele>
      </trkpt>
      <trkpt lat="46.979030" lon="9.002724">
        <ele>1968.7</ele>
      </trkpt>
      <trkpt lat="46.979406" lon="9.002040">
        <ele>1971.5</ele>
      </trkpt>
      <trkpt lat="46.979622" lon="9.001485">
        <ele>1982.1</ele>
      </trkpt>
      <trkpt lat="46.979708" lon="9.000789">
        <ele>1991.3</ele>
      </trkpt>
      <trkpt lat="46.979736" lon="9.000369">
        <ele>2001.4</ele>
      </trkpt>
      <trkpt lat="46.979783" lon="9.000216">
        <ele>2002.0</ele>
      </trkpt>
      <trkpt lat="46.979781" lon="8.999989">
        <ele>2004.0</ele>
      </trkpt>
      <trkpt lat="46.979916" lon="8.999597">
        <ele>2007.8</ele>
      </trkpt>
      <trkpt lat="46.979995" lon="8.999605">
        <ele>2010.3</ele>
      </trkpt>
      <trkpt lat="46.980113" lon="8.999676">
        <ele>2012.1</ele>
      </trkpt>
      <trkpt lat="46.980332" lon="8.999550">
        <ele>2016.4</ele>
      </trkpt>
      <trkpt lat="46.980734" lon="8.999335">
        <ele>2025.2</ele>
      </trkpt>
      <trkpt lat="46.981056" lon="8.999067">
        <ele>2043.8</ele>
      </trkpt>
      <trkpt lat="46.981387" lon="8.998218">
        <ele>2070.5</ele>
      </trkpt>
      <trkpt lat="46.981555" lon="8.998011">
        <ele>2083.3</ele>
      </trkpt>
      <trkpt lat="46.981818" lon="8.997504">
        <ele>2099.1</ele>
      </trkpt>
      <trkpt lat="46.982158" lon="8.997341">
        <ele>2100.0</ele>
      </trkpt>
      <trkpt lat="46.982324" lon="8.996756">
        <ele>2114.1</ele>
      </trkpt>
      <trkpt lat="46.982394" lon="8.996278">
        <ele>2125.2</ele>
      </trkpt>
      <trkpt lat="46.982488" lon="8.995547">
        <ele>2138.0</ele>
      </trkpt>
      <trkpt lat="46.982545" lon="8.995080">
        <ele>2139.3</ele>
      </trkpt>
      <trkpt lat="46.982622" lon="8.994513">
        <ele>2143.2</ele>
      </trkpt>
      <trkpt lat="46.982919" lon="8.993514">
        <ele>2155.3</ele>
      </trkpt>
      <trkpt lat="46.983182" lon="8.992289">
        <ele>2151.9</ele>
      </trkpt>
      <trkpt lat="46.983485" lon="8.991097">
        <ele>2158.3</ele>
      </trkpt>
    </trkseg>
  </trk>
</gpx>
