<?xml version="1.0" encoding="UTF-8"?>
<gpx version="1.1" creator="hike-planner" xmlns="http://www.topografix.com/GPX/1/1">
  <metadata><name>Walenstadt -> Leistcamm</name>
    <desc>Routed from OSM (ODbL); elevations from SwissTopo / Open-Elevation</desc>
  </metadata>
  <wpt lat="47.124144" lon="9.309073">
    <ele>424.1</ele>
    <name>Walenstadt</name>
  </wpt>
  <wpt lat="47.135349" lon="9.146555">
    <ele>434.9</ele>
    <name>Betlis</name>
  </wpt>
  <wpt lat="47.129874" lon="9.216315">
    <ele>471.7</ele>
    <name>Quinten</name>
  </wpt>
  <wpt lat="47.108925" lon="9.131035">
    <ele>1061.8</ele>
    <name>Leistcamm</name>
  </wpt>
  <wpt lat="47.136142" lon="9.057507">
    <ele>423.4</ele>
    <name>Weesen</name>
  </wpt>
  <trk>
    <name>Walenstadt -> Leistcamm</name>
    <trkseg>
      <trkpt lat="47.124144" lon="9.309073">
        <ele>424.1</ele>
      </trkpt>
      <trkpt lat="47.126020" lon="9.307657">
        <ele>425.4</ele>
      </trkpt>
      <trkpt lat="47.126514" lon="9.306093">
        <ele>426.1</ele>
      </trkpt>
      <trkpt lat="47.127023" lon="9.304064">
        <ele>425.8</ele>
      </trkpt>
      <trkpt lat="47.127350" lon="9.302864">
        <ele>424.7</ele>
      </trkpt>
      <trkpt lat="47.127803" lon="9.302321">
        <ele>425.3</ele>
      </trkpt>
      <trkpt lat="47.128663" lon="9.301316">
        <ele>425.6</ele>
      </trkpt>
      <trkpt lat="47.129548" lon="9.298314">
        <ele>444.0</ele>
      </trkpt>
      <trkpt lat="47.129756" lon="9.295303">
        <ele>478.8</ele>
      </trkpt>
      <trkpt lat="47.130347" lon="9.293359">
        <ele>504.5</ele>
      </trkpt>
      <trkpt lat="47.130888" lon="9.292542">
        <ele>517.6</ele>
      </trkpt>
      <trkpt lat="47.131139" lon="9.290684">
        <ele>538.9</ele>
      </trkpt>
      <trkpt lat="47.131149" lon="9.287210">
        <ele>576.8</ele>
      </trkpt>
      <trkpt lat="47.131417" lon="9.286467">
        <ele>590.9</ele>
      </trkpt>
      <trkpt lat="47.132163" lon="9.288507">
        <ele>617.6</ele>
      </trkpt>
      <trkpt lat="47.132493" lon="9.289137">
        <ele>629.8</ele>
      </trkpt>
      <trkpt lat="47.132449" lon="9.286481">
        <ele>657.1</ele>
      </trkpt>
      <trkpt lat="47.132668" lon="9.284031">
        <ele>686.9</ele>
      </trkpt>
      <trkpt lat="47.132847" lon="9.283041">
        <ele>701.5</ele>
      </trkpt>
      <trkpt lat="47.132231" lon="9.281055">
        <ele>728.2</ele>
      </trkpt>
      <trkpt lat="47.132159" lon="9.279940">
        <ele>743.7</ele>
      </trkpt>
      <trkpt lat="47.132473" lon="9.279070">
        <ele>754.9</ele>
      </trkpt>
      <trkpt lat="47.132565" lon="9.279463">
        <ele>767.4</ele>
      </trkpt>
      <trkpt lat="47.132986" lon="9.280233">
        <ele>781.1</ele>
      </trkpt>
      <trkpt lat="47.133794" lon="9.281017">
        <ele>795.2</ele>
      </trkpt>
      <trkpt lat="47.134150" lon="9.281783">
        <ele>806.1</ele>
      </trkpt>
      <trkpt lat="47.133993" lon="9.280679">
        <ele>812.6</ele>
      </trkpt>
      <trkpt lat="47.133695" lon="9.279498">
        <ele>815.5</ele>
      </trkpt>
      <trkpt lat="47.133920" lon="9.278612">
        <ele>815.2</ele>
      </trkpt>
      <trkpt lat="47.133981" lon="9.277468">
        <ele>818.1</ele>
      </trkpt>
      <trkpt lat="47.133009" lon="9.276133">
        <ele>820.4</ele>
      </trkpt>
      <trkpt lat="47.132675" lon="9.274941">
        <ele>822.5</ele>
      </trkpt>
      <trkpt lat="47.132339" lon="9.272093">
        <ele>839.4</ele>
      </trkpt>
      <trkpt lat="47.132582" lon="9.270066">
        <ele>840.7</ele>
      </trkpt>
      <trkpt lat="47.133236" lon="9.268628">
        <ele>826.5</ele>
      </trkpt>
      <trkpt lat="47.133173" lon="9.268056">
        <ele>826.5</ele>
      </trkpt>
      <trkpt lat="47.132995" lon="9.267786">
        <ele>830.2</ele>
      </trkpt>
      <trkpt lat="47.132745" lon="9.266895">
        <ele>829.2</ele>
      </trkpt>
      <trkpt lat="47.132682" lon="9.265438">
        <ele>826.6</ele>
      </trkpt>
      <trkpt lat="47.132544" lon="9.263802">
        <ele>805.7</ele>
      </trkpt>
      <trkpt lat="47.132622" lon="9.262132">
        <ele>777.0</ele>
      </trkpt>
      <trkpt lat="47.131912" lon="9.262755">
        <ele>736.2</ele>
      </trkpt>
      <trkpt lat="47.131735" lon="9.262429">
        <ele>717.0</ele>
      </trkpt>
      <trkpt lat="47.131696" lon="9.261841">
        <ele>699.1</ele>
      </trkpt>
      <trkpt lat="47.131796" lon="9.259703">
        <ele>656.7</ele>
      </trkpt>
      <trkpt lat="47.131361" lon="9.260203">
        <ele>632.0</ele>
      </trkpt>
      <trkpt lat="47.130637" lon="9.261035">
        <ele>591.6</ele>
      </trkpt>
      <trkpt lat="47.130371" lon="9.259523">
        <ele>556.5</ele>
      </trkpt>
      <trkpt lat="47.130693" lon="9.258104">
        <ele>537.5</ele>
      </trkpt>
      <trkpt lat="47.130363" lon="9.256941">
        <ele>518.5</ele>
      </trkpt>
      <trkpt lat="47.130512" lon="9.255620">
        <ele>484.3</ele>
      </trkpt>
      <trkpt lat="47.130402" lon="9.255244">
        <ele>467.6</ele>
      </trkpt>
      <trkpt lat="47.130702" lon="9.253673">
        <ele>454.6</ele>
      </trkpt>
      <trkpt lat="47.130598" lon="9.252610">
        <ele>435.9</ele>
      </trkpt>
      <trkpt lat="47.130386" lon="9.251542">
        <ele>427.6</ele>
      </trkpt>
      <trkpt lat="47.130544" lon="9.250468">
        <ele>423.4</ele>
      </trkpt>
      <trkpt lat="47.130453" lon="9.249169">
        <ele>423.8</ele>
      </trkpt>
      <trkpt lat="47.130281" lon="9.247639">
        <ele>437.4</ele>
      </trkpt>
      <trkpt lat="47.130224" lon="9.246610">
        <ele>443.1</ele>
      </trkpt>
      <trkpt lat="47.130344" lon="9.246014">
        <ele>442.6</ele>
      </trkpt>
      <trkpt lat="47.130141" lon="9.244571">
        <ele>458.5</ele>
      </trkpt>
      <trkpt lat="47.130117" lon="9.243740">
        <ele>461.1</ele>
      </trkpt>
      <trkpt lat="47.130049" lon="9.243201">
        <ele>454.8</ele>
      </trkpt>
      <trkpt lat="47.130061" lon="9.242265">
        <ele>458.0</ele>
      </trkpt>
      <trkpt lat="47.130151" lon="9.241314">
        <ele>453.8</ele>
      </trkpt>
      <trkpt lat="47.129701" lon="9.239970">
        <ele>466.1</ele>
      </trkpt>
      <trkpt lat="47.129783" lon="9.238969">
        <ele>454.5</ele>
      </trkpt>
      <trkpt lat="47.129799" lon="9.237763">
        <ele>441.9</ele>
      </trkpt>
      <trkpt lat="47.129598" lon="9.235530">
        <ele>435.5</ele>
      </trkpt>
      <trkpt lat="47.129826" lon="9.234087">
        <ele>433.3</ele>
      </trkpt>
      <trkpt lat="47.130041" lon="9.233001">
        <ele>433.8</ele>
      </trkpt>
      <trkpt lat="47.130004" lon="9.231623">
        <ele>432.3</ele>
      </trkpt>
      <trkpt lat="47.130113" lon="9.229718">
        <ele>432.3</ele>
      </trkpt>
      <trkpt lat="47.130655" lon="9.227215">
        <ele>476.4</ele>
      </trkpt>
      <trkpt lat="47.131684" lon="9.225973">
        <ele>531.4</ele>
      </trkpt>
      <trkpt lat="47.130188" lon="9.222580">
        <ele>576.6</ele>
      </trkpt>
      <trkpt lat="47.130487" lon="9.218648">
        <ele>514.4</ele>
      </trkpt>
      <trkpt lat="47.129874" lon="9.216315">
        <ele>471.7</ele>
      </trkpt>
      <trkpt lat="47.130179" lon="9.214733">
        <ele>457.1</ele>
      </trkpt>
      <trkpt lat="47.130085" lon="9.213596">
        <ele>470.4</ele>
      </trkpt>
      <trkpt lat="47.129755" lon="9.212058">
        <ele>471.8</ele>
      </trkpt>
      <trkpt lat="47.129653" lon="9.210652">
        <ele>471.6</ele>
      </trkpt>
      <trkpt lat="47.129807" lon="9.209220">
        <ele>469.7</ele>
      </trkpt>
      <trkpt lat="47.130138" lon="9.208406">
        <ele>468.8</ele>
      </trkpt>
      <trkpt lat="47.130559" lon="9.206142">
        <ele>466.4</ele>
      </trkpt>
      <trkpt lat="47.131001" lon="9.203377">
        <ele>461.6</ele>
      </trkpt>
      <trkpt lat="47.131247" lon="9.202181">
        <ele>462.8</ele>
      </trkpt>
      <trkpt lat="47.131827" lon="9.200852">
        <ele>486.9</ele>
      </trkpt>
      <trkpt lat="47.132365" lon="9.199567">
        <ele>524.2</ele>
      </trkpt>
      <trkpt lat="47.132720" lon="9.198547">
        <ele>546.0</ele>
      </trkpt>
      <trkpt lat="47.133229" lon="9.197567">
        <ele>583.9</ele>
      </trkpt>
      <trkpt lat="47.133585" lon="9.196707">
        <ele>611.0</ele>
      </trkpt>
      <trkpt lat="47.133502" lon="9.195777">
        <ele>612.6</ele>
      </trkpt>
      <trkpt lat="47.133673" lon="9.194763">
        <ele>615.0</ele>
      </trkpt>
      <trkpt lat="47.134128" lon="9.193020">
        <ele>642.4</ele>
      </trkpt>
      <trkpt lat="47.134237" lon="9.191592">
        <ele>668.9</ele>
      </trkpt>
      <trkpt lat="47.134512" lon="9.191123">
        <ele>678.9</ele>
      </trkpt>
      <trkpt lat="47.134461" lon="9.190905">
        <ele>691.9</ele>
      </trkpt>
      <trkpt lat="47.134579" lon="9.189614">
        <ele>707.4</ele>
      </trkpt>
      <trkpt lat="47.134564" lon="9.186882">
        <ele>665.5</ele>
      </trkpt>
      <trkpt lat="47.134412" lon="9.185764">
        <ele>663.5</ele>
      </trkpt>
      <trkpt lat="47.134336" lon="9.184714">
        <ele>659.4</ele>
      </trkpt>
      <trkpt lat="47.134374" lon="9.183047">
        <ele>647.7</ele>
      </trkpt>
      <trkpt lat="47.133996" lon="9.182048">
        <ele>639.4</ele>
      </trkpt>
      <trkpt lat="47.134072" lon="9.181013">
        <ele>631.6</ele>
      </trkpt>
      <trkpt lat="47.134319" lon="9.178762">
        <ele>617.3</ele>
      </trkpt>
      <trkpt lat="47.134557" lon="9.177002">
        <ele>606.9</ele>
      </trkpt>
      <trkpt lat="47.134671" lon="9.175164">
        <ele>596.5</ele>
      </trkpt>
      <trkpt lat="47.134821" lon="9.174087">
        <ele>588.7</ele>
      </trkpt>
      <trkpt lat="47.135162" lon="9.173200">
        <ele>580.4</ele>
      </trkpt>
      <trkpt lat="47.135293" lon="9.172481">
        <ele>574.7</ele>
      </trkpt>
      <trkpt lat="47.135151" lon="9.171021">
        <ele>560.3</ele>
      </trkpt>
      <trkpt lat="47.134882" lon="9.170029">
        <ele>540.1</ele>
      </trkpt>
      <trkpt lat="47.134610" lon="9.168109">
        <ele>533.3</ele>
      </trkpt>
      <trkpt lat="47.134613" lon="9.166116">
        <ele>532.9</ele>
      </trkpt>
      <trkpt lat="47.134807" lon="9.164877">
        <ele>529.5</ele>
      </trkpt>
      <trkpt lat="47.134957" lon="9.164331">
        <ele>520.6</ele>
      </trkpt>
      <trkpt lat="47.135649" lon="9.164030">
        <ele>511.3</ele>
      </trkpt>
      <trkpt lat="47.136655" lon="9.163962">
        <ele>499.0</ele>
      </trkpt>
      <trkpt lat="47.136522" lon="9.162788">
        <ele>510.5</ele>
      </trkpt>
      <trkpt lat="47.136071" lon="9.161419">
        <ele>518.1</ele>
      </trkpt>
      <trkpt lat="47.136225" lon="9.160049">
        <ele>514.1</ele>
      </trkpt>
      <trkpt lat="47.136289" lon="9.158926">
        <ele>511.3</ele>
      </trkpt>
      <trkpt lat="47.136218" lon="9.155528">
        <ele>501.4</ele>
      </trkpt>
      <trkpt lat="47.136700" lon="9.153291">
        <ele>484.6</ele>
      </trkpt>
      <trkpt lat="47.136895" lon="9.150369">
        <ele>502.5</ele>
      </trkpt>
      <trkpt lat="47.136293" lon="9.147440">
        <ele>465.7</ele>
      </trkpt>
      <trkpt lat="47.135839" lon="9.146699">
        <ele>452.8</ele>
      </trkpt>
      <trkpt lat="47.135349" lon="9.146555">
        <ele>434.9</ele>
      </trkpt>
      <trkpt lat="47.135726" lon="9.146682">
        <ele>447.9</ele>
      </trkpt>
      <trkpt lat="47.136120" lon="9.147242">
        <ele>463.7</ele>
      </trkpt>
      <trkpt lat="47.136859" lon="9.150122">
        <ele>498.9</ele>
      </trkpt>
      <trkpt lat="47.136686" lon="9.153162">
        <ele>483.6</ele>
      </trkpt>
      <trkpt lat="47.136288" lon="9.154919">
        <ele>497.4</ele>
      </trkpt>
      <trkpt lat="47.136158" lon="9.157682">
        <ele>509.0</ele>
      </trkpt>
      <trkpt lat="47.136226" lon="9.159958">
        <ele>513.7</ele>
      </trkpt>
      <trkpt lat="47.136070" lon="9.161314">
        <ele>517.5</ele>
      </trkpt>
      <trkpt lat="47.136443" lon="9.162685">
        <ele>513.6</ele>
      </trkpt>
      <trkpt lat="47.136960" lon="9.163832">
        <ele>496.4</ele>
      </trkpt>
      <trkpt lat="47.135884" lon="9.164060">
        <ele>509.9</ele>
      </trkpt>
      <trkpt lat="47.134949" lon="9.164223">
        <ele>520.6</ele>
      </trkpt>
      <trkpt lat="47.134871" lon="9.164804">
        <ele>528.7</ele>
      </trkpt>
      <trkpt lat="47.134640" lon="9.165934">
        <ele>532.9</ele>
      </trkpt>
      <trkpt lat="47.134612" lon="9.167764">
        <ele>532.0</ele>
      </trkpt>
      <trkpt lat="47.134691" lon="9.169640">
        <ele>530.8</ele>
      </trkpt>
      <trkpt lat="47.135246" lon="9.170909">
        <ele>558.1</ele>
      </trkpt>
      <trkpt lat="47.135241" lon="9.172312">
        <ele>572.9</ele>
      </trkpt>
      <trkpt lat="47.135141" lon="9.173129">
        <ele>579.6</ele>
      </trkpt>
      <trkpt lat="47.134854" lon="9.173971">
        <ele>587.3</ele>
      </trkpt>
      <trkpt lat="47.134710" lon="9.174680">
        <ele>593.8</ele>
      </trkpt>
      <trkpt lat="47.134596" lon="9.176374">
        <ele>604.3</ele>
      </trkpt>
      <trkpt lat="47.134304" lon="9.178285">
        <ele>615.3</ele>
      </trkpt>
      <trkpt lat="47.134101" lon="9.180710">
        <ele>629.6</ele>
      </trkpt>
      <trkpt lat="47.133987" lon="9.181949">
        <ele>638.5</ele>
      </trkpt>
      <trkpt lat="47.134350" lon="9.182945">
        <ele>647.0</ele>
      </trkpt>
      <trkpt lat="47.134344" lon="9.184592">
        <ele>658.5</ele>
      </trkpt>
      <trkpt lat="47.134407" lon="9.185481">
        <ele>662.0</ele>
      </trkpt>
      <trkpt lat="47.134576" lon="9.186600">
        <ele>665.6</ele>
      </trkpt>
      <trkpt lat="47.134564" lon="9.189441">
        <ele>704.2</ele>
      </trkpt>
      <trkpt lat="47.134458" lon="9.190872">
        <ele>691.8</ele>
      </trkpt>
      <trkpt lat="47.134509" lon="9.191114">
        <ele>678.9</ele>
      </trkpt>
      <trkpt lat="47.134267" lon="9.191493">
        <ele>669.7</ele>
      </trkpt>
      <trkpt lat="47.134124" lon="9.192374">
        <ele>650.4</ele>
      </trkpt>
      <trkpt lat="47.133754" lon="9.194172">
        <ele>618.4</ele>
      </trkpt>
      <trkpt lat="47.133577" lon="9.195683">
        <ele>615.2</ele>
      </trkpt>
      <trkpt lat="47.133585" lon="9.196671">
        <ele>611.1</ele>
      </trkpt>
      <trkpt lat="47.133326" lon="9.197617">
        <ele>591.8</ele>
      </trkpt>
      <trkpt lat="47.132859" lon="9.198238">
        <ele>556.4</ele>
      </trkpt>
      <trkpt lat="47.132584" lon="9.199296">
        <ele>529.4</ele>
      </trkpt>
      <trkpt lat="47.131903" lon="9.200625">
        <ele>491.2</ele>
      </trkpt>
      <trkpt lat="47.131294" lon="9.201963">
        <ele>464.8</ele>
      </trkpt>
      <trkpt lat="47.130992" lon="9.203299">
        <ele>461.4</ele>
      </trkpt>
      <trkpt lat="47.130641" lon="9.205826">
        <ele>465.7</ele>
      </trkpt>
      <trkpt lat="47.130298" lon="9.208148">
        <ele>468.4</ele>
      </trkpt>
      <trkpt lat="47.129897" lon="9.208964">
        <ele>469.4</ele>
      </trkpt>
      <trkpt lat="47.129682" lon="9.210570">
        <ele>471.5</ele>
      </trkpt>
      <trkpt lat="47.129736" lon="9.211952">
        <ele>471.9</ele>
      </trkpt>
      <trkpt lat="47.129995" lon="9.213443">
        <ele>471.8</ele>
      </trkpt>
      <trkpt lat="47.130384" lon="9.214454">
        <ele>461.5</ele>
      </trkpt>
      <trkpt lat="47.129984" lon="9.215912">
        <ele>457.2</ele>
      </trkpt>
      <trkpt lat="47.129867" lon="9.215523">
        <ele>447.0</ele>
      </trkpt>
      <trkpt lat="47.130414" lon="9.213881">
        <ele>465.9</ele>
      </trkpt>
      <trkpt lat="47.129719" lon="9.212660">
        <ele>471.8</ele>
      </trkpt>
      <trkpt lat="47.129561" lon="9.211110">
        <ele>471.9</ele>
      </trkpt>
      <trkpt lat="47.129684" lon="9.209698">
        <ele>470.4</ele>
      </trkpt>
      <trkpt lat="47.130102" lon="9.208707">
        <ele>469.2</ele>
      </trkpt>
      <trkpt lat="47.130404" lon="9.206723">
        <ele>467.6</ele>
      </trkpt>
      <trkpt lat="47.130916" lon="9.204759">
        <ele>463.9</ele>
      </trkpt>
      <trkpt lat="47.130902" lon="9.202691">
        <ele>459.6</ele>
      </trkpt>
      <trkpt lat="47.131672" lon="9.201266">
        <ele>482.9</ele>
      </trkpt>
      <trkpt lat="47.132084" lon="9.200188">
        <ele>504.5</ele>
      </trkpt>
      <trkpt lat="47.132656" lon="9.198946">
        <ele>534.0</ele>
      </trkpt>
      <trkpt lat="47.132949" lon="9.197992">
        <ele>565.2</ele>
      </trkpt>
      <trkpt lat="47.133544" lon="9.197156">
        <ele>607.7</ele>
      </trkpt>
      <trkpt lat="47.133566" lon="9.196331">
        <ele>617.1</ele>
      </trkpt>
      <trkpt lat="47.133607" lon="9.195237">
        <ele>614.6</ele>
      </trkpt>
      <trkpt lat="47.134004" lon="9.193720">
        <ele>626.8</ele>
      </trkpt>
      <trkpt lat="47.134160" lon="9.191886">
        <ele>662.6</ele>
      </trkpt>
      <trkpt lat="47.134484" lon="9.191237">
        <ele>679.2</ele>
      </trkpt>
      <trkpt lat="47.134344" lon="9.190831">
        <ele>686.1</ele>
      </trkpt>
      <trkpt lat="47.134371" lon="9.190312">
        <ele>704.2</ele>
      </trkpt>
      <trkpt lat="47.134604" lon="9.187653">
        <ele>673.3</ele>
      </trkpt>
      <trkpt lat="47.134563" lon="9.186145">
        <ele>665.7</ele>
      </trkpt>
      <trkpt lat="47.134342" lon="9.185099">
        <ele>660.9</ele>
      </trkpt>
      <trkpt lat="47.134363" lon="9.183788">
        <ele>653.0</ele>
      </trkpt>
      <trkpt lat="47.134085" lon="9.182554">
        <ele>642.9</ele>
      </trkpt>
      <trkpt lat="47.134159" lon="9.181432">
        <ele>634.6</ele>
      </trkpt>
      <trkpt lat="47.134137" lon="9.179750">
        <ele>624.0</ele>
      </trkpt>
      <trkpt lat="47.134253" lon="9.177778">
        <ele>612.2</ele>
      </trkpt>
      <trkpt lat="47.134658" lon="9.175324">
        <ele>597.3</ele>
      </trkpt>
      <trkpt lat="47.134864" lon="9.174436">
        <ele>592.2</ele>
      </trkpt>
      <trkpt lat="47.135055" lon="9.173519">
        <ele>583.2</ele>
      </trkpt>
      <trkpt lat="47.135208" lon="9.172811">
        <ele>577.1</ele>
      </trkpt>
      <trkpt lat="47.135199" lon="9.171456">
        <ele>564.9</ele>
      </trkpt>
      <trkpt lat="47.135175" lon="9.170653">
        <ele>553.0</ele>
      </trkpt>
      <trkpt lat="47.134482" lon="9.168818">
        <ele>528.7</ele>
      </trkpt>
      <trkpt lat="47.134473" lon="9.166654">
        <ele>532.0</ele>
      </trkpt>
      <trkpt lat="47.134613" lon="9.165439">
        <ele>529.5</ele>
      </trkpt>
      <trkpt lat="47.135095" lon="9.164578">
        <ele>524.1</ele>
      </trkpt>
      <trkpt lat="47.135103" lon="9.163871">
        <ele>519.1</ele>
      </trkpt>
      <trkpt lat="47.136504" lon="9.164101">
        <ele>500.7</ele>
      </trkpt>
      <trkpt lat="47.136820" lon="9.163033">
        <ele>503.6</ele>
      </trkpt>
      <trkpt lat="47.136067" lon="9.161898">
        <ele>524.2</ele>
      </trkpt>
      <trkpt lat="47.136198" lon="9.160402">
        <ele>514.8</ele>
      </trkpt>
      <trkpt lat="47.136261" lon="9.159651">
        <ele>512.6</ele>
      </trkpt>
      <trkpt lat="47.136052" lon="9.156986">
        <ele>509.2</ele>
      </trkpt>
      <trkpt lat="47.136540" lon="9.153882">
        <ele>489.1</ele>
      </trkpt>
      <trkpt lat="47.136617" lon="9.151990">
        <ele>481.4</ele>
      </trkpt>
      <trkpt lat="47.136968" lon="9.148873">
        <ele>493.0</ele>
      </trkpt>
      <trkpt lat="47.137904" lon="9.149125">
        <ele>518.5</ele>
      </trkpt>
      <trkpt lat="47.138675" lon="9.146589">
        <ele>582.3</ele>
      </trkpt>
      <trkpt lat="47.138796" lon="9.145214">
        <ele>606.4</ele>
      </trkpt>
      <trkpt lat="47.139155" lon="9.142378">
        <ele>669.1</ele>
      </trkpt>
      <trkpt lat="47.139192" lon="9.141257">
        <ele>663.5</ele>
      </trkpt>
      <trkpt lat="47.139380" lon="9.140031">
        <ele>660.6</ele>
      </trkpt>
      <trkpt lat="47.139395" lon="9.138774">
        <ele>648.3</ele>
      </trkpt>
      <trkpt lat="47.139287" lon="9.136529">
        <ele>627.7</ele>
      </trkpt>
      <trkpt lat="47.138173" lon="9.133541">
        <ele>424.7</ele>
      </trkpt>
      <trkpt lat="47.137979" lon="9.131991">
        <ele>424.5</ele>
      </trkpt>
      <trkpt lat="47.138461" lon="9.130169">
        <ele>456.6</ele>
      </trkpt>
      <trkpt lat="47.138987" lon="9.127873">
        <ele>424.3</ele>
      </trkpt>
      <trkpt lat="47.139278" lon="9.125163">
        <ele>425.9</ele>
      </trkpt>
      <trkpt lat="47.139616" lon="9.123038">
        <ele>425.1</ele>
      </trkpt>
      <trkpt lat="47.139406" lon="9.119865">
        <ele>423.7</ele>
      </trkpt>
      <trkpt lat="47.139672" lon="9.115896">
        <ele>425.6</ele>
      </trkpt>
      <trkpt lat="47.139627" lon="9.113974">
        <ele>428.1</ele>
      </trkpt>
      <trkpt lat="47.139013" lon="9.111132">
        <ele>431.2</ele>
      </trkpt>
      <trkpt lat="47.138275" lon="9.109480">
        <ele>433.5</ele>
      </trkpt>
      <trkpt lat="47.137438" lon="9.107992">
        <ele>434.8</ele>
      </trkpt>
      <trkpt lat="47.136971" lon="9.106733">
        <ele>434.6</ele>
      </trkpt>
      <trkpt lat="47.136050" lon="9.104936">
        <ele>432.4</ele>
      </trkpt>
      <trkpt lat="47.136157" lon="9.103104">
        <ele>427.7</ele>
      </trkpt>
      <trkpt lat="47.135306" lon="9.101841">
        <ele>422.9</ele>
      </trkpt>
      <trkpt lat="47.135345" lon="9.100076">
        <ele>421.2</ele>
      </trkpt>
      <trkpt lat="47.134682" lon="9.098837">
        <ele>421.0</ele>
      </trkpt>
      <trkpt lat="47.133145" lon="9.098438">
        <ele>421.6</ele>
      </trkpt>
      <trkpt lat="47.132220" lon="9.094397">
        <ele>422.5</ele>
      </trkpt>
      <trkpt lat="47.131225" lon="9.093365">
        <ele>427.6</ele>
      </trkpt>
      <trkpt lat="47.131423" lon="9.093725">
        <ele>421.8</ele>
      </trkpt>
      <trkpt lat="47.132064" lon="9.097702">
        <ele>421.1</ele>
      </trkpt>
      <trkpt lat="47.131923" lon="9.099153">
        <ele>421.0</ele>
      </trkpt>
      <trkpt lat="47.131741" lon="9.100451">
        <ele>420.7</ele>
      </trkpt>
      <trkpt lat="47.130085" lon="9.103339">
        <ele>421.1</ele>
      </trkpt>
      <trkpt lat="47.129055" lon="9.105145">
        <ele>421.1</ele>
      </trkpt>
      <trkpt lat="47.128568" lon="9.105989">
        <ele>421.5</ele>
      </trkpt>
      <trkpt lat="47.127903" lon="9.109617">
        <ele>422.1</ele>
      </trkpt>
      <trkpt lat="47.128075" lon="9.110491">
        <ele>421.1</ele>
      </trkpt>
      <trkpt lat="47.127996" lon="9.111901">
        <ele>421.0</ele>
      </trkpt>
      <trkpt lat="47.127972" lon="9.112994">
        <ele>421.3</ele>
      </trkpt>
      <trkpt lat="47.127924" lon="9.114161">
        <ele>422.2</ele>
      </trkpt>
      <trkpt lat="47.126450" lon="9.117070">
        <ele>421.1</ele>
      </trkpt>
      <trkpt lat="47.125685" lon="9.117396">
        <ele>421.0</ele>
      </trkpt>
      <trkpt lat="47.124792" lon="9.114731">
        <ele>423.4</ele>
      </trkpt>
      <trkpt lat="47.123974" lon="9.114192">
        <ele>427.6</ele>
      </trkpt>
      <trkpt lat="47.123619" lon="9.114328">
        <ele>440.5</ele>
      </trkpt>
      <trkpt lat="47.123295" lon="9.114313">
        <ele>456.1</ele>
      </trkpt>
      <trkpt lat="47.122500" lon="9.114455">
        <ele>510.1</ele>
      </trkpt>
      <trkpt lat="47.122688" lon="9.114740">
        <ele>527.0</ele>
      </trkpt>
      <trkpt lat="47.122816" lon="9.115281">
        <ele>556.1</ele>
      </trkpt>
      <trkpt lat="47.122899" lon="9.115596">
        <ele>569.8</ele>
      </trkpt>
      <trkpt lat="47.122845" lon="9.115815">
        <ele>584.8</ele>
      </trkpt>
      <trkpt lat="47.123449" lon="9.116808">
        <ele>608.7</ele>
      </trkpt>
      <trkpt lat="47.123830" lon="9.119159">
        <ele>642.6</ele>
      </trkpt>
      <trkpt lat="47.123975" lon="9.120972">
        <ele>652.0</ele>
      </trkpt>
      <trkpt lat="47.124254" lon="9.122567">
        <ele>643.7</ele>
      </trkpt>
      <trkpt lat="47.124396" lon="9.124012">
        <ele>637.5</ele>
      </trkpt>
      <trkpt lat="47.124389" lon="9.126448">
        <ele>651.2</ele>
      </trkpt>
      <trkpt lat="47.124251" lon="9.128085">
        <ele>658.9</ele>
      </trkpt>
      <trkpt lat="47.124279" lon="9.130202">
        <ele>660.8</ele>
      </trkpt>
      <trkpt lat="47.124071" lon="9.131095">
        <ele>671.5</ele>
      </trkpt>
      <trkpt lat="47.123761" lon="9.130995">
        <ele>674.7</ele>
      </trkpt>
      <trkpt lat="47.123347" lon="9.130695">
        <ele>680.9</ele>
      </trkpt>
      <trkpt lat="47.121999" lon="9.129861">
        <ele>690.6</ele>
      </trkpt>
      <trkpt lat="47.120911" lon="9.129482">
        <ele>703.1</ele>
      </trkpt>
      <trkpt lat="47.120516" lon="9.128543">
        <ele>714.3</ele>
      </trkpt>
      <trkpt lat="47.119620" lon="9.127752">
        <ele>723.6</ele>
      </trkpt>
      <trkpt lat="47.118900" lon="9.127670">
        <ele>731.0</ele>
      </trkpt>
      <trkpt lat="47.117939" lon="9.127439">
        <ele>739.1</ele>
      </trkpt>
      <trkpt lat="47.117701" lon="9.127233">
        <ele>740.0</ele>
      </trkpt>
      <trkpt lat="47.117400" lon="9.128133">
        <ele>748.1</ele>
      </trkpt>
      <trkpt lat="47.117526" lon="9.129693">
        <ele>758.5</ele>
      </trkpt>
      <trkpt lat="47.117090" lon="9.130024">
        <ele>770.3</ele>
      </trkpt>
      <trkpt lat="47.116729" lon="9.130217">
        <ele>779.0</ele>
      </trkpt>
      <trkpt lat="47.116254" lon="9.130506">
        <ele>797.9</ele>
      </trkpt>
      <trkpt lat="47.115609" lon="9.130083">
        <ele>818.9</ele>
      </trkpt>
      <trkpt lat="47.115039" lon="9.130111">
        <ele>837.3</ele>
      </trkpt>
      <trkpt lat="47.114782" lon="9.130305">
        <ele>846.7</ele>
      </trkpt>
      <trkpt lat="47.114297" lon="9.130685">
        <ele>868.6</ele>
      </trkpt>
      <trkpt lat="47.113689" lon="9.130504">
        <ele>887.2</ele>
      </trkpt>
      <trkpt lat="47.113338" lon="9.129903">
        <ele>906.3</ele>
      </trkpt>
      <trkpt lat="47.113124" lon="9.129843">
        <ele>914.0</ele>
      </trkpt>
      <trkpt lat="47.112837" lon="9.129222">
        <ele>927.6</ele>
      </trkpt>
      <trkpt lat="47.112378" lon="9.128929">
        <ele>949.2</ele>
      </trkpt>
      <trkpt lat="47.111881" lon="9.128105">
        <ele>973.4</ele>
      </trkpt>
      <trkpt lat="47.111458" lon="9.128028">
        <ele>992.3</ele>
      </trkpt>
      <trkpt lat="47.110911" lon="9.127095">
        <ele>1013.7</ele>
      </trkpt>
      <trkpt lat="47.110752" lon="9.127474">
        <ele>1020.9</ele>
      </trkpt>
      <trkpt lat="47.110571" lon="9.128287">
        <ele>1016.0</ele>
      </trkpt>
      <trkpt lat="47.110365" lon="9.128538">
        <ele>1018.2</ele>
      </trkpt>
      <trkpt lat="47.109789" lon="9.129899">
        <ele>1030.5</ele>
      </trkpt>
      <trkpt lat="47.109219" lon="9.131638">
        <ele>1045.8</ele>
      </trkpt>
      <trkpt lat="47.108888" lon="9.131117">
        <ele>1060.5</ele>
      </trkpt>
      <trkpt lat="47.108925" lon="9.131035">
        <ele>1061.8</ele>
      </trkpt>
      <trkpt lat="47.109145" lon="9.131696">
        <ele>1046.8</ele>
      </trkpt>
      <trkpt lat="47.109703" lon="9.130088">
        <ele>1032.2</ele>
      </trkpt>
      <trkpt lat="47.110393" lon="9.128950">
        <ele>1020.4</ele>
      </trkpt>
      <trkpt lat="47.110526" lon="9.128360">
        <ele>1015.8</ele>
      </trkpt>
      <trkpt lat="47.110752" lon="9.127474">
        <ele>1020.9</ele>
      </trkpt>
      <trkpt lat="47.110899" lon="9.127051">
        <ele>1014.8</ele>
      </trkpt>
      <trkpt lat="47.111404" lon="9.127992">
        <ele>993.8</ele>
      </trkpt>
      <trkpt lat="47.111755" lon="9.128214">
        <ele>979.3</ele>
      </trkpt>
      <trkpt lat="47.112312" lon="9.128923">
        <ele>950.6</ele>
      </trkpt>
      <trkpt lat="47.112744" lon="9.129236">
        <ele>929.5</ele>
      </trkpt>
      <trkpt lat="47.113124" lon="9.129843">
        <ele>914.0</ele>
      </trkpt>
      <trkpt lat="47.113312" lon="9.129914">
        <ele>907.1</ele>
      </trkpt>
      <trkpt lat="47.113651" lon="9.130446">
        <ele>888.9</ele>
      </trkpt>
      <trkpt lat="47.114128" lon="9.130689">
        <ele>872.0</ele>
      </trkpt>
      <trkpt lat="47.114759" lon="9.130379">
        <ele>849.3</ele>
      </trkpt>
      <trkpt lat="47.115025" lon="9.130052">
        <ele>838.6</ele>
      </trkpt>
      <trkpt lat="47.115576" lon="9.130090">
        <ele>819.4</ele>
      </trkpt>
      <trkpt lat="47.116150" lon="9.130522">
        <ele>800.3</ele>
      </trkpt>
      <trkpt lat="47.116650" lon="9.130118">
        <ele>782.1</ele>
      </trkpt>
      <trkpt lat="47.117069" lon="9.130050">
        <ele>770.9</ele>
      </trkpt>
      <trkpt lat="47.117543" lon="9.129749">
        <ele>758.9</ele>
      </trkpt>
      <trkpt lat="47.117400" lon="9.128133">
        <ele>748.1</ele>
      </trkpt>
      <trkpt lat="47.117676" lon="9.127247">
        <ele>739.3</ele>
      </trkpt>
      <trkpt lat="47.117907" lon="9.127428">
        <ele>739.3</ele>
      </trkpt>
      <trkpt lat="47.118852" lon="9.127619">
        <ele>731.5</ele>
      </trkpt>
      <trkpt lat="47.119559" lon="9.127779">
        <ele>724.0</ele>
      </trkpt>
      <trkpt lat="47.120457" lon="9.128483">
        <ele>715.0</ele>
      </trkpt>
      <trkpt lat="47.120911" lon="9.129482">
        <ele>703.1</ele>
      </trkpt>
      <trkpt lat="47.121948" lon="9.129845">
        <ele>691.2</ele>
      </trkpt>
      <trkpt lat="47.123264" lon="9.130650">
        <ele>681.4</ele>
      </trkpt>
      <trkpt lat="47.123728" lon="9.130996">
        <ele>674.9</ele>
      </trkpt>
      <trkpt lat="47.124006" lon="9.131194">
        <ele>671.3</ele>
      </trkpt>
      <trkpt lat="47.124279" lon="9.130202">
        <ele>660.8</ele>
      </trkpt>
      <trkpt lat="47.124234" lon="9.128255">
        <ele>659.1</ele>
      </trkpt>
      <trkpt lat="47.124376" lon="9.126527">
        <ele>651.8</ele>
      </trkpt>
      <trkpt lat="47.124432" lon="9.124061">
        <ele>637.6</ele>
      </trkpt>
      <trkpt lat="47.124279" lon="9.122616">
        <ele>644.0</ele>
      </trkpt>
      <trkpt lat="47.123994" lon="9.121144">
        <ele>651.5</ele>
      </trkpt>
      <trkpt lat="47.123830" lon="9.119159">
        <ele>642.6</ele>
      </trkpt>
      <trkpt lat="47.123438" lon="9.116839">
        <ele>609.3</ele>
      </trkpt>
      <trkpt lat="47.123016" lon="9.115931">
        <ele>591.1</ele>
      </trkpt>
      <trkpt lat="47.123006" lon="9.115688">
        <ele>574.0</ele>
      </trkpt>
      <trkpt lat="47.122821" lon="9.115297">
        <ele>556.1</ele>
      </trkpt>
      <trkpt lat="47.122474" lon="9.114807">
        <ele>533.4</ele>
      </trkpt>
      <trkpt lat="47.122487" lon="9.114472">
        <ele>511.2</ele>
      </trkpt>
      <trkpt lat="47.123283" lon="9.114338">
        <ele>457.2</ele>
      </trkpt>
      <trkpt lat="47.123582" lon="9.114303">
        <ele>441.8</ele>
      </trkpt>
      <trkpt lat="47.123928" lon="9.114177">
        <ele>428.5</ele>
      </trkpt>
      <trkpt lat="47.124657" lon="9.114311">
        <ele>423.2</ele>
      </trkpt>
      <trkpt lat="47.125685" lon="9.117396">
        <ele>421.0</ele>
      </trkpt>
      <trkpt lat="47.126230" lon="9.117035">
        <ele>424.0</ele>
      </trkpt>
      <trkpt lat="47.127893" lon="9.114200">
        <ele>422.2</ele>
      </trkpt>
      <trkpt lat="47.127971" lon="9.113059">
        <ele>421.3</ele>
      </trkpt>
      <trkpt lat="47.127952" lon="9.111978">
        <ele>421.0</ele>
      </trkpt>
      <trkpt lat="47.128101" lon="9.110605">
        <ele>421.0</ele>
      </trkpt>
      <trkpt lat="47.127903" lon="9.109617">
        <ele>422.1</ele>
      </trkpt>
      <trkpt lat="47.128478" lon="9.106110">
        <ele>421.5</ele>
      </trkpt>
      <trkpt lat="47.129043" lon="9.105237">
        <ele>421.3</ele>
      </trkpt>
      <trkpt lat="47.129958" lon="9.103454">
        <ele>421.1</ele>
      </trkpt>
      <trkpt lat="47.131675" lon="9.100539">
        <ele>420.7</ele>
      </trkpt>
      <trkpt lat="47.131960" lon="9.099408">
        <ele>421.0</ele>
      </trkpt>
      <trkpt lat="47.132063" lon="9.097785">
        <ele>421.1</ele>
      </trkpt>
      <trkpt lat="47.131490" lon="9.093746">
        <ele>421.6</ele>
      </trkpt>
      <trkpt lat="47.131212" lon="9.093385">
        <ele>427.6</ele>
      </trkpt>
      <trkpt lat="47.131980" lon="9.092835">
        <ele>423.0</ele>
      </trkpt>
      <trkpt lat="47.131226" lon="9.083777">
        <ele>423.1</ele>
      </trkpt>
      <trkpt lat="47.130410" lon="9.072866">
        <ele>422.9</ele>
      </trkpt>
      <trkpt lat="47.130133" lon="9.070634">
        <ele>422.4</ele>
      </trkpt>
      <trkpt lat="47.130148" lon="9.069915">
        <ele>423.1</ele>
      </trkpt>
      <trkpt lat="47.130325" lon="9.069669">
        <ele>422.7</ele>
      </trkpt>
      <trkpt lat="47.130349" lon="9.068709">
        <ele>423.3</ele>
      </trkpt>
      <trkpt lat="47.130218" lon="9.068456">
        <ele>423.4</ele>
      </trkpt>
      <trkpt lat="47.130385" lon="9.067786">
        <ele>423.6</ele>
      </trkpt>
      <trkpt lat="47.131590" lon="9.065706">
        <ele>418.5</ele>
      </trkpt>
      <trkpt lat="47.132112" lon="9.065408">
        <ele>422.9</ele>
      </trkpt>
      <trkpt lat="47.136124" lon="9.059606">
        <ele>424.8</ele>
      </trkpt>
      <trkpt lat="47.136142" lon="9.057507">
        <ele>423.4</ele>
      </trkpt>
    </trkseg>
  </trk>
</gpx>
