<?xml version='1.0' encoding='utf-8'?>
<gpx xmlns="http://www.topografix.com/GPX/1/1" xmlns:xsi="http://www.w3.org/2001/XMLSchema-instance" xsi:schemaLocation="http://www.topografix.com/GPX/1/1 http://www.topografix.com/GPX/1/1/gpx.xsd" version="1.1" creator="gpx.py -- https://github.com/tkrajina/gpxpy">
  <trk>
    <name>zuestoll</name>
    <trkseg>
      <trkpt lat="47.18261902275987" lon="9.296449087336466">
      <ele>1385.4</ele></trkpt>
      <trkpt lat="47.18257687535447" lon="9.29646438313958">
      <ele>1386.2</ele></trkpt>
      <trkpt lat="47.18251355306174" lon="9.296473809804032">
      <ele>1387.0</ele></trkpt>
      <trkpt lat="47.1824492028348" lon="9.296468328009313">
      <ele>1387.7</ele></trkpt>
      <trkpt lat="47.182391884247636" lon="9.296440260151904">
      <ele>1388.5</ele></trkpt>
      <trkpt lat="47.18233673414957" lon="9.296415527269438">
      <ele>1389.3</ele></trkpt>
      <trkpt lat="47.18229444624136" lon="9.296420577495166">
      <ele>1390.1</ele></trkpt>
      <trkpt lat="47.18217776932726" lon="9.296511962865036">
      <ele>1390.9</ele></trkpt>
      <trkpt lat="47.182155392618846" lon="9.296558799115932">
      <ele>1391.6</ele></trkpt>
      <trkpt lat="47.18212295108658" lon="9.296606552553445">
      <ele>1392.4</ele></trkpt>
      <trkpt lat="47.18208901275639" lon="9.296644475212775">
      <ele>1393.2</ele></trkpt>
      <trkpt lat="47.182051698672396" lon="9.296684735121099">
      <ele>1394.0</ele></trkpt>
      <trkpt lat="47.1820060669406" lon="9.296724692801977">
      <ele>1394.8</ele></trkpt>
      <trkpt lat="47.18196038680309" lon="9.296767090108496">
      <ele>1395.5</ele></trkpt>
      <trkpt lat="47.18188956810762" lon="9.296818405812338">
      <ele>1396.3</ele></trkpt>
      <trkpt lat="47.18184235134719" lon="9.296853438644762">
      <ele>1397.1</ele></trkpt>
      <trkpt lat="47.18178809849195" lon="9.296910212447347">
      <ele>1397.9</ele></trkpt>
      <trkpt lat="47.18172541854383" lon="9.296974017415195">
      <ele>1398.7</ele></trkpt>
      <trkpt lat="47.18163731495671" lon="9.29706383336975">
      <ele>1399.4</ele></trkpt>
      <trkpt lat="47.18153398431939" lon="9.297167794417398">
      <ele>1400.2</ele></trkpt>
      <trkpt lat="47.18144886159414" lon="9.297279711889358">
      <ele>1401.0</ele></trkpt>
      <trkpt lat="47.181381133332295" lon="9.297345781927715">
      <ele>1401.5</ele></trkpt>
      <trkpt lat="47.181316828766704" lon="9.297407101293818">
      <ele>1402.0</ele></trkpt>
      <trkpt lat="47.181245694249824" lon="9.297477948504937">
      <ele>1402.4</ele></trkpt>
      <trkpt lat="47.181198192383285" lon="9.297530059816067">
      <ele>1402.9</ele></trkpt>
      <trkpt lat="47.18116262937462" lon="9.297565496629973">
      <ele>1403.4</ele></trkpt>
      <trkpt lat="47.18112911573582" lon="9.297576551662072">
      <ele>1403.9</ele></trkpt>
      <trkpt lat="47.18109933281465" lon="9.297563296595255">
      <ele>1404.4</ele></trkpt>
      <trkpt lat="47.181064805095524" lon="9.297535202225117">
      <ele>1404.8</ele></trkpt>
      <trkpt lat="47.18103704068512" lon="9.297500032155842">
      <ele>1405.3</ele></trkpt>
      <trkpt lat="47.1809873956073" lon="9.297478736438508">
      <ele>1405.8</ele></trkpt>
      <trkpt lat="47.18093254412403" lon="9.297469506042695">
      <ele>1406.3</ele></trkpt>
      <trkpt lat="47.18087410737443" lon="9.297477253537096">
      <ele>1406.8</ele></trkpt>
      <trkpt lat="47.18082715773827" lon="9.297495178751529">
      <ele>1407.2</ele></trkpt>
      <trkpt lat="47.180754912047675" lon="9.297531768496988">
      <ele>1407.7</ele></trkpt>
      <trkpt lat="47.180710974000284" lon="9.297569342043438">
      <ele>1408.2</ele></trkpt>
      <trkpt lat="47.180653323582284" lon="9.29763089166294">
      <ele>1408.7</ele></trkpt>
      <trkpt lat="47.180577110377754" lon="9.297706443791373">
      <ele>1409.2</ele></trkpt>
      <trkpt lat="47.180511181671164" lon="9.297765250843659">
      <ele>1409.6</ele></trkpt>
      <trkpt lat="47.180430056298164" lon="9.297835762408203">
      <ele>1410.1</ele></trkpt>
      <trkpt lat="47.1803791874853" lon="9.297890210065098">
      <ele>1410.6</ele></trkpt>
      <trkpt lat="47.18033500335508" lon="9.297942448704983">
      <ele>1410.7</ele></trkpt>
      <trkpt lat="47.180251977746636" lon="9.298027541497612">
      <ele>1410.9</ele></trkpt>
      <trkpt lat="47.18019893207698" lon="9.298113689544422">
      <ele>1411.0</ele></trkpt>
      <trkpt lat="47.18015797467991" lon="9.29817336389631">
      <ele>1411.2</ele></trkpt>
      <trkpt lat="47.18011163181298" lon="9.29825729021878">
      <ele>1411.3</ele></trkpt>
      <trkpt lat="47.18006872554085" lon="9.298333998827205">
      <ele>1411.5</ele></trkpt>
      <trkpt lat="47.18002614389248" lon="9.298391175101692">
      <ele>1411.6</ele></trkpt>
      <trkpt lat="47.179985304653876" lon="9.298443529303102">
      <ele>1411.8</ele></trkpt>
      <trkpt lat="47.17995156308988" lon="9.298469236521568">
      <ele>1411.9</ele></trkpt>
      <trkpt lat="47.17990805894663" lon="9.298479943329033">
      <ele>1412.0</ele></trkpt>
      <trkpt lat="47.17983608919172" lon="9.298499438566617">
      <ele>1412.2</ele></trkpt>
      <trkpt lat="47.179775663879425" lon="9.29852667223126">
      <ele>1412.3</ele></trkpt>
      <trkpt lat="47.1797167351753" lon="9.298563736171666">
      <ele>1412.5</ele></trkpt>
      <trkpt lat="47.17967609368546" lon="9.298603850868222">
      <ele>1412.6</ele></trkpt>
      <trkpt lat="47.179633472246344" lon="9.298663479594609">
      <ele>1412.8</ele></trkpt>
      <trkpt lat="47.179592593652536" lon="9.298718259911048">
      <ele>1412.9</ele></trkpt>
      <trkpt lat="47.17956536609445" lon="9.298753984778749">
      <ele>1413.1</ele></trkpt>
      <trkpt lat="47.1795299124543" lon="9.298782073322112">
      <ele>1413.2</ele></trkpt>
      <trkpt lat="47.17948463516081" lon="9.29880005510848">
      <ele>1413.4</ele></trkpt>
      <trkpt lat="47.17937768542813" lon="9.298818333158598">
      <ele>1413.5</ele></trkpt>
      <trkpt lat="47.17927573560311" lon="9.298836771837387">
      <ele>1414.1</ele></trkpt>
      <trkpt lat="47.1791819147544" lon="9.298867739012813">
      <ele>1414.8</ele></trkpt>
      <trkpt lat="47.17911160870352" lon="9.29888727813368">
      <ele>1415.4</ele></trkpt>
      <trkpt lat="47.17904472644713" lon="9.298902066996144">
      <ele>1416.1</ele></trkpt>
      <trkpt lat="47.17898627158952" lon="9.298909812020886">
      <ele>1416.7</ele></trkpt>
      <trkpt lat="47.17893131085331" lon="9.298907900409874">
      <ele>1417.4</ele></trkpt>
      <trkpt lat="47.17888623118384" lon="9.298913656188157">
      <ele>1418.0</ele></trkpt>
      <trkpt lat="47.17882599420593" lon="9.298928676088885">
      <ele>1418.7</ele></trkpt>
      <trkpt lat="47.1787104412641" lon="9.298963756213247">
      <ele>1419.3</ele></trkpt>
      <trkpt lat="47.17856987712151" lon="9.299000420643122">
      <ele>1420.0</ele></trkpt>
      <trkpt lat="47.178419195431815" lon="9.299044043406472">
      <ele>1420.6</ele></trkpt>
      <trkpt lat="47.17833374978815" lon="9.299072859834277">
      <ele>1421.2</ele></trkpt>
      <trkpt lat="47.178233384569246" lon="9.299096235198649">
      <ele>1421.9</ele></trkpt>
      <trkpt lat="47.17809955354518" lon="9.299128250763111">
      <ele>1422.5</ele></trkpt>
      <trkpt lat="47.177999030083605" lon="9.299161411591761">
      <ele>1423.2</ele></trkpt>
      <trkpt lat="47.177910248483414" lon="9.299190098365138">
      <ele>1423.8</ele></trkpt>
      <trkpt lat="47.17780791240337" lon="9.299232973850408">
      <ele>1424.5</ele></trkpt>
      <trkpt lat="47.17776073452566" lon="9.299265548866972">
      <ele>1425.1</ele></trkpt>
      <trkpt lat="47.1777116778192" lon="9.299310264380942">
      <ele>1425.8</ele></trkpt>
      <trkpt lat="47.17766742309883" lon="9.299367379165828">
      <ele>1426.4</ele></trkpt>
      <trkpt lat="47.17762503840169" lon="9.299412339824274">
      <ele>1426.7</ele></trkpt>
      <trkpt lat="47.1775811479412" lon="9.299447483316499">
      <ele>1427.0</ele></trkpt>
      <trkpt lat="47.177536050551815" lon="9.299461564263492">
      <ele>1427.3</ele></trkpt>
      <trkpt lat="47.177474338629516" lon="9.299464299599931">
      <ele>1427.6</ele></trkpt>
      <trkpt lat="47.177411129953896" lon="9.299457218178828">
      <ele>1427.9</ele></trkpt>
      <trkpt lat="47.177342930567605" lon="9.29944996314496">
      <ele>1428.2</ele></trkpt>
      <trkpt lat="47.177302999387265" lon="9.299446132755042">
      <ele>1428.5</ele></trkpt>
      <trkpt lat="47.17726425808866" lon="9.299471650915146">
      <ele>1428.8</ele></trkpt>
      <trkpt lat="47.17719685315198" lon="9.299518195011789">
      <ele>1429.1</ele></trkpt>
      <trkpt lat="47.177067271324" lon="9.299596778246514">
      <ele>1429.5</ele></trkpt>
      <trkpt lat="47.17693089857834" lon="9.29968246145355">
      <ele>1429.8</ele></trkpt>
      <trkpt lat="47.17687949970918" lon="9.299713991386133">
      <ele>1430.1</ele></trkpt>
      <trkpt lat="47.176836652146235" lon="9.299740276752065">
      <ele>1430.4</ele></trkpt>
      <trkpt lat="47.176772622902234" lon="9.299784483266949">
      <ele>1430.7</ele></trkpt>
      <trkpt lat="47.17666967576773" lon="9.299864005262291">
      <ele>1431.0</ele></trkpt>
      <trkpt lat="47.17658526178495" lon="9.299931926647204">
      <ele>1431.3</ele></trkpt>
      <trkpt lat="47.176510956361305" lon="9.299992889408784">
      <ele>1431.6</ele></trkpt>
      <trkpt lat="47.176450175217695" lon="9.300042090643494">
      <ele>1431.9</ele></trkpt>
      <trkpt lat="47.1763744740992" lon="9.300085877082761">
      <ele>1432.2</ele></trkpt>
      <trkpt lat="47.176303732767316" lon="9.30013230352176">
      <ele>1432.5</ele></trkpt>
      <trkpt lat="47.176277825574054" lon="9.300145890249583">
      <ele>1433.1</ele></trkpt>
      <trkpt lat="47.17622694856402" lon="9.300166287555633">
      <ele>1433.8</ele></trkpt>
      <trkpt lat="47.17619231549145" lon="9.300188121054354">
      <ele>1434.4</ele></trkpt>
      <trkpt lat="47.17613008741935" lon="9.300238327032346">
      <ele>1435.1</ele></trkpt>
      <trkpt lat="47.17609678253934" lon="9.30026648758293">
      <ele>1435.7</ele></trkpt>
      <trkpt lat="47.17605606582846" lon="9.300174406362679">
      <ele>1436.3</ele></trkpt>
      <trkpt lat="47.17601906256665" lon="9.300092482847777">
      <ele>1437.0</ele></trkpt>
      <trkpt lat="47.175998357503985" lon="9.300033109771757">
      <ele>1437.6</ele></trkpt>
      <trkpt lat="47.175984315683074" lon="9.299973968620197">
      <ele>1438.3</ele></trkpt>
      <trkpt lat="47.17593792777495" lon="9.299957694536069">
      <ele>1438.9</ele></trkpt>
      <trkpt lat="47.17588038159627" lon="9.299909258302021">
      <ele>1439.5</ele></trkpt>
      <trkpt lat="47.17583774658287" lon="9.299866223236599">
      <ele>1440.2</ele></trkpt>
      <trkpt lat="47.17578338763335" lon="9.299827662478748">
      <ele>1440.8</ele></trkpt>
      <trkpt lat="47.175744167434175" lon="9.299779877386747">
      <ele>1441.5</ele></trkpt>
      <trkpt lat="47.17572159212329" lon="9.29973265832585">
      <ele>1442.1</ele></trkpt>
      <trkpt lat="47.17568420794399" lon="9.29969429255769">
      <ele>1442.7</ele></trkpt>
      <trkpt lat="47.175653811836014" lon="9.299659996554276">
      <ele>1443.4</ele></trkpt>
      <trkpt lat="47.17561713348043" lon="9.299606916552865">
      <ele>1444.0</ele></trkpt>
      <trkpt lat="47.17558183292038" lon="9.299589920267186">
      <ele>1444.7</ele></trkpt>
      <trkpt lat="47.175543950850376" lon="9.299564534502561">
      <ele>1445.3</ele></trkpt>
      <trkpt lat="47.175498164905726" lon="9.29953050813581">
      <ele>1446.0</ele></trkpt>
      <trkpt lat="47.17544629572286" lon="9.299500439818514">
      <ele>1446.8</ele></trkpt>
      <trkpt lat="47.17541622683262" lon="9.299485406994812">
      <ele>1447.5</ele></trkpt>
      <trkpt lat="47.175379656335764" lon="9.299456807845427">
      <ele>1448.2</ele></trkpt>
      <trkpt lat="47.175346769023776" lon="9.299438576189681">
      <ele>1448.9</ele></trkpt>
      <trkpt lat="47.1753160762803" lon="9.299424287035528">
      <ele>1449.6</ele></trkpt>
      <trkpt lat="47.175284518756676" lon="9.299402829326505">
      <ele>1450.4</ele></trkpt>
      <trkpt lat="47.17525331011459" lon="9.299413764254204">
      <ele>1451.1</ele></trkpt>
      <trkpt lat="47.175226446148876" lon="9.299406403745785">
      <ele>1451.8</ele></trkpt>
      <trkpt lat="47.1752031195776" lon="9.299412862678128">
      <ele>1452.5</ele></trkpt>
      <trkpt lat="47.1751686501572" lon="9.299444057158118">
      <ele>1453.3</ele></trkpt>
      <trkpt lat="47.175152740423265" lon="9.29945644792229">
      <ele>1454.0</ele></trkpt>
      <trkpt lat="47.175131900235314" lon="9.299459932095834">
      <ele>1454.7</ele></trkpt>
      <trkpt lat="47.175103510001506" lon="9.29947406582114">
      <ele>1455.5</ele></trkpt>
      <trkpt lat="47.175085082872315" lon="9.299476327635352">
      <ele>1456.2</ele></trkpt>
      <trkpt lat="47.17507026178903" lon="9.299477593331698">
      <ele>1456.9</ele></trkpt>
      <trkpt lat="47.17504739790572" lon="9.299484371794232">
      <ele>1457.6</ele></trkpt>
      <trkpt lat="47.1750149725558" lon="9.299458160184962">
      <ele>1458.3</ele></trkpt>
      <trkpt lat="47.174978389021916" lon="9.299416458270027">
      <ele>1459.1</ele></trkpt>
      <trkpt lat="47.17496485369046" lon="9.299388291289361">
      <ele>1459.8</ele></trkpt>
      <trkpt lat="47.174937764382385" lon="9.29933199630768">
      <ele>1460.3</ele></trkpt>
      <trkpt lat="47.17491101607725" lon="9.299281875260816">
      <ele>1460.8</ele></trkpt>
      <trkpt lat="47.174891516019365" lon="9.299226411762302">
      <ele>1461.3</ele></trkpt>
      <trkpt lat="47.17488174212352" lon="9.299217125647363">
      <ele>1461.8</ele></trkpt>
      <trkpt lat="47.17482880060662" lon="9.2991932750522">
      <ele>1462.3</ele></trkpt>
      <trkpt lat="47.17478113472575" lon="9.299152533861845">
      <ele>1462.8</ele></trkpt>
      <trkpt lat="47.17473899281822" lon="9.29910792086907">
      <ele>1463.3</ele></trkpt>
      <trkpt lat="47.17470632926303" lon="9.299071396186307">
      <ele>1463.8</ele></trkpt>
      <trkpt lat="47.17468177051534" lon="9.299038320202984">
      <ele>1464.3</ele></trkpt>
      <trkpt lat="47.17466334830641" lon="9.29902747985379">
      <ele>1464.8</ele></trkpt>
      <trkpt lat="47.17462659118328" lon="9.2990081904767">
      <ele>1465.3</ele></trkpt>
      <trkpt lat="47.17462901386463" lon="9.29896185535692">
      <ele>1465.8</ele></trkpt>
      <trkpt lat="47.17458744952434" lon="9.29895552768309">
      <ele>1466.3</ele></trkpt>
      <trkpt lat="47.174559418382465" lon="9.298937439112247">
      <ele>1466.8</ele></trkpt>
      <trkpt lat="47.174541889742706" lon="9.298915849749006">
      <ele>1467.3</ele></trkpt>
      <trkpt lat="47.17451888423372" lon="9.298872958253423">
      <ele>1467.8</ele></trkpt>
      <trkpt lat="47.17449708421318" lon="9.29883174487251">
      <ele>1468.3</ele></trkpt>
      <trkpt lat="47.17446848849898" lon="9.298789028497103">
      <ele>1468.8</ele></trkpt>
      <trkpt lat="47.174446084220556" lon="9.298762928584251">
      <ele>1469.3</ele></trkpt>
      <trkpt lat="47.17441177834857" lon="9.298735042555753">
      <ele>1469.8</ele></trkpt>
      <trkpt lat="47.17437739264736" lon="9.298723225002746">
      <ele>1471.3</ele></trkpt>
      <trkpt lat="47.17433936527944" lon="9.298717389995367">
      <ele>1472.8</ele></trkpt>
      <trkpt lat="47.17428120468195" lon="9.298714720924705">
      <ele>1474.3</ele></trkpt>
      <trkpt lat="47.17423623713279" lon="9.298710755746743">
      <ele>1475.8</ele></trkpt>
      <trkpt lat="47.17419726991942" lon="9.298699610195245">
      <ele>1477.3</ele></trkpt>
      <trkpt lat="47.174158608932586" lon="9.298680096671802">
      <ele>1478.8</ele></trkpt>
      <trkpt lat="47.174080788946505" lon="9.298625680584536">
      <ele>1480.3</ele></trkpt>
      <trkpt lat="47.173995964274276" lon="9.298560425775035">
      <ele>1481.8</ele></trkpt>
      <trkpt lat="47.17392964814168" lon="9.298503454425791">
      <ele>1483.3</ele></trkpt>
      <trkpt lat="47.173863548078295" lon="9.298441463577355">
      <ele>1484.8</ele></trkpt>
      <trkpt lat="47.17383082368423" lon="9.298416483086124">
      <ele>1486.2</ele></trkpt>
      <trkpt lat="47.17378192281562" lon="9.298381994248698">
      <ele>1487.7</ele></trkpt>
      <trkpt lat="47.173707690896066" lon="9.298337705230772">
      <ele>1489.2</ele></trkpt>
      <trkpt lat="47.17359895894959" lon="9.298270854890628">
      <ele>1490.7</ele></trkpt>
      <trkpt lat="47.173565733028845" lon="9.29824795512711">
      <ele>1492.2</ele></trkpt>
      <trkpt lat="47.17333338661615" lon="9.298085910885879">
      <ele>1493.7</ele></trkpt>
      <trkpt lat="47.17305342202777" lon="9.297880690022518">
      <ele>1495.2</ele></trkpt>
      <trkpt lat="47.17281453903781" lon="9.297711098891963">
      <ele>1496.7</ele></trkpt>
      <trkpt lat="47.17265809574461" lon="9.297595686963987">
      <ele>1498.2</ele></trkpt>
      <trkpt lat="47.172549633935546" lon="9.297501510252994">
      <ele>1499.7</ele></trkpt>
      <trkpt lat="47.17244931061726" lon="9.297419834633219">
      <ele>1501.0</ele></trkpt>
      <trkpt lat="47.17241444929301" lon="9.29741127401436">
      <ele>1502.3</ele></trkpt>
      <trkpt lat="47.17236096351957" lon="9.297421646498385">
      <ele>1503.7</ele></trkpt>
      <trkpt lat="47.17229720242864" lon="9.297448748438336">
      <ele>1505.0</ele></trkpt>
      <trkpt lat="47.1722437078711" lon="9.297459107362606">
      <ele>1506.3</ele></trkpt>
      <trkpt lat="47.172185765819805" lon="9.297435112317524">
      <ele>1507.6</ele></trkpt>
      <trkpt lat="47.17212826714583" lon="9.297384229763027">
      <ele>1508.9</ele></trkpt>
      <trkpt lat="47.17204796400498" lon="9.297300809727888">
      <ele>1510.3</ele></trkpt>
      <trkpt lat="47.171962354811185" lon="9.297236732935204">
      <ele>1511.6</ele></trkpt>
      <trkpt lat="47.17188324181455" lon="9.297182672104864">
      <ele>1512.9</ele></trkpt>
      <trkpt lat="47.17180054721786" lon="9.297143132465727">
      <ele>1514.2</ele></trkpt>
      <trkpt lat="47.17173588098073" lon="9.297123786159647">
      <ele>1515.5</ele></trkpt>
      <trkpt lat="47.171655900137864" lon="9.297123448255949">
      <ele>1516.9</ele></trkpt>
      <trkpt lat="47.17153896003884" lon="9.297141379848416">
      <ele>1518.2</ele></trkpt>
      <trkpt lat="47.17146218769105" lon="9.297148502469732">
      <ele>1519.5</ele></trkpt>
      <trkpt lat="47.17138407687059" lon="9.297135998652035">
      <ele>1520.8</ele></trkpt>
      <trkpt lat="47.17129956961563" lon="9.297106186418945">
      <ele>1522.1</ele></trkpt>
      <trkpt lat="47.17120888156247" lon="9.297046829352173">
      <ele>1523.5</ele></trkpt>
      <trkpt lat="47.17108696527933" lon="9.296959524743844">
      <ele>1524.8</ele></trkpt>
      <trkpt lat="47.17100812858902" lon="9.29688834910406">
      <ele>1526.1</ele></trkpt>
      <trkpt lat="47.170950914666406" lon="9.296820378857399">
      <ele>1526.9</ele></trkpt>
      <trkpt lat="47.170891949125945" lon="9.296757242846441">
      <ele>1527.8</ele></trkpt>
      <trkpt lat="47.1708326591615" lon="9.296713635835504">
      <ele>1528.6</ele></trkpt>
      <trkpt lat="47.1707384373451" lon="9.29666638791767">
      <ele>1529.4</ele></trkpt>
      <trkpt lat="47.17067895014953" lon="9.296634991775761">
      <ele>1530.2</ele></trkpt>
      <trkpt lat="47.170652809573994" lon="9.296602326269598">
      <ele>1531.0</ele></trkpt>
      <trkpt lat="47.17063529002541" lon="9.296552847833295">
      <ele>1531.9</ele></trkpt>
      <trkpt lat="47.17062640389867" lon="9.296484116033536">
      <ele>1532.7</ele></trkpt>
      <trkpt lat="47.170609852167985" lon="9.296373583895198">
      <ele>1533.5</ele></trkpt>
      <trkpt lat="47.17058744219644" lon="9.296316599983902">
      <ele>1534.3</ele></trkpt>
      <trkpt lat="47.17055504175981" lon="9.296259269186859">
      <ele>1535.2</ele></trkpt>
      <trkpt lat="47.17048979813235" lon="9.296171468175649">
      <ele>1536.0</ele></trkpt>
      <trkpt lat="47.170336405467225" lon="9.295970663057423">
      <ele>1536.8</ele></trkpt>
      <trkpt lat="47.17022194928892" lon="9.295834738631733">
      <ele>1537.6</ele></trkpt>
      <trkpt lat="47.17016135921395" lon="9.295769094159398">
      <ele>1538.5</ele></trkpt>
      <trkpt lat="47.170137118653024" lon="9.295721823970398">
      <ele>1539.3</ele></trkpt>
      <trkpt lat="47.17011982619948" lon="9.295657696002943">
      <ele>1540.1</ele></trkpt>
      <trkpt lat="47.17011284877408" lon="9.295574359906642">
      <ele>1540.9</ele></trkpt>
      <trkpt lat="47.17010941647236" lon="9.295476515088966">
      <ele>1541.8</ele></trkpt>
      <trkpt lat="47.17010397538743" lon="9.29540055486138">
      <ele>1542.6</ele></trkpt>
      <trkpt lat="47.17009330667687" lon="9.295339097779634">
      <ele>1542.5</ele></trkpt>
      <trkpt lat="47.17006074785228" lon="9.295291552334412">
      <ele>1542.4</ele></trkpt>
      <trkpt lat="47.17002279540627" lon="9.295268241230977">
      <ele>1542.3</ele></trkpt>
      <trkpt lat="47.1699662498649" lon="9.295261383823002">
      <ele>1542.2</ele></trkpt>
      <trkpt lat="47.16992140648513" lon="9.295252504950078">
      <ele>1542.0</ele></trkpt>
      <trkpt lat="47.16989074781972" lon="9.295190354336372">
      <ele>1541.9</ele></trkpt>
      <trkpt lat="47.16984912644646" lon="9.295115065099358">
      <ele>1541.8</ele></trkpt>
      <trkpt lat="47.16982705987782" lon="9.295021706463952">
      <ele>1541.7</ele></trkpt>
      <trkpt lat="47.16981148046841" lon="9.294967929574653">
      <ele>1541.6</ele></trkpt>
      <trkpt lat="47.16980232632019" lon="9.294931923185139">
      <ele>1541.5</ele></trkpt>
      <trkpt lat="47.169798226993116" lon="9.29490326953824">
      <ele>1541.4</ele></trkpt>
      <trkpt lat="47.16978586156649" lon="9.294884501333364">
      <ele>1541.3</ele></trkpt>
      <trkpt lat="47.16976300130277" lon="9.29486988117884">
      <ele>1541.2</ele></trkpt>
      <trkpt lat="47.16974576420249" lon="9.294863636190478">
      <ele>1541.1</ele></trkpt>
      <trkpt lat="47.16973345408382" lon="9.294841439597722">
      <ele>1541.0</ele></trkpt>
      <trkpt lat="47.16972924431933" lon="9.294819629638932">
      <ele>1540.8</ele></trkpt>
      <trkpt lat="47.16972310866601" lon="9.294776656303135">
      <ele>1540.7</ele></trkpt>
      <trkpt lat="47.16970485576131" lon="9.294701202121193">
      <ele>1540.6</ele></trkpt>
      <trkpt lat="47.16968209872999" lon="9.294619390736475">
      <ele>1540.5</ele></trkpt>
      <trkpt lat="47.16966237768361" lon="9.294560760319005">
      <ele>1540.4</ele></trkpt>
      <trkpt lat="47.16965189409655" lon="9.294502859422819">
      <ele>1540.6</ele></trkpt>
      <trkpt lat="47.169632136134254" lon="9.294445956160468">
      <ele>1540.9</ele></trkpt>
      <trkpt lat="47.16961950489815" lon="9.29441075291175">
      <ele>1541.1</ele></trkpt>
      <trkpt lat="47.16960468173908" lon="9.294368085246145">
      <ele>1541.4</ele></trkpt>
      <trkpt lat="47.169602398513454" lon="9.29433560265367">
      <ele>1541.6</ele></trkpt>
      <trkpt lat="47.16958883243661" lon="9.294288070627315">
      <ele>1541.8</ele></trkpt>
      <trkpt lat="47.169567808067455" lon="9.294246085074336">
      <ele>1542.1</ele></trkpt>
      <trkpt lat="47.16955036509265" lon="9.29421522720316">
      <ele>1542.3</ele></trkpt>
      <trkpt lat="47.16952295432752" lon="9.294158071904365">
      <ele>1542.6</ele></trkpt>
      <trkpt lat="47.16949904603995" lon="9.294091274934786">
      <ele>1542.8</ele></trkpt>
      <trkpt lat="47.169471162475574" lon="9.294063432569459">
      <ele>1543.0</ele></trkpt>
      <trkpt lat="47.169454580609525" lon="9.293995913494241">
      <ele>1543.3</ele></trkpt>
      <trkpt lat="47.16938753011881" lon="9.29385769483658">
      <ele>1543.5</ele></trkpt>
      <trkpt lat="47.169349149943386" lon="9.293776081354304">
      <ele>1543.8</ele></trkpt>
      <trkpt lat="47.16932011685448" lon="9.293720202786695">
      <ele>1544.0</ele></trkpt>
      <trkpt lat="47.16925583880442" lon="9.293662798635477">
      <ele>1544.2</ele></trkpt>
      <trkpt lat="47.169203036893315" lon="9.293610133218378">
      <ele>1544.5</ele></trkpt>
      <trkpt lat="47.16916419724657" lon="9.293552542734853">
      <ele>1544.7</ele></trkpt>
      <trkpt lat="47.16911970581215" lon="9.293520153735454">
      <ele>1545.0</ele></trkpt>
      <trkpt lat="47.1690759204906" lon="9.293510376421885">
      <ele>1545.2</ele></trkpt>
      <trkpt lat="47.169031400788526" lon="9.293509875019124">
      <ele>1545.4</ele></trkpt>
      <trkpt lat="47.16899036658381" lon="9.293538731062583">
      <ele>1545.6</ele></trkpt>
      <trkpt lat="47.16895959814547" lon="9.293545276769514">
      <ele>1545.8</ele></trkpt>
      <trkpt lat="47.168925569485985" lon="9.293560390672289">
      <ele>1546.0</ele></trkpt>
      <trkpt lat="47.16891447840164" lon="9.293562460059">
      <ele>1546.2</ele></trkpt>
      <trkpt lat="47.16889014471575" lon="9.29354769726965">
      <ele>1546.5</ele></trkpt>
      <trkpt lat="47.16887036679878" lon="9.293522696081613">
      <ele>1546.7</ele></trkpt>
      <trkpt lat="47.1688668358876" lon="9.293495039074058">
      <ele>1546.9</ele></trkpt>
      <trkpt lat="47.168857038543315" lon="9.293472112307942">
      <ele>1547.1</ele></trkpt>
      <trkpt lat="47.16883534101916" lon="9.293445632915317">
      <ele>1547.3</ele></trkpt>
      <trkpt lat="47.1687905393034" lon="9.293433603989705">
      <ele>1547.5</ele></trkpt>
      <trkpt lat="47.168770578006665" lon="9.293394862253923">
      <ele>1547.7</ele></trkpt>
      <trkpt lat="47.16872214810927" lon="9.293367904663585">
      <ele>1547.9</ele></trkpt>
      <trkpt lat="47.16867635802831" lon="9.293336816781686">
      <ele>1548.1</ele></trkpt>
      <trkpt lat="47.1686617542069" lon="9.293285542544483">
      <ele>1548.4</ele></trkpt>
      <trkpt lat="47.16862995539573" lon="9.293263357169723">
      <ele>1548.6</ele></trkpt>
      <trkpt lat="47.168596913683096" lon="9.293239017802263">
      <ele>1548.8</ele></trkpt>
      <trkpt lat="47.168547675044344" lon="9.293182413454783">
      <ele>1549.0</ele></trkpt>
      <trkpt lat="47.168508340063575" lon="9.293149399108838">
      <ele>1549.2</ele></trkpt>
      <trkpt lat="47.16847070034217" lon="9.293091033329766">
      <ele>1549.4</ele></trkpt>
      <trkpt lat="47.16841613740177" lon="9.29304210787325">
      <ele>1549.5</ele></trkpt>
      <trkpt lat="47.16834554626368" lon="9.292976122165586">
      <ele>1549.7</ele></trkpt>
      <trkpt lat="47.16826781933663" lon="9.292939217830396">
      <ele>1549.8</ele></trkpt>
      <trkpt lat="47.16819885218447" lon="9.292875742670486">
      <ele>1549.9</ele></trkpt>
      <trkpt lat="47.16816313185385" lon="9.292818301512058">
      <ele>1550.1</ele></trkpt>
      <trkpt lat="47.16808098651084" lon="9.292744593740823">
      <ele>1550.2</ele></trkpt>
      <trkpt lat="47.168058995446785" lon="9.292721244835157">
      <ele>1550.3</ele></trkpt>
      <trkpt lat="47.16801471552706" lon="9.292669576132162">
      <ele>1550.5</ele></trkpt>
      <trkpt lat="47.16798711284545" lon="9.292630425300585">
      <ele>1550.6</ele></trkpt>
      <trkpt lat="47.16796194976236" lon="9.292615199077312">
      <ele>1550.8</ele></trkpt>
      <trkpt lat="47.1679440523174" lon="9.292613074792216">
      <ele>1550.9</ele></trkpt>
      <trkpt lat="47.16791334914516" lon="9.292554158818179">
      <ele>1551.0</ele></trkpt>
      <trkpt lat="47.16790389182789" lon="9.292503420103763">
      <ele>1551.2</ele></trkpt>
      <trkpt lat="47.167886673573506" lon="9.292465288958049">
      <ele>1551.3</ele></trkpt>
      <trkpt lat="47.16787086821611" lon="9.292413736617407">
      <ele>1551.4</ele></trkpt>
      <trkpt lat="47.167855741882015" lon="9.292356336898404">
      <ele>1551.6</ele></trkpt>
      <trkpt lat="47.16783524835466" lon="9.292308725231765">
      <ele>1551.7</ele></trkpt>
      <trkpt lat="47.16781051715006" lon="9.292239330066378">
      <ele>1551.8</ele></trkpt>
      <trkpt lat="47.167780062127456" lon="9.292166675846635">
      <ele>1552.0</ele></trkpt>
      <trkpt lat="47.16773899243677" lon="9.292105052777938">
      <ele>1552.1</ele></trkpt>
      <trkpt lat="47.167682502041785" lon="9.292033330560535">
      <ele>1552.3</ele></trkpt>
      <trkpt lat="47.16765712845386" lon="9.291998215456537">
      <ele>1552.6</ele></trkpt>
      <trkpt lat="47.16764525768935" lon="9.29198389870038">
      <ele>1552.8</ele></trkpt>
      <trkpt lat="47.16762757087067" lon="9.292001650690615">
      <ele>1553.1</ele></trkpt>
      <trkpt lat="47.167617608308134" lon="9.292008508948893">
      <ele>1553.3</ele></trkpt>
      <trkpt lat="47.167607902634984" lon="9.292001655323293">
      <ele>1553.5</ele></trkpt>
      <trkpt lat="47.167580841315186" lon="9.291933354059577">
      <ele>1553.8</ele></trkpt>
      <trkpt lat="47.16754393601347" lon="9.29189694245031">
      <ele>1554.0</ele></trkpt>
      <trkpt lat="47.167516626353375" lon="9.291872539143817">
      <ele>1554.3</ele></trkpt>
      <trkpt lat="47.16749537140285" lon="9.291834202681354">
      <ele>1554.5</ele></trkpt>
      <trkpt lat="47.16747807089346" lon="9.291769326937406">
      <ele>1554.7</ele></trkpt>
      <trkpt lat="47.167465007523695" lon="9.29175643339428">
      <ele>1555.0</ele></trkpt>
      <trkpt lat="47.16744495394682" lon="9.291746846637887">
      <ele>1555.2</ele></trkpt>
      <trkpt lat="47.1674052695219" lon="9.291703663322826">
      <ele>1555.5</ele></trkpt>
      <trkpt lat="47.16738728072378" lon="9.29164464797149">
      <ele>1555.7</ele></trkpt>
      <trkpt lat="47.167367732044596" lon="9.291607624130835">
      <ele>1555.9</ele></trkpt>
      <trkpt lat="47.16733168895909" lon="9.291586942416593">
      <ele>1556.2</ele></trkpt>
      <trkpt lat="47.167309910609774" lon="9.29157606905989">
      <ele>1556.4</ele></trkpt>
      <trkpt lat="47.1673045628666" lon="9.291552255199582">
      <ele>1556.7</ele></trkpt>
      <trkpt lat="47.16730175607672" lon="9.291517038265805">
      <ele>1556.9</ele></trkpt>
      <trkpt lat="47.16728991307123" lon="9.291500994395026">
      <ele>1557.7</ele></trkpt>
      <trkpt lat="47.16726136453058" lon="9.291481443093355">
      <ele>1558.5</ele></trkpt>
      <trkpt lat="47.16726329140238" lon="9.29144057203967">
      <ele>1559.4</ele></trkpt>
      <trkpt lat="47.167270437901" lon="9.291398509688543">
      <ele>1560.2</ele></trkpt>
      <trkpt lat="47.167271071213776" lon="9.291334044369508">
      <ele>1561.0</ele></trkpt>
      <trkpt lat="47.167289556161876" lon="9.29127342955183">
      <ele>1561.8</ele></trkpt>
      <trkpt lat="47.16728434596014" lon="9.291242746955872">
      <ele>1562.6</ele></trkpt>
      <trkpt lat="47.167265109362496" lon="9.29118857009027">
      <ele>1563.5</ele></trkpt>
      <trkpt lat="47.167265507369954" lon="9.291128094101374">
      <ele>1564.3</ele></trkpt>
      <trkpt lat="47.16724199051533" lon="9.29103688155457">
      <ele>1565.1</ele></trkpt>
      <trkpt lat="47.16723674287534" lon="9.290948729167745">
      <ele>1565.9</ele></trkpt>
      <trkpt lat="47.16724318869286" lon="9.290858527777011">
      <ele>1566.7</ele></trkpt>
      <trkpt lat="47.167252577015745" lon="9.290792888000919">
      <ele>1567.6</ele></trkpt>
      <trkpt lat="47.16727688593863" lon="9.290732646168234">
      <ele>1568.4</ele></trkpt>
      <trkpt lat="47.16731414060551" lon="9.290694845162115">
      <ele>1569.2</ele></trkpt>
      <trkpt lat="47.16729792844112" lon="9.290667396604118">
      <ele>1570.0</ele></trkpt>
      <trkpt lat="47.16728562389302" lon="9.290603446454163">
      <ele>1570.8</ele></trkpt>
      <trkpt lat="47.16729117422386" lon="9.290569416022322">
      <ele>1571.7</ele></trkpt>
      <trkpt lat="47.16731657803692" lon="9.290543434542833">
      <ele>1572.5</ele></trkpt>
      <trkpt lat="47.16733831027708" lon="9.290539292261933">
      <ele>1573.3</ele></trkpt>
      <trkpt lat="47.16734746190624" lon="9.290466546298434">
      <ele>1573.9</ele></trkpt>
      <trkpt lat="47.16734514059303" lon="9.290405619884908">
      <ele>1574.6</ele></trkpt>
      <trkpt lat="47.16732755457056" lon="9.29035619710818">
      <ele>1575.2</ele></trkpt>
      <trkpt lat="47.16731136302181" lon="9.290325226837194">
      <ele>1575.9</ele></trkpt>
      <trkpt lat="47.16728743787001" lon="9.29021294447269">
      <ele>1576.5</ele></trkpt>
      <trkpt lat="47.16726907208174" lon="9.290174510955758">
      <ele>1577.2</ele></trkpt>
      <trkpt lat="47.167249027502926" lon="9.290133050946386">
      <ele>1577.8</ele></trkpt>
      <trkpt lat="47.1672285975451" lon="9.290050125359247">
      <ele>1578.5</ele></trkpt>
      <trkpt lat="47.16720727761055" lon="9.290015230961494">
      <ele>1579.1</ele></trkpt>
      <trkpt lat="47.16718784773746" lon="9.289971351639695">
      <ele>1579.8</ele></trkpt>
      <trkpt lat="47.167169225224875" lon="9.289946630055818">
      <ele>1580.4</ele></trkpt>
      <trkpt lat="47.16710644940333" lon="9.289870682776105">
      <ele>1581.0</ele></trkpt>
      <trkpt lat="47.167054893234734" lon="9.289813185012536">
      <ele>1581.7</ele></trkpt>
      <trkpt lat="47.167006685831836" lon="9.289761726849509">
      <ele>1582.3</ele></trkpt>
      <trkpt lat="47.16700615266248" lon="9.289666811864336">
      <ele>1583.0</ele></trkpt>
      <trkpt lat="47.166978787168894" lon="9.289583778808112">
      <ele>1583.6</ele></trkpt>
      <trkpt lat="47.16696306285635" lon="9.289558986225828">
      <ele>1584.3</ele></trkpt>
      <trkpt lat="47.16693029460207" lon="9.289485726998802">
      <ele>1584.9</ele></trkpt>
      <trkpt lat="47.16689054409305" lon="9.289415841151122">
      <ele>1585.6</ele></trkpt>
      <trkpt lat="47.16687390306497" lon="9.289408880087855">
      <ele>1586.2</ele></trkpt>
      <trkpt lat="47.16686887633068" lon="9.289429959889613">
      <ele>1587.2</ele></trkpt>
      <trkpt lat="47.16685318897742" lon="9.289403427225558">
      <ele>1588.2</ele></trkpt>
      <trkpt lat="47.16682992447895" lon="9.28937921824273">
      <ele>1589.2</ele></trkpt>
      <trkpt lat="47.16678835859592" lon="9.289375194455843">
      <ele>1590.2</ele></trkpt>
      <trkpt lat="47.166756076355405" lon="9.289338272279842">
      <ele>1591.2</ele></trkpt>
      <trkpt lat="47.1667309950727" lon="9.289287733592687">
      <ele>1592.2</ele></trkpt>
      <trkpt lat="47.16670351051976" lon="9.289241729306516">
      <ele>1593.2</ele></trkpt>
      <trkpt lat="47.16668117255717" lon="9.289229835028184">
      <ele>1594.2</ele></trkpt>
      <trkpt lat="47.16665836619564" lon="9.289181617935737">
      <ele>1595.2</ele></trkpt>
      <trkpt lat="47.16663857780317" lon="9.289126447126698">
      <ele>1596.2</ele></trkpt>
      <trkpt lat="47.16660660753299" lon="9.289104245969867">
      <ele>1597.1</ele></trkpt>
      <trkpt lat="47.16658813215465" lon="9.289133013644378">
      <ele>1598.1</ele></trkpt>
      <trkpt lat="47.16657048233648" lon="9.289149052427407">
      <ele>1599.1</ele></trkpt>
      <trkpt lat="47.16653684278268" lon="9.289153997061508">
      <ele>1600.1</ele></trkpt>
      <trkpt lat="47.16649838701295" lon="9.289137851352812">
      <ele>1601.1</ele></trkpt>
      <trkpt lat="47.16644805915367" lon="9.289077244379623">
      <ele>1602.1</ele></trkpt>
      <trkpt lat="47.166410712823534" lon="9.289032957411504">
      <ele>1603.1</ele></trkpt>
      <trkpt lat="47.16635799146763" lon="9.28897515706283">
      <ele>1604.1</ele></trkpt>
      <trkpt lat="47.166333121402744" lon="9.288944481294207">
      <ele>1605.1</ele></trkpt>
      <trkpt lat="47.16630418684884" lon="9.28888345363985">
      <ele>1606.1</ele></trkpt>
      <trkpt lat="47.16628055480734" lon="9.28884796584267">
      <ele>1606.7</ele></trkpt>
      <trkpt lat="47.16624460291187" lon="9.288822144424081">
      <ele>1607.3</ele></trkpt>
      <trkpt lat="47.16621137612507" lon="9.288804781458392">
      <ele>1608.0</ele></trkpt>
      <trkpt lat="47.16617769898489" lon="9.288781294722659">
      <ele>1608.6</ele></trkpt>
      <trkpt lat="47.16614492106935" lon="9.288739936642358">
      <ele>1609.2</ele></trkpt>
      <trkpt lat="47.16612710539697" lon="9.28870251294565">
      <ele>1609.8</ele></trkpt>
      <trkpt lat="47.16610605074331" lon="9.288653895418589">
      <ele>1610.5</ele></trkpt>
      <trkpt lat="47.16608879464882" lon="9.28861748057961">
      <ele>1611.1</ele></trkpt>
      <trkpt lat="47.16606307162939" lon="9.288601234799048">
      <ele>1611.7</ele></trkpt>
      <trkpt lat="47.16605652115214" lon="9.288580559655086">
      <ele>1612.3</ele></trkpt>
      <trkpt lat="47.16605933686918" lon="9.288553730798647">
      <ele>1613.0</ele></trkpt>
      <trkpt lat="47.16604307171937" lon="9.288526189371673">
      <ele>1613.6</ele></trkpt>
      <trkpt lat="47.16601068761835" lon="9.288464251445852">
      <ele>1614.2</ele></trkpt>
      <trkpt lat="47.16600474193181" lon="9.28841099821791">
      <ele>1614.8</ele></trkpt>
      <trkpt lat="47.166006263893486" lon="9.288360549383809">
      <ele>1615.5</ele></trkpt>
      <trkpt lat="47.16600874905347" lon="9.288320701161934">
      <ele>1616.1</ele></trkpt>
      <trkpt lat="47.16598136477202" lon="9.288269556344641">
      <ele>1616.7</ele></trkpt>
      <trkpt lat="47.16595430101397" lon="9.28820127223658">
      <ele>1617.3</ele></trkpt>
      <trkpt lat="47.16591768728978" lon="9.288117552485666">
      <ele>1618.0</ele></trkpt>
      <trkpt lat="47.16588814757933" lon="9.288089103807867">
      <ele>1618.6</ele></trkpt>
      <trkpt lat="47.165866149442905" lon="9.288090203475328">
      <ele>1619.3</ele></trkpt>
      <trkpt lat="47.16583793105925" lon="9.288083660666434">
      <ele>1620.0</ele></trkpt>
      <trkpt lat="47.165814739374575" lon="9.288056025168467">
      <ele>1620.8</ele></trkpt>
      <trkpt lat="47.16580037280531" lon="9.288019512727764">
      <ele>1621.5</ele></trkpt>
      <trkpt lat="47.165766309594076" lon="9.287954549023974">
      <ele>1622.2</ele></trkpt>
      <trkpt lat="47.16572149556538" lon="9.287907432729874">
      <ele>1622.9</ele></trkpt>
      <trkpt lat="47.16570830270425" lon="9.287871224816937">
      <ele>1623.7</ele></trkpt>
      <trkpt lat="47.16568082722399" lon="9.2878554070637">
      <ele>1624.4</ele></trkpt>
      <trkpt lat="47.16566388308897" lon="9.287833713270505">
      <ele>1625.1</ele></trkpt>
      <trkpt lat="47.165653891623265" lon="9.287780254664476">
      <ele>1625.8</ele></trkpt>
      <trkpt lat="47.16563390127682" lon="9.287735368646679">
      <ele>1626.6</ele></trkpt>
      <trkpt lat="47.16561772666926" lon="9.287672514368614">
      <ele>1627.3</ele></trkpt>
      <trkpt lat="47.16559122385804" lon="9.287667271204974">
      <ele>1628.0</ele></trkpt>
      <trkpt lat="47.16556640719229" lon="9.287603023336494">
      <ele>1628.8</ele></trkpt>
      <trkpt lat="47.165546986531005" lon="9.287589304717189">
      <ele>1629.5</ele></trkpt>
      <trkpt lat="47.16553132629713" lon="9.287561059173013">
      <ele>1630.2</ele></trkpt>
      <trkpt lat="47.16549201641294" lon="9.287529186306207">
      <ele>1630.9</ele></trkpt>
      <trkpt lat="47.16547633817946" lon="9.287500940187167">
      <ele>1631.6</ele></trkpt>
      <trkpt lat="47.16545279815529" lon="9.287492171574833">
      <ele>1632.4</ele></trkpt>
      <trkpt lat="47.16540103952665" lon="9.287444961074746">
      <ele>1633.1</ele></trkpt>
      <trkpt lat="47.16534926415084" lon="9.287482208360633">
      <ele>1633.9</ele></trkpt>
      <trkpt lat="47.16529897995723" lon="9.287500008638418">
      <ele>1634.8</ele></trkpt>
      <trkpt lat="47.16524569142704" lon="9.287498167024896">
      <ele>1635.6</ele></trkpt>
      <trkpt lat="47.16518767779169" lon="9.287479064713372">
      <ele>1636.5</ele></trkpt>
      <trkpt lat="47.165137319692846" lon="9.28748634801892">
      <ele>1637.3</ele></trkpt>
      <trkpt lat="47.16508913950927" lon="9.287477361170966">
      <ele>1638.2</ele></trkpt>
      <trkpt lat="47.16502128363089" lon="9.287448130044034">
      <ele>1639.0</ele></trkpt>
      <trkpt lat="47.16495696011421" lon="9.287406804912429">
      <ele>1639.9</ele></trkpt>
      <trkpt lat="47.1649015126955" lon="9.287331591980921">
      <ele>1640.7</ele></trkpt>
      <trkpt lat="47.16483054941423" lon="9.287184986934053">
      <ele>1641.5</ele></trkpt>
      <trkpt lat="47.16475265965179" lon="9.287021481053651">
      <ele>1642.4</ele></trkpt>
      <trkpt lat="47.1646993377949" lon="9.286901316865508">
      <ele>1643.2</ele></trkpt>
      <trkpt lat="47.16466232052711" lon="9.286825857641405">
      <ele>1644.1</ele></trkpt>
      <trkpt lat="47.16461893642284" lon="9.28675635257815">
      <ele>1644.9</ele></trkpt>
      <trkpt lat="47.16459353838925" lon="9.286719301936635">
      <ele>1645.8</ele></trkpt>
      <trkpt lat="47.164575459770326" lon="9.28669540622738">
      <ele>1646.6</ele></trkpt>
      <trkpt lat="47.164544693794724" lon="9.286678301640611">
      <ele>1647.5</ele></trkpt>
      <trkpt lat="47.16451070043435" lon="9.286641429104014">
      <ele>1648.3</ele></trkpt>
      <trkpt lat="47.164470525492625" lon="9.286593380320461">
      <ele>1649.2</ele></trkpt>
      <trkpt lat="47.164443740640486" lon="9.286578247063918">
      <ele>1650.0</ele></trkpt>
      <trkpt lat="47.16441091235921" lon="9.286539976949488">
      <ele>1650.8</ele></trkpt>
      <trkpt lat="47.16438771532775" lon="9.286512092034402">
      <ele>1651.5</ele></trkpt>
      <trkpt lat="47.16437262791534" lon="9.286476176138247">
      <ele>1652.3</ele></trkpt>
      <trkpt lat="47.164357513171346" lon="9.28644196111683">
      <ele>1653.1</ele></trkpt>
      <trkpt lat="47.16432288637451" lon="9.286410911140074">
      <ele>1653.8</ele></trkpt>
      <trkpt lat="47.16430761417624" lon="9.286392099245658">
      <ele>1654.6</ele></trkpt>
      <trkpt lat="47.16430099289231" lon="9.286367966258608">
      <ele>1655.4</ele></trkpt>
      <trkpt lat="47.16429301657057" lon="9.286310001210614">
      <ele>1656.2</ele></trkpt>
      <trkpt lat="47.164274516909956" lon="9.28627142149584">
      <ele>1656.9</ele></trkpt>
      <trkpt lat="47.16422179259828" lon="9.286218203819196">
      <ele>1657.7</ele></trkpt>
      <trkpt lat="47.164173326805525" lon="9.286141281836581">
      <ele>1658.5</ele></trkpt>
      <trkpt lat="47.16415013879519" lon="9.286111708934126">
      <ele>1659.2</ele></trkpt>
      <trkpt lat="47.16411471260003" lon="9.286101857894963">
      <ele>1660.0</ele></trkpt>
      <trkpt lat="47.16409432196061" lon="9.286079056877295">
      <ele>1660.8</ele></trkpt>
      <trkpt lat="47.16406544700757" lon="9.286046161126144">
      <ele>1661.6</ele></trkpt>
      <trkpt lat="47.16405651376098" lon="9.286023122561751">
      <ele>1662.3</ele></trkpt>
      <trkpt lat="47.16404457086186" lon="9.286015494054228">
      <ele>1663.1</ele></trkpt>
      <trkpt lat="47.164021858986466" lon="9.285995488835434">
      <ele>1663.9</ele></trkpt>
      <trkpt lat="47.16400380807626" lon="9.285968177823168">
      <ele>1664.6</ele></trkpt>
      <trkpt lat="47.16396220892794" lon="9.285945488884396">
      <ele>1665.4</ele></trkpt>
      <trkpt lat="47.16394985456325" lon="9.285921461573766">
      <ele>1666.1</ele></trkpt>
      <trkpt lat="47.16392127458386" lon="9.285861228911061">
      <ele>1666.9</ele></trkpt>
      <trkpt lat="47.163906002294276" lon="9.28584241731498">
      <ele>1667.6</ele></trkpt>
      <trkpt lat="47.16388045656559" lon="9.285819029541855">
      <ele>1668.4</ele></trkpt>
      <trkpt lat="47.16386267684672" lon="9.285713749472636">
      <ele>1669.1</ele></trkpt>
      <trkpt lat="47.16387281554548" lon="9.285677966319724">
      <ele>1669.9</ele></trkpt>
      <trkpt lat="47.16385558231129" lon="9.285627742649872">
      <ele>1670.6</ele></trkpt>
      <trkpt lat="47.16381212930403" lon="9.28561740380246">
      <ele>1671.4</ele></trkpt>
      <trkpt lat="47.16378016143068" lon="9.285605100088748">
      <ele>1672.1</ele></trkpt>
      <trkpt lat="47.163754384639084" lon="9.285603946357726">
      <ele>1672.8</ele></trkpt>
      <trkpt lat="47.1637182270443" lon="9.285554467878764">
      <ele>1673.6</ele></trkpt>
      <trkpt lat="47.16368714146445" lon="9.285514108777893">
      <ele>1674.3</ele></trkpt>
      <trkpt lat="47.16365768839948" lon="9.28548190600236">
      <ele>1675.1</ele></trkpt>
      <trkpt lat="47.16364101096427" lon="9.285486725838275">
      <ele>1675.8</ele></trkpt>
      <trkpt lat="47.16361687602073" lon="9.285492026987502">
      <ele>1676.6</ele></trkpt>
      <trkpt lat="47.16358608180081" lon="9.285478352360919">
      <ele>1677.3</ele></trkpt>
      <trkpt lat="47.16353040913531" lon="9.285484345734524">
      <ele>1678.1</ele></trkpt>
      <trkpt lat="47.163442934448085" lon="9.28549516448204">
      <ele>1678.8</ele></trkpt>
      <trkpt lat="47.16338645735414" lon="9.285483452785954">
      <ele>1679.6</ele></trkpt>
      <trkpt lat="47.163354617521264" lon="9.285494556246626">
      <ele>1680.3</ele></trkpt>
      <trkpt lat="47.163317620882175" lon="9.285515270121158">
      <ele>1681.6</ele></trkpt>
      <trkpt lat="47.16328254119532" lon="9.28552138067837">
      <ele>1683.0</ele></trkpt>
      <trkpt lat="47.16324454733781" lon="9.285500531806749">
      <ele>1684.3</ele></trkpt>
      <trkpt lat="47.16319524348773" lon="9.285457288381336">
      <ele>1685.6</ele></trkpt>
      <trkpt lat="47.16315728877688" lon="9.285434000433314">
      <ele>1687.0</ele></trkpt>
      <trkpt lat="47.163129137746736" lon="9.285423253462087">
      <ele>1688.3</ele></trkpt>
      <trkpt lat="47.163113598869714" lon="9.285456910536944">
      <ele>1689.6</ele></trkpt>
      <trkpt lat="47.16307421574028" lon="9.285418917101866">
      <ele>1691.0</ele></trkpt>
      <trkpt lat="47.163055741502426" lon="9.285428054593954">
      <ele>1692.3</ele></trkpt>
      <trkpt lat="47.163004861560324" lon="9.285379862791688">
      <ele>1693.7</ele></trkpt>
      <trkpt lat="47.16297292518661" lon="9.285366716212648">
      <ele>1695.0</ele></trkpt>
      <trkpt lat="47.16295408986362" lon="9.285324366515233">
      <ele>1696.3</ele></trkpt>
      <trkpt lat="47.16288798407957" lon="9.285290331913473">
      <ele>1697.7</ele></trkpt>
      <trkpt lat="47.16284999060003" lon="9.285269456990346">
      <ele>1699.0</ele></trkpt>
      <trkpt lat="47.16281045078702" lon="9.285241220441247">
      <ele>1700.3</ele></trkpt>
      <trkpt lat="47.16278729027279" lon="9.285230659082613">
      <ele>1701.7</ele></trkpt>
      <trkpt lat="47.16276253591461" lon="9.285215135358936">
      <ele>1703.0</ele></trkpt>
      <trkpt lat="47.162699335348194" lon="9.285208059830312">
      <ele>1704.3</ele></trkpt>
      <trkpt lat="47.16264285821515" lon="9.285196348599053">
      <ele>1705.7</ele></trkpt>
      <trkpt lat="47.16257465790534" lon="9.285189100545281">
      <ele>1707.0</ele></trkpt>
      <trkpt lat="47.16256485419273" lon="9.285176559774369">
      <ele>1708.3</ele></trkpt>
      <trkpt lat="47.16249673218706" lon="9.285164433504352">
      <ele>1709.6</ele></trkpt>
      <trkpt lat="47.16245323809502" lon="9.285175147924488">
      <ele>1710.9</ele></trkpt>
      <trkpt lat="47.16241504840138" lon="9.285166495232437">
      <ele>1712.2</ele></trkpt>
      <trkpt lat="47.16237358468513" lon="9.28514881193895">
      <ele>1713.5</ele></trkpt>
      <trkpt lat="47.16231844006076" lon="9.285091081327705">
      <ele>1714.8</ele></trkpt>
      <trkpt lat="47.16228451047602" lon="9.285060294934635">
      <ele>1716.1</ele></trkpt>
      <trkpt lat="47.162233263520065" lon="9.28503551998149">
      <ele>1717.4</ele></trkpt>
      <trkpt lat="47.162175865402546" lon="9.285036902981249">
      <ele>1718.7</ele></trkpt>
      <trkpt lat="47.16212106979089" lon="9.28499554242281">
      <ele>1720.0</ele></trkpt>
      <trkpt lat="47.16209900434389" lon="9.284923479957891">
      <ele>1721.4</ele></trkpt>
      <trkpt lat="47.16209204007963" lon="9.284837731235765">
      <ele>1722.7</ele></trkpt>
      <trkpt lat="47.16206924146474" lon="9.28480517899063">
      <ele>1724.0</ele></trkpt>
      <trkpt lat="47.162039143350704" lon="9.284811474959255">
      <ele>1725.3</ele></trkpt>
      <trkpt lat="47.16200563977791" lon="9.284822534317485">
      <ele>1726.6</ele></trkpt>
      <trkpt lat="47.1619490150052" lon="9.284820580359279">
      <ele>1727.9</ele></trkpt>
      <trkpt lat="47.16188239038609" lon="9.284852500392244">
      <ele>1729.2</ele></trkpt>
      <trkpt lat="47.16181919304717" lon="9.284856994553126">
      <ele>1730.5</ele></trkpt>
      <trkpt lat="47.16171919053291" lon="9.284889899686643">
      <ele>1731.8</ele></trkpt>
      <trkpt lat="47.16167858181393" lon="9.28485033515197">
      <ele>1733.1</ele></trkpt>
      <trkpt lat="47.16163028394588" lon="9.284848668515703">
      <ele>1734.2</ele></trkpt>
      <trkpt lat="47.16158706411251" lon="9.284842296240978">
      <ele>1735.2</ele></trkpt>
      <trkpt lat="47.161536554181744" lon="9.284874745730356">
      <ele>1736.3</ele></trkpt>
      <trkpt lat="47.16142001868937" lon="9.28488721372732">
      <ele>1737.4</ele></trkpt>
      <trkpt lat="47.16142001868937" lon="9.28488721372732">
      <ele>1738.4</ele></trkpt>
      <trkpt lat="47.161367084811644" lon="9.284872802405726">
      <ele>1739.5</ele></trkpt>
      <trkpt lat="47.16133616600012" lon="9.284848386547054">
      <ele>1740.6</ele></trkpt>
      <trkpt lat="47.16131531718228" lon="9.284764982941047">
      <ele>1741.7</ele></trkpt>
      <trkpt lat="47.16129663966895" lon="9.284755394643945">
      <ele>1742.7</ele></trkpt>
      <trkpt lat="47.1612915329857" lon="9.284722081463293">
      <ele>1743.8</ele></trkpt>
      <trkpt lat="47.16123889424475" lon="9.284713946465928">
      <ele>1744.9</ele></trkpt>
      <trkpt lat="47.16121642935265" lon="9.284738525292106">
      <ele>1745.9</ele></trkpt>
      <trkpt lat="47.1611613571788" lon="9.284728406757395">
      <ele>1747.0</ele></trkpt>
      <trkpt lat="47.16112761841982" lon="9.28475916586546">
      <ele>1748.1</ele></trkpt>
      <trkpt lat="47.16108201646689" lon="9.284717899374513">
      <ele>1749.2</ele></trkpt>
      <trkpt lat="47.16103112836854" lon="9.284727382578508">
      <ele>1750.2</ele></trkpt>
      <trkpt lat="47.161013166009575" lon="9.284704627620597">
      <ele>1751.3</ele></trkpt>
      <trkpt lat="47.16103085289307" lon="9.284690727349199">
      <ele>1752.4</ele></trkpt>
      <trkpt lat="47.16103229547555" lon="9.284669235558908">
      <ele>1753.4</ele></trkpt>
      <trkpt lat="47.1610216749859" lon="9.284654886225775">
      <ele>1754.5</ele></trkpt>
      <trkpt lat="47.161003872472776" lon="9.28465412687308">
      <ele>1756.7</ele></trkpt>
      <trkpt lat="47.16099862969841" lon="9.284601259539743">
      <ele>1758.8</ele></trkpt>
      <trkpt lat="47.160963024671084" lon="9.284599740871187">
      <ele>1761.0</ele></trkpt>
      <trkpt lat="47.16092490939476" lon="9.284586448033732">
      <ele>1763.1</ele></trkpt>
      <trkpt lat="47.16087160850298" lon="9.284598829336208">
      <ele>1765.3</ele></trkpt>
      <trkpt lat="47.1608666410131" lon="9.28458263043887">
      <ele>1767.4</ele></trkpt>
      <trkpt lat="47.16088010579084" lon="9.284544206848782">
      <ele>1769.6</ele></trkpt>
      <trkpt lat="47.160840429131106" lon="9.284540186492237">
      <ele>1771.7</ele></trkpt>
      <trkpt lat="47.160791131837875" lon="9.284545292414444">
      <ele>1773.9</ele></trkpt>
      <trkpt lat="47.16075571948328" lon="9.284568210792095">
      <ele>1776.0</ele></trkpt>
      <trkpt lat="47.16073232596101" lon="9.284576650800947">
      <ele>1778.2</ele></trkpt>
      <trkpt lat="47.16071043139325" lon="9.284568495066123">
      <ele>1780.4</ele></trkpt>
      <trkpt lat="47.16066210116298" lon="9.284594634886558">
      <ele>1782.5</ele></trkpt>
      <trkpt lat="47.160634606594705" lon="9.284595678155021">
      <ele>1784.7</ele></trkpt>
      <trkpt lat="47.16064168756694" lon="9.284569882819673">
      <ele>1786.8</ele></trkpt>
      <trkpt lat="47.16066098004305" lon="9.284554046107878">
      <ele>1789.0</ele></trkpt>
      <trkpt lat="47.16067528121148" lon="9.284519569335876">
      <ele>1791.1</ele></trkpt>
      <trkpt lat="47.16066142589376" lon="9.284506638718415">
      <ele>1793.3</ele></trkpt>
      <trkpt lat="47.160641717487785" lon="9.284480552310384">
      <ele>1795.4</ele></trkpt>
      <trkpt lat="47.160615471529496" lon="9.284451443824079">
      <ele>1797.6</ele></trkpt>
      <trkpt lat="47.16058220302128" lon="9.284447855693355">
      <ele>1799.8</ele></trkpt>
      <trkpt lat="47.16055788847268" lon="9.284405477495339">
      <ele>1801.9</ele></trkpt>
      <trkpt lat="47.160488093777474" lon="9.284393294957702">
      <ele>1804.1</ele></trkpt>
      <trkpt lat="47.16045332383715" lon="9.28438010460175">
      <ele>1806.2</ele></trkpt>
      <trkpt lat="47.160412953166016" lon="9.284416531216872">
      <ele>1808.4</ele></trkpt>
      <trkpt lat="47.1603824388161" lon="9.284398303515959">
      <ele>1810.5</ele></trkpt>
      <trkpt lat="47.16033909374711" lon="9.284374501813982">
      <ele>1812.7</ele></trkpt>
      <trkpt lat="47.16031755242215" lon="9.28441498127472">
      <ele>1814.8</ele></trkpt>
      <trkpt lat="47.16029344943615" lon="9.28436951066299">
      <ele>1817.0</ele></trkpt>
      <trkpt lat="47.160251834955396" lon="9.2843612156333">
      <ele>1819.2</ele></trkpt>
      <trkpt lat="47.16019886504605" lon="9.28431820538688">
      <ele>1821.3</ele></trkpt>
      <trkpt lat="47.160138485626824" lon="9.284302403673385">
      <ele>1823.5</ele></trkpt>
      <trkpt lat="47.16009396657385" lon="9.284348962948439">
      <ele>1825.6</ele></trkpt>
      <trkpt lat="47.160055757641885" lon="9.284375148426882">
      <ele>1827.8</ele></trkpt>
      <trkpt lat="47.159995176515885" lon="9.284371356868657">
      <ele>1829.9</ele></trkpt>
      <trkpt lat="47.15992475013021" lon="9.284362094333549">
      <ele>1832.1</ele></trkpt>
      <trkpt lat="47.15992796202251" lon="9.284418175107584">
      <ele>1834.2</ele></trkpt>
      <trkpt lat="47.159910266175004" lon="9.28443207487137">
      <ele>1836.4</ele></trkpt>
      <trkpt lat="47.15988044462286" lon="9.284445806935096">
      <ele>1838.5</ele></trkpt>
      <trkpt lat="47.15986701892046" lon="9.284489085509128">
      <ele>1840.7</ele></trkpt>
      <trkpt lat="47.15985843298368" lon="9.284529048581467">
      <ele>1842.5</ele></trkpt>
      <trkpt lat="47.159851342815344" lon="9.284554856417595">
      <ele>1844.2</ele></trkpt>
      <trkpt lat="47.15982629966374" lon="9.284557883785473">
      <ele>1846.0</ele></trkpt>
      <trkpt lat="47.159790786678336" lon="9.284568570119827">
      <ele>1847.8</ele></trkpt>
      <trkpt lat="47.159794489030766" lon="9.284628282052696">
      <ele>1849.6</ele></trkpt>
      <trkpt lat="47.15978354070233" lon="9.284662953057364">
      <ele>1851.4</ele></trkpt>
      <trkpt lat="47.159733838840694" lon="9.284662992619763">
      <ele>1853.1</ele></trkpt>
      <trkpt lat="47.159692846543855" lon="9.284677038212953">
      <ele>1854.9</ele></trkpt>
      <trkpt lat="47.159650664920356" lon="9.28464297450955">
      <ele>1856.7</ele></trkpt>
      <trkpt lat="47.159642814926215" lon="9.284695942795343">
      <ele>1858.5</ele></trkpt>
      <trkpt lat="47.1596310632891" lon="9.284745346767316">
      <ele>1860.2</ele></trkpt>
      <trkpt lat="47.15958881585013" lon="9.284774808872875">
      <ele>1862.0</ele></trkpt>
      <trkpt lat="47.15952903070228" lon="9.284783087773569">
      <ele>1863.8</ele></trkpt>
      <trkpt lat="47.1594939638145" lon="9.284799052511621">
      <ele>1865.5</ele></trkpt>
      <trkpt lat="47.159506654456976" lon="9.28487333378918">
      <ele>1867.3</ele></trkpt>
      <trkpt lat="47.159517541742694" lon="9.28493552265156">
      <ele>1869.1</ele></trkpt>
      <trkpt lat="47.15951204268257" lon="9.28497038146236">
      <ele>1870.9</ele></trkpt>
      <trkpt lat="47.15949798938512" lon="9.284992769748834">
      <ele>1872.7</ele></trkpt>
      <trkpt lat="47.15950013073356" lon="9.2850617140064">
      <ele>1874.4</ele></trkpt>
      <trkpt lat="47.15949653580934" lon="9.285120316403395">
      <ele>1876.2</ele></trkpt>
      <trkpt lat="47.15946342638144" lon="9.285128117270283">
      <ele>1877.4</ele></trkpt>
      <trkpt lat="47.159451407471146" lon="9.285142595140682">
      <ele>1878.6</ele></trkpt>
      <trkpt lat="47.15945911188391" lon="9.28522033188952">
      <ele>1879.8</ele></trkpt>
      <trkpt lat="47.15944863999254" lon="9.285292006617798">
      <ele>1881.0</ele></trkpt>
      <trkpt lat="47.15944050878987" lon="9.285292979120964">
      <ele>1882.2</ele></trkpt>
      <trkpt lat="47.15943446011032" lon="9.285293693725531">
      <ele>1883.4</ele></trkpt>
      <trkpt lat="47.15943392161003" lon="9.285296972892958">
      <ele>1884.6</ele></trkpt>
      <trkpt lat="47.15942723848483" lon="9.285337766276456">
      <ele>1885.8</ele></trkpt>
      <trkpt lat="47.15940722233898" lon="9.285342628829298">
      <ele>1887.0</ele></trkpt>
      <trkpt lat="47.15939782809442" lon="9.285322518076807">
      <ele>1888.2</ele></trkpt>
      <trkpt lat="47.15939422717804" lon="9.285314795773221">
      <ele>1889.3</ele></trkpt>
      <trkpt lat="47.15936441368745" lon="9.285361082873642">
      <ele>1890.5</ele></trkpt>
      <trkpt lat="47.159357522391794" lon="9.28537617295282">
      <ele>1891.7</ele></trkpt>
      <trkpt lat="47.159350886461745" lon="9.28541066260312">
      <ele>1892.9</ele></trkpt>
      <trkpt lat="47.159335387150115" lon="9.285393098052971">
      <ele>1894.1</ele></trkpt>
      <trkpt lat="47.15933115906788" lon="9.285373442643312">
      <ele>1895.3</ele></trkpt>
      <trkpt lat="47.1593218265616" lon="9.285361815848987">
      <ele>1896.5</ele></trkpt>
      <trkpt lat="47.15929819938047" lon="9.285334367753519">
      <ele>1897.7</ele></trkpt>
      <trkpt lat="47.15929283780615" lon="9.285356172060647">
      <ele>1898.9</ele></trkpt>
      <trkpt lat="47.159261673042806" lon="9.285325786056246">
      <ele>1900.1</ele></trkpt>
      <trkpt lat="47.15923098688603" lon="9.285368705601243">
      <ele>1902.6</ele></trkpt>
      <trkpt lat="47.1592134615303" lon="9.285421853863038">
      <ele>1905.2</ele></trkpt>
      <trkpt lat="47.1591907024353" lon="9.285386850960453">
      <ele>1907.7</ele></trkpt>
      <trkpt lat="47.15915080977479" lon="9.285380593377726">
      <ele>1910.2</ele></trkpt>
      <trkpt lat="47.159123058750346" lon="9.285448043730256">
      <ele>1912.8</ele></trkpt>
      <trkpt lat="47.159091140357795" lon="9.285464037445974">
      <ele>1915.3</ele></trkpt>
      <trkpt lat="47.1590488616172" lon="9.285399050629042">
      <ele>1917.8</ele></trkpt>
      <trkpt lat="47.15900281510295" lon="9.285360830132511">
      <ele>1920.3</ele></trkpt>
      <trkpt lat="47.15900330266842" lon="9.285434135645353">
      <ele>1922.9</ele></trkpt>
      <trkpt lat="47.15897519976207" lon="9.285420950850355">
      <ele>1925.4</ele></trkpt>
      <trkpt lat="47.1589696815335" lon="9.28545251087627">
      <ele>1927.9</ele></trkpt>
      <trkpt lat="47.15891190263822" lon="9.285418766058461">
      <ele>1930.5</ele></trkpt>
      <trkpt lat="47.15890458196114" lon="9.28546003827698">
      <ele>1933.0</ele></trkpt>
      <trkpt lat="47.158868447644515" lon="9.285427040587532">
      <ele>1935.5</ele></trkpt>
      <trkpt lat="47.15885904537235" lon="9.285390058619456">
      <ele>1938.0</ele></trkpt>
      <trkpt lat="47.15884158128322" lon="9.285335716236318">
      <ele>1940.6</ele></trkpt>
      <trkpt lat="47.15879406757673" lon="9.285285204190062">
      <ele>1943.1</ele></trkpt>
      <trkpt lat="47.1587498112752" lon="9.285239711650886">
      <ele>1945.6</ele></trkpt>
      <trkpt lat="47.15868021262301" lon="9.285215320489312">
      <ele>1948.2</ele></trkpt>
      <trkpt lat="47.15865498753953" lon="9.285229118103299">
      <ele>1950.7</ele></trkpt>
      <trkpt lat="47.1586543997896" lon="9.285265728728895">
      <ele>1952.3</ele></trkpt>
      <trkpt lat="47.158621610568304" lon="9.285232846775472">
      <ele>1953.9</ele></trkpt>
      <trkpt lat="47.15863022913455" lon="9.285318647090945">
      <ele>1955.5</ele></trkpt>
      <trkpt lat="47.15857537659825" lon="9.2853094198068">
      <ele>1957.1</ele></trkpt>
      <trkpt lat="47.15851110015273" lon="9.285265676767997">
      <ele>1958.8</ele></trkpt>
      <trkpt lat="47.158507829456326" lon="9.285365721518367">
      <ele>1960.4</ele></trkpt>
      <trkpt lat="47.15849764295829" lon="9.28537758459484">
      <ele>1962.0</ele></trkpt>
      <trkpt lat="47.158484010605434" lon="9.285499273882145">
      <ele>1963.6</ele></trkpt>
      <trkpt lat="47.158467326611" lon="9.285501138283589">
      <ele>1965.2</ele></trkpt>
      <trkpt lat="47.15846177797922" lon="9.285535150436807">
      <ele>1966.8</ele></trkpt>
      <trkpt lat="47.15844481064998" lon="9.285554100284887">
      <ele>1968.4</ele></trkpt>
      <trkpt lat="47.15843025139416" lon="9.285526741317346">
      <ele>1970.0</ele></trkpt>
      <trkpt lat="47.15840578059013" lon="9.285494120088181">
      <ele>1971.6</ele></trkpt>
      <trkpt lat="47.15837944975856" lon="9.28547367570685">
      <ele>1973.2</ele></trkpt>
      <trkpt lat="47.15837870486418" lon="9.285520068259318">
      <ele>1974.9</ele></trkpt>
      <trkpt lat="47.15835538770841" lon="9.28551926339868">
      <ele>1976.5</ele></trkpt>
      <trkpt lat="47.15834457376269" lon="9.285570202125378">
      <ele>1978.1</ele></trkpt>
      <trkpt lat="47.15833092460327" lon="9.285589266461706">
      <ele>1979.7</ele></trkpt>
      <trkpt lat="47.15830888797476" lon="9.285612935020003">
      <ele>1981.3</ele></trkpt>
      <trkpt lat="47.15829261720532" lon="9.285587944120378">
      <ele>1982.9</ele></trkpt>
      <trkpt lat="47.15828084542472" lon="9.285594871814222">
      <ele>1984.2</ele></trkpt>
      <trkpt lat="47.158273328654126" lon="9.285648351369312">
      <ele>1985.6</ele></trkpt>
      <trkpt lat="47.1582454823483" lon="9.285618067131912">
      <ele>1986.9</ele></trkpt>
      <trkpt lat="47.158236841494485" lon="9.285637330689468">
      <ele>1988.2</ele></trkpt>
      <trkpt lat="47.15819710570295" lon="9.285621304128949">
      <ele>1989.5</ele></trkpt>
      <trkpt lat="47.1581624785728" lon="9.285598106719792">
      <ele>1990.9</ele></trkpt>
      <trkpt lat="47.158144013291526" lon="9.285607243617683">
      <ele>1992.2</ele></trkpt>
      <trkpt lat="47.15812258591416" lon="9.28559184909831">
      <ele>1993.5</ele></trkpt>
      <trkpt lat="47.158103493389675" lon="9.285640048344519">
      <ele>1994.8</ele></trkpt>
      <trkpt lat="47.15809643799998" lon="9.285664233941114">
      <ele>1996.2</ele></trkpt>
      <trkpt lat="47.15808151709261" lon="9.285658838311916">
      <ele>1997.5</ele></trkpt>
      <trkpt lat="47.15805527381908" lon="9.285633503254278">
      <ele>1998.8</ele></trkpt>
      <trkpt lat="47.15804282662143" lon="9.285681931827462">
      <ele>2000.1</ele></trkpt>
      <trkpt lat="47.158016983194685" lon="9.28573479165546">
      <ele>2001.5</ele></trkpt>
      <trkpt lat="47.15797272727468" lon="9.285689286220547">
      <ele>2002.8</ele></trkpt>
      <trkpt lat="47.15794488097772" lon="9.285659002131796">
      <ele>2004.1</ele></trkpt>
      <trkpt lat="47.15793890106166" lon="9.285719868396498">
      <ele>2005.4</ele></trkpt>
      <trkpt lat="47.15791411635726" lon="9.285706798260101">
      <ele>2006.8</ele></trkpt>
      <trkpt lat="47.157910191870776" lon="9.285743319569498">
      <ele>2008.1</ele></trkpt>
      <trkpt lat="47.15789814591797" lon="9.285767319589404">
      <ele>2009.4</ele></trkpt>
      <trkpt lat="47.15787846946893" lon="9.285747104987529">
      <ele>2010.4</ele></trkpt>
      <trkpt lat="47.1578728903777" lon="9.285783569148826">
      <ele>2011.3</ele></trkpt>
      <trkpt lat="47.157842596460455" lon="9.285822781106837">
      <ele>2012.3</ele></trkpt>
      <trkpt lat="47.157840610009664" lon="9.285821538562534">
      <ele>2013.2</ele></trkpt>
      <trkpt lat="47.15782115745519" lon="9.28580923287169">
      <ele>2014.2</ele></trkpt>
      <trkpt lat="47.15781262450777" lon="9.285803846710737">
      <ele>2015.1</ele></trkpt>
      <trkpt lat="47.15777998088795" lon="9.285783197658425">
      <ele>2016.1</ele></trkpt>
      <trkpt lat="47.15777957496812" lon="9.285804552429397">
      <ele>2017.0</ele></trkpt>
      <trkpt lat="47.157778952569934" lon="9.285838826522086">
      <ele>2018.0</ele></trkpt>
      <trkpt lat="47.15775045176207" lon="9.285798877539046">
      <ele>2019.0</ele></trkpt>
      <trkpt lat="47.15773527997492" lon="9.285787814479793">
      <ele>2019.9</ele></trkpt>
      <trkpt lat="47.15771011921022" lon="9.285794240262064">
      <ele>2020.9</ele></trkpt>
      <trkpt lat="47.15768702649714" lon="9.285809153026268">
      <ele>2021.8</ele></trkpt>
      <trkpt lat="47.15767004916401" lon="9.285860656522084">
      <ele>2022.8</ele></trkpt>
      <trkpt lat="47.15766413283796" lon="9.285880581091629">
      <ele>2023.7</ele></trkpt>
      <trkpt lat="47.15765354890986" lon="9.285884133290566">
      <ele>2024.7</ele></trkpt>
      <trkpt lat="47.157641278359755" lon="9.285875056641595">
      <ele>2025.6</ele></trkpt>
      <trkpt lat="47.15762472181538" lon="9.285858339783601">
      <ele>2026.6</ele></trkpt>
      <trkpt lat="47.157615839396655" lon="9.285836057643149">
      <ele>2027.5</ele></trkpt>
      <trkpt lat="47.157602876285715" lon="9.285809598319872">
      <ele>2028.5</ele></trkpt>
      <trkpt lat="47.15758301160962" lon="9.28584592524292">
      <ele>2029.4</ele></trkpt>
      <trkpt lat="47.15756338501532" lon="9.285824287871828">
      <ele>2030.4</ele></trkpt>
      <trkpt lat="47.157558548981626" lon="9.285818963410394">
      <ele>2031.3</ele></trkpt>
      <trkpt lat="47.157513172974376" lon="9.285908754588059">
      <ele>2032.3</ele></trkpt>
      <trkpt lat="47.157510184502904" lon="9.285913320863704">
      <ele>2033.2</ele></trkpt>
      <trkpt lat="47.157493322975704" lon="9.285905510308543">
      <ele>2034.1</ele></trkpt>
      <trkpt lat="47.15747160306305" lon="9.285895447921037">
      <ele>2035.1</ele></trkpt>
      <trkpt lat="47.1574669590124" lon="9.285893295817642">
      <ele>2036.0</ele></trkpt>
      <trkpt lat="47.15746369944141" lon="9.285903537849068">
      <ele>2037.0</ele></trkpt>
      <trkpt lat="47.15745065067381" lon="9.285944597934327">
      <ele>2037.9</ele></trkpt>
      <trkpt lat="47.157447768539576" lon="9.285947585010838">
      <ele>2038.8</ele></trkpt>
      <trkpt lat="47.15741053618436" lon="9.285947671363537">
      <ele>2039.8</ele></trkpt>
      <trkpt lat="47.157404053011" lon="9.285986082549984">
      <ele>2040.7</ele></trkpt>
      <trkpt lat="47.1573811915631" lon="9.28597034838589">
      <ele>2041.7</ele></trkpt>
      <trkpt lat="47.157379473286845" lon="9.285988821727146">
      <ele>2042.6</ele></trkpt>
      <trkpt lat="47.157377206932615" lon="9.286013409730923">
      <ele>2043.5</ele></trkpt>
      <trkpt lat="47.15735835863159" lon="9.285987011098724">
      <ele>2044.5</ele></trkpt>
      <trkpt lat="47.15735463702117" lon="9.28598176469078">
      <ele>2045.4</ele></trkpt>
      <trkpt lat="47.157351575125766" lon="9.285986420747307">
      <ele>2046.4</ele></trkpt>
      <trkpt lat="47.15733282468793" lon="9.286014990322261">
      <ele>2047.3</ele></trkpt>
      <trkpt lat="47.15731906316788" lon="9.285982224852676">
      <ele>2048.3</ele></trkpt>
      <trkpt lat="47.15731679292468" lon="9.285976804320175">
      <ele>2049.2</ele></trkpt>
      <trkpt lat="47.15728436513611" lon="9.285957283995224">
      <ele>2050.2</ele></trkpt>
      <trkpt lat="47.1572795444651" lon="9.28596949023413">
      <ele>2051.2</ele></trkpt>
      <trkpt lat="47.15727156273156" lon="9.285989725860308">
      <ele>2052.1</ele></trkpt>
      <trkpt lat="47.1572563522156" lon="9.285962028313717">
      <ele>2053.1</ele></trkpt>
      <trkpt lat="47.157247916395725" lon="9.285946673537573">
      <ele>2054.1</ele></trkpt>
      <trkpt lat="47.15723670463216" lon="9.28595570444724">
      <ele>2055.0</ele></trkpt>
      <trkpt lat="47.15722637740605" lon="9.285964000845034">
      <ele>2056.0</ele></trkpt>
      <trkpt lat="47.15721208937354" lon="9.285947771314065">
      <ele>2056.9</ele></trkpt>
      <trkpt lat="47.157202448739966" lon="9.28593684652467">
      <ele>2057.9</ele></trkpt>
      <trkpt lat="47.157199434374654" lon="9.285948627062618">
      <ele>2058.9</ele></trkpt>
      <trkpt lat="47.15719553681506" lon="9.285963859389101">
      <ele>2059.8</ele></trkpt>
      <trkpt lat="47.15717828132058" lon="9.285955929738186">
      <ele>2060.8</ele></trkpt>
      <trkpt lat="47.157119229489595" lon="9.285975681568738">
      <ele>2061.8</ele></trkpt>
      <trkpt lat="47.15708865536863" lon="9.285958388546744">
      <ele>2062.7</ele></trkpt>
      <trkpt lat="47.157070483737144" lon="9.285948118957757">
      <ele>2063.7</ele></trkpt>
      <trkpt lat="47.157065988472404" lon="9.285951828554557">
      <ele>2064.7</ele></trkpt>
      <trkpt lat="47.15704904672606" lon="9.285965819059838">
      <ele>2065.6</ele></trkpt>
      <trkpt lat="47.156998009250124" lon="9.285922968823492">
      <ele>2066.6</ele></trkpt>
      <trkpt lat="47.15691049626073" lon="9.28583643909068">
      <ele>2068.4</ele></trkpt>
      <trkpt lat="47.156902179686384" lon="9.285828224552574">
      <ele>2070.2</ele></trkpt>
      <trkpt lat="47.15689243736154" lon="9.285818588995882">
      <ele>2072.0</ele></trkpt>
      <trkpt lat="47.15689075940281" lon="9.285827830292172">
      <ele>2073.8</ele></trkpt>
      <trkpt lat="47.156881755542656" lon="9.285877537398601">
      <ele>2075.7</ele></trkpt>
      <trkpt lat="47.15687678303176" lon="9.285872867807576">
      <ele>2077.5</ele></trkpt>
      <trkpt lat="47.15685118554211" lon="9.285848782212934">
      <ele>2079.3</ele></trkpt>
      <trkpt lat="47.15684095720857" lon="9.285839156263943">
      <ele>2081.1</ele></trkpt>
      <trkpt lat="47.15683647250033" lon="9.285834925612484">
      <ele>2082.9</ele></trkpt>
      <trkpt lat="47.15670052779661" lon="9.286126474311146">
      <ele>2084.7</ele></trkpt>
      <trkpt lat="47.15665103515794" lon="9.286092198490834">
      <ele>2086.5</ele></trkpt>
      <trkpt lat="47.15664223468113" lon="9.286086104077343">
      <ele>2088.3</ele></trkpt>
      <trkpt lat="47.156632295041" lon="9.286079231675291">
      <ele>2090.1</ele></trkpt>
      <trkpt lat="47.15661337538652" lon="9.286101529588569">
      <ele>2091.9</ele></trkpt>
      <trkpt lat="47.156516511891766" lon="9.286215684284551">
      <ele>2093.8</ele></trkpt>
      <trkpt lat="47.15644744763457" lon="9.28622524990407">
      <ele>2095.6</ele></trkpt>
      <trkpt lat="47.156428164339964" lon="9.286239937533857">
      <ele>2097.4</ele></trkpt>
      <trkpt lat="47.156412716246535" lon="9.286253359415658">
      <ele>2099.2</ele></trkpt>
      <trkpt lat="47.15639633719792" lon="9.286265364165049">
      <ele>2101.0</ele></trkpt>
      <trkpt lat="47.156377031450575" lon="9.286281449159098">
      <ele>2102.8</ele></trkpt>
      <trkpt lat="47.15635967697407" lon="9.286294805186467">
      <ele>2102.5</ele></trkpt>
      <trkpt lat="47.156345249194324" lon="9.286304080957267">
      <ele>2102.3</ele></trkpt>
      <trkpt lat="47.156326033020946" lon="9.286314589539025">
      <ele>2102.0</ele></trkpt>
      <trkpt lat="47.15630974375732" lon="9.286321004686055">
      <ele>2101.7</ele></trkpt>
      <trkpt lat="47.15629245640822" lon="9.286330181694911">
      <ele>2101.5</ele></trkpt>
      <trkpt lat="47.156273240443994" lon="9.286340677073976">
      <ele>2101.2</ele></trkpt>
      <trkpt lat="47.156254999904185" lon="9.286349821154529">
      <ele>2100.9</ele></trkpt>
      <trkpt lat="47.15623390878886" lon="9.286358866791808">
      <ele>2100.7</ele></trkpt>
      <trkpt lat="47.15621279522425" lon="9.286369309810397">
      <ele>2100.4</ele></trkpt>
      <trkpt lat="47.15619362394146" lon="9.286377023566681">
      <ele>2100.2</ele></trkpt>
      <trkpt lat="47.15617162658342" lon="9.286387594332954">
      <ele>2099.9</ele></trkpt>
      <trkpt lat="47.156145449376446" lon="9.28645336685646">
      <ele>2099.6</ele></trkpt>
      <trkpt lat="47.15612559665515" lon="9.28646261348396">
      <ele>2099.4</ele></trkpt>
      <trkpt lat="47.15610255425278" lon="9.286474387990328">
      <ele>2099.1</ele></trkpt>
      <trkpt lat="47.15607377946922" lon="9.28648734949077">
      <ele>2098.8</ele></trkpt>
      <trkpt lat="47.15605102848975" lon="9.286480984346134">
      <ele>2098.6</ele></trkpt>
      <trkpt lat="47.15602832240929" lon="9.286471824439689">
      <ele>2098.3</ele></trkpt>
      <trkpt lat="47.156003665262475" lon="9.2864653802889">
      <ele>2098.0</ele></trkpt>
      <trkpt lat="47.155980936730984" lon="9.286457617779533">
      <ele>2097.8</ele></trkpt>
      <trkpt lat="47.155959071801696" lon="9.286455464538482">
      <ele>2097.5</ele></trkpt>
      <trkpt lat="47.155937229109995" lon="9.286451927100725">
      <ele>2098.5</ele></trkpt>
      <trkpt lat="47.155916330826585" lon="9.286448409089806">
      <ele>2099.5</ele></trkpt>
      <trkpt lat="47.15589733892112" lon="9.286444956915954">
      <ele>2100.5</ele></trkpt>
      <trkpt lat="47.15587921939933" lon="9.286447127491153">
      <ele>2101.5</ele></trkpt>
      <trkpt lat="47.15586106843558" lon="9.286450695133576">
      <ele>2102.4</ele></trkpt>
      <trkpt lat="47.155844824061575" lon="9.286454315425367">
      <ele>2103.4</ele></trkpt>
      <trkpt lat="47.15582952367239" lon="9.286457981504645">
      <ele>2104.4</ele></trkpt>
      <trkpt lat="47.15580121969374" lon="9.286441637564593">
      <ele>2105.4</ele></trkpt>
      <trkpt lat="47.155752621384686" lon="9.286415544396355">
      <ele>2106.4</ele></trkpt>
      <trkpt lat="47.1557407722515" lon="9.28646144567563">
      <ele>2107.4</ele></trkpt>
      <trkpt lat="47.155730303319594" lon="9.286435996562865">
      <ele>2108.4</ele></trkpt>
      <trkpt lat="47.15571072236012" lon="9.286439528006317">
      <ele>2109.4</ele></trkpt>
      <trkpt lat="47.1556768076804" lon="9.286408956099653">
      <ele>2110.4</ele></trkpt>
      <trkpt lat="47.15565279887772" lon="9.286447842353">
      <ele>2111.4</ele></trkpt>
      <trkpt lat="47.15565096777518" lon="9.286450931548691">
      <ele>2112.4</ele></trkpt>
      <trkpt lat="47.15563748823638" lon="9.28643702535699">
      <ele>2113.3</ele></trkpt>
      <trkpt lat="47.15561309606112" lon="9.286411847322025">
      <ele>2114.3</ele></trkpt>
      <trkpt lat="47.15559401470409" lon="9.286433004764046">
      <ele>2115.3</ele></trkpt>
      <trkpt lat="47.15556928548347" lon="9.286392963099273">
      <ele>2116.3</ele></trkpt>
      <trkpt lat="47.155551051445414" lon="9.286369778428275">
      <ele>2117.3</ele></trkpt>
      <trkpt lat="47.15554509703587" lon="9.286397667635052">
      <ele>2118.8</ele></trkpt>
      <trkpt lat="47.15553648927476" lon="9.28642326246771">
      <ele>2120.4</ele></trkpt>
      <trkpt lat="47.155521506602064" lon="9.286383069389961">
      <ele>2121.9</ele></trkpt>
      <trkpt lat="47.155494150458466" lon="9.286413015806605">
      <ele>2123.5</ele></trkpt>
      <trkpt lat="47.15546458014023" lon="9.286410530564005">
      <ele>2125.0</ele></trkpt>
      <trkpt lat="47.155418745974714" lon="9.286383754828817">
      <ele>2126.5</ele></trkpt>
      <trkpt lat="47.15540228147131" lon="9.286371394390699">
      <ele>2128.1</ele></trkpt>
      <trkpt lat="47.155383444201604" lon="9.286391359900595">
      <ele>2129.6</ele></trkpt>
      <trkpt lat="47.155356959626744" lon="9.286424739356699">
      <ele>2131.2</ele></trkpt>
      <trkpt lat="47.1553286589308" lon="9.286456354552103">
      <ele>2132.7</ele></trkpt>
      <trkpt lat="47.15529653753251" lon="9.286440169117562">
      <ele>2134.2</ele></trkpt>
      <trkpt lat="47.155279301619956" lon="9.286419261315267">
      <ele>2135.8</ele></trkpt>
      <trkpt lat="47.15525732409253" lon="9.286405074960461">
      <ele>2137.3</ele></trkpt>
      <trkpt lat="47.15522097783182" lon="9.286419449955252">
      <ele>2138.9</ele></trkpt>
      <trkpt lat="47.1551949855189" lon="9.28642386792593">
      <ele>2140.4</ele></trkpt>
      <trkpt lat="47.15517136521473" lon="9.286397687942337">
      <ele>2141.9</ele></trkpt>
      <trkpt lat="47.15513278679401" lon="9.286379630871705">
      <ele>2143.5</ele></trkpt>
      <trkpt lat="47.15508599887462" lon="9.286354537087417">
      <ele>2145.0</ele></trkpt>
      <trkpt lat="47.15504134597636" lon="9.286312475676676">
      <ele>2146.6</ele></trkpt>
      <trkpt lat="47.155002968184355" lon="9.286282488757855">
      <ele>2148.1</ele></trkpt>
      <trkpt lat="47.15498229102492" lon="9.286246161990261">
      <ele>2150.2</ele></trkpt>
      <trkpt lat="47.154967017076245" lon="9.286203374100026">
      <ele>2152.3</ele></trkpt>
      <trkpt lat="47.15493138253551" lon="9.286246817902107">
      <ele>2154.4</ele></trkpt>
      <trkpt lat="47.15493168615126" lon="9.286175827118058">
      <ele>2156.6</ele></trkpt>
      <trkpt lat="47.15490359936787" lon="9.28619637006124">
      <ele>2158.7</ele></trkpt>
      <trkpt lat="47.15485240114893" lon="9.286153449818833">
      <ele>2160.8</ele></trkpt>
      <trkpt lat="47.15480783951096" lon="9.28614211113388">
      <ele>2162.9</ele></trkpt>
      <trkpt lat="47.154793826600866" lon="9.286070665791884">
      <ele>2165.0</ele></trkpt>
      <trkpt lat="47.154775255841614" lon="9.28600402252057">
      <ele>2167.1</ele></trkpt>
      <trkpt lat="47.15473921132136" lon="9.285964883628697">
      <ele>2169.2</ele></trkpt>
      <trkpt lat="47.15470665222496" lon="9.286038123933658">
      <ele>2171.4</ele></trkpt>
      <trkpt lat="47.15467147420091" lon="9.285947838398897">
      <ele>2173.5</ele></trkpt>
      <trkpt lat="47.15463056500427" lon="9.285878828179">
      <ele>2175.6</ele></trkpt>
      <trkpt lat="47.154596844544926" lon="9.285915703518492">
      <ele>2177.7</ele></trkpt>
      <trkpt lat="47.15456106899683" lon="9.285967372783222">
      <ele>2179.8</ele></trkpt>
      <trkpt lat="47.154532476803084" lon="9.285857490621082">
      <ele>2181.9</ele></trkpt>
      <trkpt lat="47.15449223165718" lon="9.285909031937885">
      <ele>2184.1</ele></trkpt>
      <trkpt lat="47.154472997818786" lon="9.285881988346798">
      <ele>2186.2</ele></trkpt>
      <trkpt lat="47.154438088740974" lon="9.285882511066468">
      <ele>2188.3</ele></trkpt>
      <trkpt lat="47.15441700328363" lon="9.285858714225661">
      <ele>2190.4</ele></trkpt>
      <trkpt lat="47.154400566495625" lon="9.285861431051092">
      <ele>2191.9</ele></trkpt>
      <trkpt lat="47.154389404827214" lon="9.285833729712609">
      <ele>2193.4</ele></trkpt>
      <trkpt lat="47.15437059075314" lon="9.285785029905426">
      <ele>2194.9</ele></trkpt>
      <trkpt lat="47.154365119708885" lon="9.285816443719947">
      <ele>2196.4</ele></trkpt>
      <trkpt lat="47.15435365543516" lon="9.285769488100355">
      <ele>2197.9</ele></trkpt>
      <trkpt lat="47.15434109552486" lon="9.285737531006221">
      <ele>2199.4</ele></trkpt>
      <trkpt lat="47.15432505090733" lon="9.285717509075083">
      <ele>2200.9</ele></trkpt>
      <trkpt lat="47.15431168167052" lon="9.285685524074005">
      <ele>2202.4</ele></trkpt>
      <trkpt lat="47.15430433143802" lon="9.2856838062924">
      <ele>2203.9</ele></trkpt>
      <trkpt lat="47.15429661656586" lon="9.285703113572339">
      <ele>2205.4</ele></trkpt>
      <trkpt lat="47.1542923363184" lon="9.28576010380689">
      <ele>2206.8</ele></trkpt>
      <trkpt lat="47.15428140343875" lon="9.285822918470664">
      <ele>2208.3</ele></trkpt>
      <trkpt lat="47.1542675290639" lon="9.285866084366045">
      <ele>2209.8</ele></trkpt>
      <trkpt lat="47.15425823562331" lon="9.285896284595289">
      <ele>2211.3</ele></trkpt>
      <trkpt lat="47.15424696857157" lon="9.285910997877243">
      <ele>2212.8</ele></trkpt>
      <trkpt lat="47.15420620212385" lon="9.285993872862324">
      <ele>2214.3</ele></trkpt>
      <trkpt lat="47.15418687340404" lon="9.285918960608331">
      <ele>2215.8</ele></trkpt>
      <trkpt lat="47.15416490401726" lon="9.285947958163048">
      <ele>2217.3</ele></trkpt>
      <trkpt lat="47.154129422710255" lon="9.285928650140265">
      <ele>2218.8</ele></trkpt>
      <trkpt lat="47.1540920548388" lon="9.285915885052898">
      <ele>2220.3</ele></trkpt>
      <trkpt lat="47.15411862595658" lon="9.285878789631575">
      <ele>2221.8</ele></trkpt>
      <trkpt lat="47.15414781579788" lon="9.285846704338244">
      <ele>2223.2</ele></trkpt>
      <trkpt lat="47.15413203684642" lon="9.285826388253726">
      <ele>2224.7</ele></trkpt>
      <trkpt lat="47.15415570729665" lon="9.285802395532283">
      <ele>2226.1</ele></trkpt>
      <trkpt lat="47.1541204296199" lon="9.28577152726854">
      <ele>2227.6</ele></trkpt>
      <trkpt lat="47.15413783217541" lon="9.285747331352884">
      <ele>2229.0</ele></trkpt>
      <trkpt lat="47.15411516963933" lon="9.285711926080442">
      <ele>2230.5</ele></trkpt>
      <trkpt lat="47.15410920939522" lon="9.2856387812896">
      <ele>2231.9</ele></trkpt>
      <trkpt lat="47.1540903320152" lon="9.285499888480311">
      <ele>2233.4</ele></trkpt>
      <trkpt lat="47.154085115988856" lon="9.285376463942876">
      <ele>2234.8</ele></trkpt>
    </trkseg>
  </trk>
</gpx>