<?xml version="1.0" encoding="UTF-8"?>
<gpx version="1.1" creator="hike-planner" xmlns="http://www.topografix.com/GPX/1/1">
  <metadata><name>Moléson -> Moléson</name>
    <desc>Routed from OSM (ODbL); elevations from SwissTopo / Open-Elevation</desc>
  </metadata>
  <wpt lat="46.724764" lon="7.151183">
    <ele>808.9</ele>
    <name>Moléson</name>
  </wpt>
  <wpt lat="46.716538" lon="7.144374">
    <ele>1012.1</ele>
    <name>Moléson</name>
  </wpt>
  <trk>
    <name>Moléson -> Moléson</name>
    <trkseg>
      <trkpt lat="46.724764" lon="7.151183">
        <ele>808.9</ele>
      </trkpt>
      <trkpt lat="46.724280" lon="7.152379">
        <ele>815.9</ele>
      </trkpt>
      <trkpt lat="46.724103" lon="7.152788">
        <ele>818.5</ele>
      </trkpt>
      <trkpt lat="46.724009" lon="7.153029">
        <ele>819.8</ele>
      </trkpt>
      <trkpt lat="46.723960" lon="7.153186">
        <ele>820.6</ele>
      </trkpt>
      <trkpt lat="46.723900" lon="7.153383">
        <ele>821.6</ele>
      </trkpt>
      <trkpt lat="46.723838" lon="7.153612">
        <ele>822.8</ele>
      </trkpt>
      <trkpt lat="46.723809" lon="7.153598">
        <ele>822.7</ele>
      </trkpt>
      <trkpt lat="46.723761" lon="7.153576">
        <ele>823.1</ele>
      </trkpt>
      <trkpt lat="46.723732" lon="7.153569">
        <ele>823.3</ele>
      </trkpt>
      <trkpt lat="46.723708" lon="7.153572">
        <ele>823.6</ele>
      </trkpt>
      <trkpt lat="46.723688" lon="7.153586">
        <ele>823.9</ele>
      </trkpt>
      <trkpt lat="46.723641" lon="7.153637">
        <ele>824.8</ele>
      </trkpt>
      <trkpt lat="46.723563" lon="7.153745">
        <ele>826.4</ele>
      </trkpt>
      <trkpt lat="46.723515" lon="7.153834">
        <ele>827.4</ele>
      </trkpt>
      <trkpt lat="46.723031" lon="7.154588">
        <ele>834.1</ele>
      </trkpt>
      <trkpt lat="46.722743" lon="7.155083">
        <ele>836.5</ele>
      </trkpt>
      <trkpt lat="46.722710" lon="7.155134">
        <ele>837.0</ele>
      </trkpt>
      <trkpt lat="46.722664" lon="7.155206">
        <ele>837.2</ele>
      </trkpt>
      <trkpt lat="46.722412" lon="7.155654">
        <ele>840.6</ele>
      </trkpt>
      <trkpt lat="46.722261" lon="7.155951">
        <ele>843.1</ele>
      </trkpt>
      <trkpt lat="46.722115" lon="7.156148">
        <ele>845.4</ele>
      </trkpt>
      <trkpt lat="46.722021" lon="7.156278">
        <ele>847.1</ele>
      </trkpt>
      <trkpt lat="46.722001" lon="7.156312">
        <ele>847.7</ele>
      </trkpt>
      <trkpt lat="46.721987" lon="7.156347">
        <ele>848.0</ele>
      </trkpt>
      <trkpt lat="46.721968" lon="7.156403">
        <ele>848.7</ele>
      </trkpt>
      <trkpt lat="46.721950" lon="7.156453">
        <ele>849.0</ele>
      </trkpt>
      <trkpt lat="46.721896" lon="7.156552">
        <ele>850.0</ele>
      </trkpt>
      <trkpt lat="46.721876" lon="7.156577">
        <ele>850.3</ele>
      </trkpt>
      <trkpt lat="46.721855" lon="7.156593">
        <ele>850.5</ele>
      </trkpt>
      <trkpt lat="46.721822" lon="7.156606">
        <ele>850.9</ele>
      </trkpt>
      <trkpt lat="46.721742" lon="7.156616">
        <ele>851.5</ele>
      </trkpt>
      <trkpt lat="46.721707" lon="7.156611">
        <ele>851.9</ele>
      </trkpt>
      <trkpt lat="46.721677" lon="7.156598">
        <ele>852.3</ele>
      </trkpt>
      <trkpt lat="46.721647" lon="7.156577">
        <ele>852.9</ele>
      </trkpt>
      <trkpt lat="46.721615" lon="7.156533">
        <ele>853.4</ele>
      </trkpt>
      <trkpt lat="46.721586" lon="7.156475">
        <ele>853.7</ele>
      </trkpt>
      <trkpt lat="46.721537" lon="7.156331">
        <ele>855.8</ele>
      </trkpt>
      <trkpt lat="46.721508" lon="7.156216">
        <ele>857.0</ele>
      </trkpt>
      <trkpt lat="46.721502" lon="7.156161">
        <ele>857.1</ele>
      </trkpt>
      <trkpt lat="46.721507" lon="7.156104">
        <ele>857.5</ele>
      </trkpt>
      <trkpt lat="46.721468" lon="7.155778">
        <ele>860.8</ele>
      </trkpt>
      <trkpt lat="46.721444" lon="7.155302">
        <ele>865.6</ele>
      </trkpt>
      <trkpt lat="46.721396" lon="7.154643">
        <ele>874.2</ele>
      </trkpt>
      <trkpt lat="46.721298" lon="7.154136">
        <ele>881.3</ele>
      </trkpt>
      <trkpt lat="46.721257" lon="7.153799">
        <ele>885.9</ele>
      </trkpt>
      <trkpt lat="46.721179" lon="7.153696">
        <ele>889.2</ele>
      </trkpt>
      <trkpt lat="46.721146" lon="7.153630">
        <ele>890.2</ele>
      </trkpt>
      <trkpt lat="46.721097" lon="7.153470">
        <ele>894.9</ele>
      </trkpt>
      <trkpt lat="46.721046" lon="7.153402">
        <ele>897.2</ele>
      </trkpt>
      <trkpt lat="46.720953" lon="7.153337">
        <ele>899.1</ele>
      </trkpt>
      <trkpt lat="46.720862" lon="7.153218">
        <ele>902.6</ele>
      </trkpt>
      <trkpt lat="46.720765" lon="7.152975">
        <ele>909.9</ele>
      </trkpt>
      <trkpt lat="46.720691" lon="7.152883">
        <ele>914.1</ele>
      </trkpt>
      <trkpt lat="46.720581" lon="7.152887">
        <ele>916.2</ele>
      </trkpt>
      <trkpt lat="46.720444" lon="7.152892">
        <ele>918.5</ele>
      </trkpt>
      <trkpt lat="46.720390" lon="7.152911">
        <ele>919.5</ele>
      </trkpt>
      <trkpt lat="46.720282" lon="7.152976">
        <ele>922.2</ele>
      </trkpt>
      <trkpt lat="46.720221" lon="7.153022">
        <ele>923.7</ele>
      </trkpt>
      <trkpt lat="46.720188" lon="7.153033">
        <ele>924.4</ele>
      </trkpt>
      <trkpt lat="46.720147" lon="7.153034">
        <ele>925.0</ele>
      </trkpt>
      <trkpt lat="46.720116" lon="7.153018">
        <ele>925.7</ele>
      </trkpt>
      <trkpt lat="46.720080" lon="7.152980">
        <ele>926.5</ele>
      </trkpt>
      <trkpt lat="46.719968" lon="7.152826">
        <ele>929.0</ele>
      </trkpt>
      <trkpt lat="46.719876" lon="7.152712">
        <ele>931.2</ele>
      </trkpt>
      <trkpt lat="46.719811" lon="7.152652">
        <ele>933.1</ele>
      </trkpt>
      <trkpt lat="46.719736" lon="7.152609">
        <ele>934.3</ele>
      </trkpt>
      <trkpt lat="46.719676" lon="7.152596">
        <ele>935.4</ele>
      </trkpt>
      <trkpt lat="46.719619" lon="7.152606">
        <ele>936.5</ele>
      </trkpt>
      <trkpt lat="46.719574" lon="7.152625">
        <ele>937.7</ele>
      </trkpt>
      <trkpt lat="46.719433" lon="7.152743">
        <ele>940.5</ele>
      </trkpt>
      <trkpt lat="46.719400" lon="7.152759">
        <ele>940.7</ele>
      </trkpt>
      <trkpt lat="46.719367" lon="7.152760">
        <ele>941.2</ele>
      </trkpt>
      <trkpt lat="46.719330" lon="7.152750">
        <ele>941.4</ele>
      </trkpt>
      <trkpt lat="46.719271" lon="7.152713">
        <ele>942.2</ele>
      </trkpt>
      <trkpt lat="46.719225" lon="7.152664">
        <ele>942.5</ele>
      </trkpt>
      <trkpt lat="46.719187" lon="7.152603">
        <ele>943.3</ele>
      </trkpt>
      <trkpt lat="46.719084" lon="7.152362">
        <ele>944.5</ele>
      </trkpt>
      <trkpt lat="46.719039" lon="7.152272">
        <ele>945.1</ele>
      </trkpt>
      <trkpt lat="46.718980" lon="7.152183">
        <ele>946.2</ele>
      </trkpt>
      <trkpt lat="46.718778" lon="7.151929">
        <ele>948.2</ele>
      </trkpt>
      <trkpt lat="46.718729" lon="7.151842">
        <ele>948.8</ele>
      </trkpt>
      <trkpt lat="46.718707" lon="7.151780">
        <ele>949.1</ele>
      </trkpt>
      <trkpt lat="46.718677" lon="7.151650">
        <ele>949.6</ele>
      </trkpt>
      <trkpt lat="46.718657" lon="7.151592">
        <ele>949.9</ele>
      </trkpt>
      <trkpt lat="46.718615" lon="7.151527">
        <ele>950.4</ele>
      </trkpt>
      <trkpt lat="46.718423" lon="7.151285">
        <ele>952.2</ele>
      </trkpt>
      <trkpt lat="46.718355" lon="7.151214">
        <ele>953.0</ele>
      </trkpt>
      <trkpt lat="46.718243" lon="7.151038">
        <ele>954.6</ele>
      </trkpt>
      <trkpt lat="46.718223" lon="7.151010">
        <ele>955.0</ele>
      </trkpt>
      <trkpt lat="46.718203" lon="7.150991">
        <ele>955.3</ele>
      </trkpt>
      <trkpt lat="46.718181" lon="7.150980">
        <ele>955.5</ele>
      </trkpt>
      <trkpt lat="46.718144" lon="7.150975">
        <ele>955.7</ele>
      </trkpt>
      <trkpt lat="46.718102" lon="7.150973">
        <ele>956.1</ele>
      </trkpt>
      <trkpt lat="46.718067" lon="7.150949">
        <ele>956.8</ele>
      </trkpt>
      <trkpt lat="46.718058" lon="7.150911">
        <ele>957.4</ele>
      </trkpt>
      <trkpt lat="46.718057" lon="7.150882">
        <ele>957.8</ele>
      </trkpt>
      <trkpt lat="46.718065" lon="7.150848">
        <ele>958.4</ele>
      </trkpt>
      <trkpt lat="46.718085" lon="7.150814">
        <ele>959.1</ele>
      </trkpt>
      <trkpt lat="46.718119" lon="7.150784">
        <ele>960.2</ele>
      </trkpt>
      <trkpt lat="46.718160" lon="7.150762">
        <ele>961.0</ele>
      </trkpt>
      <trkpt lat="46.718200" lon="7.150755">
        <ele>961.7</ele>
      </trkpt>
      <trkpt lat="46.718260" lon="7.150754">
        <ele>963.0</ele>
      </trkpt>
      <trkpt lat="46.718321" lon="7.150772">
        <ele>964.3</ele>
      </trkpt>
      <trkpt lat="46.718379" lon="7.150814">
        <ele>965.9</ele>
      </trkpt>
      <trkpt lat="46.718514" lon="7.150916">
        <ele>969.3</ele>
      </trkpt>
      <trkpt lat="46.718635" lon="7.150934">
        <ele>970.9</ele>
      </trkpt>
      <trkpt lat="46.718784" lon="7.150924">
        <ele>973.5</ele>
      </trkpt>
      <trkpt lat="46.718887" lon="7.150914">
        <ele>975.1</ele>
      </trkpt>
      <trkpt lat="46.718975" lon="7.150926">
        <ele>976.8</ele>
      </trkpt>
      <trkpt lat="46.719106" lon="7.150933">
        <ele>980.1</ele>
      </trkpt>
      <trkpt lat="46.719200" lon="7.150929">
        <ele>982.1</ele>
      </trkpt>
      <trkpt lat="46.719301" lon="7.150879">
        <ele>983.3</ele>
      </trkpt>
      <trkpt lat="46.719363" lon="7.150769">
        <ele>984.4</ele>
      </trkpt>
      <trkpt lat="46.719425" lon="7.150582">
        <ele>986.8</ele>
      </trkpt>
      <trkpt lat="46.719441" lon="7.150498">
        <ele>987.6</ele>
      </trkpt>
      <trkpt lat="46.719415" lon="7.150454">
        <ele>988.3</ele>
      </trkpt>
      <trkpt lat="46.719382" lon="7.150411">
        <ele>989.8</ele>
      </trkpt>
      <trkpt lat="46.719297" lon="7.150299">
        <ele>993.4</ele>
      </trkpt>
      <trkpt lat="46.719229" lon="7.150218">
        <ele>996.0</ele>
      </trkpt>
      <trkpt lat="46.719161" lon="7.150113">
        <ele>997.5</ele>
      </trkpt>
      <trkpt lat="46.719074" lon="7.149968">
        <ele>998.6</ele>
      </trkpt>
      <trkpt lat="46.719007" lon="7.149847">
        <ele>999.3</ele>
      </trkpt>
      <trkpt lat="46.718871" lon="7.149673">
        <ele>1001.5</ele>
      </trkpt>
      <trkpt lat="46.718720" lon="7.149431">
        <ele>1004.8</ele>
      </trkpt>
      <trkpt lat="46.718605" lon="7.149236">
        <ele>1007.4</ele>
      </trkpt>
      <trkpt lat="46.718531" lon="7.149133">
        <ele>1009.1</ele>
      </trkpt>
      <trkpt lat="46.718399" lon="7.148969">
        <ele>1012.9</ele>
      </trkpt>
      <trkpt lat="46.718176" lon="7.148813">
        <ele>1014.3</ele>
      </trkpt>
      <trkpt lat="46.718056" lon="7.148744">
        <ele>1015.8</ele>
      </trkpt>
      <trkpt lat="46.718007" lon="7.148715">
        <ele>1016.2</ele>
      </trkpt>
      <trkpt lat="46.717755" lon="7.148574">
        <ele>1021.3</ele>
      </trkpt>
      <trkpt lat="46.717718" lon="7.148556">
        <ele>1022.1</ele>
      </trkpt>
      <trkpt lat="46.717611" lon="7.148217">
        <ele>1023.0</ele>
      </trkpt>
      <trkpt lat="46.717405" lon="7.147639">
        <ele>1022.6</ele>
      </trkpt>
      <trkpt lat="46.717065" lon="7.146677">
        <ele>1022.7</ele>
      </trkpt>
      <trkpt lat="46.717072" lon="7.146650">
        <ele>1022.5</ele>
      </trkpt>
      <trkpt lat="46.716963" lon="7.146315">
        <ele>1020.5</ele>
      </trkpt>
      <trkpt lat="46.716925" lon="7.146157">
        <ele>1019.2</ele>
      </trkpt>
      <trkpt lat="46.716805" lon="7.145667">
        <ele>1016.1</ele>
      </trkpt>
      <trkpt lat="46.716714" lon="7.145303">
        <ele>1015.9</ele>
      </trkpt>
      <trkpt lat="46.716538" lon="7.144374">
        <ele>1012.1</ele>
      </trkpt>
    </trkseg>
  </trk>
</gpx>
