<?xml version="1.0" encoding="UTF-8"?>
<gpx version="1.1" creator="hike-planner" xmlns="http://www.topografix.com/GPX/1/1">
  <metadata><name>Ebenalp -> Säntis</name>
    <desc>Routed from OSM (ODbL); elevations from SwissTopo / Open-Elevation</desc>
  </metadata>
  <wpt lat="47.282629" lon="9.412984">
    <ele>1454.8</ele>
    <name>Ebenalp</name>
  </wpt>
  <wpt lat="47.276081" lon="9.390422">
    <ele>1922.7</ele>
    <name>Schäfler</name>
  </wpt>
  <wpt lat="47.263475" lon="9.387288">
    <ele>1185.4</ele>
    <name>Mesmer</name>
  </wpt>
  <wpt lat="47.242832" lon="9.365312">
    <ele>2120.3</ele>
    <name>Rotsteinpass</name>
  </wpt>
  <wpt lat="47.249294" lon="9.343383">
    <ele>2497.1</ele>
    <name>Säntis</name>
  </wpt>
  <wpt lat="47.256257" lon="9.318996">
    <ele>1349.1</ele>
    <name>Schwägalp</name>
  </wpt>
  <trk>
    <name>Ebenalp -> Säntis</name>
    <trkseg>
      <trkpt lat="47.282629" lon="9.412984">
        <ele>1454.8</ele>
      </trkpt>
      <trkpt lat="47.282856" lon="9.413182">
        <ele>1457.8</ele>
      </trkpt>
      <trkpt lat="47.282931" lon="9.413158">
        <ele>1464.6</ele>
      </trkpt>
      <trkpt lat="47.282597" lon="9.412196">
        <ele>1474.9</ele>
      </trkpt>
      <trkpt lat="47.282209" lon="9.411848">
        <ele>1477.2</ele>
      </trkpt>
      <trkpt lat="47.281757" lon="9.411025">
        <ele>1480.6</ele>
      </trkpt>
      <trkpt lat="47.281272" lon="9.410232">
        <ele>1488.1</ele>
      </trkpt>
      <trkpt lat="47.280986" lon="9.409455">
        <ele>1503.4</ele>
      </trkpt>
      <trkpt lat="47.280639" lon="9.409094">
        <ele>1520.2</ele>
      </trkpt>
      <trkpt lat="47.280372" lon="9.408568">
        <ele>1535.6</ele>
      </trkpt>
      <trkpt lat="47.280172" lon="9.407989">
        <ele>1550.4</ele>
      </trkpt>
      <trkpt lat="47.280304" lon="9.407829">
        <ele>1562.9</ele>
      </trkpt>
      <trkpt lat="47.280218" lon="9.407523">
        <ele>1573.8</ele>
      </trkpt>
      <trkpt lat="47.280070" lon="9.407191">
        <ele>1579.0</ele>
      </trkpt>
      <trkpt lat="47.279837" lon="9.406732">
        <ele>1583.2</ele>
      </trkpt>
      <trkpt lat="47.279606" lon="9.406063">
        <ele>1592.9</ele>
      </trkpt>
      <trkpt lat="47.279347" lon="9.405412">
        <ele>1599.5</ele>
      </trkpt>
      <trkpt lat="47.279180" lon="9.405072">
        <ele>1603.1</ele>
      </trkpt>
      <trkpt lat="47.278834" lon="9.404482">
        <ele>1607.1</ele>
      </trkpt>
      <trkpt lat="47.278621" lon="9.404005">
        <ele>1611.3</ele>
      </trkpt>
      <trkpt lat="47.278472" lon="9.403595">
        <ele>1619.9</ele>
      </trkpt>
      <trkpt lat="47.278301" lon="9.403256">
        <ele>1622.1</ele>
      </trkpt>
      <trkpt lat="47.278048" lon="9.402962">
        <ele>1626.7</ele>
      </trkpt>
      <trkpt lat="47.277848" lon="9.402594">
        <ele>1638.1</ele>
      </trkpt>
      <trkpt lat="47.277522" lon="9.401994">
        <ele>1641.0</ele>
      </trkpt>
      <trkpt lat="47.277315" lon="9.401337">
        <ele>1652.2</ele>
      </trkpt>
      <trkpt lat="47.277093" lon="9.400760">
        <ele>1658.2</ele>
      </trkpt>
      <trkpt lat="47.276952" lon="9.400173">
        <ele>1665.5</ele>
      </trkpt>
      <trkpt lat="47.276624" lon="9.399346">
        <ele>1669.7</ele>
      </trkpt>
      <trkpt lat="47.276553" lon="9.398808">
        <ele>1671.1</ele>
      </trkpt>
      <trkpt lat="47.276664" lon="9.398269">
        <ele>1682.2</ele>
      </trkpt>
      <trkpt lat="47.276808" lon="9.398084">
        <ele>1688.7</ele>
      </trkpt>
      <trkpt lat="47.277108" lon="9.397721">
        <ele>1700.4</ele>
      </trkpt>
      <trkpt lat="47.277372" lon="9.397116">
        <ele>1713.0</ele>
      </trkpt>
      <trkpt lat="47.277508" lon="9.397879">
        <ele>1724.6</ele>
      </trkpt>
      <trkpt lat="47.277831" lon="9.397670">
        <ele>1732.5</ele>
      </trkpt>
      <trkpt lat="47.278459" lon="9.397130">
        <ele>1747.6</ele>
      </trkpt>
      <trkpt lat="47.278594" lon="9.396328">
        <ele>1774.0</ele>
      </trkpt>
      <trkpt lat="47.278263" lon="9.395354">
        <ele>1794.5</ele>
      </trkpt>
      <trkpt lat="47.278379" lon="9.395305">
        <ele>1803.2</ele>
      </trkpt>
      <trkpt lat="47.278423" lon="9.395229">
        <ele>1809.9</ele>
      </trkpt>
      <trkpt lat="47.278183" lon="9.394483">
        <ele>1827.2</ele>
      </trkpt>
      <trkpt lat="47.277960" lon="9.393944">
        <ele>1834.5</ele>
      </trkpt>
      <trkpt lat="47.277066" lon="9.393072">
        <ele>1863.2</ele>
      </trkpt>
      <trkpt lat="47.276816" lon="9.392299">
        <ele>1890.3</ele>
      </trkpt>
      <trkpt lat="47.276358" lon="9.391839">
        <ele>1900.9</ele>
      </trkpt>
      <trkpt lat="47.276174" lon="9.391596">
        <ele>1906.9</ele>
      </trkpt>
      <trkpt lat="47.275999" lon="9.391099">
        <ele>1911.4</ele>
      </trkpt>
      <trkpt lat="47.276133" lon="9.390943">
        <ele>1917.8</ele>
      </trkpt>
      <trkpt lat="47.276122" lon="9.390547">
        <ele>1919.4</ele>
      </trkpt>
      <trkpt lat="47.276081" lon="9.390422">
        <ele>1922.7</ele>
      </trkpt>
      <trkpt lat="47.276158" lon="9.390320">
        <ele>1914.4</ele>
      </trkpt>
      <trkpt lat="47.276128" lon="9.389932">
        <ele>1910.3</ele>
      </trkpt>
      <trkpt lat="47.276139" lon="9.389646">
        <ele>1900.9</ele>
      </trkpt>
      <trkpt lat="47.276013" lon="9.389746">
        <ele>1888.4</ele>
      </trkpt>
      <trkpt lat="47.275957" lon="9.389805">
        <ele>1880.0</ele>
      </trkpt>
      <trkpt lat="47.275920" lon="9.389887">
        <ele>1871.7</ele>
      </trkpt>
      <trkpt lat="47.275864" lon="9.389850">
        <ele>1865.1</ele>
      </trkpt>
      <trkpt lat="47.275734" lon="9.389802">
        <ele>1854.5</ele>
      </trkpt>
      <trkpt lat="47.275673" lon="9.389982">
        <ele>1841.7</ele>
      </trkpt>
      <trkpt lat="47.275686" lon="9.390118">
        <ele>1834.3</ele>
      </trkpt>
      <trkpt lat="47.275611" lon="9.390105">
        <ele>1829.5</ele>
      </trkpt>
      <trkpt lat="47.275644" lon="9.390213">
        <ele>1825.1</ele>
      </trkpt>
      <trkpt lat="47.275590" lon="9.390463">
        <ele>1858.7</ele>
      </trkpt>
      <trkpt lat="47.275545" lon="9.390858">
        <ele>1827.3</ele>
      </trkpt>
      <trkpt lat="47.275503" lon="9.390754">
        <ele>1807.8</ele>
      </trkpt>
      <trkpt lat="47.275379" lon="9.390935">
        <ele>1796.4</ele>
      </trkpt>
      <trkpt lat="47.275309" lon="9.390949">
        <ele>1791.5</ele>
      </trkpt>
      <trkpt lat="47.275274" lon="9.390902">
        <ele>1787.9</ele>
      </trkpt>
      <trkpt lat="47.275262" lon="9.390677">
        <ele>1779.4</ele>
      </trkpt>
      <trkpt lat="47.275196" lon="9.390629">
        <ele>1773.4</ele>
      </trkpt>
      <trkpt lat="47.275179" lon="9.390465">
        <ele>1769.1</ele>
      </trkpt>
      <trkpt lat="47.275119" lon="9.390514">
        <ele>1765.7</ele>
      </trkpt>
      <trkpt lat="47.275054" lon="9.390565">
        <ele>1761.1</ele>
      </trkpt>
      <trkpt lat="47.274989" lon="9.390476">
        <ele>1754.8</ele>
      </trkpt>
      <trkpt lat="47.274953" lon="9.390510">
        <ele>1752.3</ele>
      </trkpt>
      <trkpt lat="47.274902" lon="9.390433">
        <ele>1746.4</ele>
      </trkpt>
      <trkpt lat="47.274793" lon="9.390567">
        <ele>1740.5</ele>
      </trkpt>
      <trkpt lat="47.274520" lon="9.390790">
        <ele>1725.7</ele>
      </trkpt>
      <trkpt lat="47.274381" lon="9.390845">
        <ele>1718.3</ele>
      </trkpt>
      <trkpt lat="47.274292" lon="9.390873">
        <ele>1712.8</ele>
      </trkpt>
      <trkpt lat="47.274202" lon="9.390845">
        <ele>1705.2</ele>
      </trkpt>
      <trkpt lat="47.274134" lon="9.390744">
        <ele>1697.0</ele>
      </trkpt>
      <trkpt lat="47.274082" lon="9.390806">
        <ele>1694.3</ele>
      </trkpt>
      <trkpt lat="47.274011" lon="9.390916">
        <ele>1688.5</ele>
      </trkpt>
      <trkpt lat="47.273772" lon="9.391126">
        <ele>1679.2</ele>
      </trkpt>
      <trkpt lat="47.273626" lon="9.391225">
        <ele>1672.9</ele>
      </trkpt>
      <trkpt lat="47.273539" lon="9.391334">
        <ele>1666.3</ele>
      </trkpt>
      <trkpt lat="47.273446" lon="9.391420">
        <ele>1662.4</ele>
      </trkpt>
      <trkpt lat="47.273369" lon="9.391414">
        <ele>1656.2</ele>
      </trkpt>
      <trkpt lat="47.273328" lon="9.391518">
        <ele>1652.8</ele>
      </trkpt>
      <trkpt lat="47.273286" lon="9.391408">
        <ele>1648.8</ele>
      </trkpt>
      <trkpt lat="47.273201" lon="9.391517">
        <ele>1643.6</ele>
      </trkpt>
      <trkpt lat="47.273093" lon="9.391673">
        <ele>1636.0</ele>
      </trkpt>
      <trkpt lat="47.272985" lon="9.391455">
        <ele>1627.0</ele>
      </trkpt>
      <trkpt lat="47.272937" lon="9.391194">
        <ele>1620.4</ele>
      </trkpt>
      <trkpt lat="47.272903" lon="9.391162">
        <ele>1617.5</ele>
      </trkpt>
      <trkpt lat="47.272733" lon="9.391051">
        <ele>1605.7</ele>
      </trkpt>
      <trkpt lat="47.272671" lon="9.390712">
        <ele>1597.0</ele>
      </trkpt>
      <trkpt lat="47.272196" lon="9.389913">
        <ele>1594.8</ele>
      </trkpt>
      <trkpt lat="47.271897" lon="9.390122">
        <ele>1595.6</ele>
      </trkpt>
      <trkpt lat="47.271982" lon="9.390776">
        <ele>1589.3</ele>
      </trkpt>
      <trkpt lat="47.272158" lon="9.391443">
        <ele>1579.6</ele>
      </trkpt>
      <trkpt lat="47.271460" lon="9.391307">
        <ele>1562.3</ele>
      </trkpt>
      <trkpt lat="47.271030" lon="9.390095">
        <ele>1536.8</ele>
      </trkpt>
      <trkpt lat="47.270253" lon="9.389057">
        <ele>1514.3</ele>
      </trkpt>
      <trkpt lat="47.269754" lon="9.388451">
        <ele>1499.6</ele>
      </trkpt>
      <trkpt lat="47.269211" lon="9.387638">
        <ele>1487.0</ele>
      </trkpt>
      <trkpt lat="47.269075" lon="9.388249">
        <ele>1467.7</ele>
      </trkpt>
      <trkpt lat="47.269227" lon="9.389787">
        <ele>1429.7</ele>
      </trkpt>
      <trkpt lat="47.269107" lon="9.390003">
        <ele>1408.5</ele>
      </trkpt>
      <trkpt lat="47.269000" lon="9.390529">
        <ele>1379.8</ele>
      </trkpt>
      <trkpt lat="47.268403" lon="9.390161">
        <ele>1347.5</ele>
      </trkpt>
      <trkpt lat="47.268180" lon="9.390170">
        <ele>1335.2</ele>
      </trkpt>
      <trkpt lat="47.268033" lon="9.390131">
        <ele>1327.3</ele>
      </trkpt>
      <trkpt lat="47.267842" lon="9.389902">
        <ele>1311.6</ele>
      </trkpt>
      <trkpt lat="47.267622" lon="9.390108">
        <ele>1259.8</ele>
      </trkpt>
      <trkpt lat="47.267688" lon="9.390587">
        <ele>1240.8</ele>
      </trkpt>
      <trkpt lat="47.267581" lon="9.390696">
        <ele>1226.7</ele>
      </trkpt>
      <trkpt lat="47.267321" lon="9.390303">
        <ele>1214.0</ele>
      </trkpt>
      <trkpt lat="47.267171" lon="9.389806">
        <ele>1215.2</ele>
      </trkpt>
      <trkpt lat="47.266947" lon="9.389879">
        <ele>1207.1</ele>
      </trkpt>
      <trkpt lat="47.266793" lon="9.390023">
        <ele>1198.8</ele>
      </trkpt>
      <trkpt lat="47.266504" lon="9.390227">
        <ele>1187.2</ele>
      </trkpt>
      <trkpt lat="47.266857" lon="9.391183">
        <ele>1164.5</ele>
      </trkpt>
      <trkpt lat="47.266924" lon="9.393090">
        <ele>1148.4</ele>
      </trkpt>
      <trkpt lat="47.265192" lon="9.390909">
        <ele>1156.3</ele>
      </trkpt>
      <trkpt lat="47.263936" lon="9.388339">
        <ele>1175.1</ele>
      </trkpt>
      <trkpt lat="47.263475" lon="9.387288">
        <ele>1185.4</ele>
      </trkpt>
      <trkpt lat="47.264137" lon="9.388718">
        <ele>1171.4</ele>
      </trkpt>
      <trkpt lat="47.265147" lon="9.391946">
        <ele>1153.1</ele>
      </trkpt>
      <trkpt lat="47.265676" lon="9.393439">
        <ele>1149.4</ele>
      </trkpt>
      <trkpt lat="47.266033" lon="9.394344">
        <ele>1147.4</ele>
      </trkpt>
      <trkpt lat="47.266621" lon="9.395619">
        <ele>1144.8</ele>
      </trkpt>
      <trkpt lat="47.266453" lon="9.396632">
        <ele>1143.6</ele>
      </trkpt>
      <trkpt lat="47.266349" lon="9.397397">
        <ele>1144.2</ele>
      </trkpt>
      <trkpt lat="47.266588" lon="9.398543">
        <ele>1168.0</ele>
      </trkpt>
      <trkpt lat="47.266408" lon="9.399167">
        <ele>1183.3</ele>
      </trkpt>
      <trkpt lat="47.266183" lon="9.399630">
        <ele>1197.9</ele>
      </trkpt>
      <trkpt lat="47.265921" lon="9.399404">
        <ele>1212.7</ele>
      </trkpt>
      <trkpt lat="47.265674" lon="9.399175">
        <ele>1227.4</ele>
      </trkpt>
      <trkpt lat="47.265576" lon="9.399644">
        <ele>1243.7</ele>
      </trkpt>
      <trkpt lat="47.265559" lon="9.399922">
        <ele>1251.6</ele>
      </trkpt>
      <trkpt lat="47.265449" lon="9.400162">
        <ele>1263.7</ele>
      </trkpt>
      <trkpt lat="47.265196" lon="9.400000">
        <ele>1278.1</ele>
      </trkpt>
      <trkpt lat="47.265237" lon="9.400570">
        <ele>1289.5</ele>
      </trkpt>
      <trkpt lat="47.265040" lon="9.399886">
        <ele>1304.2</ele>
      </trkpt>
      <trkpt lat="47.264912" lon="9.399754">
        <ele>1324.3</ele>
      </trkpt>
      <trkpt lat="47.264639" lon="9.399679">
        <ele>1337.6</ele>
      </trkpt>
      <trkpt lat="47.264490" lon="9.399592">
        <ele>1347.0</ele>
      </trkpt>
      <trkpt lat="47.264645" lon="9.399088">
        <ele>1379.7</ele>
      </trkpt>
      <trkpt lat="47.264307" lon="9.398406">
        <ele>1387.8</ele>
      </trkpt>
      <trkpt lat="47.263976" lon="9.397443">
        <ele>1407.3</ele>
      </trkpt>
      <trkpt lat="47.263896" lon="9.397186">
        <ele>1411.4</ele>
      </trkpt>
      <trkpt lat="47.263764" lon="9.396814">
        <ele>1415.5</ele>
      </trkpt>
      <trkpt lat="47.263312" lon="9.395968">
        <ele>1441.0</ele>
      </trkpt>
      <trkpt lat="47.263233" lon="9.396178">
        <ele>1451.5</ele>
      </trkpt>
      <trkpt lat="47.262830" lon="9.395911">
        <ele>1460.0</ele>
      </trkpt>
      <trkpt lat="47.261815" lon="9.395802">
        <ele>1474.0</ele>
      </trkpt>
      <trkpt lat="47.261281" lon="9.395414">
        <ele>1474.8</ele>
      </trkpt>
      <trkpt lat="47.260133" lon="9.394806">
        <ele>1492.1</ele>
      </trkpt>
      <trkpt lat="47.259350" lon="9.393619">
        <ele>1504.1</ele>
      </trkpt>
      <trkpt lat="47.258777" lon="9.392941">
        <ele>1514.7</ele>
      </trkpt>
      <trkpt lat="47.258301" lon="9.391852">
        <ele>1518.5</ele>
      </trkpt>
      <trkpt lat="47.258079" lon="9.391298">
        <ele>1520.2</ele>
      </trkpt>
      <trkpt lat="47.257473" lon="9.390476">
        <ele>1528.7</ele>
      </trkpt>
      <trkpt lat="47.257004" lon="9.390368">
        <ele>1533.2</ele>
      </trkpt>
      <trkpt lat="47.256660" lon="9.390071">
        <ele>1534.5</ele>
      </trkpt>
      <trkpt lat="47.256151" lon="9.389664">
        <ele>1537.6</ele>
      </trkpt>
      <trkpt lat="47.255777" lon="9.389124">
        <ele>1540.4</ele>
      </trkpt>
      <trkpt lat="47.255495" lon="9.388769">
        <ele>1543.3</ele>
      </trkpt>
      <trkpt lat="47.255132" lon="9.388549">
        <ele>1548.0</ele>
      </trkpt>
      <trkpt lat="47.254556" lon="9.387918">
        <ele>1560.8</ele>
      </trkpt>
      <trkpt lat="47.253683" lon="9.387187">
        <ele>1586.5</ele>
      </trkpt>
      <trkpt lat="47.253204" lon="9.386881">
        <ele>1600.9</ele>
      </trkpt>
      <trkpt lat="47.252564" lon="9.386794">
        <ele>1614.6</ele>
      </trkpt>
      <trkpt lat="47.252220" lon="9.386603">
        <ele>1618.3</ele>
      </trkpt>
      <trkpt lat="47.251980" lon="9.386504">
        <ele>1620.3</ele>
      </trkpt>
      <trkpt lat="47.251623" lon="9.385764">
        <ele>1625.3</ele>
      </trkpt>
      <trkpt lat="47.251186" lon="9.384909">
        <ele>1632.5</ele>
      </trkpt>
      <trkpt lat="47.251005" lon="9.384036">
        <ele>1637.7</ele>
      </trkpt>
      <trkpt lat="47.250383" lon="9.383219">
        <ele>1642.9</ele>
      </trkpt>
      <trkpt lat="47.250315" lon="9.382033">
        <ele>1664.0</ele>
      </trkpt>
      <trkpt lat="47.250151" lon="9.381198">
        <ele>1681.1</ele>
      </trkpt>
      <trkpt lat="47.249420" lon="9.379816">
        <ele>1691.4</ele>
      </trkpt>
      <trkpt lat="47.248210" lon="9.378265">
        <ele>1707.4</ele>
      </trkpt>
      <trkpt lat="47.247288" lon="9.377409">
        <ele>1728.2</ele>
      </trkpt>
      <trkpt lat="47.246540" lon="9.376549">
        <ele>1753.9</ele>
      </trkpt>
      <trkpt lat="47.245868" lon="9.374519">
        <ele>1802.8</ele>
      </trkpt>
      <trkpt lat="47.245684" lon="9.373738">
        <ele>1827.0</ele>
      </trkpt>
      <trkpt lat="47.245545" lon="9.372815">
        <ele>1851.9</ele>
      </trkpt>
      <trkpt lat="47.245389" lon="9.372240">
        <ele>1868.0</ele>
      </trkpt>
      <trkpt lat="47.245336" lon="9.371529">
        <ele>1887.9</ele>
      </trkpt>
      <trkpt lat="47.246015" lon="9.371808">
        <ele>1905.2</ele>
      </trkpt>
      <trkpt lat="47.245602" lon="9.370609">
        <ele>1931.9</ele>
      </trkpt>
      <trkpt lat="47.245346" lon="9.369535">
        <ele>1970.5</ele>
      </trkpt>
      <trkpt lat="47.245255" lon="9.369363">
        <ele>1973.5</ele>
      </trkpt>
      <trkpt lat="47.244947" lon="9.369304">
        <ele>1985.4</ele>
      </trkpt>
      <trkpt lat="47.244567" lon="9.369189">
        <ele>1998.8</ele>
      </trkpt>
      <trkpt lat="47.244475" lon="9.369049">
        <ele>2003.9</ele>
      </trkpt>
      <trkpt lat="47.244388" lon="9.368883">
        <ele>2009.1</ele>
      </trkpt>
      <trkpt lat="47.244306" lon="9.368489">
        <ele>2018.8</ele>
      </trkpt>
      <trkpt lat="47.244013" lon="9.367949">
        <ele>2031.0</ele>
      </trkpt>
      <trkpt lat="47.243851" lon="9.367643">
        <ele>2041.2</ele>
      </trkpt>
      <trkpt lat="47.243761" lon="9.367412">
        <ele>2047.9</ele>
      </trkpt>
      <trkpt lat="47.243933" lon="9.367403">
        <ele>2052.0</ele>
      </trkpt>
      <trkpt lat="47.243731" lon="9.367193">
        <ele>2058.2</ele>
      </trkpt>
      <trkpt lat="47.243522" lon="9.367047">
        <ele>2064.8</ele>
      </trkpt>
      <trkpt lat="47.243865" lon="9.366807">
        <ele>2072.5</ele>
      </trkpt>
      <trkpt lat="47.243626" lon="9.366378">
        <ele>2079.8</ele>
      </trkpt>
      <trkpt lat="47.243538" lon="9.366034">
        <ele>2087.4</ele>
      </trkpt>
      <trkpt lat="47.243601" lon="9.365830">
        <ele>2097.4</ele>
      </trkpt>
      <trkpt lat="47.243408" lon="9.365616">
        <ele>2104.5</ele>
      </trkpt>
      <trkpt lat="47.243359" lon="9.365455">
        <ele>2112.8</ele>
      </trkpt>
      <trkpt lat="47.243095" lon="9.365296">
        <ele>2123.0</ele>
      </trkpt>
      <trkpt lat="47.242832" lon="9.365312">
        <ele>2120.3</ele>
      </trkpt>
      <trkpt lat="47.242909" lon="9.365201">
        <ele>2122.6</ele>
      </trkpt>
      <trkpt lat="47.242990" lon="9.364748">
        <ele>2125.4</ele>
      </trkpt>
      <trkpt lat="47.243318" lon="9.363596">
        <ele>2131.9</ele>
      </trkpt>
      <trkpt lat="47.243479" lon="9.362450">
        <ele>2129.6</ele>
      </trkpt>
      <trkpt lat="47.243482" lon="9.362074">
        <ele>2126.1</ele>
      </trkpt>
      <trkpt lat="47.243718" lon="9.361932">
        <ele>2125.5</ele>
      </trkpt>
      <trkpt lat="47.243715" lon="9.361428">
        <ele>2127.6</ele>
      </trkpt>
      <trkpt lat="47.243849" lon="9.361322">
        <ele>2124.0</ele>
      </trkpt>
      <trkpt lat="47.244000" lon="9.360796">
        <ele>2125.4</ele>
      </trkpt>
      <trkpt lat="47.244037" lon="9.360426">
        <ele>2127.6</ele>
      </trkpt>
      <trkpt lat="47.243953" lon="9.359826">
        <ele>2132.2</ele>
      </trkpt>
      <trkpt lat="47.244030" lon="9.359345">
        <ele>2143.1</ele>
      </trkpt>
      <trkpt lat="47.244132" lon="9.359467">
        <ele>2149.0</ele>
      </trkpt>
      <trkpt lat="47.244123" lon="9.358899">
        <ele>2157.4</ele>
      </trkpt>
      <trkpt lat="47.244104" lon="9.358372">
        <ele>2167.7</ele>
      </trkpt>
      <trkpt lat="47.243985" lon="9.357596">
        <ele>2172.9</ele>
      </trkpt>
      <trkpt lat="47.244197" lon="9.357423">
        <ele>2188.8</ele>
      </trkpt>
      <trkpt lat="47.244241" lon="9.356842">
        <ele>2206.4</ele>
      </trkpt>
      <trkpt lat="47.244272" lon="9.356415">
        <ele>2210.0</ele>
      </trkpt>
      <trkpt lat="47.244245" lon="9.355896">
        <ele>2226.0</ele>
      </trkpt>
      <trkpt lat="47.244146" lon="9.355565">
        <ele>2244.7</ele>
      </trkpt>
      <trkpt lat="47.244124" lon="9.355221">
        <ele>2262.8</ele>
      </trkpt>
      <trkpt lat="47.244006" lon="9.354796">
        <ele>2291.2</ele>
      </trkpt>
      <trkpt lat="47.244200" lon="9.354023">
        <ele>2297.2</ele>
      </trkpt>
      <trkpt lat="47.244396" lon="9.353103">
        <ele>2291.0</ele>
      </trkpt>
      <trkpt lat="47.244638" lon="9.352020">
        <ele>2308.5</ele>
      </trkpt>
      <trkpt lat="47.244519" lon="9.350893">
        <ele>2316.9</ele>
      </trkpt>
      <trkpt lat="47.244628" lon="9.350203">
        <ele>2327.8</ele>
      </trkpt>
      <trkpt lat="47.244907" lon="9.349421">
        <ele>2338.7</ele>
      </trkpt>
      <trkpt lat="47.245393" lon="9.348681">
        <ele>2332.8</ele>
      </trkpt>
      <trkpt lat="47.245719" lon="9.347926">
        <ele>2355.1</ele>
      </trkpt>
      <trkpt lat="47.246111" lon="9.347185">
        <ele>2375.7</ele>
      </trkpt>
      <trkpt lat="47.246285" lon="9.346466">
        <ele>2376.0</ele>
      </trkpt>
      <trkpt lat="47.246636" lon="9.345707">
        <ele>2383.1</ele>
      </trkpt>
      <trkpt lat="47.246963" lon="9.345045">
        <ele>2402.9</ele>
      </trkpt>
      <trkpt lat="47.247306" lon="9.344615">
        <ele>2419.1</ele>
      </trkpt>
      <trkpt lat="47.247879" lon="9.343590">
        <ele>2449.8</ele>
      </trkpt>
      <trkpt lat="47.248488" lon="9.343295">
        <ele>2443.0</ele>
      </trkpt>
      <trkpt lat="47.248889" lon="9.342913">
        <ele>2469.3</ele>
      </trkpt>
      <trkpt lat="47.248879" lon="9.342972">
        <ele>2472.6</ele>
      </trkpt>
      <trkpt lat="47.248947" lon="9.343107">
        <ele>2479.4</ele>
      </trkpt>
      <trkpt lat="47.249058" lon="9.343102">
        <ele>2489.2</ele>
      </trkpt>
      <trkpt lat="47.249258" lon="9.343328">
        <ele>2495.7</ele>
      </trkpt>
      <trkpt lat="47.249294" lon="9.343383">
        <ele>2497.1</ele>
      </trkpt>
      <trkpt lat="47.249087" lon="9.343153">
        <ele>2490.5</ele>
      </trkpt>
      <trkpt lat="47.248947" lon="9.343107">
        <ele>2479.4</ele>
      </trkpt>
      <trkpt lat="47.248888" lon="9.342982">
        <ele>2472.6</ele>
      </trkpt>
      <trkpt lat="47.248866" lon="9.342979">
        <ele>2472.6</ele>
      </trkpt>
      <trkpt lat="47.249308" lon="9.342829">
        <ele>2490.0</ele>
      </trkpt>
      <trkpt lat="47.249750" lon="9.342360">
        <ele>2461.1</ele>
      </trkpt>
      <trkpt lat="47.250148" lon="9.342064">
        <ele>2413.9</ele>
      </trkpt>
      <trkpt lat="47.250372" lon="9.341966">
        <ele>2404.8</ele>
      </trkpt>
      <trkpt lat="47.250538" lon="9.341957">
        <ele>2412.9</ele>
      </trkpt>
      <trkpt lat="47.250866" lon="9.341882">
        <ele>2408.9</ele>
      </trkpt>
      <trkpt lat="47.251204" lon="9.341755">
        <ele>2401.6</ele>
      </trkpt>
      <trkpt lat="47.251348" lon="9.341248">
        <ele>2395.4</ele>
      </trkpt>
      <trkpt lat="47.251170" lon="9.341187">
        <ele>2377.0</ele>
      </trkpt>
      <trkpt lat="47.250950" lon="9.341108">
        <ele>2353.8</ele>
      </trkpt>
      <trkpt lat="47.251041" lon="9.340606">
        <ele>2338.7</ele>
      </trkpt>
      <trkpt lat="47.250905" lon="9.340432">
        <ele>2321.9</ele>
      </trkpt>
      <trkpt lat="47.250762" lon="9.340380">
        <ele>2308.8</ele>
      </trkpt>
      <trkpt lat="47.250790" lon="9.339627">
        <ele>2287.2</ele>
      </trkpt>
      <trkpt lat="47.250825" lon="9.338895">
        <ele>2262.7</ele>
      </trkpt>
      <trkpt lat="47.250774" lon="9.338326">
        <ele>2245.4</ele>
      </trkpt>
      <trkpt lat="47.250623" lon="9.338117">
        <ele>2230.1</ele>
      </trkpt>
      <trkpt lat="47.250314" lon="9.337852">
        <ele>2222.2</ele>
      </trkpt>
      <trkpt lat="47.249986" lon="9.336904">
        <ele>2197.1</ele>
      </trkpt>
      <trkpt lat="47.249310" lon="9.335104">
        <ele>2151.1</ele>
      </trkpt>
      <trkpt lat="47.249195" lon="9.334297">
        <ele>2160.1</ele>
      </trkpt>
      <trkpt lat="47.248743" lon="9.332192">
        <ele>2153.3</ele>
      </trkpt>
      <trkpt lat="47.248573" lon="9.331157">
        <ele>2147.9</ele>
      </trkpt>
      <trkpt lat="47.248782" lon="9.330601">
        <ele>2138.6</ele>
      </trkpt>
      <trkpt lat="47.248879" lon="9.330345">
        <ele>2133.3</ele>
      </trkpt>
      <trkpt lat="47.248928" lon="9.330040">
        <ele>2118.7</ele>
      </trkpt>
      <trkpt lat="47.248798" lon="9.329918">
        <ele>2107.7</ele>
      </trkpt>
      <trkpt lat="47.248793" lon="9.329543">
        <ele>2094.9</ele>
      </trkpt>
      <trkpt lat="47.248706" lon="9.329441">
        <ele>2087.1</ele>
      </trkpt>
      <trkpt lat="47.248718" lon="9.328886">
        <ele>2086.0</ele>
      </trkpt>
      <trkpt lat="47.248904" lon="9.329105">
        <ele>2080.2</ele>
      </trkpt>
      <trkpt lat="47.249014" lon="9.329141">
        <ele>2068.9</ele>
      </trkpt>
      <trkpt lat="47.249322" lon="9.329249">
        <ele>2060.9</ele>
      </trkpt>
      <trkpt lat="47.249404" lon="9.329013">
        <ele>2054.0</ele>
      </trkpt>
      <trkpt lat="47.249208" lon="9.328882">
        <ele>2044.1</ele>
      </trkpt>
      <trkpt lat="47.249300" lon="9.328765">
        <ele>2032.8</ele>
      </trkpt>
      <trkpt lat="47.249636" lon="9.329090">
        <ele>2016.5</ele>
      </trkpt>
      <trkpt lat="47.249795" lon="9.329510">
        <ele>2007.8</ele>
      </trkpt>
      <trkpt lat="47.250019" lon="9.329537">
        <ele>1997.1</ele>
      </trkpt>
      <trkpt lat="47.250188" lon="9.329496">
        <ele>1987.9</ele>
      </trkpt>
      <trkpt lat="47.250330" lon="9.329626">
        <ele>1972.7</ele>
      </trkpt>
      <trkpt lat="47.250429" lon="9.329682">
        <ele>1963.6</ele>
      </trkpt>
      <trkpt lat="47.250554" lon="9.329623">
        <ele>1956.0</ele>
      </trkpt>
      <trkpt lat="47.250586" lon="9.329760">
        <ele>1949.6</ele>
      </trkpt>
      <trkpt lat="47.250617" lon="9.329884">
        <ele>1943.0</ele>
      </trkpt>
      <trkpt lat="47.250700" lon="9.329676">
        <ele>1935.2</ele>
      </trkpt>
      <trkpt lat="47.250234" lon="9.328600">
        <ele>1918.5</ele>
      </trkpt>
      <trkpt lat="47.249821" lon="9.327481">
        <ele>1913.1</ele>
      </trkpt>
      <trkpt lat="47.249700" lon="9.327172">
        <ele>1912.5</ele>
      </trkpt>
      <trkpt lat="47.249648" lon="9.326729">
        <ele>1909.2</ele>
      </trkpt>
      <trkpt lat="47.249732" lon="9.326194">
        <ele>1892.7</ele>
      </trkpt>
      <trkpt lat="47.249806" lon="9.326253">
        <ele>1890.2</ele>
      </trkpt>
      <trkpt lat="47.249835" lon="9.326155">
        <ele>1886.9</ele>
      </trkpt>
      <trkpt lat="47.249861" lon="9.326127">
        <ele>1883.6</ele>
      </trkpt>
      <trkpt lat="47.249915" lon="9.326182">
        <ele>1882.0</ele>
      </trkpt>
      <trkpt lat="47.249960" lon="9.326144">
        <ele>1877.8</ele>
      </trkpt>
      <trkpt lat="47.249982" lon="9.326031">
        <ele>1873.0</ele>
      </trkpt>
      <trkpt lat="47.249964" lon="9.325554">
        <ele>1863.0</ele>
      </trkpt>
      <trkpt lat="47.250046" lon="9.325382">
        <ele>1858.6</ele>
      </trkpt>
      <trkpt lat="47.250088" lon="9.325435">
        <ele>1853.8</ele>
      </trkpt>
      <trkpt lat="47.250143" lon="9.325506">
        <ele>1848.1</ele>
      </trkpt>
      <trkpt lat="47.250204" lon="9.325323">
        <ele>1842.4</ele>
      </trkpt>
      <trkpt lat="47.250256" lon="9.325262">
        <ele>1837.9</ele>
      </trkpt>
      <trkpt lat="47.250291" lon="9.325242">
        <ele>1832.5</ele>
      </trkpt>
      <trkpt lat="47.250173" lon="9.324966">
        <ele>1828.2</ele>
      </trkpt>
      <trkpt lat="47.250271" lon="9.324796">
        <ele>1822.1</ele>
      </trkpt>
      <trkpt lat="47.250325" lon="9.324334">
        <ele>1806.0</ele>
      </trkpt>
      <trkpt lat="47.250405" lon="9.323804">
        <ele>1795.0</ele>
      </trkpt>
      <trkpt lat="47.250297" lon="9.323327">
        <ele>1787.4</ele>
      </trkpt>
      <trkpt lat="47.250088" lon="9.323052">
        <ele>1775.3</ele>
      </trkpt>
      <trkpt lat="47.250113" lon="9.322870">
        <ele>1768.5</ele>
      </trkpt>
      <trkpt lat="47.250124" lon="9.322763">
        <ele>1762.8</ele>
      </trkpt>
      <trkpt lat="47.250183" lon="9.322636">
        <ele>1754.4</ele>
      </trkpt>
      <trkpt lat="47.250185" lon="9.322549">
        <ele>1749.9</ele>
      </trkpt>
      <trkpt lat="47.250265" lon="9.322439">
        <ele>1744.5</ele>
      </trkpt>
      <trkpt lat="47.250312" lon="9.322279">
        <ele>1735.6</ele>
      </trkpt>
      <trkpt lat="47.250263" lon="9.322253">
        <ele>1733.0</ele>
      </trkpt>
      <trkpt lat="47.250257" lon="9.322116">
        <ele>1724.8</ele>
      </trkpt>
      <trkpt lat="47.250313" lon="9.322005">
        <ele>1721.4</ele>
      </trkpt>
      <trkpt lat="47.250244" lon="9.321948">
        <ele>1713.9</ele>
      </trkpt>
      <trkpt lat="47.250281" lon="9.321756">
        <ele>1708.0</ele>
      </trkpt>
      <trkpt lat="47.250248" lon="9.321651">
        <ele>1701.3</ele>
      </trkpt>
      <trkpt lat="47.250238" lon="9.321530">
        <ele>1695.8</ele>
      </trkpt>
      <trkpt lat="47.250105" lon="9.321427">
        <ele>1684.2</ele>
      </trkpt>
      <trkpt lat="47.250120" lon="9.321340">
        <ele>1672.3</ele>
      </trkpt>
      <trkpt lat="47.250020" lon="9.321307">
        <ele>1660.5</ele>
      </trkpt>
      <trkpt lat="47.250223" lon="9.321230">
        <ele>1652.2</ele>
      </trkpt>
      <trkpt lat="47.250246" lon="9.321142">
        <ele>1644.4</ele>
      </trkpt>
      <trkpt lat="47.249902" lon="9.320870">
        <ele>1633.1</ele>
      </trkpt>
      <trkpt lat="47.249752" lon="9.320934">
        <ele>1625.2</ele>
      </trkpt>
      <trkpt lat="47.249592" lon="9.320583">
        <ele>1614.2</ele>
      </trkpt>
      <trkpt lat="47.249574" lon="9.320373">
        <ele>1604.2</ele>
      </trkpt>
      <trkpt lat="47.249409" lon="9.319909">
        <ele>1602.4</ele>
      </trkpt>
      <trkpt lat="47.249418" lon="9.319645">
        <ele>1596.5</ele>
      </trkpt>
      <trkpt lat="47.249477" lon="9.319554">
        <ele>1592.0</ele>
      </trkpt>
      <trkpt lat="47.249530" lon="9.319488">
        <ele>1586.5</ele>
      </trkpt>
      <trkpt lat="47.249593" lon="9.319478">
        <ele>1581.0</ele>
      </trkpt>
      <trkpt lat="47.249702" lon="9.319543">
        <ele>1576.0</ele>
      </trkpt>
      <trkpt lat="47.249719" lon="9.319383">
        <ele>1570.9</ele>
      </trkpt>
      <trkpt lat="47.249811" lon="9.319360">
        <ele>1565.5</ele>
      </trkpt>
      <trkpt lat="47.249909" lon="9.319290">
        <ele>1559.9</ele>
      </trkpt>
      <trkpt lat="47.249971" lon="9.319267">
        <ele>1555.6</ele>
      </trkpt>
      <trkpt lat="47.250026" lon="9.319219">
        <ele>1552.5</ele>
      </trkpt>
      <trkpt lat="47.250090" lon="9.319128">
        <ele>1548.6</ele>
      </trkpt>
      <trkpt lat="47.250144" lon="9.319051">
        <ele>1543.9</ele>
      </trkpt>
      <trkpt lat="47.250215" lon="9.319010">
        <ele>1538.3</ele>
      </trkpt>
      <trkpt lat="47.250276" lon="9.318949">
        <ele>1534.6</ele>
      </trkpt>
      <trkpt lat="47.250322" lon="9.318890">
        <ele>1529.8</ele>
      </trkpt>
      <trkpt lat="47.250403" lon="9.318830">
        <ele>1524.8</ele>
      </trkpt>
      <trkpt lat="47.250489" lon="9.318822">
        <ele>1519.7</ele>
      </trkpt>
      <trkpt lat="47.250537" lon="9.318718">
        <ele>1513.4</ele>
      </trkpt>
      <trkpt lat="47.250582" lon="9.318685">
        <ele>1510.3</ele>
      </trkpt>
      <trkpt lat="47.250625" lon="9.318636">
        <ele>1507.0</ele>
      </trkpt>
      <trkpt lat="47.250673" lon="9.318630">
        <ele>1503.7</ele>
      </trkpt>
      <trkpt lat="47.250629" lon="9.318431">
        <ele>1497.6</ele>
      </trkpt>
      <trkpt lat="47.250778" lon="9.318571">
        <ele>1493.2</ele>
      </trkpt>
      <trkpt lat="47.250916" lon="9.318513">
        <ele>1488.6</ele>
      </trkpt>
      <trkpt lat="47.251217" lon="9.318608">
        <ele>1481.6</ele>
      </trkpt>
      <trkpt lat="47.251437" lon="9.318479">
        <ele>1470.8</ele>
      </trkpt>
      <trkpt lat="47.251813" lon="9.318738">
        <ele>1461.3</ele>
      </trkpt>
      <trkpt lat="47.252042" lon="9.319105">
        <ele>1454.3</ele>
      </trkpt>
      <trkpt lat="47.252168" lon="9.319229">
        <ele>1449.9</ele>
      </trkpt>
      <trkpt lat="47.252452" lon="9.319499">
        <ele>1437.9</ele>
      </trkpt>
      <trkpt lat="47.252555" lon="9.319425">
        <ele>1433.8</ele>
      </trkpt>
      <trkpt lat="47.252757" lon="9.319634">
        <ele>1424.2</ele>
      </trkpt>
      <trkpt lat="47.253069" lon="9.319809">
        <ele>1416.7</ele>
      </trkpt>
      <trkpt lat="47.253433" lon="9.319977">
        <ele>1403.7</ele>
      </trkpt>
      <trkpt lat="47.253585" lon="9.320170">
        <ele>1399.8</ele>
      </trkpt>
      <trkpt lat="47.253897" lon="9.320373">
        <ele>1399.2</ele>
      </trkpt>
      <trkpt lat="47.254035" lon="9.320630">
        <ele>1391.8</ele>
      </trkpt>
      <trkpt lat="47.254431" lon="9.320783">
        <ele>1377.4</ele>
      </trkpt>
      <trkpt lat="47.255059" lon="9.320306">
        <ele>1359.5</ele>
      </trkpt>
      <trkpt lat="47.255430" lon="9.320064">
        <ele>1353.6</ele>
      </trkpt>
      <trkpt lat="47.255935" lon="9.319921">
        <ele>1353.1</ele>
      </trkpt>
      <trkpt lat="47.256200" lon="9.319488">
        <ele>1351.0</ele>
      </trkpt>
      <trkpt lat="47.256257" lon="9.318996">
        <ele>1349.1</ele>
      </trkpt>
    </trkseg>
  </trk>
</gpx>
