<?xml version='1.0' encoding='utf-8'?>
<gpx xmlns="http://www.topografix.com/GPX/1/1" xmlns:xsi="http://www.w3.org/2001/XMLSchema-instance" xsi:schemaLocation="http://www.topografix.com/GPX/1/1 http://www.topografix.com/GPX/1/1/gpx.xsd" version="1.1" creator="gpx.py -- https://github.com/tkrajina/gpxpy">
  <trk>
    <name>chlingenstock</name>
    <trkseg>
      <trkpt lat="46.95696704351312" lon="8.675866816194047">
      <ele>1927.1</ele></trkpt>
      <trkpt lat="46.956960257866676" lon="8.675939542918082">
      <ele>1925.2</ele></trkpt>
      <trkpt lat="46.95698978347067" lon="8.676053732338275">
      <ele>1923.4</ele></trkpt>
      <trkpt lat="46.95698137647341" lon="8.67630326195337">
      <ele>1921.5</ele></trkpt>
      <trkpt lat="46.95698983494561" lon="8.676380557549368">
      <ele>1919.6</ele></trkpt>
      <trkpt lat="46.95700575577165" lon="8.67647743169388">
      <ele>1917.8</ele></trkpt>
      <trkpt lat="46.95698602684436" lon="8.676629023723162">
      <ele>1915.9</ele></trkpt>
      <trkpt lat="46.95695656149034" lon="8.676675054474007">
      <ele>1914.0</ele></trkpt>
      <trkpt lat="46.95693173267669" lon="8.676798213843144">
      <ele>1912.1</ele></trkpt>
      <trkpt lat="46.9568513816816" lon="8.67697769534977">
      <ele>1910.3</ele></trkpt>
      <trkpt lat="46.95676666247778" lon="8.677132636836939">
      <ele>1908.4</ele></trkpt>
      <trkpt lat="46.95673090362674" lon="8.677169127560973">
      <ele>1906.5</ele></trkpt>
      <trkpt lat="46.9566962342521" lon="8.67719970447562">
      <ele>1904.7</ele></trkpt>
      <trkpt lat="46.95667893905203" lon="8.677252545402673">
      <ele>1902.8</ele></trkpt>
      <trkpt lat="46.95666494539822" lon="8.677275426424202">
      <ele>1900.9</ele></trkpt>
      <trkpt lat="46.95662268132379" lon="8.67728535741064">
      <ele>1899.0</ele></trkpt>
      <trkpt lat="46.956615511620825" lon="8.677311128672113">
      <ele>1897.2</ele></trkpt>
      <trkpt lat="46.95658471918828" lon="8.677345907357797">
      <ele>1895.3</ele></trkpt>
      <trkpt lat="46.95656630759446" lon="8.677409640964141">
      <ele>1893.4</ele></trkpt>
      <trkpt lat="46.95656266020454" lon="8.677468262274155">
      <ele>1891.6</ele></trkpt>
      <trkpt lat="46.95656214875645" lon="8.67751058460013">
      <ele>1889.7</ele></trkpt>
      <trkpt lat="46.95657844521722" lon="8.677540996360241">
      <ele>1888.7</ele></trkpt>
      <trkpt lat="46.95655544802587" lon="8.677578687595023">
      <ele>1887.8</ele></trkpt>
      <trkpt lat="46.95655915062072" lon="8.677596523883047">
      <ele>1886.8</ele></trkpt>
      <trkpt lat="46.95657568051203" lon="8.677607836822164">
      <ele>1885.8</ele></trkpt>
      <trkpt lat="46.95658037822502" lon="8.67762432960452">
      <ele>1884.8</ele></trkpt>
      <trkpt lat="46.95656938449187" lon="8.677641826957744">
      <ele>1883.9</ele></trkpt>
      <trkpt lat="46.95654765452595" lon="8.677656330619833">
      <ele>1882.9</ele></trkpt>
      <trkpt lat="46.95654732345671" lon="8.677683625988601">
      <ele>1881.9</ele></trkpt>
      <trkpt lat="46.95654116341498" lon="8.677706700661387">
      <ele>1881.0</ele></trkpt>
      <trkpt lat="46.95653962735708" lon="8.67775308559002">
      <ele>1880.0</ele></trkpt>
      <trkpt lat="46.95652777462796" lon="8.677760997845105">
      <ele>1879.0</ele></trkpt>
      <trkpt lat="46.95653227723006" lon="8.677793870552527">
      <ele>1878.1</ele></trkpt>
      <trkpt lat="46.95654861778569" lon="8.677820197147101">
      <ele>1877.1</ele></trkpt>
      <trkpt lat="46.95655225226537" lon="8.67784349773641">
      <ele>1876.1</ele></trkpt>
      <trkpt lat="46.95657147478735" lon="8.677875356695285">
      <ele>1875.2</ele></trkpt>
      <trkpt lat="46.95657801192337" lon="8.677901444048185">
      <ele>1874.2</ele></trkpt>
      <trkpt lat="46.95659454178457" lon="8.677912757085137">
      <ele>1873.2</ele></trkpt>
      <trkpt lat="46.9566186602049" lon="8.677936950692807">
      <ele>1872.2</ele></trkpt>
      <trkpt lat="46.95659375234358" lon="8.677978276656344">
      <ele>1871.3</ele></trkpt>
      <trkpt lat="46.95657289606483" lon="8.678000999134943">
      <ele>1870.3</ele></trkpt>
      <trkpt lat="46.95653239765511" lon="8.678027341557012">
      <ele>1868.4</ele></trkpt>
      <trkpt lat="46.95649178683067" lon="8.67806324658576">
      <ele>1866.6</ele></trkpt>
      <trkpt lat="46.95648837264217" lon="8.678102768958">
      <ele>1864.7</ele></trkpt>
      <trkpt lat="46.95646801469333" lon="8.67816509082981">
      <ele>1862.8</ele></trkpt>
      <trkpt lat="46.95644682139987" lon="8.678216474825467">
      <ele>1861.0</ele></trkpt>
      <trkpt lat="46.95643133560796" lon="8.678281641955802">
      <ele>1859.1</ele></trkpt>
      <trkpt lat="46.95642995593542" lon="8.678314378913223">
      <ele>1857.2</ele></trkpt>
      <trkpt lat="46.95642967789188" lon="8.678337589200574">
      <ele>1855.4</ele></trkpt>
      <trkpt lat="46.95638042669254" lon="8.678491940061194">
      <ele>1853.5</ele></trkpt>
      <trkpt lat="46.956295939011355" lon="8.678774121457533">
      <ele>1851.7</ele></trkpt>
      <trkpt lat="46.95623241197531" lon="8.679000616708349">
      <ele>1849.8</ele></trkpt>
      <trkpt lat="46.956165797716494" lon="8.679198948983139">
      <ele>1847.9</ele></trkpt>
      <trkpt lat="46.95612390165292" lon="8.679307008759704">
      <ele>1846.1</ele></trkpt>
      <trkpt lat="46.95609453381019" lon="8.679408748820872">
      <ele>1844.2</ele></trkpt>
      <trkpt lat="46.95606298666961" lon="8.67960623462806">
      <ele>1842.3</ele></trkpt>
      <trkpt lat="46.95605163160313" lon="8.679819073161228">
      <ele>1840.5</ele></trkpt>
      <trkpt lat="46.956061324724956" lon="8.680072038247244">
      <ele>1838.6</ele></trkpt>
      <trkpt lat="46.95608584499321" lon="8.680419500017">
      <ele>1836.7</ele></trkpt>
      <trkpt lat="46.9561127558" lon="8.680753812726465">
      <ele>1834.9</ele></trkpt>
      <trkpt lat="46.956113604884045" lon="8.680988389442682">
      <ele>1833.0</ele></trkpt>
      <trkpt lat="46.9561161237788" lon="8.681173457698103">
      <ele>1833.7</ele></trkpt>
      <trkpt lat="46.95613611539115" lon="8.681312694066373">
      <ele>1834.4</ele></trkpt>
      <trkpt lat="46.95620367234847" lon="8.68154881426896">
      <ele>1835.1</ele></trkpt>
      <trkpt lat="46.95625179764064" lon="8.681700251183573">
      <ele>1835.7</ele></trkpt>
      <trkpt lat="46.95629027889799" lon="8.681801904787383">
      <ele>1836.4</ele></trkpt>
      <trkpt lat="46.9563360879194" lon="8.681854180810548">
      <ele>1837.1</ele></trkpt>
      <trkpt lat="46.95641048802028" lon="8.681877358636058">
      <ele>1837.8</ele></trkpt>
      <trkpt lat="46.956498450886414" lon="8.681900876682027">
      <ele>1838.5</ele></trkpt>
      <trkpt lat="46.956537764895934" lon="8.681926579970293">
      <ele>1839.2</ele></trkpt>
      <trkpt lat="46.95658520000015" lon="8.68193261806927">
      <ele>1839.8</ele></trkpt>
      <trkpt lat="46.95664182620336" lon="8.681925677222754">
      <ele>1840.5</ele></trkpt>
      <trkpt lat="46.95671080171508" lon="8.681927273535841">
      <ele>1841.2</ele></trkpt>
      <trkpt lat="46.95676824783507" lon="8.68195007238621">
      <ele>1841.9</ele></trkpt>
      <trkpt lat="46.95687134153778" lon="8.682038362245173">
      <ele>1842.6</ele></trkpt>
      <trkpt lat="46.956960540770964" lon="8.682157707218002">
      <ele>1843.3</ele></trkpt>
      <trkpt lat="46.95706807301145" lon="8.682358427720732">
      <ele>1844.0</ele></trkpt>
      <trkpt lat="46.95715186056254" lon="8.682558599223183">
      <ele>1844.6</ele></trkpt>
      <trkpt lat="46.957210013359344" lon="8.682723490054649">
      <ele>1845.3</ele></trkpt>
      <trkpt lat="46.95727501034319" lon="8.682883573125306">
      <ele>1846.0</ele></trkpt>
      <trkpt lat="46.95736662203776" lon="8.683092192102293">
      <ele>1846.7</ele></trkpt>
      <trkpt lat="46.95740886938357" lon="8.683159248329813">
      <ele>1846.9</ele></trkpt>
      <trkpt lat="46.95750909494407" lon="8.683303632626552">
      <ele>1847.1</ele></trkpt>
      <trkpt lat="46.95756258493938" lon="8.683377558787717">
      <ele>1847.4</ele></trkpt>
      <trkpt lat="46.95758447840642" lon="8.683444156990745">
      <ele>1847.6</ele></trkpt>
      <trkpt lat="46.95757746470565" lon="8.683942222727252">
      <ele>1847.8</ele></trkpt>
      <trkpt lat="46.957427822731375" lon="8.684198723021659">
      <ele>1848.0</ele></trkpt>
      <trkpt lat="46.957278180178996" lon="8.684455221886568">
      <ele>1848.2</ele></trkpt>
      <trkpt lat="46.95707181871544" lon="8.684821290909543">
      <ele>1848.5</ele></trkpt>
      <trkpt lat="46.95686545607494" lon="8.68518735711917">
      <ele>1848.7</ele></trkpt>
      <trkpt lat="46.95665909225752" lon="8.68555342051546">
      <ele>1848.9</ele></trkpt>
      <trkpt lat="46.956621312864414" lon="8.685618265495965">
      <ele>1849.1</ele></trkpt>
      <trkpt lat="46.95655909644076" lon="8.685704051838067">
      <ele>1849.3</ele></trkpt>
      <trkpt lat="46.95651029599934" lon="8.685807795235553">
      <ele>1849.6</ele></trkpt>
      <trkpt lat="46.95648831806454" lon="8.68588053541343">
      <ele>1849.8</ele></trkpt>
      <trkpt lat="46.95648924265171" lon="8.685936108936696">
      <ele>1850.0</ele></trkpt>
      <trkpt lat="46.95653533668745" lon="8.686083535551699">
      <ele>1850.2</ele></trkpt>
      <trkpt lat="46.95654679680525" lon="8.686215061282605">
      <ele>1850.4</ele></trkpt>
      <trkpt lat="46.95653850381143" lon="8.686423162840088">
      <ele>1850.7</ele></trkpt>
      <trkpt lat="46.956543877778216" lon="8.68662778463585">
      <ele>1850.9</ele></trkpt>
      <trkpt lat="46.9565300713734" lon="8.686785303894771">
      <ele>1851.1</ele></trkpt>
      <trkpt lat="46.95650479422945" lon="8.687024610174241">
      <ele>1850.6</ele></trkpt>
      <trkpt lat="46.956494764927044" lon="8.687182203874046">
      <ele>1850.2</ele></trkpt>
      <trkpt lat="46.95647985057192" lon="8.687373635375943">
      <ele>1849.8</ele></trkpt>
      <trkpt lat="46.956481270092475" lon="8.687619842339984">
      <ele>1849.3</ele></trkpt>
      <trkpt lat="46.95648484579417" lon="8.687797763058727">
      <ele>1848.8</ele></trkpt>
      <trkpt lat="46.95649978712253" lon="8.68797205895236">
      <ele>1848.4</ele></trkpt>
      <trkpt lat="46.9565231285148" lon="8.688137484346642">
      <ele>1847.9</ele></trkpt>
      <trkpt lat="46.956528292249814" lon="8.688229092017565">
      <ele>1847.5</ele></trkpt>
      <trkpt lat="46.95654964240369" lon="8.688287505819858">
      <ele>1847.0</ele></trkpt>
      <trkpt lat="46.95657550673944" lon="8.68834857366961">
      <ele>1846.6</ele></trkpt>
      <trkpt lat="46.95669833344671" lon="8.688835617652837">
      <ele>1846.1</ele></trkpt>
      <trkpt lat="46.956821158081425" lon="8.689322663865177">
      <ele>1845.7</ele></trkpt>
      <trkpt lat="46.95693835277585" lon="8.689468139242772">
      <ele>1845.2</ele></trkpt>
      <trkpt lat="46.957101686585155" lon="8.689549180026214">
      <ele>1844.8</ele></trkpt>
      <trkpt lat="46.95714319072408" lon="8.68986677364866">
      <ele>1844.3</ele></trkpt>
      <trkpt lat="46.95711973889983" lon="8.690105166034522">
      <ele>1843.9</ele></trkpt>
      <trkpt lat="46.95683677036524" lon="8.690260243221976">
      <ele>1843.4</ele></trkpt>
      <trkpt lat="46.95655380160686" lon="8.690415318774146">
      <ele>1843.0</ele></trkpt>
      <trkpt lat="46.95642881654081" lon="8.690907876098347">
      <ele>1842.5</ele></trkpt>
      <trkpt lat="46.956303829354695" lon="8.69140043113084">
      <ele>1842.1</ele></trkpt>
      <trkpt lat="46.95617884004862" lon="8.691892983871586">
      <ele>1839.6</ele></trkpt>
      <trkpt lat="46.956214464384864" lon="8.692235253156126">
      <ele>1837.2</ele></trkpt>
      <trkpt lat="46.95625008769861" lon="8.692577522895412">
      <ele>1834.7</ele></trkpt>
      <trkpt lat="46.956157749909025" lon="8.693051812931794">
      <ele>1832.3</ele></trkpt>
      <trkpt lat="46.95606541015481" lon="8.693526101338186">
      <ele>1829.8</ele></trkpt>
      <trkpt lat="46.955936525823496" lon="8.694009864275062">
      <ele>1827.3</ele></trkpt>
      <trkpt lat="46.95580763944692" lon="8.69449362489086">
      <ele>1824.9</ele></trkpt>
      <trkpt lat="46.95567875102503" lon="8.694977383185556">
      <ele>1822.4</ele></trkpt>
      <trkpt lat="46.95573254988184" lon="8.695396129402374">
      <ele>1820.0</ele></trkpt>
      <trkpt lat="46.95578634720796" lon="8.695814876459144">
      <ele>1817.5</ele></trkpt>
      <trkpt lat="46.95578254127398" lon="8.696154411286077">
      <ele>1815.0</ele></trkpt>
      <trkpt lat="46.95577873433395" lon="8.696493946065514">
      <ele>1812.6</ele></trkpt>
      <trkpt lat="46.95563858873831" lon="8.696740602183105">
      <ele>1810.1</ele></trkpt>
      <trkpt lat="46.955468136776204" lon="8.697186289469421">
      <ele>1807.7</ele></trkpt>
      <trkpt lat="46.955297683075436" lon="8.697631973927106">
      <ele>1805.2</ele></trkpt>
      <trkpt lat="46.95517621373251" lon="8.698107929607303">
      <ele>1802.7</ele></trkpt>
      <trkpt lat="46.95505474240996" lon="8.698583883135337">
      <ele>1800.3</ele></trkpt>
      <trkpt lat="46.95493326910781" lon="8.699059834511196">
      <ele>1797.8</ele></trkpt>
      <trkpt lat="46.955165606780746" lon="8.699197180033917">
      <ele>1795.4</ele></trkpt>
      <trkpt lat="46.95539794427981" lon="8.699334526744487">
      <ele>1792.9</ele></trkpt>
      <trkpt lat="46.955454279557884" lon="8.699872955288917">
      <ele>1797.2</ele></trkpt>
      <trkpt lat="46.95534995560489" lon="8.700342521342742">
      <ele>1801.4</ele></trkpt>
      <trkpt lat="46.9552456297257" lon="8.700812085573165">
      <ele>1805.7</ele></trkpt>
      <trkpt lat="46.95514130192034" lon="8.701281647980169">
      <ele>1809.9</ele></trkpt>
      <trkpt lat="46.955083754581956" lon="8.701891591241925">
      <ele>1814.2</ele></trkpt>
      <trkpt lat="46.95502620399627" lon="8.702501533198381">
      <ele>1818.4</ele></trkpt>
      <trkpt lat="46.95501728618095" lon="8.703012413115959">
      <ele>1822.7</ele></trkpt>
      <trkpt lat="46.955008366087895" lon="8.703523292865283">
      <ele>1826.9</ele></trkpt>
      <trkpt lat="46.95499944371712" lon="8.704034172446312">
      <ele>1831.2</ele></trkpt>
      <trkpt lat="46.954990519068595" lon="8.704545051859004">
      <ele>1835.4</ele></trkpt>
      <trkpt lat="46.955073634232235" lon="8.704992190307333">
      <ele>1839.7</ele></trkpt>
      <trkpt lat="46.955156747649944" lon="8.705439330140797">
      <ele>1843.9</ele></trkpt>
      <trkpt lat="46.95523985932175" lon="8.705886471359383">
      <ele>1848.2</ele></trkpt>
      <trkpt lat="46.95541710480136" lon="8.706431204965213">
      <ele>1852.4</ele></trkpt>
      <trkpt lat="46.95559434768623" lon="8.706975942168246">
      <ele>1856.7</ele></trkpt>
      <trkpt lat="46.955248825157064" lon="8.707048157258702">
      <ele>1860.9</ele></trkpt>
      <trkpt lat="46.954903302561725" lon="8.707120371418277">
      <ele>1865.2</ele></trkpt>
      <trkpt lat="46.95455777990026" lon="8.707192584646997">
      <ele>1869.4</ele></trkpt>
      <trkpt lat="46.9542122571727" lon="8.707264796944889">
      <ele>1873.7</ele></trkpt>
      <trkpt lat="46.95400117967018" lon="8.707818069336932">
      <ele>1877.9</ele></trkpt>
      <trkpt lat="46.9537900994883" lon="8.708371337380672">
      <ele>1872.6</ele></trkpt>
      <trkpt lat="46.953579016627046" lon="8.708924601076117">
      <ele>1867.3</ele></trkpt>
      <trkpt lat="46.95336793108649" lon="8.709477860423245">
      <ele>1862.0</ele></trkpt>
      <trkpt lat="46.95312729612195" lon="8.710021985326842">
      <ele>1856.7</ele></trkpt>
      <trkpt lat="46.952886658563266" lon="8.710566105354905">
      <ele>1851.5</ele></trkpt>
      <trkpt lat="46.952646018410505" lon="8.711110220507448">
      <ele>1846.2</ele></trkpt>
      <trkpt lat="46.95240537566366" lon="8.711654330784475">
      <ele>1840.9</ele></trkpt>
      <trkpt lat="46.952403596564665" lon="8.712205401868717">
      <ele>1835.6</ele></trkpt>
      <trkpt lat="46.95240181481533" lon="8.712756472918095">
      <ele>1830.3</ele></trkpt>
      <trkpt lat="46.95240003041565" lon="8.713307543932569">
      <ele>1825.0</ele></trkpt>
      <trkpt lat="46.95239824336564" lon="8.713858614912077">
      <ele>1819.7</ele></trkpt>
      <trkpt lat="46.95262998202587" lon="8.714224186391355">
      <ele>1814.4</ele></trkpt>
      <trkpt lat="46.95286171951073" lon="8.714589761025755">
      <ele>1809.1</ele></trkpt>
      <trkpt lat="46.95309345582019" lon="8.714955338815288">
      <ele>1803.8</ele></trkpt>
      <trkpt lat="46.953261240812495" lon="8.715351676680017">
      <ele>1798.5</ele></trkpt>
      <trkpt lat="46.953429024429234" lon="8.715748017021891">
      <ele>1793.3</ele></trkpt>
      <trkpt lat="46.95359680667034" lon="8.716144359840913">
      <ele>1788.0</ele></trkpt>
      <trkpt lat="46.95381191842153" lon="8.716455669471108">
      <ele>1782.7</ele></trkpt>
      <trkpt lat="46.95402702931911" lon="8.716766981595292">
      <ele>1777.4</ele></trkpt>
      <trkpt lat="46.95424213936311" lon="8.717078296213485">
      <ele>1772.1</ele></trkpt>
      <trkpt lat="46.954312208158804" lon="8.71759999848377">
      <ele>1762.7</ele></trkpt>
      <trkpt lat="46.954382274578414" lon="8.718121702116946">
      <ele>1753.4</ele></trkpt>
      <trkpt lat="46.95445233862196" lon="8.718643407112975">
      <ele>1744.0</ele></trkpt>
      <trkpt lat="46.954498329987864" lon="8.719253448822483">
      <ele>1734.6</ele></trkpt>
      <trkpt lat="46.95454431810565" lon="8.719863491578964">
      <ele>1725.3</ele></trkpt>
      <trkpt lat="46.95459030297533" lon="8.72047353538235">
      <ele>1715.9</ele></trkpt>
      <trkpt lat="46.954674417405876" lon="8.720894577053617">
      <ele>1706.5</ele></trkpt>
      <trkpt lat="46.95475853028821" lon="8.7213156200448">
      <ele>1697.2</ele></trkpt>
      <trkpt lat="46.954842641622264" lon="8.721736664355898">
      <ele>1687.8</ele></trkpt>
      <trkpt lat="46.954842641622264" lon="8.721736664355898">
      <ele>1678.4</ele></trkpt>
      <trkpt lat="46.95490550754233" lon="8.721670855780628">
      <ele>1669.1</ele></trkpt>
      <trkpt lat="46.95498039024244" lon="8.721589186426488">
      <ele>1659.7</ele></trkpt>
      <trkpt lat="46.95501123254542" lon="8.721535909275808">
      <ele>1650.4</ele></trkpt>
      <trkpt lat="46.95501934596365" lon="8.721487003235614">
      <ele>1641.0</ele></trkpt>
      <trkpt lat="46.9550212077891" lon="8.721396218992352">
      <ele>1631.6</ele></trkpt>
      <trkpt lat="46.955013014760794" lon="8.721302737715003">
      <ele>1622.3</ele></trkpt>
      <trkpt lat="46.95501161832274" lon="8.721200825941144">
      <ele>1612.9</ele></trkpt>
      <trkpt lat="46.955017359562596" lon="8.721139591560553">
      <ele>1603.5</ele></trkpt>
      <trkpt lat="46.95503301410136" lon="8.721092087391588">
      <ele>1594.2</ele></trkpt>
      <trkpt lat="46.95506981588179" lon="8.721032816331144">
      <ele>1584.8</ele></trkpt>
      <trkpt lat="46.95511715301276" lon="8.720933289599479">
      <ele>1584.5</ele></trkpt>
      <trkpt lat="46.955174526215686" lon="8.7208389293012">
      <ele>1584.1</ele></trkpt>
      <trkpt lat="46.95523829336758" lon="8.720772930567607">
      <ele>1583.8</ele></trkpt>
      <trkpt lat="46.95535380676947" lon="8.720665202382348">
      <ele>1583.4</ele></trkpt>
      <trkpt lat="46.95543602404834" lon="8.720603348676969">
      <ele>1583.1</ele></trkpt>
      <trkpt lat="46.95551074609858" lon="8.720535166906666">
      <ele>1582.8</ele></trkpt>
      <trkpt lat="46.95555087020743" lon="8.720479653124194">
      <ele>1582.4</ele></trkpt>
      <trkpt lat="46.955585989642884" lon="8.720420354078657">
      <ele>1582.1</ele></trkpt>
      <trkpt lat="46.955623403226035" lon="8.720381961237106">
      <ele>1581.7</ele></trkpt>
      <trkpt lat="46.955715853631304" lon="8.720306844048034">
      <ele>1581.4</ele></trkpt>
      <trkpt lat="46.955822883787874" lon="8.720206282527602">
      <ele>1581.1</ele></trkpt>
      <trkpt lat="46.95586103768002" lon="8.720176499953546">
      <ele>1580.7</ele></trkpt>
      <trkpt lat="46.955924461195934" lon="8.72014119734502">
      <ele>1580.4</ele></trkpt>
      <trkpt lat="46.9559646079108" lon="8.720084448313248">
      <ele>1580.0</ele></trkpt>
      <trkpt lat="46.95599949377126" lon="8.720046020954097">
      <ele>1579.7</ele></trkpt>
      <trkpt lat="46.95604272071767" lon="8.720013902167347">
      <ele>1579.4</ele></trkpt>
      <trkpt lat="46.95609114892194" lon="8.719967178475983">
      <ele>1579.0</ele></trkpt>
      <trkpt lat="46.95613383204267" lon="8.719908058902142">
      <ele>1578.7</ele></trkpt>
      <trkpt lat="46.95615472362625" lon="8.719843505498217">
      <ele>1578.3</ele></trkpt>
      <trkpt lat="46.95617291874117" lon="8.719794825471169">
      <ele>1578.0</ele></trkpt>
      <trkpt lat="46.95620790082515" lon="8.719747780814744">
      <ele>1578.0</ele></trkpt>
      <trkpt lat="46.95623361844822" lon="8.719702985325425">
      <ele>1578.0</ele></trkpt>
      <trkpt lat="46.95625841347716" lon="8.719589410760925">
      <ele>1578.0</ele></trkpt>
      <trkpt lat="46.956292188847044" lon="8.719500607244141">
      <ele>1577.9</ele></trkpt>
      <trkpt lat="46.95633671816151" lon="8.719426802122404">
      <ele>1577.9</ele></trkpt>
      <trkpt lat="46.95638609236401" lon="8.719370272117624">
      <ele>1577.9</ele></trkpt>
      <trkpt lat="46.95644196965944" lon="8.719334788316267">
      <ele>1577.9</ele></trkpt>
      <trkpt lat="46.95654653548507" lon="8.719304130975848">
      <ele>1577.9</ele></trkpt>
      <trkpt lat="46.95668045230172" lon="8.719277878471976">
      <ele>1577.9</ele></trkpt>
      <trkpt lat="46.956767262092335" lon="8.719256625765759">
      <ele>1577.8</ele></trkpt>
      <trkpt lat="46.956811347897414" lon="8.719223304411962">
      <ele>1577.8</ele></trkpt>
      <trkpt lat="46.9568598579616" lon="8.719169223306798">
      <ele>1577.8</ele></trkpt>
      <trkpt lat="46.95687785183084" lon="8.719137723791844">
      <ele>1577.8</ele></trkpt>
      <trkpt lat="46.956883199056925" lon="8.719110850040764">
      <ele>1577.8</ele></trkpt>
      <trkpt lat="46.956895305886256" lon="8.719080458404724">
      <ele>1577.8</ele></trkpt>
      <trkpt lat="46.956935982452556" lon="8.719049512616477">
      <ele>1577.8</ele></trkpt>
      <trkpt lat="46.957050602877274" lon="8.718946670177438">
      <ele>1577.7</ele></trkpt>
      <trkpt lat="46.95711259977768" lon="8.718889244128954">
      <ele>1577.7</ele></trkpt>
      <trkpt lat="46.957150643711365" lon="8.718869272377884">
      <ele>1577.7</ele></trkpt>
      <trkpt lat="46.95720629263866" lon="8.71885341230469">
      <ele>1577.7</ele></trkpt>
      <trkpt lat="46.9572679606818" lon="8.718825423470328">
      <ele>1577.8</ele></trkpt>
      <trkpt lat="46.95729853180829" lon="8.718797915486057">
      <ele>1577.8</ele></trkpt>
      <trkpt lat="46.957326022689436" lon="8.718743332638718">
      <ele>1577.9</ele></trkpt>
      <trkpt lat="46.957344322129074" lon="8.718686073654832">
      <ele>1577.9</ele></trkpt>
      <trkpt lat="46.957358814936924" lon="8.718666775604534">
      <ele>1578.0</ele></trkpt>
      <trkpt lat="46.957395948933524" lon="8.718654166265829">
      <ele>1578.1</ele></trkpt>
      <trkpt lat="46.95747369100953" lon="8.71861673181858">
      <ele>1578.1</ele></trkpt>
      <trkpt lat="46.957579481472706" lon="8.718550506920383">
      <ele>1578.2</ele></trkpt>
      <trkpt lat="46.957642077020644" lon="8.718515181546373">
      <ele>1578.2</ele></trkpt>
      <trkpt lat="46.95769284469698" lon="8.71848447531959">
      <ele>1578.3</ele></trkpt>
      <trkpt lat="46.957727469940174" lon="8.718469335785066">
      <ele>1578.4</ele></trkpt>
      <trkpt lat="46.957761857305094" lon="8.718476304322104">
      <ele>1578.4</ele></trkpt>
      <trkpt lat="46.95790035395879" lon="8.718491863115439">
      <ele>1578.5</ele></trkpt>
      <trkpt lat="46.95801375870377" lon="8.718497035205344">
      <ele>1578.5</ele></trkpt>
      <trkpt lat="46.95807251110299" lon="8.718504558018257">
      <ele>1578.6</ele></trkpt>
      <trkpt lat="46.958179389342064" lon="8.718492374931854">
      <ele>1578.7</ele></trkpt>
      <trkpt lat="46.95826033053062" lon="8.718469758563916">
      <ele>1578.7</ele></trkpt>
      <trkpt lat="46.95835997367022" lon="8.718427943933603">
      <ele>1578.8</ele></trkpt>
      <trkpt lat="46.95847303553963" lon="8.718388892801316">
      <ele>1578.8</ele></trkpt>
      <trkpt lat="46.95857592384396" lon="8.718356970509603">
      <ele>1578.9</ele></trkpt>
      <trkpt lat="46.95866875714527" lon="8.718322364578832">
      <ele>1579.7</ele></trkpt>
      <trkpt lat="46.958726919509175" lon="8.718307798499984">
      <ele>1580.4</ele></trkpt>
      <trkpt lat="46.958773432217576" lon="8.718281891220256">
      <ele>1581.2</ele></trkpt>
      <trkpt lat="46.9588541308305" lon="8.718205250975762">
      <ele>1582.0</ele></trkpt>
      <trkpt lat="46.95892061076052" lon="8.718123357560073">
      <ele>1582.8</ele></trkpt>
      <trkpt lat="46.95897273068804" lon="8.718047258210873">
      <ele>1583.5</ele></trkpt>
      <trkpt lat="46.95903300897187" lon="8.717992232150007">
      <ele>1584.3</ele></trkpt>
      <trkpt lat="46.959089777241346" lon="8.717951838964078">
      <ele>1585.1</ele></trkpt>
      <trkpt lat="46.959127765868054" lon="8.717936805072192">
      <ele>1585.8</ele></trkpt>
      <trkpt lat="46.95919012431671" lon="8.717921090096507">
      <ele>1586.6</ele></trkpt>
      <trkpt lat="46.95923819971014" lon="8.717907505232056">
      <ele>1587.4</ele></trkpt>
      <trkpt lat="46.95925856082162" lon="8.717889568049054">
      <ele>1588.1</ele></trkpt>
      <trkpt lat="46.95926815364354" lon="8.717857892926695">
      <ele>1588.9</ele></trkpt>
      <trkpt lat="46.95928503562432" lon="8.717776052570876">
      <ele>1589.7</ele></trkpt>
      <trkpt lat="46.959316212927654" lon="8.71761842016093">
      <ele>1590.5</ele></trkpt>
      <trkpt lat="46.95936002656974" lon="8.717458670659909">
      <ele>1591.2</ele></trkpt>
      <trkpt lat="46.95938123186559" lon="8.71736586918078">
      <ele>1592.0</ele></trkpt>
      <trkpt lat="46.959393694204294" lon="8.71730356743244">
      <ele>1592.8</ele></trkpt>
      <trkpt lat="46.95941037062866" lon="8.71724011767115">
      <ele>1593.5</ele></trkpt>
      <trkpt lat="46.95943177759412" lon="8.717205031233">
      <ele>1594.3</ele></trkpt>
      <trkpt lat="46.95946578977614" lon="8.717169022771595">
      <ele>1595.0</ele></trkpt>
      <trkpt lat="46.95951247533094" lon="8.71712840156657">
      <ele>1595.7</ele></trkpt>
      <trkpt lat="46.95958773958731" lon="8.717087225293888">
      <ele>1596.5</ele></trkpt>
      <trkpt lat="46.95963929779298" lon="8.717061423485433">
      <ele>1597.2</ele></trkpt>
      <trkpt lat="46.959693365025245" lon="8.717035707618477">
      <ele>1597.9</ele></trkpt>
      <trkpt lat="46.95974366431432" lon="8.716990494296217">
      <ele>1598.6</ele></trkpt>
      <trkpt lat="46.95981430342447" lon="8.716893743709205">
      <ele>1599.3</ele></trkpt>
      <trkpt lat="46.95988878015491" lon="8.716771513734962">
      <ele>1600.1</ele></trkpt>
      <trkpt lat="46.95993593079612" lon="8.716689170245413">
      <ele>1600.8</ele></trkpt>
      <trkpt lat="46.95996995658179" lon="8.7166519262844">
      <ele>1601.5</ele></trkpt>
      <trkpt lat="46.960010883055595" lon="8.71660011647207">
      <ele>1602.2</ele></trkpt>
      <trkpt lat="46.9600374907974" lon="8.716550409992447">
      <ele>1602.9</ele></trkpt>
      <trkpt lat="46.96005493455598" lon="8.716493140180733">
      <ele>1603.7</ele></trkpt>
      <trkpt lat="46.96006400079672" lon="8.716434422748147">
      <ele>1604.4</ele></trkpt>
      <trkpt lat="46.960078780402874" lon="8.716389362307247">
      <ele>1605.1</ele></trkpt>
      <trkpt lat="46.960087133157245" lon="8.71631959021886">
      <ele>1605.8</ele></trkpt>
      <trkpt lat="46.960088049832606" lon="8.716237355302363">
      <ele>1606.5</ele></trkpt>
      <trkpt lat="46.960075958059534" lon="8.716115535411642">
      <ele>1607.3</ele></trkpt>
      <trkpt lat="46.96004970680627" lon="8.715982328103083">
      <ele>1608.0</ele></trkpt>
      <trkpt lat="46.9600407322953" lon="8.715882684026358">
      <ele>1608.7</ele></trkpt>
      <trkpt lat="46.960040627745656" lon="8.715740282946552">
      <ele>1608.6</ele></trkpt>
      <trkpt lat="46.960033152601895" lon="8.715657848603067">
      <ele>1608.6</ele></trkpt>
      <trkpt lat="46.96000010004959" lon="8.715531864662887">
      <ele>1608.5</ele></trkpt>
      <trkpt lat="46.9599626880264" lon="8.71541925892267">
      <ele>1608.4</ele></trkpt>
      <trkpt lat="46.95992929354818" lon="8.715323949097053">
      <ele>1608.3</ele></trkpt>
      <trkpt lat="46.95991501326767" lon="8.715247489647382">
      <ele>1608.3</ele></trkpt>
      <trkpt lat="46.959910577970575" lon="8.715193378822008">
      <ele>1608.2</ele></trkpt>
      <trkpt lat="46.95991598359953" lon="8.715160368187858">
      <ele>1608.1</ele></trkpt>
      <trkpt lat="46.95993640784367" lon="8.715137530023311">
      <ele>1608.1</ele></trkpt>
      <trkpt lat="46.96008148123758" lon="8.715015752804895">
      <ele>1608.0</ele></trkpt>
      <trkpt lat="46.96019946634523" lon="8.714911753730558">
      <ele>1607.9</ele></trkpt>
      <trkpt lat="46.96025223809775" lon="8.714852865363081">
      <ele>1607.9</ele></trkpt>
      <trkpt lat="46.96028732753332" lon="8.714795987719844">
      <ele>1607.8</ele></trkpt>
      <trkpt lat="46.96035795215739" lon="8.714642993284718">
      <ele>1607.7</ele></trkpt>
      <trkpt lat="46.96044492806606" lon="8.714454790196381">
      <ele>1607.7</ele></trkpt>
      <trkpt lat="46.96052792979259" lon="8.714322942228025">
      <ele>1607.6</ele></trkpt>
      <trkpt lat="46.960612403887" lon="8.714208329305606">
      <ele>1607.5</ele></trkpt>
      <trkpt lat="46.96071351918421" lon="8.714110063356479">
      <ele>1607.4</ele></trkpt>
      <trkpt lat="46.960848222251606" lon="8.714013829683557">
      <ele>1607.4</ele></trkpt>
      <trkpt lat="46.960947382318196" lon="8.71394007565773">
      <ele>1607.3</ele></trkpt>
      <trkpt lat="46.96101582230569" lon="8.71390732556759">
      <ele>1606.4</ele></trkpt>
      <trkpt lat="46.96111018599675" lon="8.713886241815999">
      <ele>1605.5</ele></trkpt>
      <trkpt lat="46.961206062972934" lon="8.713881159402087">
      <ele>1604.6</ele></trkpt>
      <trkpt lat="46.961297894742664" lon="8.713861237473525">
      <ele>1603.8</ele></trkpt>
      <trkpt lat="46.9614598755239" lon="8.713806161451513">
      <ele>1602.9</ele></trkpt>
      <trkpt lat="46.961552816720626" lon="8.713761719365031">
      <ele>1602.0</ele></trkpt>
      <trkpt lat="46.96167726893081" lon="8.713681179344881">
      <ele>1601.1</ele></trkpt>
      <trkpt lat="46.96178083354514" lon="8.71358913147353">
      <ele>1600.2</ele></trkpt>
      <trkpt lat="46.96184121895488" lon="8.713524271049758">
      <ele>1599.3</ele></trkpt>
      <trkpt lat="46.96186692067698" lon="8.713480676484473">
      <ele>1598.4</ele></trkpt>
      <trkpt lat="46.961880053700575" lon="8.713433104257653">
      <ele>1597.6</ele></trkpt>
      <trkpt lat="46.96187552199757" lon="8.713387583209167">
      <ele>1596.7</ele></trkpt>
      <trkpt lat="46.96185431953974" lon="8.71334614746365">
      <ele>1595.8</ele></trkpt>
      <trkpt lat="46.96182406669147" lon="8.713324128845073">
      <ele>1594.9</ele></trkpt>
      <trkpt lat="46.96176740733321" lon="8.713291785974645">
      <ele>1594.0</ele></trkpt>
      <trkpt lat="46.961709318033655" lon="8.713269106885788">
      <ele>1593.1</ele></trkpt>
      <trkpt lat="46.96165932119425" lon="8.713233058949285">
      <ele>1592.3</ele></trkpt>
      <trkpt lat="46.961633246662544" lon="8.713193689139624">
      <ele>1591.4</ele></trkpt>
      <trkpt lat="46.96162085061687" lon="8.713115932248412">
      <ele>1590.5</ele></trkpt>
      <trkpt lat="46.96160285943625" lon="8.712945061091009">
      <ele>1589.6</ele></trkpt>
      <trkpt lat="46.961575543108694" lon="8.71277784528227">
      <ele>1588.8</ele></trkpt>
      <trkpt lat="46.96157459032271" lon="8.712624802667293">
      <ele>1588.0</ele></trkpt>
      <trkpt lat="46.961595047781465" lon="8.712454843608722">
      <ele>1587.2</ele></trkpt>
      <trkpt lat="46.961609574610186" lon="8.71234090592917">
      <ele>1586.4</ele></trkpt>
      <trkpt lat="46.96162897731883" lon="8.71226583488609">
      <ele>1585.6</ele></trkpt>
      <trkpt lat="46.961659983442836" lon="8.712220079234179">
      <ele>1584.8</ele></trkpt>
      <trkpt lat="46.9617053749906" lon="8.712192115089094">
      <ele>1584.0</ele></trkpt>
      <trkpt lat="46.96177463676733" lon="8.712164703686888">
      <ele>1583.2</ele></trkpt>
      <trkpt lat="46.96182266022227" lon="8.712138720340905">
      <ele>1582.4</ele></trkpt>
      <trkpt lat="46.96187355189422" lon="8.712093449025822">
      <ele>1581.6</ele></trkpt>
      <trkpt lat="46.961931351910785" lon="8.712023151078235">
      <ele>1580.8</ele></trkpt>
      <trkpt lat="46.96196918003418" lon="8.711960132445636">
      <ele>1580.0</ele></trkpt>
      <trkpt lat="46.962042643712735" lon="8.711793359906473">
      <ele>1579.2</ele></trkpt>
      <trkpt lat="46.962143288080256" lon="8.711567191934146">
      <ele>1578.4</ele></trkpt>
      <trkpt lat="46.96218117158499" lon="8.711498352786284">
      <ele>1577.6</ele></trkpt>
      <trkpt lat="46.96222007246956" lon="8.71145860456649">
      <ele>1576.8</ele></trkpt>
      <trkpt lat="46.96227759245162" lon="8.711413489334861">
      <ele>1576.0</ele></trkpt>
      <trkpt lat="46.96236194940743" lon="8.711339942890353">
      <ele>1575.2</ele></trkpt>
      <trkpt lat="46.962424938781545" lon="8.711279464220143">
      <ele>1574.4</ele></trkpt>
      <trkpt lat="46.9624911065156" lon="8.711172556036562">
      <ele>1573.6</ele></trkpt>
      <trkpt lat="46.962575581290565" lon="8.710969247844252">
      <ele>1572.1</ele></trkpt>
      <trkpt lat="46.96262698981816" lon="8.710757402926909">
      <ele>1570.5</ele></trkpt>
      <trkpt lat="46.96264429706422" lon="8.710631912137162">
      <ele>1569.0</ele></trkpt>
      <trkpt lat="46.96264016000603" lon="8.71052721451815">
      <ele>1567.5</ele></trkpt>
      <trkpt lat="46.962625891325565" lon="8.710379688170455">
      <ele>1565.9</ele></trkpt>
      <trkpt lat="46.96262843819152" lon="8.71026932753568">
      <ele>1564.4</ele></trkpt>
      <trkpt lat="46.962646444010865" lon="8.710200029456516">
      <ele>1562.9</ele></trkpt>
      <trkpt lat="46.96268576520593" lon="8.710121538077022">
      <ele>1561.3</ele></trkpt>
      <trkpt lat="46.962803166262084" lon="8.709938376201876">
      <ele>1559.8</ele></trkpt>
      <trkpt lat="46.96288954047355" lon="8.709802902854028">
      <ele>1558.2</ele></trkpt>
      <trkpt lat="46.96296781705442" lon="8.709678853874708">
      <ele>1556.7</ele></trkpt>
      <trkpt lat="46.96302766405654" lon="8.709544696889472">
      <ele>1555.2</ele></trkpt>
      <trkpt lat="46.96309085484278" lon="8.709346675745143">
      <ele>1553.6</ele></trkpt>
      <trkpt lat="46.96312565052533" lon="8.709198364242534">
      <ele>1552.1</ele></trkpt>
      <trkpt lat="46.96313625397974" lon="8.709078534634806">
      <ele>1550.6</ele></trkpt>
      <trkpt lat="46.96314143127696" lon="8.708970179963778">
      <ele>1549.0</ele></trkpt>
      <trkpt lat="46.963155761447254" lon="8.708873671310096">
      <ele>1547.5</ele></trkpt>
      <trkpt lat="46.96318072601221" lon="8.7087754692328">
      <ele>1546.0</ele></trkpt>
      <trkpt lat="46.96322593173732" lon="8.708644841096659">
      <ele>1544.4</ele></trkpt>
      <trkpt lat="46.963272953107825" lon="8.708469682044887">
      <ele>1542.9</ele></trkpt>
      <trkpt lat="46.96331831331712" lon="8.708189435718944">
      <ele>1540.6</ele></trkpt>
      <trkpt lat="46.96333684564315" lon="8.708061921537698">
      <ele>1538.4</ele></trkpt>
      <trkpt lat="46.96335930867523" lon="8.708006761572259">
      <ele>1536.1</ele></trkpt>
      <trkpt lat="46.963394881086934" lon="8.707968508224477">
      <ele>1533.8</ele></trkpt>
      <trkpt lat="46.963434090582865" lon="8.707929210659463">
      <ele>1531.6</ele></trkpt>
      <trkpt lat="46.963466640356444" lon="8.707864131003678">
      <ele>1529.3</ele></trkpt>
      <trkpt lat="46.963511686082484" lon="8.707747045881412">
      <ele>1527.0</ele></trkpt>
      <trkpt lat="46.963555041838816" lon="8.707664770241903">
      <ele>1524.7</ele></trkpt>
      <trkpt lat="46.96363167227707" lon="8.707569745433782">
      <ele>1522.5</ele></trkpt>
      <trkpt lat="46.963693701966314" lon="8.707476307169589">
      <ele>1520.2</ele></trkpt>
      <trkpt lat="46.9637644417396" lon="8.707315254108522">
      <ele>1517.9</ele></trkpt>
      <trkpt lat="46.96379765547347" lon="8.707190148443948">
      <ele>1515.7</ele></trkpt>
      <trkpt lat="46.96382804202565" lon="8.706960360837746">
      <ele>1513.4</ele></trkpt>
      <trkpt lat="46.963839016379296" lon="8.706807606831866">
      <ele>1511.1</ele></trkpt>
      <trkpt lat="46.96383642304269" lon="8.706676898360266">
      <ele>1508.8</ele></trkpt>
      <trkpt lat="46.96383566529601" lon="8.70651117320302">
      <ele>1506.6</ele></trkpt>
      <trkpt lat="46.96384381451161" lon="8.70637384559233">
      <ele>1504.3</ele></trkpt>
      <trkpt lat="46.96386928180793" lon="8.706229173475599">
      <ele>1502.0</ele></trkpt>
      <trkpt lat="46.96389911865228" lon="8.706049741376809">
      <ele>1499.8</ele></trkpt>
      <trkpt lat="46.96392414835791" lon="8.705943798196266">
      <ele>1497.5</ele></trkpt>
      <trkpt lat="46.9639250262149" lon="8.705864394938759">
      <ele>1496.5</ele></trkpt>
      <trkpt lat="46.96390416578767" lon="8.705712834368335">
      <ele>1495.5</ele></trkpt>
      <trkpt lat="46.96389746902789" lon="8.70559838952131">
      <ele>1494.5</ele></trkpt>
      <trkpt lat="46.96390408101253" lon="8.705480395152941">
      <ele>1493.5</ele></trkpt>
      <trkpt lat="46.963918686413244" lon="8.70535871268324">
      <ele>1492.5</ele></trkpt>
      <trkpt lat="46.96392521279191" lon="8.705248443110214">
      <ele>1491.5</ele></trkpt>
      <trkpt lat="46.96391573372511" lon="8.705145575572367">
      <ele>1490.5</ele></trkpt>
      <trkpt lat="46.96387250460925" lon="8.704977981651218">
      <ele>1489.5</ele></trkpt>
      <trkpt lat="46.96385494658785" lon="8.704886514126937">
      <ele>1488.5</ele></trkpt>
      <trkpt lat="46.9638095985727" lon="8.704670446343616">
      <ele>1487.5</ele></trkpt>
      <trkpt lat="46.96379330699885" lon="8.704584843451745">
      <ele>1486.6</ele></trkpt>
      <trkpt lat="46.963794226568986" lon="8.704501577939354">
      <ele>1485.6</ele></trkpt>
      <trkpt lat="46.96379982705637" lon="8.704354505266704">
      <ele>1484.6</ele></trkpt>
      <trkpt lat="46.96379390419801" lon="8.704290435101747">
      <ele>1483.6</ele></trkpt>
      <trkpt lat="46.96377611021128" lon="8.704220290103136">
      <ele>1482.6</ele></trkpt>
      <trkpt lat="46.96376631881939" lon="8.704146443983104">
      <ele>1481.6</ele></trkpt>
      <trkpt lat="46.963773533372695" lon="8.704094339382515">
      <ele>1480.6</ele></trkpt>
      <trkpt lat="46.96379897369267" lon="8.704040679855">
      <ele>1479.6</ele></trkpt>
      <trkpt lat="46.96375776569162" lon="8.703979983612216">
      <ele>1478.6</ele></trkpt>
      <trkpt lat="46.963691883499095" lon="8.70389539428756">
      <ele>1477.6</ele></trkpt>
      <trkpt lat="46.96361816797323" lon="8.703797532350407">
      <ele>1477.7</ele></trkpt>
      <trkpt lat="46.963545483177" lon="8.703696751406257">
      <ele>1477.7</ele></trkpt>
      <trkpt lat="46.96349637747389" lon="8.70362860283351">
      <ele>1477.8</ele></trkpt>
      <trkpt lat="46.963378846309276" lon="8.703525320798256">
      <ele>1477.8</ele></trkpt>
      <trkpt lat="46.96323966073225" lon="8.703396772092042">
      <ele>1477.9</ele></trkpt>
      <trkpt lat="46.96314600517857" lon="8.703298429063532">
      <ele>1477.9</ele></trkpt>
      <trkpt lat="46.96304254475149" lon="8.703185295614704">
      <ele>1478.0</ele></trkpt>
      <trkpt lat="46.96292098766068" lon="8.703084837899034">
      <ele>1478.0</ele></trkpt>
      <trkpt lat="46.962800646622945" lon="8.702965473547">
      <ele>1478.1</ele></trkpt>
      <trkpt lat="46.96276404223745" lon="8.702938396329928">
      <ele>1478.2</ele></trkpt>
      <trkpt lat="46.96272029983734" lon="8.702927169607046">
      <ele>1478.2</ele></trkpt>
      <trkpt lat="46.96267137098474" lon="8.702931852418532">
      <ele>1478.3</ele></trkpt>
      <trkpt lat="46.9626316201696" lon="8.702919247918258">
      <ele>1478.3</ele></trkpt>
      <trkpt lat="46.96260308982649" lon="8.702883622332436">
      <ele>1478.4</ele></trkpt>
      <trkpt lat="46.96258162100858" lon="8.702842341684342">
      <ele>1478.4</ele></trkpt>
      <trkpt lat="46.962572128401376" lon="8.702798425706288">
      <ele>1478.5</ele></trkpt>
      <trkpt lat="46.9625707261931" lon="8.702744476737948">
      <ele>1478.5</ele></trkpt>
      <trkpt lat="46.96255922978824" lon="8.702701972240984">
      <ele>1478.6</ele></trkpt>
      <trkpt lat="46.96251157857552" lon="8.702591613021166">
      <ele>1478.6</ele></trkpt>
      <trkpt lat="46.96246890300468" lon="8.702482816534896">
      <ele>1478.7</ele></trkpt>
      <trkpt lat="46.96240984441413" lon="8.702322662476849">
      <ele>1480.1</ele></trkpt>
      <trkpt lat="46.962366838665226" lon="8.702242978151936">
      <ele>1481.5</ele></trkpt>
      <trkpt lat="46.96229915095972" lon="8.702140886915224">
      <ele>1482.9</ele></trkpt>
      <trkpt lat="46.962221594222065" lon="8.702029812221095">
      <ele>1484.2</ele></trkpt>
      <trkpt lat="46.962162265419096" lon="8.70198472458205">
      <ele>1485.6</ele></trkpt>
      <trkpt lat="46.96212371234031" lon="8.701953226740706">
      <ele>1487.0</ele></trkpt>
      <trkpt lat="46.96209522283123" lon="8.70191468578109">
      <ele>1488.4</ele></trkpt>
      <trkpt lat="46.96206803655477" lon="8.701848501627513">
      <ele>1489.8</ele></trkpt>
      <trkpt lat="46.96202691823257" lon="8.701687312730252">
      <ele>1491.2</ele></trkpt>
      <trkpt lat="46.96201876964531" lon="8.70161282483802">
      <ele>1492.6</ele></trkpt>
      <trkpt lat="46.96202092320408" lon="8.701508001277109">
      <ele>1493.9</ele></trkpt>
      <trkpt lat="46.96201469777387" lon="8.701439406148543">
      <ele>1495.3</ele></trkpt>
      <trkpt lat="46.961993387157285" lon="8.701382085740653">
      <ele>1496.7</ele></trkpt>
      <trkpt lat="46.96196388305459" lon="8.701344979924125">
      <ele>1498.1</ele></trkpt>
      <trkpt lat="46.961919396818374" lon="8.701308980562652">
      <ele>1499.5</ele></trkpt>
      <trkpt lat="46.96188197217481" lon="8.70126731289029">
      <ele>1500.9</ele></trkpt>
      <trkpt lat="46.961840881906376" lon="8.701194981316906">
      <ele>1502.2</ele></trkpt>
      <trkpt lat="46.96179714256919" lon="8.701091983539639">
      <ele>1503.6</ele></trkpt>
      <trkpt lat="46.961734484700926" lon="8.700985637307902">
      <ele>1505.0</ele></trkpt>
      <trkpt lat="46.96166697236307" lon="8.700867521724641">
      <ele>1506.4</ele></trkpt>
      <trkpt lat="46.96162787159625" lon="8.700796682942023">
      <ele>1507.3</ele></trkpt>
      <trkpt lat="46.96159193714388" lon="8.700740583317055">
      <ele>1508.2</ele></trkpt>
      <trkpt lat="46.96153915351641" lon="8.700670500766888">
      <ele>1509.1</ele></trkpt>
      <trkpt lat="46.96150971851526" lon="8.700619744454855">
      <ele>1510.0</ele></trkpt>
      <trkpt lat="46.96149310153354" lon="8.700572416729933">
      <ele>1510.9</ele></trkpt>
      <trkpt lat="46.96148301852565" lon="8.700515860319907">
      <ele>1511.7</ele></trkpt>
      <trkpt lat="46.96148346628305" lon="8.700475188319016">
      <ele>1512.6</ele></trkpt>
      <trkpt lat="46.96150750380258" lon="8.700431943037096">
      <ele>1513.5</ele></trkpt>
      <trkpt lat="46.96153572805859" lon="8.700398191417923">
      <ele>1514.4</ele></trkpt>
      <trkpt lat="46.961568199044486" lon="8.700367666921673">
      <ele>1515.3</ele></trkpt>
      <trkpt lat="46.96158142138819" lon="8.700333549723318">
      <ele>1516.2</ele></trkpt>
      <trkpt lat="46.96158186893628" lon="8.70029289078343">
      <ele>1517.1</ele></trkpt>
      <trkpt lat="46.96157151047939" lon="8.700261347129919">
      <ele>1518.0</ele></trkpt>
      <trkpt lat="46.96154390586746" lon="8.70023880694181">
      <ele>1518.9</ele></trkpt>
      <trkpt lat="46.9615054952632" lon="8.700225382059973">
      <ele>1519.8</ele></trkpt>
      <trkpt lat="46.9614670845125" lon="8.700211970334278">
      <ele>1520.6</ele></trkpt>
      <trkpt lat="46.961439514447186" lon="8.70018629048635">
      <ele>1521.5</ele></trkpt>
      <trkpt lat="46.96141640672832" lon="8.700145065328025">
      <ele>1522.4</ele></trkpt>
      <trkpt lat="46.961384830915165" lon="8.70009425915159">
      <ele>1523.3</ele></trkpt>
      <trkpt lat="46.96135950462837" lon="8.700059249908604">
      <ele>1524.2</ele></trkpt>
      <trkpt lat="46.96132561616031" lon="8.700024026498998">
      <ele>1525.0</ele></trkpt>
      <trkpt lat="46.9612491733689" lon="8.699962784779084">
      <ele>1525.8</ele></trkpt>
      <trkpt lat="46.96120674796628" lon="8.699924233666064">
      <ele>1526.6</ele></trkpt>
      <trkpt lat="46.96117489667757" lon="8.699898453569276">
      <ele>1527.4</ele></trkpt>
      <trkpt lat="46.96115096657087" lon="8.699896801051558">
      <ele>1528.2</ele></trkpt>
      <trkpt lat="46.961156084094284" lon="8.699865042922893">
      <ele>1529.0</ele></trkpt>
      <trkpt lat="46.9611402035233" lon="8.699816169349152">
      <ele>1529.8</ele></trkpt>
      <trkpt lat="46.9611220977131" lon="8.699769214600659">
      <ele>1530.6</ele></trkpt>
      <trkpt lat="46.96105584471064" lon="8.699622380638385">
      <ele>1531.4</ele></trkpt>
      <trkpt lat="46.96099142350051" lon="8.699519189306667">
      <ele>1532.2</ele></trkpt>
      <trkpt lat="46.96092643329754" lon="8.699461174050176">
      <ele>1532.9</ele></trkpt>
      <trkpt lat="46.96091052646428" lon="8.699443297937341">
      <ele>1533.7</ele></trkpt>
      <trkpt lat="46.960845005538175" lon="8.699347650042949">
      <ele>1534.5</ele></trkpt>
      <trkpt lat="46.960825608262375" lon="8.69929295211809">
      <ele>1535.3</ele></trkpt>
      <trkpt lat="46.96080904043231" lon="8.699241106351401">
      <ele>1536.1</ele></trkpt>
      <trkpt lat="46.96080087557583" lon="8.699204766112993">
      <ele>1536.9</ele></trkpt>
      <trkpt lat="46.960797490328645" lon="8.699165739187098">
      <ele>1537.7</ele></trkpt>
      <trkpt lat="46.96079974870375" lon="8.699133808990021">
      <ele>1538.5</ele></trkpt>
      <trkpt lat="46.96080504164678" lon="8.69908526196925">
      <ele>1539.3</ele></trkpt>
      <trkpt lat="46.96081804424358" lon="8.699028551820744">
      <ele>1540.1</ele></trkpt>
      <trkpt lat="46.96082806450527" lon="8.698982888268215">
      <ele>1539.3</ele></trkpt>
      <trkpt lat="46.96084794554923" lon="8.698906878831833">
      <ele>1538.5</ele></trkpt>
      <trkpt lat="46.9608627783855" lon="8.698857162696457">
      <ele>1537.7</ele></trkpt>
      <trkpt lat="46.96087561906724" lon="8.698814350962587">
      <ele>1536.9</ele></trkpt>
      <trkpt lat="46.96089662740506" lon="8.69880927236403">
      <ele>1536.0</ele></trkpt>
      <trkpt lat="46.96091859528104" lon="8.698802836550007">
      <ele>1535.2</ele></trkpt>
      <trkpt lat="46.96093443187943" lon="8.698791105933479">
      <ele>1534.4</ele></trkpt>
      <trkpt lat="46.96095692667356" lon="8.698740833571113">
      <ele>1533.6</ele></trkpt>
      <trkpt lat="46.961003427992026" lon="8.698589510927565">
      <ele>1532.8</ele></trkpt>
      <trkpt lat="46.96109003660425" lon="8.698347987898455">
      <ele>1532.0</ele></trkpt>
      <trkpt lat="46.96116764545232" lon="8.698058422526156">
      <ele>1531.2</ele></trkpt>
      <trkpt lat="46.96121234169815" lon="8.697946030459583">
      <ele>1530.4</ele></trkpt>
      <trkpt lat="46.961251513205724" lon="8.697846819808944">
      <ele>1529.6</ele></trkpt>
      <trkpt lat="46.96127307765188" lon="8.69779029645867">
      <ele>1528.8</ele></trkpt>
      <trkpt lat="46.961287910002575" lon="8.697740579621446">
      <ele>1528.0</ele></trkpt>
      <trkpt lat="46.961310274802464" lon="8.697698003667078">
      <ele>1527.1</ele></trkpt>
      <trkpt lat="46.96132682159415" lon="8.697665015138067">
      <ele>1526.3</ele></trkpt>
      <trkpt lat="46.961339548749265" lon="8.697633316797466">
      <ele>1525.5</ele></trkpt>
      <trkpt lat="46.96135033842627" lon="8.697604371918612">
      <ele>1524.7</ele></trkpt>
      <trkpt lat="46.96136811342668" lon="8.697546379826925">
      <ele>1523.9</ele></trkpt>
      <trkpt lat="46.96138755086484" lon="8.69751067321334">
      <ele>1525.8</ele></trkpt>
      <trkpt lat="46.96141085379728" lon="8.697469498805004">
      <ele>1527.8</ele></trkpt>
      <trkpt lat="46.961437023116204" lon="8.697426998657221">
      <ele>1529.7</ele></trkpt>
      <trkpt lat="46.96145363085508" lon="8.697388453036092">
      <ele>1531.7</ele></trkpt>
      <trkpt lat="46.96147222163134" lon="8.697343002620686">
      <ele>1533.6</ele></trkpt>
      <trkpt lat="46.96153750165871" lon="8.697127295976744">
      <ele>1535.6</ele></trkpt>
      <trkpt lat="46.961637140126776" lon="8.696742593704972">
      <ele>1537.5</ele></trkpt>
      <trkpt lat="46.96167591338684" lon="8.6966000613807">
      <ele>1539.5</ele></trkpt>
      <trkpt lat="46.96176789362235" lon="8.696390050422238">
      <ele>1541.4</ele></trkpt>
      <trkpt lat="46.961799574230525" lon="8.69628469651012">
      <ele>1543.3</ele></trkpt>
      <trkpt lat="46.96182417869427" lon="8.696215050164357">
      <ele>1545.3</ele></trkpt>
      <trkpt lat="46.96182385881035" lon="8.69615974778788">
      <ele>1547.2</ele></trkpt>
      <trkpt lat="46.96180967241153" lon="8.696063727165336">
      <ele>1549.2</ele></trkpt>
      <trkpt lat="46.96181366491018" lon="8.695962205779505">
      <ele>1551.1</ele></trkpt>
      <trkpt lat="46.961835335139504" lon="8.695814751858927">
      <ele>1553.1</ele></trkpt>
      <trkpt lat="46.96183929500038" lon="8.695716186242647">
      <ele>1555.0</ele></trkpt>
      <trkpt lat="46.96184484063119" lon="8.695627237090285">
      <ele>1557.0</ele></trkpt>
      <trkpt lat="46.96190150638583" lon="8.695615133576846">
      <ele>1558.9</ele></trkpt>
      <trkpt lat="46.961959707926155" lon="8.695581936129308">
      <ele>1560.9</ele></trkpt>
      <trkpt lat="46.962042288566494" lon="8.695484014058218">
      <ele>1562.8</ele></trkpt>
      <trkpt lat="46.962068779593835" lon="8.695465435657463">
      <ele>1562.7</ele></trkpt>
      <trkpt lat="46.96208968131831" lon="8.69547744891308">
      <ele>1562.6</ele></trkpt>
      <trkpt lat="46.96212342859641" lon="8.695516648185745">
      <ele>1562.5</ele></trkpt>
      <trkpt lat="46.96217169251697" lon="8.695550418507704">
      <ele>1562.4</ele></trkpt>
      <trkpt lat="46.96225586797501" lon="8.695546619467642">
      <ele>1562.3</ele></trkpt>
      <trkpt lat="46.96233488708222" lon="8.695533107164337">
      <ele>1562.2</ele></trkpt>
      <trkpt lat="46.96237451840124" lon="8.695514836152292">
      <ele>1562.1</ele></trkpt>
      <trkpt lat="46.96239721740847" lon="8.695482726133141">
      <ele>1562.0</ele></trkpt>
      <trkpt lat="46.96241706751428" lon="8.695471679455398">
      <ele>1561.9</ele></trkpt>
      <trkpt lat="46.96246940630436" lon="8.695494007841566">
      <ele>1561.8</ele></trkpt>
      <trkpt lat="46.96252964475182" lon="8.695514615728305">
      <ele>1561.7</ele></trkpt>
      <trkpt lat="46.96263685486574" lon="8.695567058665306">
      <ele>1561.6</ele></trkpt>
      <trkpt lat="46.962826473237754" lon="8.695657895579224">
      <ele>1561.5</ele></trkpt>
      <trkpt lat="46.96296855428011" lon="8.695766832306004">
      <ele>1561.4</ele></trkpt>
      <trkpt lat="46.96304161928" lon="8.695816348225975">
      <ele>1561.3</ele></trkpt>
      <trkpt lat="46.96309461177354" lon="8.695867654678263">
      <ele>1561.2</ele></trkpt>
      <trkpt lat="46.96312422049277" lon="8.69590276328001">
      <ele>1561.1</ele></trkpt>
      <trkpt lat="46.963143151604086" lon="8.695934494493947">
      <ele>1561.0</ele></trkpt>
      <trkpt lat="46.963170610584626" lon="8.695969565985404">
      <ele>1560.9</ele></trkpt>
      <trkpt lat="46.963208893479425" lon="8.695995495239085">
      <ele>1560.8</ele></trkpt>
      <trkpt lat="46.963253417619555" lon="8.696037208143913">
      <ele>1560.5</ele></trkpt>
      <trkpt lat="46.96329156315494" lon="8.696075657432925">
      <ele>1560.1</ele></trkpt>
      <trkpt lat="46.96332576181842" lon="8.696082713023973">
      <ele>1559.8</ele></trkpt>
      <trkpt lat="46.96335580752875" lon="8.696077161367455">
      <ele>1559.4</ele></trkpt>
      <trkpt lat="46.96340724272375" lon="8.696075237934814">
      <ele>1559.0</ele></trkpt>
      <trkpt lat="46.9634499440987" lon="8.696088747616365">
      <ele>1558.7</ele></trkpt>
      <trkpt lat="46.963494948560054" lon="8.696086673648804">
      <ele>1558.3</ele></trkpt>
      <trkpt lat="46.963557027045425" lon="8.696091254419704">
      <ele>1558.0</ele></trkpt>
      <trkpt lat="46.9636169992509" lon="8.696092658368624">
      <ele>1557.6</ele></trkpt>
      <trkpt lat="46.96367043767683" lon="8.696103305087696">
      <ele>1557.3</ele></trkpt>
      <trkpt lat="46.96374314507401" lon="8.696096018819183">
      <ele>1557.0</ele></trkpt>
      <trkpt lat="46.96381281589708" lon="8.696095731252298">
      <ele>1556.6</ele></trkpt>
      <trkpt lat="46.963872428671394" lon="8.696111857771067">
      <ele>1556.2</ele></trkpt>
      <trkpt lat="46.96392732148549" lon="8.696185102598333">
      <ele>1555.9</ele></trkpt>
      <trkpt lat="46.96399955356586" lon="8.696240001405883">
      <ele>1555.5</ele></trkpt>
      <trkpt lat="46.96411590680162" lon="8.696374148535662">
      <ele>1555.2</ele></trkpt>
      <trkpt lat="46.9641729145647" lon="8.696450584190618">
      <ele>1554.8</ele></trkpt>
      <trkpt lat="46.96427033662299" lon="8.696553000089352">
      <ele>1554.5</ele></trkpt>
      <trkpt lat="46.964363708788824" lon="8.696633415391611">
      <ele>1554.1</ele></trkpt>
      <trkpt lat="46.96445086520683" lon="8.696694906808881">
      <ele>1553.8</ele></trkpt>
      <trkpt lat="46.96452966518458" lon="8.696737437227862">
      <ele>1552.8</ele></trkpt>
      <trkpt lat="46.96458918194692" lon="8.696779516096601">
      <ele>1551.7</ele></trkpt>
      <trkpt lat="46.9646372735945" lon="8.69683796408245">
      <ele>1550.7</ele></trkpt>
      <trkpt lat="46.96472561871301" lon="8.69696244315809">
      <ele>1549.6</ele></trkpt>
      <trkpt lat="46.96480056204997" lon="8.69705060190187">
      <ele>1548.6</ele></trkpt>
      <trkpt lat="46.96486786338883" lon="8.697117004043806">
      <ele>1547.5</ele></trkpt>
      <trkpt lat="46.96491003098158" lon="8.697138150582857">
      <ele>1546.5</ele></trkpt>
      <trkpt lat="46.964973099227365" lon="8.69714107380787">
      <ele>1545.4</ele></trkpt>
      <trkpt lat="46.96503350676414" lon="8.697115116029229">
      <ele>1544.4</ele></trkpt>
      <trkpt lat="46.965070293710724" lon="8.697087172388038">
      <ele>1543.3</ele></trkpt>
      <trkpt lat="46.96512946970728" lon="8.696996386236727">
      <ele>1542.3</ele></trkpt>
      <trkpt lat="46.965170408102026" lon="8.69694839419806">
      <ele>1541.3</ele></trkpt>
      <trkpt lat="46.96520513056569" lon="8.696929035810467">
      <ele>1540.2</ele></trkpt>
      <trkpt lat="46.96525851513792" lon="8.696915896730916">
      <ele>1539.2</ele></trkpt>
      <trkpt lat="46.96530994602365" lon="8.696901253176957">
      <ele>1538.1</ele></trkpt>
      <trkpt lat="46.965374484645906" lon="8.696859556483304">
      <ele>1537.1</ele></trkpt>
      <trkpt lat="46.965422140912146" lon="8.69682898915468">
      <ele>1536.0</ele></trkpt>
      <trkpt lat="46.965459607761915" lon="8.696828434394778">
      <ele>1535.0</ele></trkpt>
      <trkpt lat="46.96551251159406" lon="8.696859911830455">
      <ele>1533.9</ele></trkpt>
      <trkpt lat="46.96558098316987" lon="8.696909048019599">
      <ele>1532.9</ele></trkpt>
      <trkpt lat="46.965643758027994" lon="8.696937878894456">
      <ele>1531.9</ele></trkpt>
      <trkpt lat="46.965738099645" lon="8.69696601694747">
      <ele>1530.9</ele></trkpt>
      <trkpt lat="46.96582766174445" lon="8.696979627007872">
      <ele>1529.9</ele></trkpt>
      <trkpt lat="46.96587807156189" lon="8.696967850549662">
      <ele>1528.9</ele></trkpt>
      <trkpt lat="46.96591379009314" lon="8.696947082838864">
      <ele>1528.0</ele></trkpt>
      <trkpt lat="46.96595078235272" lon="8.696900430035507">
      <ele>1527.0</ele></trkpt>
      <trkpt lat="46.96599872314583" lon="8.696843941011362">
      <ele>1526.0</ele></trkpt>
      <trkpt lat="46.966038595519855" lon="8.696804543903403">
      <ele>1525.0</ele></trkpt>
      <trkpt lat="46.96611497009367" lon="8.696763136909759">
      <ele>1524.0</ele></trkpt>
      <trkpt lat="46.966162696513784" lon="8.696734371100655">
      <ele>1523.0</ele></trkpt>
      <trkpt lat="46.96622515901953" lon="8.696666249929972">
      <ele>1522.0</ele></trkpt>
      <trkpt lat="46.96627881254279" lon="8.6966105644244">
      <ele>1521.0</ele></trkpt>
      <trkpt lat="46.966326834852275" lon="8.696575326551661">
      <ele>1520.0</ele></trkpt>
      <trkpt lat="46.9663799419761" lon="8.696570249251636">
      <ele>1519.0</ele></trkpt>
      <trkpt lat="46.96643069978966" lon="8.696582503189516">
      <ele>1518.0</ele></trkpt>
      <trkpt lat="46.966506109583776" lon="8.696615887925889">
      <ele>1517.1</ele></trkpt>
      <trkpt lat="46.96652719940077" lon="8.696568940794732">
      <ele>1516.1</ele></trkpt>
      <trkpt lat="46.96655074273097" lon="8.696495163418406">
      <ele>1515.1</ele></trkpt>
      <trkpt lat="46.96657354457436" lon="8.696389749965867">
      <ele>1514.1</ele></trkpt>
      <trkpt lat="46.96659746117726" lon="8.696282759254238">
      <ele>1513.1</ele></trkpt>
      <trkpt lat="46.96665157882651" lon="8.696086337298192">
      <ele>1512.4</ele></trkpt>
      <trkpt lat="46.96671520271579" lon="8.695912294237466">
      <ele>1511.6</ele></trkpt>
      <trkpt lat="46.96672039600282" lon="8.695833329547163">
      <ele>1510.9</ele></trkpt>
      <trkpt lat="46.96675119543652" lon="8.695690136521495">
      <ele>1510.2</ele></trkpt>
      <trkpt lat="46.96678134872442" lon="8.69550739818746">
      <ele>1509.4</ele></trkpt>
      <trkpt lat="46.966796662416634" lon="8.6954596318671">
      <ele>1508.7</ele></trkpt>
      <trkpt lat="46.96680946500401" lon="8.695420992768327">
      <ele>1508.0</ele></trkpt>
      <trkpt lat="46.96681357441269" lon="8.695393268073879">
      <ele>1507.2</ele></trkpt>
      <trkpt lat="46.96681198773049" lon="8.69536403022707">
      <ele>1506.5</ele></trkpt>
      <trkpt lat="46.966806627101725" lon="8.695331918055071">
      <ele>1505.8</ele></trkpt>
      <trkpt lat="46.96679458049291" lon="8.69530242234528">
      <ele>1505.0</ele></trkpt>
      <trkpt lat="46.96677490679633" lon="8.695272761346502">
      <ele>1504.3</ele></trkpt>
      <trkpt lat="46.96675703324921" lon="8.695252867287445">
      <ele>1503.5</ele></trkpt>
      <trkpt lat="46.96673450857659" lon="8.695223126487269">
      <ele>1502.8</ele></trkpt>
      <trkpt lat="46.96670442060101" lon="8.695189042880896">
      <ele>1502.1</ele></trkpt>
      <trkpt lat="46.96667153970215" lon="8.695147942067461">
      <ele>1501.3</ele></trkpt>
      <trkpt lat="46.966606381040194" lon="8.695074730405496">
      <ele>1500.6</ele></trkpt>
      <trkpt lat="46.966512763276555" lon="8.694923869954243">
      <ele>1499.9</ele></trkpt>
      <trkpt lat="46.96643767660091" lon="8.694760801246938">
      <ele>1499.1</ele></trkpt>
      <trkpt lat="46.96636840239753" lon="8.694561506308737">
      <ele>1498.4</ele></trkpt>
      <trkpt lat="46.966317030987646" lon="8.69431043234523">
      <ele>1498.2</ele></trkpt>
      <trkpt lat="46.96627203983754" lon="8.694068996167978">
      <ele>1498.1</ele></trkpt>
      <trkpt lat="46.96623366555834" lon="8.693716997961124">
      <ele>1497.9</ele></trkpt>
      <trkpt lat="46.96618291722197" lon="8.693309385595017">
      <ele>1497.8</ele></trkpt>
      <trkpt lat="46.966149477002766" lon="8.693099852198035">
      <ele>1497.6</ele></trkpt>
      <trkpt lat="46.96612846032755" lon="8.693042419378834">
      <ele>1497.4</ele></trkpt>
      <trkpt lat="46.96611832345826" lon="8.692978932781616">
      <ele>1497.3</ele></trkpt>
      <trkpt lat="46.96610737588345" lon="8.692891693802094">
      <ele>1497.1</ele></trkpt>
      <trkpt lat="46.96608505411702" lon="8.6928532200382">
      <ele>1497.0</ele></trkpt>
      <trkpt lat="46.966051886866296" lon="8.692817660153038">
      <ele>1496.8</ele></trkpt>
      <trkpt lat="46.96604389133585" lon="8.692755787521298">
      <ele>1496.6</ele></trkpt>
      <trkpt lat="46.96603694101384" lon="8.692698696513915">
      <ele>1496.5</ele></trkpt>
      <trkpt lat="46.96601347076577" lon="8.692666517099122">
      <ele>1496.3</ele></trkpt>
      <trkpt lat="46.966000993971505" lon="8.692620362201078">
      <ele>1496.2</ele></trkpt>
      <trkpt lat="46.96601925035313" lon="8.692535395364139">
      <ele>1496.0</ele></trkpt>
      <trkpt lat="46.966024648819534" lon="8.692437459980047">
      <ele>1495.8</ele></trkpt>
      <trkpt lat="46.96602646435627" lon="8.692271460290401">
      <ele>1495.7</ele></trkpt>
      <trkpt lat="46.9660093347097" lon="8.692055974647893">
      <ele>1495.5</ele></trkpt>
      <trkpt lat="46.96600233362934" lon="8.691804363131784">
      <ele>1495.4</ele></trkpt>
      <trkpt lat="46.966001731005996" lon="8.691562389060183">
      <ele>1495.2</ele></trkpt>
      <trkpt lat="46.96599497059714" lon="8.691388265139892">
      <ele>1494.4</ele></trkpt>
      <trkpt lat="46.96601235430912" lon="8.691184663002256">
      <ele>1493.6</ele></trkpt>
      <trkpt lat="46.966035497685155" lon="8.69104918882544">
      <ele>1492.8</ele></trkpt>
      <trkpt lat="46.96607654080963" lon="8.690858793230682">
      <ele>1492.0</ele></trkpt>
      <trkpt lat="46.966099666436186" lon="8.690724908462576">
      <ele>1491.2</ele></trkpt>
      <trkpt lat="46.9661063065227" lon="8.69051314418213">
      <ele>1490.4</ele></trkpt>
      <trkpt lat="46.966108162093306" lon="8.690244352734295">
      <ele>1489.6</ele></trkpt>
      <trkpt lat="46.96616258069294" lon="8.690199875363252">
      <ele>1488.8</ele></trkpt>
      <trkpt lat="46.96618680296055" lon="8.690085780438045">
      <ele>1488.0</ele></trkpt>
      <trkpt lat="46.966224761274106" lon="8.689926470194525">
      <ele>1487.2</ele></trkpt>
      <trkpt lat="46.96623752087657" lon="8.689820715678701">
      <ele>1486.5</ele></trkpt>
      <trkpt lat="46.96624069746303" lon="8.689672264630728">
      <ele>1485.7</ele></trkpt>
      <trkpt lat="46.96625916081516" lon="8.689587091020854">
      <ele>1484.9</ele></trkpt>
      <trkpt lat="46.966330729758994" lon="8.689415316281181">
      <ele>1484.1</ele></trkpt>
      <trkpt lat="46.96642491164542" lon="8.68924963960816">
      <ele>1483.3</ele></trkpt>
      <trkpt lat="46.96649626070877" lon="8.689004778655653">
      <ele>1482.5</ele></trkpt>
      <trkpt lat="46.966532578141994" lon="8.688924015055228">
      <ele>1481.7</ele></trkpt>
      <trkpt lat="46.96662699589566" lon="8.688829858856572">
      <ele>1480.9</ele></trkpt>
      <trkpt lat="46.966688275067476" lon="8.688757613436842">
      <ele>1480.1</ele></trkpt>
      <trkpt lat="46.966708746040524" lon="8.68861119314386">
      <ele>1479.3</ele></trkpt>
      <trkpt lat="46.966738191650904" lon="8.688463444009308">
      <ele>1479.3</ele></trkpt>
      <trkpt lat="46.96677477378781" lon="8.688407050392383">
      <ele>1479.3</ele></trkpt>
      <trkpt lat="46.96681165212061" lon="8.688378773514536">
      <ele>1479.3</ele></trkpt>
      <trkpt lat="46.96681437127251" lon="8.688328228404636">
      <ele>1479.3</ele></trkpt>
      <trkpt lat="46.96682363566025" lon="8.688273104586333">
      <ele>1479.3</ele></trkpt>
      <trkpt lat="46.966853847967506" lon="8.6881820789254">
      <ele>1479.3</ele></trkpt>
      <trkpt lat="46.966907323083646" lon="8.688044152984167">
      <ele>1479.3</ele></trkpt>
      <trkpt lat="46.966943303253" lon="8.687952998383114">
      <ele>1479.3</ele></trkpt>
      <trkpt lat="46.966954799366434" lon="8.687881288946507">
      <ele>1479.3</ele></trkpt>
      <trkpt lat="46.96695561760568" lon="8.687806203430178">
      <ele>1479.3</ele></trkpt>
      <trkpt lat="46.96694164730341" lon="8.687711994578597">
      <ele>1479.4</ele></trkpt>
      <trkpt lat="46.96692974922391" lon="8.687624102529629">
      <ele>1479.4</ele></trkpt>
      <trkpt lat="46.966930567294675" lon="8.687549017044526">
      <ele>1479.4</ele></trkpt>
      <trkpt lat="46.96694427186813" lon="8.687471103468122">
      <ele>1479.4</ele></trkpt>
      <trkpt lat="46.9669773870166" lon="8.687381117137722">
      <ele>1479.4</ele></trkpt>
      <trkpt lat="46.9670278653147" lon="8.687269627185193">
      <ele>1479.4</ele></trkpt>
      <trkpt lat="46.967069653798674" lon="8.68717045905073">
      <ele>1479.4</ele></trkpt>
      <trkpt lat="46.9670896775528" lon="8.687102088367883">
      <ele>1479.4</ele></trkpt>
      <trkpt lat="46.96714906756156" lon="8.686959514668745">
      <ele>1479.4</ele></trkpt>
      <trkpt lat="46.967188715194055" lon="8.686860296322983">
      <ele>1479.4</ele></trkpt>
      <trkpt lat="46.96724117218817" lon="8.686764503222372">
      <ele>1479.9</ele></trkpt>
      <trkpt lat="46.967304536414815" lon="8.68665018383743">
      <ele>1480.5</ele></trkpt>
      <trkpt lat="46.96733510155747" lon="8.686597696265354">
      <ele>1481.0</ele></trkpt>
      <trkpt lat="46.96736998188048" lon="8.686542181155179">
      <ele>1481.5</ele></trkpt>
      <trkpt lat="46.967396368066616" lon="8.686480200013827">
      <ele>1482.1</ele></trkpt>
      <trkpt lat="46.96741199913966" lon="8.686421109836925">
      <ele>1482.6</ele></trkpt>
      <trkpt lat="46.96751722535672" lon="8.686021363177543">
      <ele>1483.1</ele></trkpt>
      <trkpt lat="46.96768042850231" lon="8.685549103963027">
      <ele>1483.6</ele></trkpt>
      <trkpt lat="46.967822002284024" lon="8.685172840641052">
      <ele>1484.2</ele></trkpt>
      <trkpt lat="46.9680471759916" lon="8.684676715765633">
      <ele>1484.7</ele></trkpt>
      <trkpt lat="46.9681936549083" lon="8.684348003828852">
      <ele>1485.2</ele></trkpt>
      <trkpt lat="46.96823933356294" lon="8.684236660098868">
      <ele>1485.8</ele></trkpt>
      <trkpt lat="46.96824846379877" lon="8.684214399088162">
      <ele>1486.3</ele></trkpt>
      <trkpt lat="46.96825531154419" lon="8.684197696755856">
      <ele>1486.8</ele></trkpt>
      <trkpt lat="46.96832154221902" lon="8.68403624587104">
      <ele>1487.3</ele></trkpt>
      <trkpt lat="46.968480408299314" lon="8.683663529111215">
      <ele>1487.9</ele></trkpt>
      <trkpt lat="46.968564883008725" lon="8.683461457184974">
      <ele>1488.4</ele></trkpt>
      <trkpt lat="46.96860192030048" lon="8.683340541412695">
      <ele>1488.9</ele></trkpt>
      <trkpt lat="46.96862963785414" lon="8.683181455275852">
      <ele>1489.5</ele></trkpt>
      <trkpt lat="46.968651296811515" lon="8.683080737039472">
      <ele>1490.0</ele></trkpt>
      <trkpt lat="46.96869162391627" lon="8.682956729798638">
      <ele>1490.0</ele></trkpt>
      <trkpt lat="46.96871675255519" lon="8.68283553753898">
      <ele>1490.0</ele></trkpt>
      <trkpt lat="46.96872467061229" lon="8.682704444803056">
      <ele>1490.0</ele></trkpt>
      <trkpt lat="46.96871980684007" lon="8.682554091993161">
      <ele>1490.0</ele></trkpt>
      <trkpt lat="46.96870693208942" lon="8.682443085041033">
      <ele>1490.0</ele></trkpt>
      <trkpt lat="46.96874706096883" lon="8.682338943438804">
      <ele>1490.0</ele></trkpt>
      <trkpt lat="46.96878752812779" lon="8.682220195515848">
      <ele>1490.0</ele></trkpt>
      <trkpt lat="46.968842890184" lon="8.68204282365786">
      <ele>1490.0</ele></trkpt>
      <trkpt lat="46.968865078717634" lon="8.681967007990474">
      <ele>1490.0</ele></trkpt>
      <trkpt lat="46.96886564300676" lon="8.681914978319595">
      <ele>1490.0</ele></trkpt>
      <trkpt lat="46.96885108326675" lon="8.681834855595758">
      <ele>1489.9</ele></trkpt>
      <trkpt lat="46.96883370849698" lon="8.681768756089646">
      <ele>1489.9</ele></trkpt>
      <trkpt lat="46.96881054575268" lon="8.681693835747863">
      <ele>1489.9</ele></trkpt>
      <trkpt lat="46.96878309532192" lon="8.681604478230925">
      <ele>1489.9</ele></trkpt>
      <trkpt lat="46.96875331193062" lon="8.681532808623194">
      <ele>1489.9</ele></trkpt>
      <trkpt lat="46.96871600287428" lon="8.681465722383294">
      <ele>1489.9</ele></trkpt>
      <trkpt lat="46.968685220287924" lon="8.681409038055634">
      <ele>1489.9</ele></trkpt>
      <trkpt lat="46.968669305806344" lon="8.681368376276488">
      <ele>1489.9</ele></trkpt>
      <trkpt lat="46.9686558084197" lon="8.681283166323984">
      <ele>1489.9</ele></trkpt>
      <trkpt lat="46.9686564653606" lon="8.681167781170688">
      <ele>1489.9</ele></trkpt>
      <trkpt lat="46.968670568229996" lon="8.681070974503431">
      <ele>1489.4</ele></trkpt>
      <trkpt lat="46.96867757566034" lon="8.680972255772843">
      <ele>1488.9</ele></trkpt>
      <trkpt lat="46.96867237257063" lon="8.68090448012682">
      <ele>1488.4</ele></trkpt>
      <trkpt lat="46.96864228436706" lon="8.6808326725955">
      <ele>1487.8</ele></trkpt>
      <trkpt lat="46.968562953066055" lon="8.680702492798247">
      <ele>1487.3</ele></trkpt>
      <trkpt lat="46.96845690711088" lon="8.680517918601833">
      <ele>1486.8</ele></trkpt>
      <trkpt lat="46.96839633660227" lon="8.68040897722978">
      <ele>1486.3</ele></trkpt>
      <trkpt lat="46.96835463892938" lon="8.680312615589397">
      <ele>1485.8</ele></trkpt>
      <trkpt lat="46.96830424133446" lon="8.680143193952576">
      <ele>1485.3</ele></trkpt>
      <trkpt lat="46.96825947973273" lon="8.679999937101595">
      <ele>1484.8</ele></trkpt>
      <trkpt lat="46.96821341820964" lon="8.679867045726965">
      <ele>1484.2</ele></trkpt>
      <trkpt lat="46.96818935917292" lon="8.679786718196313">
      <ele>1483.7</ele></trkpt>
      <trkpt lat="46.96818652981213" lon="8.679718998147735">
      <ele>1483.2</ele></trkpt>
      <trkpt lat="46.968195413226255" lon="8.679665439763001">
      <ele>1482.7</ele></trkpt>
      <trkpt lat="46.968221120876855" lon="8.679635873008833">
      <ele>1482.2</ele></trkpt>
      <trkpt lat="46.9682434860192" lon="8.679641659684442">
      <ele>1481.7</ele></trkpt>
      <trkpt lat="46.96829754133184" lon="8.679740868824812">
      <ele>1481.1</ele></trkpt>
      <trkpt lat="46.96834296230588" lon="8.679760106872038">
      <ele>1480.6</ele></trkpt>
      <trkpt lat="46.96843024860031" lon="8.679743935347878">
      <ele>1480.1</ele></trkpt>
      <trkpt lat="46.96856321816429" lon="8.679722774053937">
      <ele>1479.6</ele></trkpt>
      <trkpt lat="46.96862988828982" lon="8.679675544499089">
      <ele>1478.5</ele></trkpt>
      <trkpt lat="46.968663251145834" lon="8.679610302881008">
      <ele>1477.5</ele></trkpt>
      <trkpt lat="46.968681766985824" lon="8.679501296816433">
      <ele>1476.4</ele></trkpt>
      <trkpt lat="46.968707496964875" lon="8.679423117756558">
      <ele>1475.3</ele></trkpt>
      <trkpt lat="46.96874199666022" lon="8.679358388408659">
      <ele>1474.3</ele></trkpt>
      <trkpt lat="46.96879845766381" lon="8.679287713506461">
      <ele>1473.2</ele></trkpt>
      <trkpt lat="46.96882687884133" lon="8.679235170840565">
      <ele>1472.1</ele></trkpt>
      <trkpt lat="46.96884903858236" lon="8.679166831265393">
      <ele>1471.1</ele></trkpt>
      <trkpt lat="46.96889791892484" lon="8.679005221570065">
      <ele>1470.0</ele></trkpt>
      <trkpt lat="46.96890920629826" lon="8.678952282990442">
      <ele>1468.9</ele></trkpt>
      <trkpt lat="46.968914164391734" lon="8.678889814768613">
      <ele>1467.9</ele></trkpt>
      <trkpt lat="46.96892139849531" lon="8.67881487466006">
      <ele>1466.8</ele></trkpt>
      <trkpt lat="46.968935198748724" lon="8.67872756170477">
      <ele>1465.8</ele></trkpt>
      <trkpt lat="46.968953246139364" lon="8.678643487726392">
      <ele>1464.7</ele></trkpt>
      <trkpt lat="46.96897557478074" lon="8.678559499386237">
      <ele>1463.6</ele></trkpt>
      <trkpt lat="46.96900005279761" lon="8.678475573736135">
      <ele>1462.6</ele></trkpt>
      <trkpt lat="46.96901289024527" lon="8.678418202406275">
      <ele>1461.5</ele></trkpt>
      <trkpt lat="46.96901782268481" lon="8.678345600845532">
      <ele>1460.4</ele></trkpt>
      <trkpt lat="46.96900253889667" lon="8.6782240513658">
      <ele>1459.4</ele></trkpt>
      <trkpt lat="46.96897489068228" lon="8.67809615810519">
      <ele>1458.3</ele></trkpt>
      <trkpt lat="46.968922617693494" lon="8.677943462726482">
      <ele>1457.4</ele></trkpt>
      <trkpt lat="46.96887830080556" lon="8.677821230597148">
      <ele>1456.5</ele></trkpt>
      <trkpt lat="46.96886744257526" lon="8.677675549671427">
      <ele>1455.6</ele></trkpt>
      <trkpt lat="46.96888527155176" lon="8.677560836196607">
      <ele>1454.7</ele></trkpt>
      <trkpt lat="46.96890258590959" lon="8.677494565706207">
      <ele>1453.8</ele></trkpt>
      <trkpt lat="46.96889937654915" lon="8.677409436005536">
      <ele>1452.9</ele></trkpt>
      <trkpt lat="46.96888733564157" lon="8.67728823785504">
      <ele>1452.0</ele></trkpt>
      <trkpt lat="46.968888431274166" lon="8.677186832416124">
      <ele>1451.1</ele></trkpt>
      <trkpt lat="46.968913550088025" lon="8.677085967763258">
      <ele>1450.2</ele></trkpt>
      <trkpt lat="46.96895757779734" lon="8.676966062375273">
      <ele>1449.3</ele></trkpt>
      <trkpt lat="46.96900672854036" lon="8.676865751528048">
      <ele>1448.4</ele></trkpt>
      <trkpt lat="46.96905605648627" lon="8.676749858009726">
      <ele>1447.5</ele></trkpt>
      <trkpt lat="46.96907549516581" lon="8.676680100789206">
      <ele>1446.6</ele></trkpt>
      <trkpt lat="46.96907921036249" lon="8.676582658589194">
      <ele>1445.7</ele></trkpt>
      <trkpt lat="46.96908047377107" lon="8.67646565693223">
      <ele>1444.8</ele></trkpt>
      <trkpt lat="46.969097554099044" lon="8.67636850956822">
      <ele>1443.9</ele></trkpt>
      <trkpt lat="46.96913936408351" lon="8.676205629815177">
      <ele>1443.0</ele></trkpt>
      <trkpt lat="46.96919871006836" lon="8.675969176549199">
      <ele>1442.1</ele></trkpt>
      <trkpt lat="46.969207937806" lon="8.675900221882374">
      <ele>1441.2</ele></trkpt>
      <trkpt lat="46.96921461100123" lon="8.675805383978817">
      <ele>1440.3</ele></trkpt>
      <trkpt lat="46.969215613446586" lon="8.675712491904408">
      <ele>1439.7</ele></trkpt>
      <trkpt lat="46.969211620427146" lon="8.67554812278486">
      <ele>1439.1</ele></trkpt>
      <trkpt lat="46.96919688705906" lon="8.675482848028537">
      <ele>1438.5</ele></trkpt>
      <trkpt lat="46.969175008776105" lon="8.675415240324815">
      <ele>1437.9</ele></trkpt>
      <trkpt lat="46.96913571338976" lon="8.675323470621272">
      <ele>1437.3</ele></trkpt>
      <trkpt lat="46.969113082180925" lon="8.675258934130769">
      <ele>1436.7</ele></trkpt>
      <trkpt lat="46.969098386552176" lon="8.675180137181181">
      <ele>1436.1</ele></trkpt>
      <trkpt lat="46.96907335598253" lon="8.67494518404559">
      <ele>1435.5</ele></trkpt>
      <trkpt lat="46.96905332746194" lon="8.67477024808968">
      <ele>1434.9</ele></trkpt>
      <trkpt lat="46.96903454181601" lon="8.674611847381353">
      <ele>1434.3</ele></trkpt>
      <trkpt lat="46.96902809955235" lon="8.674489267103052">
      <ele>1433.8</ele></trkpt>
      <trkpt lat="46.96907809726568" lon="8.67442535082737">
      <ele>1433.2</ele></trkpt>
      <trkpt lat="46.96912157534138" lon="8.674420437234545">
      <ele>1432.6</ele></trkpt>
      <trkpt lat="46.969199190632274" lon="8.67443339389633">
      <ele>1432.0</ele></trkpt>
      <trkpt lat="46.96922425566029" lon="8.674407397143092">
      <ele>1431.4</ele></trkpt>
      <trkpt lat="46.969367399688544" lon="8.674220904060945">
      <ele>1430.8</ele></trkpt>
      <trkpt lat="46.96951110939613" lon="8.67412046525503">
      <ele>1430.2</ele></trkpt>
      <trkpt lat="46.96962934810579" lon="8.673917561171425">
      <ele>1429.6</ele></trkpt>
      <trkpt lat="46.96964422985319" lon="8.67389734892798">
      <ele>1429.0</ele></trkpt>
      <trkpt lat="46.96964622238752" lon="8.67386104322565">
      <ele>1428.4</ele></trkpt>
      <trkpt lat="46.96963617430342" lon="8.673830913469361">
      <ele>1426.8</ele></trkpt>
      <trkpt lat="46.969623380851004" lon="8.673792572382546">
      <ele>1425.2</ele></trkpt>
      <trkpt lat="46.96961618953802" lon="8.673740271634232">
      <ele>1423.6</ele></trkpt>
      <trkpt lat="46.969627361812854" lon="8.673721169991687">
      <ele>1421.9</ele></trkpt>
      <trkpt lat="46.96964299179015" lon="8.673743398156514">
      <ele>1420.3</ele></trkpt>
      <trkpt lat="46.969661284445664" lon="8.673792366389257">
      <ele>1418.7</ele></trkpt>
      <trkpt lat="46.96968527112073" lon="8.673806323142399">
      <ele>1417.1</ele></trkpt>
      <trkpt lat="46.96967910534123" lon="8.673729811548784">
      <ele>1415.5</ele></trkpt>
      <trkpt lat="46.969681991697804" lon="8.67370322537559">
      <ele>1413.9</ele></trkpt>
      <trkpt lat="46.96972620994495" lon="8.673743169666558">
      <ele>1412.2</ele></trkpt>
      <trkpt lat="46.96978034784" lon="8.673845202981312">
      <ele>1410.6</ele></trkpt>
      <trkpt lat="46.96979983935662" lon="8.673826318910653">
      <ele>1409.0</ele></trkpt>
      <trkpt lat="46.969802075695334" lon="8.67373064174474">
      <ele>1407.4</ele></trkpt>
      <trkpt lat="46.96979969624848" lon="8.673637526325324">
      <ele>1405.8</ele></trkpt>
      <trkpt lat="46.96979807557503" lon="8.67357418255172">
      <ele>1404.2</ele></trkpt>
      <trkpt lat="46.969825364433476" lon="8.673456134890019">
      <ele>1402.6</ele></trkpt>
      <trkpt lat="46.96986231331245" lon="8.673464383508467">
      <ele>1400.9</ele></trkpt>
      <trkpt lat="46.96986868967224" lon="8.673488790843502">
      <ele>1399.3</ele></trkpt>
      <trkpt lat="46.96991766721268" lon="8.67349614638255">
      <ele>1397.7</ele></trkpt>
      <trkpt lat="46.96995263991669" lon="8.673535851814059">
      <ele>1396.1</ele></trkpt>
      <trkpt lat="46.969972834988866" lon="8.673572746750164">
      <ele>1394.9</ele></trkpt>
      <trkpt lat="46.969989440935606" lon="8.673582880202073">
      <ele>1393.7</ele></trkpt>
      <trkpt lat="46.969996101697895" lon="8.673535786576988">
      <ele>1392.5</ele></trkpt>
      <trkpt lat="46.97000727796473" lon="8.673515475752051">
      <ele>1391.2</ele></trkpt>
      <trkpt lat="46.97003679653603" lon="8.673532017284836">
      <ele>1390.0</ele></trkpt>
      <trkpt lat="46.97005243071767" lon="8.673553023419252">
      <ele>1388.8</ele></trkpt>
      <trkpt lat="46.970182333960665" lon="8.673438898307914">
      <ele>1387.6</ele></trkpt>
      <trkpt lat="46.97020183346056" lon="8.673417595930301">
      <ele>1386.4</ele></trkpt>
      <trkpt lat="46.97022212764516" lon="8.673430258660634">
      <ele>1385.2</ele></trkpt>
      <trkpt lat="46.9703009365605" lon="8.673374164969822">
      <ele>1383.9</ele></trkpt>
      <trkpt lat="46.97037392512138" lon="8.673388209995041">
      <ele>1382.7</ele></trkpt>
      <trkpt lat="46.97044228684748" lon="8.673403344651192">
      <ele>1381.5</ele></trkpt>
      <trkpt lat="46.97054801826834" lon="8.673322504606427">
      <ele>1380.3</ele></trkpt>
      <trkpt lat="46.97060625752577" lon="8.673325262845285">
      <ele>1379.1</ele></trkpt>
      <trkpt lat="46.97078865683553" lon="8.673260983307811">
      <ele>1377.9</ele></trkpt>
      <trkpt lat="46.97096182739028" lon="8.673194059816817">
      <ele>1376.7</ele></trkpt>
      <trkpt lat="46.97109706023794" lon="8.67313217806646">
      <ele>1375.4</ele></trkpt>
      <trkpt lat="46.97113422848852" lon="8.673088308005191">
      <ele>1374.2</ele></trkpt>
      <trkpt lat="46.971190133505644" lon="8.67297949698896">
      <ele>1373.0</ele></trkpt>
      <trkpt lat="46.971245808863614" lon="8.672931281287728">
      <ele>1371.8</ele></trkpt>
      <trkpt lat="46.97130096512512" lon="8.672780028121784">
      <ele>1371.0</ele></trkpt>
      <trkpt lat="46.97134734866691" lon="8.672740036213112">
      <ele>1370.1</ele></trkpt>
      <trkpt lat="46.971365127561484" lon="8.672687177412996">
      <ele>1369.3</ele></trkpt>
      <trkpt lat="46.97139281435623" lon="8.67246854081211">
      <ele>1368.5</ele></trkpt>
      <trkpt lat="46.97139672069014" lon="8.672416532897294">
      <ele>1367.7</ele></trkpt>
      <trkpt lat="46.97141725326495" lon="8.672368600000468">
      <ele>1366.8</ele></trkpt>
      <trkpt lat="46.97144467222392" lon="8.672216603564552">
      <ele>1366.0</ele></trkpt>
      <trkpt lat="46.97147344616437" lon="8.672189493899543">
      <ele>1365.2</ele></trkpt>
      <trkpt lat="46.97152874573702" lon="8.672003085843208">
      <ele>1364.3</ele></trkpt>
      <trkpt lat="46.97153361047163" lon="8.67194141358387">
      <ele>1363.5</ele></trkpt>
      <trkpt lat="46.97153563572124" lon="8.671897826224225">
      <ele>1362.7</ele></trkpt>
      <trkpt lat="46.97159293122891" lon="8.671826909354754">
      <ele>1361.8</ele></trkpt>
      <trkpt lat="46.97160672415177" lon="8.671784104702404">
      <ele>1361.0</ele></trkpt>
      <trkpt lat="46.97161873002142" lon="8.671730127088477">
      <ele>1360.2</ele></trkpt>
      <trkpt lat="46.971647645137466" lon="8.671697408361295">
      <ele>1359.3</ele></trkpt>
      <trkpt lat="46.97169092355996" lon="8.671656673698713">
      <ele>1358.5</ele></trkpt>
      <trkpt lat="46.97171601918652" lon="8.671625260336288">
      <ele>1357.7</ele></trkpt>
      <trkpt lat="46.97187336318589" lon="8.671371036894392">
      <ele>1356.9</ele></trkpt>
      <trkpt lat="46.97193292267047" lon="8.671274437332045">
      <ele>1356.0</ele></trkpt>
      <trkpt lat="46.97198108070952" lon="8.671255105502311">
      <ele>1355.2</ele></trkpt>
      <trkpt lat="46.97209984721096" lon="8.671151571216301">
      <ele>1354.7</ele></trkpt>
      <trkpt lat="46.972172081809326" lon="8.671121962003294">
      <ele>1354.1</ele></trkpt>
      <trkpt lat="46.97222680084668" lon="8.671079780442353">
      <ele>1353.6</ele></trkpt>
      <trkpt lat="46.97236525791208" lon="8.671137960883748">
      <ele>1353.0</ele></trkpt>
      <trkpt lat="46.97245272529639" lon="8.671231167110843">
      <ele>1352.5</ele></trkpt>
      <trkpt lat="46.97258522711145" lon="8.671392226231717">
      <ele>1351.9</ele></trkpt>
      <trkpt lat="46.97263795865206" lon="8.67138513023706">
      <ele>1351.4</ele></trkpt>
      <trkpt lat="46.972756429096236" lon="8.671354321690593">
      <ele>1350.8</ele></trkpt>
      <trkpt lat="46.972899701107785" lon="8.671362946303278">
      <ele>1350.3</ele></trkpt>
      <trkpt lat="46.97298298067968" lon="8.67134695695947">
      <ele>1349.8</ele></trkpt>
      <trkpt lat="46.97309934195542" lon="8.671161720729119">
      <ele>1349.2</ele></trkpt>
      <trkpt lat="46.97317114340583" lon="8.67111968078042">
      <ele>1348.7</ele></trkpt>
      <trkpt lat="46.97324255130646" lon="8.671114248494437">
      <ele>1348.1</ele></trkpt>
      <trkpt lat="46.97329174776077" lon="8.671139744906878">
      <ele>1347.6</ele></trkpt>
      <trkpt lat="46.973304945839345" lon="8.67118823062403">
      <ele>1347.0</ele></trkpt>
      <trkpt lat="46.973312760646905" lon="8.67121695692686">
      <ele>1346.5</ele></trkpt>
      <trkpt lat="46.97334789691155" lon="8.67147412091567">
      <ele>1345.9</ele></trkpt>
      <trkpt lat="46.973361084986486" lon="8.671530216438647">
      <ele>1345.4</ele></trkpt>
      <trkpt lat="46.97339963884484" lon="8.671581637052329">
      <ele>1344.8</ele></trkpt>
      <trkpt lat="46.97346938006975" lon="8.671623272335244">
      <ele>1344.3</ele></trkpt>
      <trkpt lat="46.973505882057836" lon="8.671663881719878">
      <ele>1344.4</ele></trkpt>
      <trkpt lat="46.97352931321916" lon="8.67170274530214">
      <ele>1344.5</ele></trkpt>
      <trkpt lat="46.97359317986571" lon="8.671641492157317">
      <ele>1344.6</ele></trkpt>
      <trkpt lat="46.97365728942958" lon="8.671559320391431">
      <ele>1344.7</ele></trkpt>
      <trkpt lat="46.9736926681648" lon="8.671485202875193">
      <ele>1344.8</ele></trkpt>
      <trkpt lat="46.973733422036744" lon="8.671355454905378">
      <ele>1344.9</ele></trkpt>
      <trkpt lat="46.97377863332538" lon="8.671255420849839">
      <ele>1345.0</ele></trkpt>
      <trkpt lat="46.973826863015915" lon="8.671205991848309">
      <ele>1345.1</ele></trkpt>
      <trkpt lat="46.97387589467736" lon="8.671194933318016">
      <ele>1345.2</ele></trkpt>
      <trkpt lat="46.97393308644968" lon="8.671199728876903">
      <ele>1345.3</ele></trkpt>
      <trkpt lat="46.974019812549756" lon="8.67123134437751">
      <ele>1345.4</ele></trkpt>
      <trkpt lat="46.97407821931799" lon="8.671234419808075">
      <ele>1345.5</ele></trkpt>
      <trkpt lat="46.974145197049694" lon="8.671216807149293">
      <ele>1345.6</ele></trkpt>
      <trkpt lat="46.974256749560666" lon="8.671158355756939">
      <ele>1345.7</ele></trkpt>
      <trkpt lat="46.97430694978336" lon="8.67114905884244">
      <ele>1345.8</ele></trkpt>
      <trkpt lat="46.974356963493825" lon="8.671155437729489">
      <ele>1345.9</ele></trkpt>
      <trkpt lat="46.97447816830635" lon="8.671198306899909">
      <ele>1346.0</ele></trkpt>
      <trkpt lat="46.97466346287533" lon="8.67126876335544">
      <ele>1346.1</ele></trkpt>
      <trkpt lat="46.97485311117659" lon="8.671379421176807">
      <ele>1346.2</ele></trkpt>
      <trkpt lat="46.974957436513776" lon="8.671437570911426">
      <ele>1346.3</ele></trkpt>
      <trkpt lat="46.97504664877254" lon="8.671460517129535">
      <ele>1346.0</ele></trkpt>
      <trkpt lat="46.97514981515903" lon="8.671515170711817">
      <ele>1345.6</ele></trkpt>
      <trkpt lat="46.975295740767244" lon="8.671588234653973">
      <ele>1345.2</ele></trkpt>
      <trkpt lat="46.975361241546665" lon="8.671596704592444">
      <ele>1344.9</ele></trkpt>
      <trkpt lat="46.97540544128765" lon="8.671590753207987">
      <ele>1344.5</ele></trkpt>
      <trkpt lat="46.97548214940954" lon="8.671555909120118">
      <ele>1344.2</ele></trkpt>
      <trkpt lat="46.975546706444156" lon="8.67154171076635">
      <ele>1343.8</ele></trkpt>
      <trkpt lat="46.97564567705044" lon="8.671543982902291">
      <ele>1343.5</ele></trkpt>
      <trkpt lat="46.975695430210514" lon="8.671540288223408">
      <ele>1343.1</ele></trkpt>
      <trkpt lat="46.97571729966658" lon="8.671538661007526">
      <ele>1342.8</ele></trkpt>
      <trkpt lat="46.975756910925064" lon="8.671515175565299">
      <ele>1342.5</ele></trkpt>
      <trkpt lat="46.97579672833231" lon="8.671472518056524">
      <ele>1342.1</ele></trkpt>
      <trkpt lat="46.975875990991256" lon="8.671310526569176">
      <ele>1341.8</ele></trkpt>
      <trkpt lat="46.97591901562818" lon="8.671191287776393">
      <ele>1341.4</ele></trkpt>
      <trkpt lat="46.97593534549611" lon="8.671114981604124">
      <ele>1341.0</ele></trkpt>
      <trkpt lat="46.97593015979052" lon="8.671041691033755">
      <ele>1340.7</ele></trkpt>
      <trkpt lat="46.975904869415096" lon="8.670953980421164">
      <ele>1340.3</ele></trkpt>
      <trkpt lat="46.97588324338814" lon="8.670857626493875">
      <ele>1340.0</ele></trkpt>
      <trkpt lat="46.9758857501148" lon="8.670735709613723">
      <ele>1339.6</ele></trkpt>
      <trkpt lat="46.97590772605954" lon="8.670577660170197">
      <ele>1339.3</ele></trkpt>
      <trkpt lat="46.97595518189074" lon="8.670378332001363">
      <ele>1339.1</ele></trkpt>
      <trkpt lat="46.976020881040775" lon="8.670148086975423">
      <ele>1338.9</ele></trkpt>
      <trkpt lat="46.9760748500654" lon="8.6700081729204">
      <ele>1338.7</ele></trkpt>
      <trkpt lat="46.97614436129217" lon="8.669866879930971">
      <ele>1338.4</ele></trkpt>
      <trkpt lat="46.976198020930276" lon="8.66975658446189">
      <ele>1338.2</ele></trkpt>
      <trkpt lat="46.97623621209103" lon="8.669642451069844">
      <ele>1338.0</ele></trkpt>
      <trkpt lat="46.97627603846982" lon="8.669488279293043">
      <ele>1337.8</ele></trkpt>
      <trkpt lat="46.97629474163489" lon="8.66941202651374">
      <ele>1337.6</ele></trkpt>
      <trkpt lat="46.976321678187" lon="8.669348173044972">
      <ele>1337.4</ele></trkpt>
      <trkpt lat="46.9763556534792" lon="8.669293195220257">
      <ele>1337.2</ele></trkpt>
      <trkpt lat="46.97650060009182" lon="8.669124002637972">
      <ele>1336.9</ele></trkpt>
      <trkpt lat="46.97664182710552" lon="8.668966908394985">
      <ele>1336.7</ele></trkpt>
      <trkpt lat="46.976691513695144" lon="8.668893112863325">
      <ele>1336.5</ele></trkpt>
      <trkpt lat="46.976724908631894" lon="8.668782364264455">
      <ele>1336.3</ele></trkpt>
      <trkpt lat="46.97674686341288" lon="8.668626032992902">
      <ele>1336.1</ele></trkpt>
      <trkpt lat="46.97674369869684" lon="8.668538631793655">
      <ele>1335.9</ele></trkpt>
      <trkpt lat="46.97675922521181" lon="8.668514408103897">
      <ele>1335.6</ele></trkpt>
      <trkpt lat="46.9767746803927" lon="8.668492640695442">
      <ele>1335.4</ele></trkpt>
      <trkpt lat="46.97679585134917" lon="8.668460515251759">
      <ele>1335.2</ele></trkpt>
      <trkpt lat="46.97682004119223" lon="8.668424555143424">
      <ele>1335.0</ele></trkpt>
      <trkpt lat="46.976843656020364" lon="8.668386846824685">
      <ele>1334.0</ele></trkpt>
      <trkpt lat="46.9768848481631" lon="8.668318231889716">
      <ele>1333.0</ele></trkpt>
      <trkpt lat="46.976920571943374" lon="8.66826122926906">
      <ele>1332.0</ele></trkpt>
      <trkpt lat="46.9769426937032" lon="8.668223486623203">
      <ele>1331.0</ele></trkpt>
      <trkpt lat="46.976960293493775" lon="8.668192159861109">
      <ele>1330.0</ele></trkpt>
      <trkpt lat="46.97697885868011" lon="8.6681530213259">
      <ele>1329.0</ele></trkpt>
      <trkpt lat="46.977002882106014" lon="8.66810488574989">
      <ele>1328.0</ele></trkpt>
      <trkpt lat="46.9770265994078" lon="8.66805761063144">
      <ele>1327.0</ele></trkpt>
      <trkpt lat="46.97704490029207" lon="8.668015429671861">
      <ele>1326.0</ele></trkpt>
      <trkpt lat="46.97706225960342" lon="8.667977998428174">
      <ele>1325.0</ele></trkpt>
      <trkpt lat="46.97708027295305" lon="8.667934943323036">
      <ele>1324.1</ele></trkpt>
      <trkpt lat="46.97709613412918" lon="8.667898792144577">
      <ele>1323.1</ele></trkpt>
      <trkpt lat="46.97710988077667" lon="8.667865195072674">
      <ele>1322.1</ele></trkpt>
      <trkpt lat="46.97712244019817" lon="8.667831570809241">
      <ele>1321.1</ele></trkpt>
      <trkpt lat="46.97713497622445" lon="8.667800127913805">
      <ele>1320.1</ele></trkpt>
      <trkpt lat="46.97714575945142" lon="8.667766029211272">
      <ele>1319.1</ele></trkpt>
      <trkpt lat="46.977157864976206" lon="8.66771935557112">
      <ele>1318.1</ele></trkpt>
      <trkpt lat="46.9771690893667" lon="8.667671794234087">
      <ele>1317.1</ele></trkpt>
      <trkpt lat="46.9771790802004" lon="8.667627687833905">
      <ele>1316.1</ele></trkpt>
      <trkpt lat="46.97718690958215" lon="8.667591352694991">
      <ele>1315.1</ele></trkpt>
      <trkpt lat="46.977192605850156" lon="8.667559306285737">
      <ele>1314.5</ele></trkpt>
      <trkpt lat="46.97719805643166" lon="8.667522482937578">
      <ele>1313.9</ele></trkpt>
      <trkpt lat="46.97720199974253" lon="8.66748779386915">
      <ele>1313.3</ele></trkpt>
      <trkpt lat="46.97720475103828" lon="8.667453524419658">
      <ele>1312.7</ele></trkpt>
      <trkpt lat="46.97720842120323" lon="8.667415779659457">
      <ele>1312.1</ele></trkpt>
      <trkpt lat="46.97720909020176" lon="8.667381896313563">
      <ele>1311.5</ele></trkpt>
      <trkpt lat="46.97722684730822" lon="8.667362731028344">
      <ele>1310.9</ele></trkpt>
      <trkpt lat="46.97726660940973" lon="8.667316690002664">
      <ele>1310.3</ele></trkpt>
      <trkpt lat="46.97730904198865" lon="8.667272458176043">
      <ele>1309.7</ele></trkpt>
      <trkpt lat="46.97733432094952" lon="8.667245644145886">
      <ele>1309.1</ele></trkpt>
      <trkpt lat="46.97737466223141" lon="8.667201798121097">
      <ele>1308.5</ele></trkpt>
      <trkpt lat="46.97739658820456" lon="8.66718229433278">
      <ele>1307.9</ele></trkpt>
      <trkpt lat="46.97741066734209" lon="8.667173060622233">
      <ele>1307.3</ele></trkpt>
      <trkpt lat="46.977419056389245" lon="8.667167600550481">
      <ele>1306.7</ele></trkpt>
      <trkpt lat="46.977437554025286" lon="8.667170836570468">
      <ele>1306.1</ele></trkpt>
      <trkpt lat="46.97744686966539" lon="8.667078895942769">
      <ele>1305.5</ele></trkpt>
      <trkpt lat="46.97745623183074" lon="8.666982605629805">
      <ele>1304.9</ele></trkpt>
      <trkpt lat="46.977469425263735" lon="8.666862059910054">
      <ele>1304.3</ele></trkpt>
      <trkpt lat="46.977483777916746" lon="8.666744143190435">
      <ele>1303.7</ele></trkpt>
      <trkpt lat="46.97749171064364" lon="8.666670414908689">
      <ele>1303.1</ele></trkpt>
      <trkpt lat="46.9775000227263" lon="8.666616700717691">
      <ele>1303.2</ele></trkpt>
      <trkpt lat="46.97750668049715" lon="8.666586411041862">
      <ele>1303.2</ele></trkpt>
    </trkseg>
  </trk>
</gpx>