<?xml version='1.0' encoding='utf-8'?>
<gpx xmlns="http://www.topografix.com/GPX/1/1" xmlns:xsi="http://www.w3.org/2001/XMLSchema-instance" xsi:schemaLocation="http://www.topografix.com/GPX/1/1 http://www.topografix.com/GPX/1/1/gpx.xsd" version="1.1" creator="gpx.py -- https://github.com/tkrajina/gpxpy">
  <trk>
    <name>hundsteinhuette-sac</name>
    <trkseg>
      <trkpt lat="47.260757316677015" lon="9.45360857824759">
      <ele>1746.5</ele></trkpt>
    <trkpt lat="47.26078629154118" lon="9.45352223047962">
      <ele>1746.2</ele></trkpt>
      <trkpt lat="47.26078817989239" lon="9.453466510931577">
      <ele>1745.9</ele></trkpt>
      <trkpt lat="47.260790042833634" lon="9.45338980477067">
      <ele>1745.6</ele></trkpt>
      <trkpt lat="47.26078855575142" lon="9.453372963315392">
      <ele>1745.2</ele></trkpt>
      <trkpt lat="47.26078338246904" lon="9.453359049084558">
      <ele>1744.9</ele></trkpt>
      <trkpt lat="47.26078235501344" lon="9.453345767078028">
      <ele>1744.6</ele></trkpt>
      <trkpt lat="47.26078767600512" lon="9.453267856489445">
      <ele>1744.3</ele></trkpt>
      <trkpt lat="47.2607976785852" lon="9.453181544793463">
      <ele>1744.9</ele></trkpt>
      <trkpt lat="47.26080410807959" lon="9.453154481414968">
      <ele>1745.5</ele></trkpt>
      <trkpt lat="47.26080049547063" lon="9.453137758030373">
      <ele>1746.0</ele></trkpt>
      <trkpt lat="47.260795892084055" lon="9.453124182522911">
      <ele>1746.6</ele></trkpt>
      <trkpt lat="47.26077674041426" lon="9.453101810908127">
      <ele>1747.2</ele></trkpt>
      <trkpt lat="47.26075603213368" lon="9.453084588007894">
      <ele>1747.8</ele></trkpt>
      <trkpt lat="47.260747410140986" lon="9.453071852180559">
      <ele>1748.4</ele></trkpt>
      <trkpt lat="47.26074571143496" lon="9.453061452563638">
      <ele>1748.9</ele></trkpt>
      <trkpt lat="47.26075801828992" lon="9.452954490664462">
      <ele>1749.5</ele></trkpt>
      <trkpt lat="47.26071260663886" lon="9.452987484967302">
      <ele>1750.1</ele></trkpt>
      <trkpt lat="47.26067155521001" lon="9.453021714251754">
      <ele>1750.7</ele></trkpt>
      <trkpt lat="47.2606634074965" lon="9.453026627526565">
      <ele>1751.3</ele></trkpt>
      <trkpt lat="47.26066170492377" lon="9.453013875195527">
      <ele>1751.8</ele></trkpt>
      <trkpt lat="47.26067014163162" lon="9.452985222269135">
      <ele>1752.4</ele></trkpt>
      <trkpt lat="47.26068188638444" lon="9.452935124330546">
      <ele>1753.0</ele></trkpt>
      <trkpt lat="47.26068684948605" lon="9.452898264901986">
      <ele>1753.6</ele></trkpt>
      <trkpt lat="47.260697053298884" lon="9.452862713354042">
      <ele>1754.2</ele></trkpt>
      <trkpt lat="47.260703808196894" lon="9.452828353382365">
      <ele>1754.7</ele></trkpt>
      <trkpt lat="47.260703986877076" lon="9.452807834452958">
      <ele>1755.3</ele></trkpt>
      <trkpt lat="47.26070193900708" lon="9.452790641472898">
      <ele>1755.9</ele></trkpt>
      <trkpt lat="47.26070501561058" lon="9.452766478280411">
      <ele>1756.7</ele></trkpt>
      <trkpt lat="47.26070785184823" lon="9.452726723427658">
      <ele>1757.5</ele></trkpt>
      <trkpt lat="47.26069435580802" lon="9.452641243698269">
      <ele>1758.3</ele></trkpt>
      <trkpt lat="47.26068871459794" lon="9.452595922062493">
      <ele>1759.1</ele></trkpt>
      <trkpt lat="47.26069612821638" lon="9.452498635371168">
      <ele>1759.9</ele></trkpt>
      <trkpt lat="47.26070568176559" lon="9.452401429354849">
      <ele>1760.7</ele></trkpt>
      <trkpt lat="47.26071631686747" lon="9.45232419500613">
      <ele>1761.5</ele></trkpt>
      <trkpt lat="47.26073062727764" lon="9.452281727207797">
      <ele>1762.3</ele></trkpt>
      <trkpt lat="47.26073697810637" lon="9.452245250441292">
      <ele>1763.1</ele></trkpt>
      <trkpt lat="47.26074496029914" lon="9.452197283703358">
      <ele>1763.9</ele></trkpt>
      <trkpt lat="47.26075713064935" lon="9.452154735156302">
      <ele>1764.7</ele></trkpt>
      <trkpt lat="47.26075918318072" lon="9.452119140415135">
      <ele>1765.5</ele></trkpt>
      <trkpt lat="47.26077059747789" lon="9.452078664804299">
      <ele>1766.3</ele></trkpt>
      <trkpt lat="47.260797193291666" lon="9.452028254222208">
      <ele>1767.1</ele></trkpt>
      <trkpt lat="47.26081768549011" lon="9.451999659106052">
      <ele>1767.9</ele></trkpt>
      <trkpt lat="47.26084774088567" lon="9.451955683298436">
      <ele>1768.7</ele></trkpt>
      <trkpt lat="47.260864718529234" lon="9.451923796801418">
      <ele>1769.5</ele></trkpt>
      <trkpt lat="47.26088540290501" lon="9.451884714694735">
      <ele>1770.3</ele></trkpt>
      <trkpt lat="47.26091256245389" lon="9.451842717853042">
      <ele>1771.1</ele></trkpt>
      <trkpt lat="47.2609400659181" lon="9.451821722276712">
      <ele>1771.9</ele></trkpt>
      <trkpt lat="47.26094238890582" lon="9.45181132889913">
      <ele>1771.8</ele></trkpt>
      <trkpt lat="47.26093183535732" lon="9.451802538338406">
      <ele>1771.7</ele></trkpt>
      <trkpt lat="47.260919059660296" lon="9.451797853743658">
      <ele>1771.6</ele></trkpt>
      <trkpt lat="47.26091779473204" lon="9.451788369236418">
      <ele>1771.5</ele></trkpt>
      <trkpt lat="47.2609287052199" lon="9.451777242258014">
      <ele>1771.4</ele></trkpt>
      <trkpt lat="47.26093106512062" lon="9.451764735578363">
      <ele>1771.2</ele></trkpt>
      <trkpt lat="47.260927389374" lon="9.451729982110802">
      <ele>1771.1</ele></trkpt>
      <trkpt lat="47.26092230240205" lon="9.451694118101528">
      <ele>1771.0</ele></trkpt>
      <trkpt lat="47.26091121270522" lon="9.451674813191266">
      <ele>1770.9</ele></trkpt>
      <trkpt lat="47.260897501529705" lon="9.451641782916747">
      <ele>1770.8</ele></trkpt>
      <trkpt lat="47.260894944185345" lon="9.451624901141438">
      <ele>1770.7</ele></trkpt>
      <trkpt lat="47.26090916297554" lon="9.451587663435088">
      <ele>1770.6</ele></trkpt>
      <trkpt lat="47.2609435259303" lon="9.451541748221935">
      <ele>1770.5</ele></trkpt>
      <trkpt lat="47.26098029417868" lon="9.45148123969694">
      <ele>1770.4</ele></trkpt>
      <trkpt lat="47.261009102872436" lon="9.45142672229582">
      <ele>1770.2</ele></trkpt>
      <trkpt lat="47.261023555795035" lon="9.451416772881252">
      <ele>1770.1</ele></trkpt>
      <trkpt lat="47.26103294498977" lon="9.451410835558796">
      <ele>1770.0</ele></trkpt>
      <trkpt lat="47.261033902393955" lon="9.451397231844767">
      <ele>1769.9</ele></trkpt>
      <trkpt lat="47.261027619849294" lon="9.451388602335339">
      <ele>1769.8</ele></trkpt>
      <trkpt lat="47.26100265926143" lon="9.451386617387056">
      <ele>1769.7</ele></trkpt>
      <trkpt lat="47.260984545071416" lon="9.451401675893575">
      <ele>1769.0</ele></trkpt>
      <trkpt lat="47.260957770480076" lon="9.451421641826698">
      <ele>1768.3</ele></trkpt>
      <trkpt lat="47.260927045287914" lon="9.451422585189167">
      <ele>1767.6</ele></trkpt>
      <trkpt lat="47.26089496378263" lon="9.45141927447636">
      <ele>1766.9</ele></trkpt>
      <trkpt lat="47.260851682494504" lon="9.45140295921043">
      <ele>1766.2</ele></trkpt>
      <trkpt lat="47.26080559699212" lon="9.45138337945848">
      <ele>1765.4</ele></trkpt>
      <trkpt lat="47.260769601556056" lon="9.451358946198708">
      <ele>1764.7</ele></trkpt>
      <trkpt lat="47.2607406905853" lon="9.451337925587628">
      <ele>1764.0</ele></trkpt>
      <trkpt lat="47.26071336499688" lon="9.45130752797133">
      <ele>1763.3</ele></trkpt>
      <trkpt lat="47.26068826176033" lon="9.45127301121193">
      <ele>1762.6</ele></trkpt>
      <trkpt lat="47.26067244736251" lon="9.45123778723126">
      <ele>1761.9</ele></trkpt>
      <trkpt lat="47.26065749852868" lon="9.45119421646314">
      <ele>1761.2</ele></trkpt>
      <trkpt lat="47.26064666501367" lon="9.451160237585535">
      <ele>1760.5</ele></trkpt>
      <trkpt lat="47.26063630378943" lon="9.4511399162194">
      <ele>1759.8</ele></trkpt>
      <trkpt lat="47.260625658617265" lon="9.451136369444265">
      <ele>1759.0</ele></trkpt>
      <trkpt lat="47.26060659109662" lon="9.451124099401413">
      <ele>1758.3</ele></trkpt>
      <trkpt lat="47.26059465372623" lon="9.451112111295494">
      <ele>1757.6</ele></trkpt>
      <trkpt lat="47.260575315026536" lon="9.451074666363613">
      <ele>1756.9</ele></trkpt>
      <trkpt lat="47.26056519181681" lon="9.451040714332068">
      <ele>1756.2</ele></trkpt>
      <trkpt lat="47.26055466939412" lon="9.450988917886168">
      <ele>1755.5</ele></trkpt>
      <trkpt lat="47.26054982020878" lon="9.450939423492821">
      <ele>1755.2</ele></trkpt>
      <trkpt lat="47.260543894417545" lon="9.450910876719819">
      <ele>1754.9</ele></trkpt>
      <trkpt lat="47.260530238142174" lon="9.450874690146875">
      <ele>1754.6</ele></trkpt>
      <trkpt lat="47.260521727662734" lon="9.450830304869205">
      <ele>1754.3</ele></trkpt>
      <trkpt lat="47.26051223215696" lon="9.450801623614884">
      <ele>1754.0</ele></trkpt>
      <trkpt lat="47.26049442381091" lon="9.450757945360149">
      <ele>1753.6</ele></trkpt>
      <trkpt lat="47.26048708675026" lon="9.450728288125116">
      <ele>1753.3</ele></trkpt>
      <trkpt lat="47.26048736117797" lon="9.450712570565111">
      <ele>1753.0</ele></trkpt>
      <trkpt lat="47.260494174638076" lon="9.450690795010127">
      <ele>1752.7</ele></trkpt>
      <trkpt lat="47.260509667375786" lon="9.45066199796908">
      <ele>1752.4</ele></trkpt>
      <trkpt lat="47.26051802026616" lon="9.450633989237659">
      <ele>1752.1</ele></trkpt>
      <trkpt lat="47.260517212750436" lon="9.450598300075212">
      <ele>1751.8</ele></trkpt>
      <trkpt lat="47.26051609772712" lon="9.450539509702544">
      <ele>1751.5</ele></trkpt>
      <trkpt lat="47.260511175253136" lon="9.4504942023352">
      <ele>1751.2</ele></trkpt>
      <trkpt lat="47.26049243124774" lon="9.450422165501308">
      <ele>1750.8</ele></trkpt>
      <trkpt lat="47.26047451300517" lon="9.450384774412944">
      <ele>1750.5</ele></trkpt>
      <trkpt lat="47.260450766073646" lon="9.450354499045936">
      <ele>1750.2</ele></trkpt>
      <trkpt lat="47.26042597954417" lon="9.45034202709575">
      <ele>1749.9</ele></trkpt>
      <trkpt lat="47.26040837804108" lon="9.450327724374716">
      <ele>1749.6</ele></trkpt>
      <trkpt lat="47.26040376303168" lon="9.450305518279533">
      <ele>1749.3</ele></trkpt>
      <trkpt lat="47.260424406722734" lon="9.450309454748698">
      <ele>1748.7</ele></trkpt>
      <trkpt lat="47.260447282192715" lon="9.450308215044478">
      <ele>1748.2</ele></trkpt>
      <trkpt lat="47.2604646674564" lon="9.450294186202083">
      <ele>1747.6</ele></trkpt>
      <trkpt lat="47.2604846010371" lon="9.450298082703812">
      <ele>1747.1</ele></trkpt>
      <trkpt lat="47.26050218432891" lon="9.450313428870466">
      <ele>1746.5</ele></trkpt>
      <trkpt lat="47.260521398576195" lon="9.450317298283636">
      <ele>1746.0</ele></trkpt>
      <trkpt lat="47.26054056694023" lon="9.450324311553828">
      <ele>1745.4</ele></trkpt>
      <trkpt lat="47.26055037360149" lon="9.450335175077653">
      <ele>1744.9</ele></trkpt>
      <trkpt lat="47.26057483986998" lon="9.450365477591623">
      <ele>1744.3</ele></trkpt>
      <trkpt lat="47.26059249647441" lon="9.45037662364296">
      <ele>1743.8</ele></trkpt>
      <trkpt lat="47.26061169227332" lon="9.450381549730613">
      <ele>1743.2</ele></trkpt>
      <trkpt lat="47.26062749223524" lon="9.450376897909672">
      <ele>1742.6</ele></trkpt>
      <trkpt lat="47.26063279364526" lon="9.450359268223352">
      <ele>1742.1</ele></trkpt>
      <trkpt lat="47.26062877000955" lon="9.450344419609813">
      <ele>1741.5</ele></trkpt>
      <trkpt lat="47.26060834559024" lon="9.450327922242238">
      <ele>1741.0</ele></trkpt>
      <trkpt lat="47.26059228350843" lon="9.45030738629816">
      <ele>1740.4</ele></trkpt>
      <trkpt lat="47.26057773363768" lon="9.45028166028616">
      <ele>1739.9</ele></trkpt>
      <trkpt lat="47.260575368610375" lon="9.45025323449684">
      <ele>1739.3</ele></trkpt>
      <trkpt lat="47.260566542493834" lon="9.450234134241281">
      <ele>1738.8</ele></trkpt>
      <trkpt lat="47.26055471269489" lon="9.450194844620192">
      <ele>1738.2</ele></trkpt>
      <trkpt lat="47.260548030717935" lon="9.450149814614448">
      <ele>1737.2</ele></trkpt>
      <trkpt lat="47.260537202449605" lon="9.450140260750313">
      <ele>1736.3</ele></trkpt>
      <trkpt lat="47.26048467111009" lon="9.450139431837094">
      <ele>1735.3</ele></trkpt>
      <trkpt lat="47.26047416238971" lon="9.45012909702019">
      <ele>1734.4</ele></trkpt>
      <trkpt lat="47.2605049763175" lon="9.450106573353063">
      <ele>1733.4</ele></trkpt>
      <trkpt lat="47.26053501509377" lon="9.45006917807239">
      <ele>1732.4</ele></trkpt>
      <trkpt lat="47.26050853667823" lon="9.450031464647207">
      <ele>1731.5</ele></trkpt>
      <trkpt lat="47.260480647018696" lon="9.4499926407672">
      <ele>1730.5</ele></trkpt>
      <trkpt lat="47.26047329131902" lon="9.449964040288174">
      <ele>1729.6</ele></trkpt>
      <trkpt lat="47.260471603018026" lon="9.449896835784065">
      <ele>1728.6</ele></trkpt>
      <trkpt lat="47.26047010337387" lon="9.449860063268119">
      <ele>1727.6</ele></trkpt>
      <trkpt lat="47.260462894014566" lon="9.449823075713308">
      <ele>1726.7</ele></trkpt>
      <trkpt lat="47.260432276156486" lon="9.449735895040323">
      <ele>1725.7</ele></trkpt>
      <trkpt lat="47.26042511183608" lon="9.44972571269973">
      <ele>1724.8</ele></trkpt>
      <trkpt lat="47.260399923076335" lon="9.449697101532454">
      <ele>1723.8</ele></trkpt>
      <trkpt lat="47.26038176911996" lon="9.449690734677796">
      <ele>1722.8</ele></trkpt>
      <trkpt lat="47.26036677570852" lon="9.449704338318558">
      <ele>1721.9</ele></trkpt>
      <trkpt lat="47.26034626378698" lon="9.449732550024988">
      <ele>1720.9</ele></trkpt>
      <trkpt lat="47.26032959628217" lon="9.449739997708141">
      <ele>1720.0</ele></trkpt>
      <trkpt lat="47.26030514149271" lon="9.449736354088886">
      <ele>1719.0</ele></trkpt>
      <trkpt lat="47.26026256412305" lon="9.44968020543285">
      <ele>1720.3</ele></trkpt>
      <trkpt lat="47.26021847499583" lon="9.449628189615469">
      <ele>1721.7</ele></trkpt>
      <trkpt lat="47.26019021457046" lon="9.44960854276764">
      <ele>1723.0</ele></trkpt>
      <trkpt lat="47.26015703732838" lon="9.449550461840296">
      <ele>1724.3</ele></trkpt>
      <trkpt lat="47.26011099516583" lon="9.449507756494704">
      <ele>1725.6</ele></trkpt>
      <trkpt lat="47.2600657830126" lon="9.449469047461603">
      <ele>1727.0</ele></trkpt>
      <trkpt lat="47.26001803502217" lon="9.449472536130965">
      <ele>1728.3</ele></trkpt>
      <trkpt lat="47.25999080652289" lon="9.449486049082559">
      <ele>1729.6</ele></trkpt>
      <trkpt lat="47.25991521820022" lon="9.449477268510691">
      <ele>1730.9</ele></trkpt>
      <trkpt lat="47.259816348576756" lon="9.44953372048818">
      <ele>1732.2</ele></trkpt>
      <trkpt lat="47.25975185992364" lon="9.449571020978958">
      <ele>1733.6</ele></trkpt>
      <trkpt lat="47.25970853216795" lon="9.449580557343289">
      <ele>1734.9</ele></trkpt>
      <trkpt lat="47.25966592140264" lon="9.449543849676164">
      <ele>1736.2</ele></trkpt>
      <trkpt lat="47.259626072954205" lon="9.4495143565647">
      <ele>1737.5</ele></trkpt>
      <trkpt lat="47.259547885026265" lon="9.449456550695865">
      <ele>1738.9</ele></trkpt>
      <trkpt lat="47.259457184032236" lon="9.449353734358391">
      <ele>1740.2</ele></trkpt>
      <trkpt lat="47.25942262077553" lon="9.449266274897715">
      <ele>1741.5</ele></trkpt>
      <trkpt lat="47.259342267360665" lon="9.449087616330665">
      <ele>1742.8</ele></trkpt>
      <trkpt lat="47.25933845614452" lon="9.449145162567776">
      <ele>1744.2</ele></trkpt>
      <trkpt lat="47.259332139094184" lon="9.449240611689024">
      <ele>1745.5</ele></trkpt>
      <trkpt lat="47.259330012953185" lon="9.449272740077012">
      <ele>1746.2</ele></trkpt>
      <trkpt lat="47.25926690562868" lon="9.449101947250265">
      <ele>1746.9</ele></trkpt>
      <trkpt lat="47.25917576562742" lon="9.448962387194149">
      <ele>1747.6</ele></trkpt>
      <trkpt lat="47.258960576418346" lon="9.44872531332852">
      <ele>1748.3</ele></trkpt>
      <trkpt lat="47.25878048630373" lon="9.44847740340321">
      <ele>1749.0</ele></trkpt>
      <trkpt lat="47.25866381139878" lon="9.448221705046778">
      <ele>1749.7</ele></trkpt>
      <trkpt lat="47.258594202877106" lon="9.448073297236423">
      <ele>1750.4</ele></trkpt>
      <trkpt lat="47.25857454833974" lon="9.44799302235738">
      <ele>1751.1</ele></trkpt>
      <trkpt lat="47.25852144633265" lon="9.447933586595804">
      <ele>1751.8</ele></trkpt>
      <trkpt lat="47.258492387787676" lon="9.447875068792944">
      <ele>1752.5</ele></trkpt>
      <trkpt lat="47.258425894121004" lon="9.447803948499251">
      <ele>1753.2</ele></trkpt>
      <trkpt lat="47.258324188431345" lon="9.44774650400415">
      <ele>1753.9</ele></trkpt>
      <trkpt lat="47.25828579428851" lon="9.447705305320682">
      <ele>1754.6</ele></trkpt>
      <trkpt lat="47.258216049501776" lon="9.44756570930445">
      <ele>1755.3</ele></trkpt>
      <trkpt lat="47.25816270734286" lon="9.447519521122599">
      <ele>1756.0</ele></trkpt>
      <trkpt lat="47.25807438606585" lon="9.447410165839743">
      <ele>1756.7</ele></trkpt>
      <trkpt lat="47.25799668145218" lon="9.44720843329976">
      <ele>1757.4</ele></trkpt>
      <trkpt lat="47.25792708982692" lon="9.447060016137122">
      <ele>1758.1</ele></trkpt>
      <trkpt lat="47.25789624986331" lon="9.446930739758706">
      <ele>1758.8</ele></trkpt>
      <trkpt lat="47.257816861033724" lon="9.446826122859019">
      <ele>1759.5</ele></trkpt>
      <trkpt lat="47.2577647584387" lon="9.446709303055615">
      <ele>1759.4</ele></trkpt>
      <trkpt lat="47.25770309877648" lon="9.446623036397527">
      <ele>1759.2</ele></trkpt>
      <trkpt lat="47.2576453563245" lon="9.446483907849556">
      <ele>1759.1</ele></trkpt>
      <trkpt lat="47.25757229017643" lon="9.446361860062405">
      <ele>1758.9</ele></trkpt>
      <trkpt lat="47.25754361533012" lon="9.446281274720967">
      <ele>1758.8</ele></trkpt>
      <trkpt lat="47.25743708348694" lon="9.446091255326364">
      <ele>1758.7</ele></trkpt>
      <trkpt lat="47.25739466165052" lon="9.446012651420908">
      <ele>1758.5</ele></trkpt>
      <trkpt lat="47.2573642097697" lon="9.445916299229582">
      <ele>1758.4</ele></trkpt>
      <trkpt lat="47.25734179481031" lon="9.445815689727837">
      <ele>1758.2</ele></trkpt>
      <trkpt lat="47.25730280406815" lon="9.445676461599104">
      <ele>1758.1</ele></trkpt>
      <trkpt lat="47.257286338421295" lon="9.44553698325009">
      <ele>1758.0</ele></trkpt>
      <trkpt lat="47.2572538280576" lon="9.445409496828592">
      <ele>1757.8</ele></trkpt>
      <trkpt lat="47.257234169378115" lon="9.445351572939197">
      <ele>1757.7</ele></trkpt>
      <trkpt lat="47.25720489944524" lon="9.445313904729074">
      <ele>1757.5</ele></trkpt>
      <trkpt lat="47.25714543697551" lon="9.445262613083242">
      <ele>1757.4</ele></trkpt>
      <trkpt lat="47.25708259500722" lon="9.445164093268568">
      <ele>1757.3</ele></trkpt>
      <trkpt lat="47.257025884454166" lon="9.44509892294556">
      <ele>1757.1</ele></trkpt>
      <trkpt lat="47.25697985674503" lon="9.44500517180848">
      <ele>1757.0</ele></trkpt>
      <trkpt lat="47.256847815339704" lon="9.444806850777626">
      <ele>1756.8</ele></trkpt>
      <trkpt lat="47.25679106614324" lon="9.444738203926992">
      <ele>1756.7</ele></trkpt>
      <trkpt lat="47.25671737718241" lon="9.444596009558282">
      <ele>1757.3</ele></trkpt>
      <trkpt lat="47.25669063839373" lon="9.444523534402986">
      <ele>1757.8</ele></trkpt>
      <trkpt lat="47.25662821258363" lon="9.444410375699755">
      <ele>1758.4</ele></trkpt>
      <trkpt lat="47.2566041693964" lon="9.444375323228194">
      <ele>1758.9</ele></trkpt>
      <trkpt lat="47.25657390369142" lon="9.44435297528403">
      <ele>1759.5</ele></trkpt>
      <trkpt lat="47.25652658883269" lon="9.444303159159103">
      <ele>1760.0</ele></trkpt>
      <trkpt lat="47.25649291095979" lon="9.444286616993368">
      <ele>1760.6</ele></trkpt>
      <trkpt lat="47.256444935571295" lon="9.444228741057206">
      <ele>1761.1</ele></trkpt>
      <trkpt lat="47.25637938828604" lon="9.444147580102028">
      <ele>1761.7</ele></trkpt>
      <trkpt lat="47.256258618326484" lon="9.444033077434458">
      <ele>1762.2</ele></trkpt>
      <trkpt lat="47.2561866813483" lon="9.443948888581989">
      <ele>1762.8</ele></trkpt>
      <trkpt lat="47.25611062755452" lon="9.443857223935389">
      <ele>1763.4</ele></trkpt>
      <trkpt lat="47.2560564531113" lon="9.443813798580106">
      <ele>1763.9</ele></trkpt>
      <trkpt lat="47.25602034355745" lon="9.443786011617107">
      <ele>1764.5</ele></trkpt>
      <trkpt lat="47.255988474689396" lon="9.443776158861587">
      <ele>1765.0</ele></trkpt>
      <trkpt lat="47.25591659611069" lon="9.44375375571746">
      <ele>1765.6</ele></trkpt>
      <trkpt lat="47.255850129601484" lon="9.443694895916286">
      <ele>1766.1</ele></trkpt>
      <trkpt lat="47.25579872693168" lon="9.443641095087303">
      <ele>1766.7</ele></trkpt>
      <trkpt lat="47.25577493298583" lon="9.443630488375211">
      <ele>1767.2</ele></trkpt>
      <trkpt lat="47.255756729713276" lon="9.443602633862575">
      <ele>1767.8</ele></trkpt>
      <trkpt lat="47.25567561616364" lon="9.443524062086428">
      <ele>1768.7</ele></trkpt>
      <trkpt lat="47.2555656547662" lon="9.443449720237389">
      <ele>1769.6</ele></trkpt>
      <trkpt lat="47.255487494947545" lon="9.443378237613906">
      <ele>1770.5</ele></trkpt>
      <trkpt lat="47.255418558793636" lon="9.44330461692648">
      <ele>1771.4</ele></trkpt>
      <trkpt lat="47.25534550556697" lon="9.443223533771047">
      <ele>1772.2</ele></trkpt>
      <trkpt lat="47.255313301114825" lon="9.443182282290145">
      <ele>1773.1</ele></trkpt>
      <trkpt lat="47.255300797695476" lon="9.443145893515755">
      <ele>1774.0</ele></trkpt>
      <trkpt lat="47.255266420581094" lon="9.443117815612025">
      <ele>1774.9</ele></trkpt>
      <trkpt lat="47.25519875253002" lon="9.44305507977592">
      <ele>1775.8</ele></trkpt>
      <trkpt lat="47.25511615583171" lon="9.44300123279838">
      <ele>1776.7</ele></trkpt>
      <trkpt lat="47.25505040264166" lon="9.442955656588303">
      <ele>1777.6</ele></trkpt>
      <trkpt lat="47.254977393557446" lon="9.442934613344322">
      <ele>1778.5</ele></trkpt>
      <trkpt lat="47.25487002192968" lon="9.442887237580102">
      <ele>1779.4</ele></trkpt>
      <trkpt lat="47.2548239753983" lon="9.442848268852526">
      <ele>1780.3</ele></trkpt>
      <trkpt lat="47.254792311191835" lon="9.442802849037415">
      <ele>1781.1</ele></trkpt>
      <trkpt lat="47.25475911157506" lon="9.442776903824477">
      <ele>1782.0</ele></trkpt>
      <trkpt lat="47.25471949205378" lon="9.442689663241968">
      <ele>1782.9</ele></trkpt>
      <trkpt lat="47.25468170502031" lon="9.442610870019129">
      <ele>1783.8</ele></trkpt>
      <trkpt lat="47.25460509731565" lon="9.442465112406955">
      <ele>1784.7</ele></trkpt>
      <trkpt lat="47.25457902391216" lon="9.442402419038185">
      <ele>1785.6</ele></trkpt>
      <trkpt lat="47.2545448223888" lon="9.442335257988873">
      <ele>1785.6</ele></trkpt>
      <trkpt lat="47.25452893570465" lon="9.44230817867536">
      <ele>1785.6</ele></trkpt>
      <trkpt lat="47.25446669464287" lon="9.442099409030645">
      <ele>1785.6</ele></trkpt>
      <trkpt lat="47.25445241099261" lon="9.442059822319605">
      <ele>1785.6</ele></trkpt>
      <trkpt lat="47.2544213692965" lon="9.442018946243977">
      <ele>1785.6</ele></trkpt>
      <trkpt lat="47.25439494629562" lon="9.441977899874509">
      <ele>1785.6</ele></trkpt>
      <trkpt lat="47.25435880036713" lon="9.44189007717823">
      <ele>1785.6</ele></trkpt>
      <trkpt lat="47.25433339630919" lon="9.441835444314057">
      <ele>1785.6</ele></trkpt>
      <trkpt lat="47.25424763200115" lon="9.441698780987531">
      <ele>1785.6</ele></trkpt>
      <trkpt lat="47.254195270268454" lon="9.441609002628782">
      <ele>1785.7</ele></trkpt>
      <trkpt lat="47.25419318183514" lon="9.441574379975174">
      <ele>1785.7</ele></trkpt>
      <trkpt lat="47.254182994587474" lon="9.441538779625418">
      <ele>1785.7</ele></trkpt>
      <trkpt lat="47.2541688786244" lon="9.441514899128343">
      <ele>1785.7</ele></trkpt>
      <trkpt lat="47.254159352280666" lon="9.441487345165473">
      <ele>1785.7</ele></trkpt>
      <trkpt lat="47.25413871120972" lon="9.44144648966621">
      <ele>1785.7</ele></trkpt>
      <trkpt lat="47.25407114127916" lon="9.44133767996773">
      <ele>1785.7</ele></trkpt>
      <trkpt lat="47.254009732722935" lon="9.441265733768683">
      <ele>1785.7</ele></trkpt>
      <trkpt lat="47.25398047898867" lon="9.441207904540653">
      <ele>1785.7</ele></trkpt>
      <trkpt lat="47.2539326149002" lon="9.44113421990749">
      <ele>1785.7</ele></trkpt>
      <trkpt lat="47.25389940842346" lon="9.44107603119315">
      <ele>1785.7</ele></trkpt>
      <trkpt lat="47.25387211920068" lon="9.440921198166643">
      <ele>1786.2</ele></trkpt>
      <trkpt lat="47.25385273601737" lon="9.44083434909317">
      <ele>1786.7</ele></trkpt>
      <trkpt lat="47.25384692770514" lon="9.44077611735022">
      <ele>1787.2</ele></trkpt>
      <trkpt lat="47.25385184563014" lon="9.440719371350063">
      <ele>1787.6</ele></trkpt>
      <trkpt lat="47.25383931766463" lon="9.440569386862734">
      <ele>1788.1</ele></trkpt>
      <trkpt lat="47.25382495827253" lon="9.440441944717437">
      <ele>1788.6</ele></trkpt>
      <trkpt lat="47.25380629642857" lon="9.440302157143632">
      <ele>1789.1</ele></trkpt>
      <trkpt lat="47.25379924473352" lon="9.440228470208977">
      <ele>1789.6</ele></trkpt>
      <trkpt lat="47.25379058123358" lon="9.44017919709994">
      <ele>1790.1</ele></trkpt>
      <trkpt lat="47.253776056276024" lon="9.440124457983496">
      <ele>1790.6</ele></trkpt>
      <trkpt lat="47.253755314800216" lon="9.440085211792075">
      <ele>1791.0</ele></trkpt>
      <trkpt lat="47.25372971200215" lon="9.440058549146281">
      <ele>1791.5</ele></trkpt>
      <trkpt lat="47.25368016116077" lon="9.440050335835117">
      <ele>1792.0</ele></trkpt>
      <trkpt lat="47.253598630854626" lon="9.44005778642915">
      <ele>1792.5</ele></trkpt>
      <trkpt lat="47.2535559058483" lon="9.440067893779297">
      <ele>1793.0</ele></trkpt>
      <trkpt lat="47.25352707047094" lon="9.440057430566087">
      <ele>1793.5</ele></trkpt>
      <trkpt lat="47.25349474632122" lon="9.440028705724536">
      <ele>1793.9</ele></trkpt>
      <trkpt lat="47.25346835568148" lon="9.439988864852701">
      <ele>1794.4</ele></trkpt>
      <trkpt lat="47.25343338524681" lon="9.439963305008348">
      <ele>1794.9</ele></trkpt>
      <trkpt lat="47.25338821595718" lon="9.439917289568013">
      <ele>1795.4</ele></trkpt>
      <trkpt lat="47.25335516261019" lon="9.439879260698975">
      <ele>1796.4</ele></trkpt>
      <trkpt lat="47.25328299828533" lon="9.439714740318179">
      <ele>1797.5</ele></trkpt>
      <trkpt lat="47.25324020575863" lon="9.439629262145065">
      <ele>1798.5</ele></trkpt>
      <trkpt lat="47.25320503398299" lon="9.439491976612096">
      <ele>1799.5</ele></trkpt>
      <trkpt lat="47.25317635178978" lon="9.439414136946718">
      <ele>1800.6</ele></trkpt>
      <trkpt lat="47.25313331827954" lon="9.439296405935174">
      <ele>1801.6</ele></trkpt>
      <trkpt lat="47.253111635074546" lon="9.439261116155377">
      <ele>1802.6</ele></trkpt>
      <trkpt lat="47.25302135274472" lon="9.43917514161333">
      <ele>1803.6</ele></trkpt>
      <trkpt lat="47.25292183781718" lon="9.439104256429735">
      <ele>1804.7</ele></trkpt>
      <trkpt lat="47.25280839565095" lon="9.439049896918807">
      <ele>1805.7</ele></trkpt>
      <trkpt lat="47.25275459824137" lon="9.43901212280472">
      <ele>1806.7</ele></trkpt>
      <trkpt lat="47.25270745293255" lon="9.43896847948742">
      <ele>1807.8</ele></trkpt>
      <trkpt lat="47.25262619109993" lon="9.43892470817216">
      <ele>1808.8</ele></trkpt>
      <trkpt lat="47.25256286498829" lon="9.43886569821083">
      <ele>1809.8</ele></trkpt>
      <trkpt lat="47.252481429411546" lon="9.438797724576228">
      <ele>1810.8</ele></trkpt>
      <trkpt lat="47.25239674550588" lon="9.438743755979885">
      <ele>1811.9</ele></trkpt>
      <trkpt lat="47.252311179021575" lon="9.438662360550804">
      <ele>1812.9</ele></trkpt>
      <trkpt lat="47.25225384348041" lon="9.43859826329897">
      <ele>1813.9</ele></trkpt>
      <trkpt lat="47.25218967282789" lon="9.43851584587054">
      <ele>1815.0</ele></trkpt>
      <trkpt lat="47.25214574906172" lon="9.438458171250314">
      <ele>1816.0</ele></trkpt>
      <trkpt lat="47.25210713524184" lon="9.43839419396531">
      <ele>1815.8</ele></trkpt>
      <trkpt lat="47.25208544073382" lon="9.438354874369388">
      <ele>1815.6</ele></trkpt>
      <trkpt lat="47.25205771751697" lon="9.438316610899664">
      <ele>1815.4</ele></trkpt>
      <trkpt lat="47.251999921686625" lon="9.43824014148107">
      <ele>1815.2</ele></trkpt>
      <trkpt lat="47.25195886384469" lon="9.438165078525428">
      <ele>1815.0</ele></trkpt>
      <trkpt lat="47.251893035324635" lon="9.438038185964576">
      <ele>1814.8</ele></trkpt>
      <trkpt lat="47.251835692477655" lon="9.437915377506604">
      <ele>1814.6</ele></trkpt>
      <trkpt lat="47.25179528548052" lon="9.437827164534973">
      <ele>1814.4</ele></trkpt>
      <trkpt lat="47.25177913795133" lon="9.437796391388638">
      <ele>1814.2</ele></trkpt>
      <trkpt lat="47.25174619275294" lon="9.437697119854741">
      <ele>1814.0</ele></trkpt>
      <trkpt lat="47.25172770221512" lon="9.437653071017689">
      <ele>1813.8</ele></trkpt>
      <trkpt lat="47.25170769607153" lon="9.437607696895734">
      <ele>1813.6</ele></trkpt>
      <trkpt lat="47.251694546001715" lon="9.437566993045527">
      <ele>1813.4</ele></trkpt>
      <trkpt lat="47.25166381255774" lon="9.43748855132123">
      <ele>1813.2</ele></trkpt>
      <trkpt lat="47.251626569917576" lon="9.437415521883525">
      <ele>1813.0</ele></trkpt>
      <trkpt lat="47.25160298675204" lon="9.437369392998164">
      <ele>1812.8</ele></trkpt>
      <trkpt lat="47.251554627632316" lon="9.437247860355868">
      <ele>1812.6</ele></trkpt>
      <trkpt lat="47.251489970500394" lon="9.43707671898246">
      <ele>1812.4</ele></trkpt>
      <trkpt lat="47.251436003976956" lon="9.436931415766958">
      <ele>1812.2</ele></trkpt>
      <trkpt lat="47.251404254553464" lon="9.43686535833988">
      <ele>1812.0</ele></trkpt>
      <trkpt lat="47.251379239734526" lon="9.436792298240764">
      <ele>1811.8</ele></trkpt>
      <trkpt lat="47.25134887223905" lon="9.43671295934387">
      <ele>1811.7</ele></trkpt>
      <trkpt lat="47.25131715200141" lon="9.436645211809827">
      <ele>1811.5</ele></trkpt>
      <trkpt lat="47.25127441509418" lon="9.43655432352164">
      <ele>1811.4</ele></trkpt>
      <trkpt lat="47.25124792188765" lon="9.436474667340569">
      <ele>1811.2</ele></trkpt>
      <trkpt lat="47.25121744192134" lon="9.436395575694192">
      <ele>1811.1</ele></trkpt>
      <trkpt lat="47.25117998887177" lon="9.436277558134654">
      <ele>1811.0</ele></trkpt>
      <trkpt lat="47.25115907803726" lon="9.436232957253885">
      <ele>1810.8</ele></trkpt>
      <trkpt lat="47.251134712954745" lon="9.436169106068803">
      <ele>1810.7</ele></trkpt>
      <trkpt lat="47.25108501625776" lon="9.436040059513415">
      <ele>1810.5</ele></trkpt>
      <trkpt lat="47.25105528079688" lon="9.435928383270674">
      <ele>1810.3</ele></trkpt>
      <trkpt lat="47.251016144706" lon="9.435808810265263">
      <ele>1810.2</ele></trkpt>
      <trkpt lat="47.2509827330808" lon="9.4356865179087">
      <ele>1810.0</ele></trkpt>
      <trkpt lat="47.25096471171695" lon="9.435554097551686">
      <ele>1809.9</ele></trkpt>
      <trkpt lat="47.25095427634022" lon="9.43549844522015">
      <ele>1809.8</ele></trkpt>
      <trkpt lat="47.250936733909995" lon="9.43544169470498">
      <ele>1809.6</ele></trkpt>
      <trkpt lat="47.25091638262323" lon="9.4353351931612">
      <ele>1809.5</ele></trkpt>
      <trkpt lat="47.25088674093493" lon="9.435159392325462">
      <ele>1809.3</ele></trkpt>
      <trkpt lat="47.25087681866481" lon="9.435037767271124">
      <ele>1809.2</ele></trkpt>
      <trkpt lat="47.25086462611556" lon="9.434803088644795">
      <ele>1809.0</ele></trkpt>
      <trkpt lat="47.25086240175175" lon="9.434621943642764">
      <ele>1808.2</ele></trkpt>
      <trkpt lat="47.25085634072471" lon="9.43452566265548">
      <ele>1807.4</ele></trkpt>
      <trkpt lat="47.25087864151814" lon="9.434392926188574">
      <ele>1806.5</ele></trkpt>
      <trkpt lat="47.250901433686636" lon="9.434265057614828">
      <ele>1805.7</ele></trkpt>
      <trkpt lat="47.250901989762475" lon="9.434201782023102">
      <ele>1804.9</ele></trkpt>
      <trkpt lat="47.25088343359182" lon="9.434098585629965">
      <ele>1804.1</ele></trkpt>
      <trkpt lat="47.25086807692887" lon="9.434039234842322">
      <ele>1803.3</ele></trkpt>
      <trkpt lat="47.250843179894325" lon="9.433996679779677">
      <ele>1802.4</ele></trkpt>
      <trkpt lat="47.250792175567724" lon="9.433921184175954">
      <ele>1801.6</ele></trkpt>
      <trkpt lat="47.250763649297866" lon="9.433872058320233">
      <ele>1800.8</ele></trkpt>
      <trkpt lat="47.250663502064775" lon="9.433728391861983">
      <ele>1800.0</ele></trkpt>
      <trkpt lat="47.250652110268874" lon="9.433702462910013">
      <ele>1799.2</ele></trkpt>
      <trkpt lat="47.25063663587115" lon="9.433669126873504">
      <ele>1798.3</ele></trkpt>
      <trkpt lat="47.250604609560554" lon="9.433624151966486">
      <ele>1797.5</ele></trkpt>
      <trkpt lat="47.25056999953797" lon="9.433584974137567">
      <ele>1796.7</ele></trkpt>
      <trkpt lat="47.25054996313118" lon="9.433540737877514">
      <ele>1795.9</ele></trkpt>
      <trkpt lat="47.25051935250986" lon="9.433430101905422">
      <ele>1795.1</ele></trkpt>
      <trkpt lat="47.250486067657526" lon="9.43331853369964">
      <ele>1794.2</ele></trkpt>
      <trkpt lat="47.250468684870356" lon="9.43323846740828">
      <ele>1793.4</ele></trkpt>
      <trkpt lat="47.250437783193085" lon="9.433175814725937">
      <ele>1792.6</ele></trkpt>
      <trkpt lat="47.25041836506289" lon="9.433110406329156">
      <ele>1792.5</ele></trkpt>
      <trkpt lat="47.250394281303684" lon="9.43302604646652">
      <ele>1792.3</ele></trkpt>
      <trkpt lat="47.25037251302339" lon="9.432949820549155">
      <ele>1792.2</ele></trkpt>
      <trkpt lat="47.2503256824687" lon="9.432853035953674">
      <ele>1792.1</ele></trkpt>
      <trkpt lat="47.250284579156435" lon="9.432790280277652">
      <ele>1791.9</ele></trkpt>
      <trkpt lat="47.25023834326448" lon="9.432741789302941">
      <ele>1791.8</ele></trkpt>
      <trkpt lat="47.250229457071754" lon="9.432704682695556">
      <ele>1791.7</ele></trkpt>
      <trkpt lat="47.250218195006084" lon="9.432654088306604">
      <ele>1791.6</ele></trkpt>
      <trkpt lat="47.2502032337772" lon="9.4326269562105">
      <ele>1791.4</ele></trkpt>
      <trkpt lat="47.25018075538208" lon="9.432600587408437">
      <ele>1791.3</ele></trkpt>
      <trkpt lat="47.25015186687753" lon="9.432521929066258">
      <ele>1791.2</ele></trkpt>
      <trkpt lat="47.25007306534879" lon="9.432384203920604">
      <ele>1791.0</ele></trkpt>
      <trkpt lat="47.250025560069254" lon="9.432304547031464">
      <ele>1790.9</ele></trkpt>
      <trkpt lat="47.2499983946972" lon="9.43222249132414">
      <ele>1790.8</ele></trkpt>
      <trkpt lat="47.24995751981505" lon="9.43203418534775">
      <ele>1790.7</ele></trkpt>
      <trkpt lat="47.2499124002031" lon="9.4318972295067">
      <ele>1790.5</ele></trkpt>
      <trkpt lat="47.24990166074617" lon="9.43185281283635">
      <ele>1790.4</ele></trkpt>
      <trkpt lat="47.24989966955148" lon="9.431834767469104">
      <ele>1790.3</ele></trkpt>
      <trkpt lat="47.24988933959862" lon="9.431823890051492">
      <ele>1790.1</ele></trkpt>
      <trkpt lat="47.24987031632027" lon="9.431826113655838">
      <ele>1790.0</ele></trkpt>
      <trkpt lat="47.24984014068517" lon="9.431859277898244">
      <ele>1789.2</ele></trkpt>
      <trkpt lat="47.249828763637986" lon="9.431906846562116">
      <ele>1788.4</ele></trkpt>
      <trkpt lat="47.249825155391484" lon="9.431937024812184">
      <ele>1787.6</ele></trkpt>
      <trkpt lat="47.24981946933724" lon="9.43194376317105">
      <ele>1786.8</ele></trkpt>
      <trkpt lat="47.249813653852904" lon="9.431939780149538">
      <ele>1786.0</ele></trkpt>
      <trkpt lat="47.249808508887114" lon="9.43191732256366">
      <ele>1785.1</ele></trkpt>
      <trkpt lat="47.24980320487229" lon="9.431847367965132">
      <ele>1784.3</ele></trkpt>
      <trkpt lat="47.24979485654866" lon="9.43174430445063">
      <ele>1783.5</ele></trkpt>
      <trkpt lat="47.249791318994966" lon="9.431709023237698">
      <ele>1782.7</ele></trkpt>
      <trkpt lat="47.24977810320589" lon="9.43167980288407">
      <ele>1781.9</ele></trkpt>
      <trkpt lat="47.24973995470086" lon="9.431605358956794">
      <ele>1781.1</ele></trkpt>
      <trkpt lat="47.24973948521512" lon="9.431566439501056">
      <ele>1780.3</ele></trkpt>
      <trkpt lat="47.24972253064149" lon="9.431413687670693">
      <ele>1779.5</ele></trkpt>
      <trkpt lat="47.24972472408598" lon="9.43130351215329">
      <ele>1778.7</ele></trkpt>
      <trkpt lat="47.24971026097013" lon="9.431209060919047">
      <ele>1777.8</ele></trkpt>
      <trkpt lat="47.24967405012249" lon="9.431039721024677">
      <ele>1777.0</ele></trkpt>
      <trkpt lat="47.24964922165231" lon="9.43096712239592">
      <ele>1776.2</ele></trkpt>
      <trkpt lat="47.249636622953616" lon="9.430952156748036">
      <ele>1775.4</ele></trkpt>
      <trkpt lat="47.24962660383065" lon="9.430965446239313">
      <ele>1774.6</ele></trkpt>
      <trkpt lat="47.24962140527464" lon="9.43101111791631">
      <ele>1773.8</ele></trkpt>
      <trkpt lat="47.24961894167501" lon="9.431063049304163">
      <ele>1773.2</ele></trkpt>
      <trkpt lat="47.249614612453804" lon="9.431070935099577">
      <ele>1772.7</ele></trkpt>
      <trkpt lat="47.24960290837524" lon="9.431056267087193">
      <ele>1772.1</ele></trkpt>
      <trkpt lat="47.24959361133049" lon="9.431021035490573">
      <ele>1771.5</ele></trkpt>
      <trkpt lat="47.24957377342821" lon="9.430922076349878">
      <ele>1771.0</ele></trkpt>
      <trkpt lat="47.24956288557266" lon="9.43090235146575">
      <ele>1770.4</ele></trkpt>
      <trkpt lat="47.249530910730165" lon="9.43086006351114">
      <ele>1769.8</ele></trkpt>
      <trkpt lat="47.24951212171141" lon="9.430810233361099">
      <ele>1769.2</ele></trkpt>
      <trkpt lat="47.2494911047996" lon="9.43068682439624">
      <ele>1768.7</ele></trkpt>
      <trkpt lat="47.24947016064383" lon="9.430605517739272">
      <ele>1768.1</ele></trkpt>
      <trkpt lat="47.249444225656895" lon="9.430515198142908">
      <ele>1767.5</ele></trkpt>
      <trkpt lat="47.24943346081422" lon="9.430397272331541">
      <ele>1767.0</ele></trkpt>
      <trkpt lat="47.249393584700485" lon="9.430254079655462">
      <ele>1766.4</ele></trkpt>
      <trkpt lat="47.249372199048345" lon="9.430173311849934">
      <ele>1765.8</ele></trkpt>
      <trkpt lat="47.24938944104166" lon="9.430052387046485">
      <ele>1765.2</ele></trkpt>
      <trkpt lat="47.24941551469507" lon="9.429988426145442">
      <ele>1764.7</ele></trkpt>
      <trkpt lat="47.24943000925733" lon="9.429943682547252">
      <ele>1764.1</ele></trkpt>
      <trkpt lat="47.2494336601259" lon="9.429897992888769">
      <ele>1763.5</ele></trkpt>
      <trkpt lat="47.24943052545078" lon="9.429853424501108">
      <ele>1763.0</ele></trkpt>
      <trkpt lat="47.249413629049904" lon="9.429785165933989">
      <ele>1762.4</ele></trkpt>
      <trkpt lat="47.24939079736828" lon="9.429711519530535">
      <ele>1762.1</ele></trkpt>
      <trkpt lat="47.24934940252479" lon="9.429635859837903">
      <ele>1761.7</ele></trkpt>
      <trkpt lat="47.24932710333715" lon="9.42957252703794">
      <ele>1761.4</ele></trkpt>
      <trkpt lat="47.2492966065815" lon="9.42951496710975">
      <ele>1761.0</ele></trkpt>
      <trkpt lat="47.24924105501323" lon="9.429392121981266">
      <ele>1760.7</ele></trkpt>
      <trkpt lat="47.249205561462794" lon="9.429306098420959">
      <ele>1760.3</ele></trkpt>
      <trkpt lat="47.24916300275211" lon="9.429228004238661">
      <ele>1760.0</ele></trkpt>
      <trkpt lat="47.24914008561536" lon="9.429183240646065">
      <ele>1759.6</ele></trkpt>
      <trkpt lat="47.249107578508905" lon="9.429122249924">
      <ele>1759.2</ele></trkpt>
      <trkpt lat="47.24903880458183" lon="9.429010607137771">
      <ele>1758.9</ele></trkpt>
      <trkpt lat="47.24900030717257" lon="9.42896511781837">
      <ele>1758.6</ele></trkpt>
      <trkpt lat="47.24891672496444" lon="9.428842431964807">
      <ele>1758.2</ele></trkpt>
      <trkpt lat="47.24886720622722" lon="9.42877346101743">
      <ele>1757.9</ele></trkpt>
      <trkpt lat="47.2488218859604" lon="9.428709892480363">
      <ele>1757.5</ele></trkpt>
      <trkpt lat="47.24877879624239" lon="9.428641161309391">
      <ele>1757.2</ele></trkpt>
      <trkpt lat="47.24872396583652" lon="9.428548921705747">
      <ele>1756.8</ele></trkpt>
      <trkpt lat="47.24868631415783" lon="9.428496130899367">
      <ele>1756.5</ele></trkpt>
      <trkpt lat="47.24865698747023" lon="9.428457273618928">
      <ele>1756.1</ele></trkpt>
      <trkpt lat="47.248607450482965" lon="9.428389346574116">
      <ele>1755.8</ele></trkpt>
      <trkpt lat="47.24856747762445" lon="9.428346961183744">
      <ele>1755.4</ele></trkpt>
      <trkpt lat="47.248542276898874" lon="9.428317705537829">
      <ele>1754.8</ele></trkpt>
      <trkpt lat="47.24850346701664" lon="9.428249134475395">
      <ele>1754.2</ele></trkpt>
      <trkpt lat="47.24847167900921" lon="9.428187114762727">
      <ele>1753.6</ele></trkpt>
      <trkpt lat="47.2484270100948" lon="9.428085806906378">
      <ele>1753.1</ele></trkpt>
      <trkpt lat="47.24839186031818" lon="9.428012126679347">
      <ele>1752.5</ele></trkpt>
      <trkpt lat="47.24835458846939" lon="9.427937323641647">
      <ele>1751.9</ele></trkpt>
      <trkpt lat="47.248322252731505" lon="9.42786584938098">
      <ele>1751.3</ele></trkpt>
      <trkpt lat="47.24827425360027" lon="9.427791690925568">
      <ele>1750.7</ele></trkpt>
      <trkpt lat="47.248222209616635" lon="9.42770374556208">
      <ele>1750.1</ele></trkpt>
      <trkpt lat="47.248184702576786" lon="9.427654542126772">
      <ele>1749.6</ele></trkpt>
      <trkpt lat="47.248139342627866" lon="9.427582292590513">
      <ele>1749.0</ele></trkpt>
      <trkpt lat="47.24807429419537" lon="9.427456984438056">
      <ele>1748.4</ele></trkpt>
      <trkpt lat="47.24804142377582" lon="9.42737529009935">
      <ele>1747.8</ele></trkpt>
      <trkpt lat="47.24801486963291" lon="9.427323825734138">
      <ele>1747.2</ele></trkpt>
      <trkpt lat="47.24797000759084" lon="9.427217504384478">
      <ele>1746.6</ele></trkpt>
      <trkpt lat="47.24792134529811" lon="9.427096771158467">
      <ele>1746.0</ele></trkpt>
      <trkpt lat="47.24788878911531" lon="9.426996854361452">
      <ele>1745.5</ele></trkpt>
      <trkpt lat="47.247876233746716" lon="9.42693190514089">
      <ele>1744.9</ele></trkpt>
      <trkpt lat="47.247867514982914" lon="9.426879255173333">
      <ele>1744.3</ele></trkpt>
      <trkpt lat="47.247846687133034" lon="9.426813998087166">
      <ele>1743.7</ele></trkpt>
      <trkpt lat="47.247814611308584" lon="9.42676444282992">
      <ele>1743.2</ele></trkpt>
      <trkpt lat="47.2477951172591" lon="9.4267053136963">
      <ele>1742.7</ele></trkpt>
      <trkpt lat="47.247767260846075" lon="9.426645873366395">
      <ele>1742.3</ele></trkpt>
      <trkpt lat="47.247731521438965" lon="9.426573983332787">
      <ele>1741.8</ele></trkpt>
      <trkpt lat="47.24769968701846" lon="9.426510431063047">
      <ele>1741.3</ele></trkpt>
      <trkpt lat="47.24767340816146" lon="9.42644298945716">
      <ele>1740.8</ele></trkpt>
      <trkpt lat="47.24764323682479" lon="9.426361264693549">
      <ele>1740.3</ele></trkpt>
      <trkpt lat="47.247620608844976" lon="9.426322103688829">
      <ele>1739.9</ele></trkpt>
      <trkpt lat="47.247596354157515" lon="9.426299002555087">
      <ele>1739.4</ele></trkpt>
      <trkpt lat="47.24756524415498" lon="9.426271682318323">
      <ele>1738.9</ele></trkpt>
      <trkpt lat="47.2475267262789" lon="9.42625496108463">
      <ele>1738.4</ele></trkpt>
      <trkpt lat="47.24747157417297" lon="9.426250107543842">
      <ele>1737.9</ele></trkpt>
      <trkpt lat="47.24745351589538" lon="9.426248034948221">
      <ele>1737.5</ele></trkpt>
      <trkpt lat="47.24743172631872" lon="9.426241634866063">
      <ele>1737.0</ele></trkpt>
      <trkpt lat="47.247392590570946" lon="9.42624716844254">
      <ele>1736.5</ele></trkpt>
      <trkpt lat="47.24736035873486" lon="9.426238979181365">
      <ele>1736.0</ele></trkpt>
      <trkpt lat="47.247329095179836" lon="9.42622942534554">
      <ele>1735.5</ele></trkpt>
      <trkpt lat="47.2473035745293" lon="9.426218684604994">
      <ele>1735.1</ele></trkpt>
      <trkpt lat="47.247306665932115" lon="9.426204819918205">
      <ele>1734.6</ele></trkpt>
      <trkpt lat="47.24734495413178" lon="9.42619365231908">
      <ele>1734.1</ele></trkpt>
      <trkpt lat="47.247391114287325" lon="9.426167410475365">
      <ele>1733.1</ele></trkpt>
      <trkpt lat="47.24745269065245" lon="9.426130537268216">
      <ele>1732.0</ele></trkpt>
      <trkpt lat="47.247484620171726" lon="9.42610096457276">
      <ele>1731.0</ele></trkpt>
      <trkpt lat="47.2475319263659" lon="9.426063573471776">
      <ele>1730.0</ele></trkpt>
      <trkpt lat="47.24757708530088" lon="9.42604008220144">
      <ele>1728.9</ele></trkpt>
      <trkpt lat="47.2476126587439" lon="9.426020422895778">
      <ele>1727.9</ele></trkpt>
      <trkpt lat="47.24764042323503" lon="9.426011664789815">
      <ele>1726.9</ele></trkpt>
      <trkpt lat="47.24763698120608" lon="9.425990567012214">
      <ele>1725.9</ele></trkpt>
      <trkpt lat="47.24762871032835" lon="9.425973478229004">
      <ele>1724.8</ele></trkpt>
      <trkpt lat="47.24760013735144" lon="9.425973815751172">
      <ele>1723.8</ele></trkpt>
      <trkpt lat="47.24754969358668" lon="9.425971938917192">
      <ele>1722.8</ele></trkpt>
      <trkpt lat="47.247458337319294" lon="9.425968539882577">
      <ele>1721.7</ele></trkpt>
      <trkpt lat="47.247441208018905" lon="9.42596790256484">
      <ele>1720.7</ele></trkpt>
      <trkpt lat="47.24741468615803" lon="9.425959912698282">
      <ele>1719.7</ele></trkpt>
      <trkpt lat="47.24739187100676" lon="9.425957676432068">
      <ele>1718.7</ele></trkpt>
      <trkpt lat="47.247359591090024" lon="9.425952273576417">
      <ele>1717.6</ele></trkpt>
      <trkpt lat="47.24732171290538" lon="9.425939672577563">
      <ele>1716.6</ele></trkpt>
      <trkpt lat="47.24727135033164" lon="9.425933610178284">
      <ele>1715.6</ele></trkpt>
      <trkpt lat="47.24719762968866" lon="9.425901494160426">
      <ele>1714.5</ele></trkpt>
      <trkpt lat="47.24713618512485" lon="9.42587543739397">
      <ele>1713.5</ele></trkpt>
      <trkpt lat="47.24704576881366" lon="9.425817542312254">
      <ele>1712.7</ele></trkpt>
      <trkpt lat="47.246997689309445" lon="9.425789181720178">
      <ele>1711.8</ele></trkpt>
      <trkpt lat="47.246966434705996" lon="9.425779628546913">
      <ele>1711.0</ele></trkpt>
      <trkpt lat="47.24694100135837" lon="9.425763302137213">
      <ele>1710.2</ele></trkpt>
      <trkpt lat="47.24692396862102" lon="9.425757066065744">
      <ele>1709.4</ele></trkpt>
      <trkpt lat="47.24690494205558" lon="9.425756358240026">
      <ele>1708.5</ele></trkpt>
      <trkpt lat="47.24689847183747" lon="9.425744939131354">
      <ele>1707.7</ele></trkpt>
      <trkpt lat="47.24691672303007" lon="9.425735827091001">
      <ele>1706.9</ele></trkpt>
      <trkpt lat="47.24696957034976" lon="9.425708420017791">
      <ele>1706.1</ele></trkpt>
      <trkpt lat="47.247008826552594" lon="9.425695900752585">
      <ele>1705.2</ele></trkpt>
      <trkpt lat="47.247035541561516" lon="9.425692692753126">
      <ele>1704.4</ele></trkpt>
      <trkpt lat="47.24707443610581" lon="9.425701142706247">
      <ele>1703.6</ele></trkpt>
      <trkpt lat="47.247115068370356" lon="9.425719435156612">
      <ele>1702.8</ele></trkpt>
      <trkpt lat="47.24712837024561" lon="9.425721317401697">
      <ele>1702.0</ele></trkpt>
      <trkpt lat="47.2471609635539" lon="9.425708550240536">
      <ele>1701.1</ele></trkpt>
      <trkpt lat="47.247201004122786" lon="9.425705851178243">
      <ele>1700.3</ele></trkpt>
      <trkpt lat="47.24725717281327" lon="9.425706540110241">
      <ele>1699.5</ele></trkpt>
      <trkpt lat="47.24730875362055" lon="9.425697267279823">
      <ele>1698.7</ele></trkpt>
      <trkpt lat="47.24733854481812" lon="9.425681594589085">
      <ele>1697.8</ele></trkpt>
      <trkpt lat="47.24735215983745" lon="9.425665320118066">
      <ele>1697.0</ele></trkpt>
      <trkpt lat="47.247333244756106" lon="9.42565762660448">
      <ele>1696.4</ele></trkpt>
      <trkpt lat="47.247308653038665" lon="9.425648321309628">
      <ele>1695.8</ele></trkpt>
      <trkpt lat="47.247271775999316" lon="9.425632969768614">
      <ele>1695.3</ele></trkpt>
      <trkpt lat="47.24725101193398" lon="9.425622406270392">
      <ele>1694.7</ele></trkpt>
      <trkpt lat="47.24722577145567" lon="9.4255948953391">
      <ele>1694.1</ele></trkpt>
      <trkpt lat="47.24720995691537" lon="9.425573324300164">
      <ele>1693.5</ele></trkpt>
      <trkpt lat="47.24721198363739" lon="9.425566409845269">
      <ele>1692.9</ele></trkpt>
      <trkpt lat="47.247242405598854" lon="9.425568942112942">
      <ele>1692.4</ele></trkpt>
      <trkpt lat="47.247281188900175" lon="9.425584364511973">
      <ele>1691.8</ele></trkpt>
      <trkpt lat="47.247296387810735" lon="9.425586330510308">
      <ele>1691.2</ele></trkpt>
      <trkpt lat="47.247310850394186" lon="9.425575690014838">
      <ele>1690.6</ele></trkpt>
      <trkpt lat="47.24729591655988" lon="9.425558353550676">
      <ele>1690.0</ele></trkpt>
      <trkpt lat="47.24727056459167" lon="9.425537828333942">
      <ele>1689.5</ele></trkpt>
      <trkpt lat="47.24725664730239" lon="9.425516327867605">
      <ele>1688.9</ele></trkpt>
      <trkpt lat="47.24723698072827" lon="9.42549742799336">
      <ele>1688.3</ele></trkpt>
      <trkpt lat="47.24721052202884" lon="9.425485252119481">
      <ele>1687.7</ele></trkpt>
      <trkpt lat="47.24720203428739" lon="9.425480734565465">
      <ele>1687.1</ele></trkpt>
      <trkpt lat="47.24719009542656" lon="9.425455119112115">
      <ele>1686.6</ele></trkpt>
      <trkpt lat="47.24717423235696" lon="9.425436360760006">
      <ele>1686.0</ele></trkpt>
      <trkpt lat="47.2471553896722" lon="9.425424468215413">
      <ele>1685.4</ele></trkpt>
      <trkpt lat="47.247130013541934" lon="9.42540534282813">
      <ele>1684.6</ele></trkpt>
      <trkpt lat="47.24710175389116" lon="9.425387510815174">
      <ele>1683.9</ele></trkpt>
      <trkpt lat="47.24710672731055" lon="9.425375116747157">
      <ele>1683.1</ele></trkpt>
      <trkpt lat="47.24713610882181" lon="9.425383199427326">
      <ele>1682.4</ele></trkpt>
      <trkpt lat="47.2471770696089" lon="9.425381921747723">
      <ele>1681.6</ele></trkpt>
      <trkpt lat="47.247227344656096" lon="9.425393582808072">
      <ele>1680.8</ele></trkpt>
      <trkpt lat="47.24727682631606" lon="9.425395423298276">
      <ele>1680.1</ele></trkpt>
      <trkpt lat="47.24731108492448" lon="9.425396697562919">
      <ele>1679.3</ele></trkpt>
      <trkpt lat="47.24733521458705" lon="9.425378012893226">
      <ele>1678.6</ele></trkpt>
      <trkpt lat="47.24735426528962" lon="9.425377320871549">
      <ele>1677.8</ele></trkpt>
      <trkpt lat="47.24740915238101" lon="9.425397544001703">
      <ele>1677.0</ele></trkpt>
      <trkpt lat="47.24747059704846" lon="9.425423600350193">
      <ele>1676.3</ele></trkpt>
      <trkpt lat="47.24751781983373" lon="9.425446339726536">
      <ele>1675.5</ele></trkpt>
      <trkpt lat="47.247556690480984" lon="9.42545617609374">
      <ele>1674.8</ele></trkpt>
      <trkpt lat="47.24757377150778" lon="9.425459612695516">
      <ele>1674.0</ele></trkpt>
      <trkpt lat="47.24758154727424" lon="9.425450110791816">
      <ele>1673.2</ele></trkpt>
      <trkpt lat="47.24757710396832" lon="9.425431763863447">
      <ele>1672.5</ele></trkpt>
      <trkpt lat="47.24754711579726" lon="9.42540407626216">
      <ele>1671.7</ele></trkpt>
      <trkpt lat="47.24752639076724" lon="9.425390726224663">
      <ele>1671.0</ele></trkpt>
      <trkpt lat="47.24748243699175" lon="9.42534433760356">
      <ele>1670.2</ele></trkpt>
      <trkpt lat="47.247458053257816" lon="9.425322447812812">
      <ele>1669.7</ele></trkpt>
      <trkpt lat="47.24743284560922" lon="9.425293550736543">
      <ele>1669.3</ele></trkpt>
      <trkpt lat="47.24743227820006" lon="9.425271146177876">
      <ele>1668.8</ele></trkpt>
      <trkpt lat="47.24745865552134" lon="9.425287520823193">
      <ele>1668.4</ele></trkpt>
      <trkpt lat="47.24750104951152" lon="9.425314269115697">
      <ele>1667.9</ele></trkpt>
      <trkpt lat="47.24752557806514" lon="9.425327760586336">
      <ele>1667.4</ele></trkpt>
      <trkpt lat="47.24754933713495" lon="9.425330044910076">
      <ele>1667.0</ele></trkpt>
      <trkpt lat="47.247580624899136" lon="9.425338198534185">
      <ele>1666.5</ele></trkpt>
      <trkpt lat="47.247608884554" lon="9.425356030680446">
      <ele>1666.1</ele></trkpt>
      <trkpt lat="47.24762691871009" lon="9.425359502705016">
      <ele>1665.6</ele></trkpt>
      <trkpt lat="47.24763853111105" lon="9.425348742857445">
      <ele>1665.1</ele></trkpt>
      <trkpt lat="47.24763598505044" lon="9.425330466485628">
      <ele>1664.7</ele></trkpt>
      <trkpt lat="47.24761331470619" lon="9.425319832131793">
      <ele>1664.2</ele></trkpt>
      <trkpt lat="47.247575662215624" lon="9.42529466075407">
      <ele>1663.8</ele></trkpt>
      <trkpt lat="47.24755603488644" lon="9.425272961068165">
      <ele>1663.3</ele></trkpt>
      <trkpt lat="47.24753753861903" lon="9.425241499123532">
      <ele>1662.8</ele></trkpt>
      <trkpt lat="47.24751893681135" lon="9.42521563575506">
      <ele>1662.4</ele></trkpt>
      <trkpt lat="47.24749368109472" lon="9.425189524934495">
      <ele>1661.9</ele></trkpt>
      <trkpt lat="47.24748257462468" lon="9.425170943460895">
      <ele>1661.5</ele></trkpt>
      <trkpt lat="47.24746273051869" lon="9.42516181493527">
      <ele>1661.0</ele></trkpt>
      <trkpt lat="47.24744777271622" lon="9.425145865053285">
      <ele>1660.5</ele></trkpt>
      <trkpt lat="47.247443473709566" lon="9.425119146284645">
      <ele>1660.0</ele></trkpt>
      <trkpt lat="47.24743731693796" lon="9.42508954398189">
      <ele>1659.5</ele></trkpt>
      <trkpt lat="47.24742837295017" lon="9.425055649393089">
      <ele>1659.1</ele></trkpt>
      <trkpt lat="47.247410853654536" lon="9.425022836529953">
      <ele>1658.6</ele></trkpt>
      <trkpt lat="47.247394133918256" lon="9.424998443907988">
      <ele>1658.1</ele></trkpt>
      <trkpt lat="47.24737816571004" lon="9.424985257750455">
      <ele>1657.6</ele></trkpt>
      <trkpt lat="47.24734381056888" lon="9.424989582619292">
      <ele>1657.1</ele></trkpt>
      <trkpt lat="47.247302874147906" lon="9.424989447682899">
      <ele>1656.6</ele></trkpt>
      <trkpt lat="47.247294449564286" lon="9.42498074392124">
      <ele>1656.2</ele></trkpt>
      <trkpt lat="47.24732360056859" lon="9.424946878681956">
      <ele>1655.7</ele></trkpt>
      <trkpt lat="47.247347681895036" lon="9.424930993240253">
      <ele>1655.2</ele></trkpt>
      <trkpt lat="47.24736036781273" lon="9.424913283413545">
      <ele>1654.7</ele></trkpt>
      <trkpt lat="47.24735582812419" lon="9.424900522273449">
      <ele>1654.2</ele></trkpt>
      <trkpt lat="47.247338819245414" lon="9.42489289991658">
      <ele>1653.7</ele></trkpt>
      <trkpt lat="47.24731111823899" lon="9.424897459069513">
      <ele>1653.2</ele></trkpt>
      <trkpt lat="47.24728726263466" lon="9.424900773813329">
      <ele>1652.8</ele></trkpt>
      <trkpt lat="47.24729049843688" lon="9.424878523961603">
      <ele>1652.3</ele></trkpt>
      <trkpt lat="47.24729552029034" lon="9.424863317164569">
      <ele>1651.8</ele></trkpt>
      <trkpt lat="47.24731181689636" lon="9.424856933303937">
      <ele>1651.3</ele></trkpt>
      <trkpt lat="47.24730937604316" lon="9.424833071739425">
      <ele>1650.8</ele></trkpt>
      <trkpt lat="47.24729957594141" lon="9.424795075735574">
      <ele>1650.3</ele></trkpt>
      <trkpt lat="47.24732992996899" lon="9.424783281773921">
      <ele>1649.9</ele></trkpt>
      <trkpt lat="47.24735100836672" lon="9.424775093687792">
      <ele>1649.4</ele></trkpt>
      <trkpt lat="47.24740609201439" lon="9.424763043251966">
      <ele>1648.9</ele></trkpt>
      <trkpt lat="47.24742620431062" lon="9.424766010947135">
      <ele>1648.5</ele></trkpt>
      <trkpt lat="47.247437979194224" lon="9.424767743691856">
      <ele>1648.0</ele></trkpt>
      <trkpt lat="47.24746081975019" lon="9.424771116745436">
      <ele>1647.5</ele></trkpt>
      <trkpt lat="47.24748006314658" lon="9.424786908759245">
      <ele>1647.0</ele></trkpt>
      <trkpt lat="47.24750742336901" lon="9.424809424311938">
      <ele>1646.5</ele></trkpt>
      <trkpt lat="47.24752292368787" lon="9.42480434535271">
      <ele>1646.1</ele></trkpt>
      <trkpt lat="47.24753104290257" lon="9.424825022318124">
      <ele>1645.6</ele></trkpt>
      <trkpt lat="47.24753127029979" lon="9.424856716497427">
      <ele>1645.1</ele></trkpt>
      <trkpt lat="47.24754269871084" lon="9.424863933155713">
      <ele>1644.6</ele></trkpt>
      <trkpt lat="47.24755143131373" lon="9.424849551367906">
      <ele>1644.2</ele></trkpt>
      <trkpt lat="47.247568066539685" lon="9.424823003194469">
      <ele>1643.7</ele></trkpt>
      <trkpt lat="47.24758257537883" lon="9.424786188398405">
      <ele>1643.2</ele></trkpt>
      <trkpt lat="47.2475902421647" lon="9.424788746188394">
      <ele>1642.8</ele></trkpt>
      <trkpt lat="47.24759591414145" lon="9.424817247011418">
      <ele>1642.3</ele></trkpt>
      <trkpt lat="47.24759475089538" lon="9.424839838330454">
      <ele>1641.8</ele></trkpt>
      <trkpt lat="47.247604712939" lon="9.424887750635904">
      <ele>1641.3</ele></trkpt>
      <trkpt lat="47.24761387861301" lon="9.42489261046042">
      <ele>1640.7</ele></trkpt>
      <trkpt lat="47.24763102295254" lon="9.42488193730565">
      <ele>1640.2</ele></trkpt>
      <trkpt lat="47.24763391889163" lon="9.424848086500912">
      <ele>1639.6</ele></trkpt>
      <trkpt lat="47.247640331617866" lon="9.424833618421037">
      <ele>1639.1</ele></trkpt>
      <trkpt lat="47.247649477716585" lon="9.424839613866038">
      <ele>1638.5</ele></trkpt>
      <trkpt lat="47.247664100681426" lon="9.424885426832518">
      <ele>1638.0</ele></trkpt>
      <trkpt lat="47.247678223295" lon="9.424915378312456">
      <ele>1637.4</ele></trkpt>
      <trkpt lat="47.247688945909495" lon="9.424919172904042">
      <ele>1636.9</ele></trkpt>
      <trkpt lat="47.24769773702573" lon="9.42490139740798">
      <ele>1636.3</ele></trkpt>
      <trkpt lat="47.24770401339537" lon="9.424894839096288">
      <ele>1635.8</ele></trkpt>
      <trkpt lat="47.24772384317697" lon="9.424906887201361">
      <ele>1635.3</ele></trkpt>
      <trkpt lat="47.247757206558305" lon="9.42493869058698">
      <ele>1634.7</ele></trkpt>
      <trkpt lat="47.24779066759674" lon="9.424964829069632">
      <ele>1634.2</ele></trkpt>
      <trkpt lat="47.24781576618952" lon="9.424983878092297">
      <ele>1633.6</ele></trkpt>
      <trkpt lat="47.2478178626137" lon="9.424996403140783">
      <ele>1633.1</ele></trkpt>
      <trkpt lat="47.24781768708473" lon="9.425006584196659">
      <ele>1632.5</ele></trkpt>
      <trkpt lat="47.247832169720326" lon="9.42501617401215">
      <ele>1632.0</ele></trkpt>
      <trkpt lat="47.247859949828104" lon="9.425013811254592">
      <ele>1631.4</ele></trkpt>
      <trkpt lat="47.24788766083817" lon="9.425015978150334">
      <ele>1630.9</ele></trkpt>
      <trkpt lat="47.24792530181536" lon="9.425023033346793">
      <ele>1630.3</ele></trkpt>
      <trkpt lat="47.247950712529956" lon="9.425023978343278">
      <ele>1629.6</ele></trkpt>
      <trkpt lat="47.247970659090264" lon="9.425029252366897">
      <ele>1629.0</ele></trkpt>
      <trkpt lat="47.24799572795913" lon="9.425050546676001">
      <ele>1628.4</ele></trkpt>
      <trkpt lat="47.248012992986475" lon="9.42507723259354">
      <ele>1627.8</ele></trkpt>
      <trkpt lat="47.2480388261458" lon="9.425098555366603">
      <ele>1627.1</ele></trkpt>
      <trkpt lat="47.24806699852758" lon="9.425118842007963">
      <ele>1626.5</ele></trkpt>
      <trkpt lat="47.248097570242884" lon="9.42513356251084">
      <ele>1625.9</ele></trkpt>
      <trkpt lat="47.24811885949383" lon="9.425150197318995">
      <ele>1625.2</ele></trkpt>
      <trkpt lat="47.24812633137474" lon="9.425164058732713">
      <ele>1624.6</ele></trkpt>
      <trkpt lat="47.24812831074939" lon="9.425183371270924">
      <ele>1624.0</ele></trkpt>
      <trkpt lat="47.24813868226128" lon="9.42520752818129">
      <ele>1623.3</ele></trkpt>
      <trkpt lat="47.24815530095439" lon="9.425211687503907">
      <ele>1622.7</ele></trkpt>
      <trkpt lat="47.248160195430266" lon="9.42517986631596">
      <ele>1622.1</ele></trkpt>
      <trkpt lat="47.24814886531439" lon="9.425121027820767">
      <ele>1621.5</ele></trkpt>
      <trkpt lat="47.24812558050374" lon="9.4250395724327">
      <ele>1620.8</ele></trkpt>
      <trkpt lat="47.24812092833095" lon="9.42499106428205">
      <ele>1620.2</ele></trkpt>
      <trkpt lat="47.248122991261276" lon="9.42495282172424">
      <ele>1619.6</ele></trkpt>
      <trkpt lat="47.248132961785345" lon="9.424932394384614">
      <ele>1618.9</ele></trkpt>
      <trkpt lat="47.24814674832205" lon="9.424928084123785">
      <ele>1618.3</ele></trkpt>
      <trkpt lat="47.248153566220864" lon="9.424942304385574">
      <ele>1617.6</ele></trkpt>
      <trkpt lat="47.248161801354556" lon="9.424986003936715">
      <ele>1616.9</ele></trkpt>
      <trkpt lat="47.24817952212905" lon="9.425013393969433">
      <ele>1616.1</ele></trkpt>
      <trkpt lat="47.24820898655966" lon="9.42505476466397">
      <ele>1615.4</ele></trkpt>
      <trkpt lat="47.24824013050042" lon="9.425095788245757">
      <ele>1614.7</ele></trkpt>
      <trkpt lat="47.24826210379793" lon="9.42511762824579">
      <ele>1614.0</ele></trkpt>
      <trkpt lat="47.248282186624856" lon="9.425150484151306">
      <ele>1613.3</ele></trkpt>
      <trkpt lat="47.2482884135145" lon="9.425137924988649">
      <ele>1612.5</ele></trkpt>
      <trkpt lat="47.248277739729794" lon="9.425096856611455">
      <ele>1611.8</ele></trkpt>
      <trkpt lat="47.24827195048753" lon="9.425063158093801">
      <ele>1611.1</ele></trkpt>
      <trkpt lat="47.248274323753925" lon="9.42500482911437">
      <ele>1610.4</ele></trkpt>
      <trkpt lat="47.24828365297875" lon="9.424940706986005">
      <ele>1609.7</ele></trkpt>
      <trkpt lat="47.248300315976905" lon="9.424929249424304">
      <ele>1608.9</ele></trkpt>
      <trkpt lat="47.248310696062646" lon="9.42496387184277">
      <ele>1608.2</ele></trkpt>
      <trkpt lat="47.248320962876065" lon="9.425004541887851">
      <ele>1607.5</ele></trkpt>
      <trkpt lat="47.24833819420431" lon="9.425039445556383">
      <ele>1606.8</ele></trkpt>
      <trkpt lat="47.248376871021414" lon="9.425103318217706">
      <ele>1606.1</ele></trkpt>
      <trkpt lat="47.24842925101536" lon="9.425167713834009">
      <ele>1605.3</ele></trkpt>
      <trkpt lat="47.248468491856784" lon="9.425199392848514">
      <ele>1604.6</ele></trkpt>
      <trkpt lat="47.24852342306759" lon="9.425234800331712">
      <ele>1603.9</ele></trkpt>
      <trkpt lat="47.248587926439924" lon="9.425285931400838">
      <ele>1603.1</ele></trkpt>
      <trkpt lat="47.24863338209729" lon="9.425328188061265">
      <ele>1602.4</ele></trkpt>
      <trkpt lat="47.24865065172804" lon="9.425354081740345">
      <ele>1601.6</ele></trkpt>
      <trkpt lat="47.248663310434885" lon="9.425373434935079">
      <ele>1600.9</ele></trkpt>
      <trkpt lat="47.248688067883116" lon="9.425383565750435">
      <ele>1600.1</ele></trkpt>
      <trkpt lat="47.24871367710227" lon="9.425382390910855">
      <ele>1599.4</ele></trkpt>
      <trkpt lat="47.248744970074085" lon="9.425393372667717">
      <ele>1598.6</ele></trkpt>
      <trkpt lat="47.248767850952916" lon="9.42540745067212">
      <ele>1597.9</ele></trkpt>
      <trkpt lat="47.248801192823045" lon="9.425433189102668">
      <ele>1597.1</ele></trkpt>
      <trkpt lat="47.248808326019" lon="9.425433295872732">
      <ele>1596.3</ele></trkpt>
      <trkpt lat="47.248808104960794" lon="9.425416374095041">
      <ele>1595.6</ele></trkpt>
      <trkpt lat="47.24879310639377" lon="9.425389745544102">
      <ele>1594.8</ele></trkpt>
      <trkpt lat="47.2487771000566" lon="9.4253406822906">
      <ele>1594.1</ele></trkpt>
      <trkpt lat="47.24875845405107" lon="9.42527772578147">
      <ele>1593.3</ele></trkpt>
      <trkpt lat="47.248717744820695" lon="9.425191881855538">
      <ele>1592.6</ele></trkpt>
      <trkpt lat="47.248697819982155" lon="9.425161343937049">
      <ele>1591.8</ele></trkpt>
      <trkpt lat="47.24868948477371" lon="9.425110927644026">
      <ele>1591.1</ele></trkpt>
      <trkpt lat="47.24868809602502" lon="9.42503230743313">
      <ele>1590.3</ele></trkpt>
      <trkpt lat="47.24869733021498" lon="9.424974219931576">
      <ele>1589.6</ele></trkpt>
      <trkpt lat="47.248730070097835" lon="9.424904929211424">
      <ele>1588.8</ele></trkpt>
      <trkpt lat="47.248741664717414" lon="9.424869102001407">
      <ele>1587.9</ele></trkpt>
      <trkpt lat="47.24874961444409" lon="9.424885518335566">
      <ele>1586.9</ele></trkpt>
      <trkpt lat="47.24874888549899" lon="9.424927801488664">
      <ele>1586.0</ele></trkpt>
      <trkpt lat="47.248754904445065" lon="9.42497636103176">
      <ele>1585.0</ele></trkpt>
      <trkpt lat="47.24876456808794" lon="9.424972690229657">
      <ele>1584.1</ele></trkpt>
      <trkpt lat="47.24877925216161" lon="9.424916840213427">
      <ele>1583.2</ele></trkpt>
      <trkpt lat="47.24879848764518" lon="9.424834969845357">
      <ele>1582.2</ele></trkpt>
      <trkpt lat="47.248816539000224" lon="9.424742973325786">
      <ele>1581.3</ele></trkpt>
      <trkpt lat="47.248854333865836" lon="9.424619482590767">
      <ele>1580.3</ele></trkpt>
      <trkpt lat="47.248887073761445" lon="9.424550178244028">
      <ele>1579.4</ele></trkpt>
      <trkpt lat="47.24891914059827" lon="9.42444057331683">
      <ele>1578.5</ele></trkpt>
      <trkpt lat="47.248940338044505" lon="9.424405116111817">
      <ele>1577.5</ele></trkpt>
      <trkpt lat="47.248949090705615" lon="9.424453777397916">
      <ele>1576.6</ele></trkpt>
      <trkpt lat="47.24895617285747" lon="9.424520532280418">
      <ele>1575.6</ele></trkpt>
      <trkpt lat="47.24898127614142" lon="9.424575853434705">
      <ele>1574.7</ele></trkpt>
      <trkpt lat="47.249005229916094" lon="9.42461904131032">
      <ele>1573.8</ele></trkpt>
      <trkpt lat="47.24902091239671" lon="9.424663943381079">
      <ele>1572.8</ele></trkpt>
      <trkpt lat="47.249018842621375" lon="9.424704155186141">
      <ele>1571.9</ele></trkpt>
      <trkpt lat="47.24900980046586" lon="9.42475215490593">
      <ele>1570.9</ele></trkpt>
      <trkpt lat="47.24901827787776" lon="9.42477449747877">
      <ele>1570.0</ele></trkpt>
      <trkpt lat="47.24902314776837" lon="9.424772802210741">
      <ele>1569.3</ele></trkpt>
      <trkpt lat="47.24904033134699" lon="9.424731143905536">
      <ele>1568.6</ele></trkpt>
      <trkpt lat="47.24905884705825" lon="9.42469154360078">
      <ele>1568.0</ele></trkpt>
      <trkpt lat="47.24906071734402" lon="9.424691613144397">
      <ele>1567.3</ele></trkpt>
      <trkpt lat="47.249065204231556" lon="9.424691779982222">
      <ele>1566.6</ele></trkpt>
      <trkpt lat="47.24907666872372" lon="9.424692206271384">
      <ele>1565.9</ele></trkpt>
      <trkpt lat="47.24907704320202" lon="9.424707019627261">
      <ele>1565.2</ele></trkpt>
      <trkpt lat="47.24907748927252" lon="9.424724465187403">
      <ele>1564.6</ele></trkpt>
      <trkpt lat="47.24907398329954" lon="9.424768653831059">
      <ele>1563.9</ele></trkpt>
      <trkpt lat="47.24907870476833" lon="9.424813148412829">
      <ele>1563.2</ele></trkpt>
      <trkpt lat="47.24909065071046" lon="9.424835752143686">
      <ele>1562.5</ele></trkpt>
      <trkpt lat="47.24909428269984" lon="9.424830707400425">
      <ele>1561.8</ele></trkpt>
      <trkpt lat="47.24910189838105" lon="9.42482004958374">
      <ele>1561.2</ele></trkpt>
      <trkpt lat="47.24911620063047" lon="9.424786344499811">
      <ele>1560.5</ele></trkpt>
      <trkpt lat="47.24914276432524" lon="9.424746501651873">
      <ele>1559.8</ele></trkpt>
      <trkpt lat="47.249154217085874" lon="9.42472933995282">
      <ele>1559.1</ele></trkpt>
      <trkpt lat="47.2491839912745" lon="9.424690633889119">
      <ele>1558.4</ele></trkpt>
      <trkpt lat="47.249194897808756" lon="9.424676451388926">
      <ele>1557.8</ele></trkpt>
      <trkpt lat="47.249228570868034" lon="9.424633397539425">
      <ele>1557.1</ele></trkpt>
      <trkpt lat="47.249247042955204" lon="9.424595803940878">
      <ele>1556.4</ele></trkpt>
      <trkpt lat="47.249265879894" lon="9.424538086014293">
      <ele>1555.4</ele></trkpt>
      <trkpt lat="47.249266608695834" lon="9.424495802446494">
      <ele>1554.5</ele></trkpt>
      <trkpt lat="47.24928090208555" lon="9.424462083632076">
      <ele>1553.5</ele></trkpt>
      <trkpt lat="47.24931125970778" lon="9.424451121647598">
      <ele>1552.6</ele></trkpt>
      <trkpt lat="47.2493497495389" lon="9.424446513937895">
      <ele>1551.6</ele></trkpt>
      <trkpt lat="47.249373307789966" lon="9.42443330384639">
      <ele>1550.6</ele></trkpt>
      <trkpt lat="47.249394290686254" lon="9.424399331525548">
      <ele>1549.7</ele></trkpt>
      <trkpt lat="47.2493953747032" lon="9.424336434233897">
      <ele>1548.7</ele></trkpt>
      <trkpt lat="47.24941647018396" lon="9.424286530131946">
      <ele>1547.8</ele></trkpt>
      <trkpt lat="47.24945675207946" lon="9.424228578453347">
      <ele>1546.8</ele></trkpt>
      <trkpt lat="47.24946662485288" lon="9.424215903381656">
      <ele>1545.8</ele></trkpt>
      <trkpt lat="47.24949795764401" lon="9.424225102210668">
      <ele>1544.9</ele></trkpt>
      <trkpt lat="47.24953621671116" lon="9.424190027727848">
      <ele>1543.9</ele></trkpt>
      <trkpt lat="47.24957269371898" lon="9.424181090110007">
      <ele>1543.0</ele></trkpt>
      <trkpt lat="47.24960494769081" lon="9.424175470750033">
      <ele>1542.0</ele></trkpt>
      <trkpt lat="47.24964545323442" lon="9.424146307008165">
      <ele>1541.0</ele></trkpt>
      <trkpt lat="47.249686258989975" lon="9.424130526875569">
      <ele>1540.1</ele></trkpt>
      <trkpt lat="47.24971320803627" lon="9.424122609256484">
      <ele>1539.1</ele></trkpt>
      <trkpt lat="47.24973498590204" lon="9.424132827133512">
      <ele>1538.2</ele></trkpt>
      <trkpt lat="47.249759900711496" lon="9.42413592038866">
      <ele>1537.2</ele></trkpt>
      <trkpt lat="47.24979048434736" lon="9.424125415796944">
      <ele>1535.8</ele></trkpt>
      <trkpt lat="47.249801312663955" lon="9.424119422766948">
      <ele>1534.5</ele></trkpt>
      <trkpt lat="47.24984107856157" lon="9.424123781637123">
      <ele>1533.1</ele></trkpt>
      <trkpt lat="47.24986836552917" lon="9.424114528728092">
      <ele>1531.7</ele></trkpt>
      <trkpt lat="47.24994030581985" lon="9.424073504315317">
      <ele>1530.4</ele></trkpt>
      <trkpt lat="47.25001584524499" lon="9.424041348037209">
      <ele>1529.0</ele></trkpt>
      <trkpt lat="47.250086728185444" lon="9.424026698946196">
      <ele>1527.6</ele></trkpt>
      <trkpt lat="47.25011632756346" lon="9.424026319232166">
      <ele>1526.3</ele></trkpt>
      <trkpt lat="47.25015818991931" lon="9.424015533409893">
      <ele>1524.9</ele></trkpt>
      <trkpt lat="47.25019742835787" lon="9.424017084459555">
      <ele>1523.6</ele></trkpt>
      <trkpt lat="47.25021912726271" lon="9.42403084081787">
      <ele>1522.2</ele></trkpt>
      <trkpt lat="47.25024739690757" lon="9.424034005902186">
      <ele>1520.8</ele></trkpt>
      <trkpt lat="47.2502856108295" lon="9.424031832157937">
      <ele>1519.5</ele></trkpt>
      <trkpt lat="47.250316180378064" lon="9.42402736571464">
      <ele>1518.1</ele></trkpt>
      <trkpt lat="47.25032959421797" lon="9.424038937734677">
      <ele>1516.7</ele></trkpt>
      <trkpt lat="47.250363803775926" lon="9.4240790852379">
      <ele>1515.4</ele></trkpt>
      <trkpt lat="47.250406461620706" lon="9.424086881579505">
      <ele>1514.0</ele></trkpt>
      <trkpt lat="47.250443059396076" lon="9.424100174372969">
      <ele>1512.6</ele></trkpt>
      <trkpt lat="47.25046876307746" lon="9.424121188896839">
      <ele>1511.3</ele></trkpt>
      <trkpt lat="47.250511090275474" lon="9.424170623936103">
      <ele>1509.9</ele></trkpt>
      <trkpt lat="47.25053731493573" lon="9.424221971119946">
      <ele>1508.9</ele></trkpt>
      <trkpt lat="47.25057697762098" lon="9.424257379535339">
      <ele>1508.0</ele></trkpt>
      <trkpt lat="47.250607591768144" lon="9.424298358334006">
      <ele>1507.0</ele></trkpt>
      <trkpt lat="47.25063631435792" lon="9.424317529558799">
      <ele>1506.0</ele></trkpt>
      <trkpt lat="47.25066139584183" lon="9.424333922602145">
      <ele>1505.1</ele></trkpt>
      <trkpt lat="47.250669611979724" lon="9.42435054756089">
      <ele>1504.1</ele></trkpt>
      <trkpt lat="47.25064595827374" lon="9.424369819763518">
      <ele>1503.1</ele></trkpt>
      <trkpt lat="47.25061839458766" lon="9.424376855625955">
      <ele>1502.1</ele></trkpt>
      <trkpt lat="47.25060340034596" lon="9.424382852382701">
      <ele>1501.2</ele></trkpt>
      <trkpt lat="47.25060044695703" lon="9.42438402435262">
      <ele>1500.2</ele></trkpt>
      <trkpt lat="47.25059077992375" lon="9.424387893473744">
      <ele>1499.2</ele></trkpt>
      <trkpt lat="47.25058765553445" lon="9.42440995065798">
      <ele>1498.3</ele></trkpt>
      <trkpt lat="47.250598417225554" lon="9.4244224417191">
      <ele>1497.3</ele></trkpt>
      <trkpt lat="47.250625581249565" lon="9.424437551170465">
      <ele>1496.3</ele></trkpt>
      <trkpt lat="47.2506525808309" lon="9.424462723718698">
      <ele>1495.3</ele></trkpt>
      <trkpt lat="47.250695017646244" lon="9.4244843870785">
      <ele>1494.4</ele></trkpt>
      <trkpt lat="47.25075828728582" lon="9.424537164847969">
      <ele>1493.4</ele></trkpt>
      <trkpt lat="47.25078156332862" lon="9.424552856621778">
      <ele>1492.4</ele></trkpt>
      <trkpt lat="47.25084020267971" lon="9.4245652383231">
      <ele>1491.5</ele></trkpt>
      <trkpt lat="47.25089721416498" lon="9.424569749914552">
      <ele>1490.5</ele></trkpt>
      <trkpt lat="47.25096674228223" lon="9.424573154419706">
      <ele>1490.1</ele></trkpt>
      <trkpt lat="47.25101490200382" lon="9.424574429762071">
      <ele>1489.7</ele></trkpt>
      <trkpt lat="47.2510575993001" lon="9.424580457350164">
      <ele>1489.3</ele></trkpt>
      <trkpt lat="47.25111054673442" lon="9.424583760720639">
      <ele>1488.9</ele></trkpt>
      <trkpt lat="47.25115626673338" lon="9.42458720500411">
      <ele>1488.5</ele></trkpt>
      <trkpt lat="47.251191320115346" lon="9.424586737673124">
      <ele>1488.1</ele></trkpt>
      <trkpt lat="47.2512212795951" lon="9.424576949848309">
      <ele>1487.7</ele></trkpt>
      <trkpt lat="47.251246461608346" lon="9.424567671518641">
      <ele>1487.3</ele></trkpt>
      <trkpt lat="47.25127554765952" lon="9.424570973018534">
      <ele>1486.9</ele></trkpt>
      <trkpt lat="47.251314658610966" lon="9.424577831928953">
      <ele>1486.5</ele></trkpt>
      <trkpt lat="47.25135599185349" lon="9.424564859467417">
      <ele>1486.2</ele></trkpt>
      <trkpt lat="47.251407643737906" lon="9.424543099895097">
      <ele>1485.8</ele></trkpt>
      <trkpt lat="47.251458656127106" lon="9.42454956882007">
      <ele>1485.4</ele></trkpt>
      <trkpt lat="47.25150605212866" lon="9.424558612238716">
      <ele>1485.0</ele></trkpt>
      <trkpt lat="47.251586811671324" lon="9.424591624988558">
      <ele>1484.6</ele></trkpt>
      <trkpt lat="47.251634877304724" lon="9.424623937514568">
      <ele>1484.2</ele></trkpt>
      <trkpt lat="47.25168603187354" lon="9.424650867759217">
      <ele>1483.8</ele></trkpt>
      <trkpt lat="47.25170026752676" lon="9.424652863904889">
      <ele>1483.4</ele></trkpt>
      <trkpt lat="47.25172552317943" lon="9.424639835366118">
      <ele>1483.0</ele></trkpt>
      <trkpt lat="47.251759028218565" lon="9.42460548151877">
      <ele>1482.6</ele></trkpt>
      <trkpt lat="47.25178336743189" lon="9.424554268756461">
      <ele>1482.2</ele></trkpt>
      <trkpt lat="47.251817489049614" lon="9.42449144737788">
      <ele>1481.7</ele></trkpt>
      <trkpt lat="47.25186246294057" lon="9.424448388605137">
      <ele>1481.3</ele></trkpt>
      <trkpt lat="47.25189887894941" lon="9.424442989982026">
      <ele>1480.9</ele></trkpt>
      <trkpt lat="47.25195222555778" lon="9.424451844978949">
      <ele>1480.4</ele></trkpt>
      <trkpt lat="47.251997587293346" lon="9.424471899722956">
      <ele>1480.0</ele></trkpt>
      <trkpt lat="47.25204057554241" lon="9.42449132445605">
      <ele>1479.6</ele></trkpt>
      <trkpt lat="47.2520777162251" lon="9.424479900538138">
      <ele>1479.2</ele></trkpt>
      <trkpt lat="47.252136319107485" lon="9.424439581536932">
      <ele>1478.7</ele></trkpt>
      <trkpt lat="47.25219419776069" lon="9.424405261354902">
      <ele>1478.3</ele></trkpt>
      <trkpt lat="47.25226127343749" lon="9.424358319551331">
      <ele>1477.9</ele></trkpt>
      <trkpt lat="47.252297222981184" lon="9.424346573702284">
      <ele>1477.4</ele></trkpt>
      <trkpt lat="47.25237204075451" lon="9.424326533761619">
      <ele>1477.0</ele></trkpt>
      <trkpt lat="47.252415501974646" lon="9.424324779873453">
      <ele>1476.6</ele></trkpt>
      <trkpt lat="47.25246482878175" lon="9.424353875536255">
      <ele>1476.2</ele></trkpt>
      <trkpt lat="47.25251691427948" lon="9.424365947662407">
      <ele>1475.7</ele></trkpt>
      <trkpt lat="47.25256310971179" lon="9.424374695379878">
      <ele>1475.3</ele></trkpt>
      <trkpt lat="47.252595151634786" lon="9.424405395001532">
      <ele>1474.9</ele></trkpt>
      <trkpt lat="47.252635414443795" lon="9.424414331841996">
      <ele>1474.4</ele></trkpt>
      <trkpt lat="47.25267018163043" lon="9.424402277693856">
      <ele>1474.0</ele></trkpt>
      <trkpt lat="47.25272466192246" lon="9.424359968042506">
      <ele>1473.7</ele></trkpt>
      <trkpt lat="47.25276795040311" lon="9.424339522174646">
      <ele>1473.3</ele></trkpt>
      <trkpt lat="47.252802820560646" lon="9.424349685685577">
      <ele>1473.0</ele></trkpt>
      <trkpt lat="47.25282251549268" lon="9.42436068575829">
      <ele>1472.6</ele></trkpt>
      <trkpt lat="47.25287852048895" lon="9.42437608844526">
      <ele>1472.3</ele></trkpt>
      <trkpt lat="47.25291634269286" lon="9.424393510926476">
      <ele>1472.0</ele></trkpt>
      <trkpt lat="47.25294826627646" lon="9.42443734180967">
      <ele>1471.6</ele></trkpt>
      <trkpt lat="47.253024662910974" lon="9.424402956370539">
      <ele>1471.3</ele></trkpt>
      <trkpt lat="47.2530821822542" lon="9.424380608011914">
      <ele>1470.9</ele></trkpt>
      <trkpt lat="47.25313451423855" lon="9.424382553729881">
      <ele>1470.6</ele></trkpt>
      <trkpt lat="47.253169621329" lon="9.4244170810063">
      <ele>1470.3</ele></trkpt>
      <trkpt lat="47.253212539022364" lon="9.42448184347923">
      <ele>1469.9</ele></trkpt>
      <trkpt lat="47.25325683730676" lon="9.424544807319092">
      <ele>1469.6</ele></trkpt>
      <trkpt lat="47.25331392363557" lon="9.424602921208653">
      <ele>1469.2</ele></trkpt>
      <trkpt lat="47.253369652943924" lon="9.424634317212883">
      <ele>1468.9</ele></trkpt>
      <trkpt lat="47.25341023431433" lon="9.424648261414946">
      <ele>1468.6</ele></trkpt>
      <trkpt lat="47.253497336967584" lon="9.424693285801787">
      <ele>1468.2</ele></trkpt>
      <trkpt lat="47.253564820035336" lon="9.424694751280017">
      <ele>1467.9</ele></trkpt>
      <trkpt lat="47.25362742866493" lon="9.424697132335488">
      <ele>1467.5</ele></trkpt>
      <trkpt lat="47.253700013362874" lon="9.42471373361218">
      <ele>1467.2</ele></trkpt>
      <trkpt lat="47.25374806822746" lon="9.424726832609702">
      <ele>1468.0</ele></trkpt>
      <trkpt lat="47.25380731839138" lon="9.424760672548423">
      <ele>1468.8</ele></trkpt>
      <trkpt lat="47.25389031085324" lon="9.424779497894525">
      <ele>1469.7</ele></trkpt>
      <trkpt lat="47.25395828914072" lon="9.424771546407147">
      <ele>1470.5</ele></trkpt>
      <trkpt lat="47.25404683029292" lon="9.424745118539324">
      <ele>1471.3</ele></trkpt>
      <trkpt lat="47.254129398072806" lon="9.424720199619097">
      <ele>1472.1</ele></trkpt>
      <trkpt lat="47.254201277275506" lon="9.424693165190694">
      <ele>1472.9</ele></trkpt>
      <trkpt lat="47.25426949660762" lon="9.424671227757406">
      <ele>1473.8</ele></trkpt>
      <trkpt lat="47.254321584132015" lon="9.424618969681585">
      <ele>1474.6</ele></trkpt>
      <trkpt lat="47.25436843336476" lon="9.424594479847071">
      <ele>1475.4</ele></trkpt>
      <trkpt lat="47.25443372768116" lon="9.424603911831534">
      <ele>1476.2</ele></trkpt>
      <trkpt lat="47.25449373261691" lon="9.424644599134274">
      <ele>1477.0</ele></trkpt>
      <trkpt lat="47.25454832697735" lon="9.424653620094686">
      <ele>1477.9</ele></trkpt>
      <trkpt lat="47.254592522304854" lon="9.424644770734186">
      <ele>1478.7</ele></trkpt>
      <trkpt lat="47.25459870164353" lon="9.42461669367919">
      <ele>1479.5</ele></trkpt>
      <trkpt lat="47.25461422519547" lon="9.424575286404924">
      <ele>1480.3</ele></trkpt>
      <trkpt lat="47.25461764142815" lon="9.424544648568936">
      <ele>1481.1</ele></trkpt>
      <trkpt lat="47.25459206820054" lon="9.424487876881354">
      <ele>1482.0</ele></trkpt>
      <trkpt lat="47.25457418941755" lon="9.424445108659068">
      <ele>1482.8</ele></trkpt>
      <trkpt lat="47.25456891562773" lon="9.424421164965496">
      <ele>1483.6</ele></trkpt>
      <trkpt lat="47.25457347098139" lon="9.424406916627069">
      <ele>1484.6</ele></trkpt>
      <trkpt lat="47.25459826909694" lon="9.424413124721905">
      <ele>1485.6</ele></trkpt>
      <trkpt lat="47.254614338257824" lon="9.42441366934282">
      <ele>1486.6</ele></trkpt>
      <trkpt lat="47.2546235829635" lon="9.424395670449666">
      <ele>1487.5</ele></trkpt>
      <trkpt lat="47.25461225115201" lon="9.424350476195873">
      <ele>1488.5</ele></trkpt>
      <trkpt lat="47.254590735194824" lon="9.424303132488143">
      <ele>1489.5</ele></trkpt>
      <trkpt lat="47.25457376555949" lon="9.424241540131703">
      <ele>1490.5</ele></trkpt>
      <trkpt lat="47.25457299932341" lon="9.424217605461113">
      <ele>1491.5</ele></trkpt>
      <trkpt lat="47.254580914543126" lon="9.424213578384157">
      <ele>1492.5</ele></trkpt>
      <trkpt lat="47.25459306911437" lon="9.424215206415848">
      <ele>1493.4</ele></trkpt>
      <trkpt lat="47.25460213226607" lon="9.424200953847848">
      <ele>1494.4</ele></trkpt>
      <trkpt lat="47.254606180595005" lon="9.424157124353396">
      <ele>1495.4</ele></trkpt>
      <trkpt lat="47.254603509106104" lon="9.42409285229521">
      <ele>1496.4</ele></trkpt>
      <trkpt lat="47.254596329919835" lon="9.424001942743665">
      <ele>1497.4</ele></trkpt>
      <trkpt lat="47.254585417815065" lon="9.423908357151053">
      <ele>1498.4</ele></trkpt>
      <trkpt lat="47.254575012821476" lon="9.423870981206953">
      <ele>1499.4</ele></trkpt>
      <trkpt lat="47.25456254189687" lon="9.42383601293015">
      <ele>1500.3</ele></trkpt>
      <trkpt lat="47.25456787203904" lon="9.42379245574855">
      <ele>1501.3</ele></trkpt>
      <trkpt lat="47.25456390975898" lon="9.423754526405238">
      <ele>1502.3</ele></trkpt>
      <trkpt lat="47.25456828293582" lon="9.423717422277015">
      <ele>1503.3</ele></trkpt>
      <trkpt lat="47.25454913067859" lon="9.423674395568733">
      <ele>1504.2</ele></trkpt>
      <trkpt lat="47.25453871684476" lon="9.423637006154944">
      <ele>1505.0</ele></trkpt>
      <trkpt lat="47.254532533388726" lon="9.423605271476486">
      <ele>1505.9</ele></trkpt>
      <trkpt lat="47.254528982556025" lon="9.423572180986447">
      <ele>1506.8</ele></trkpt>
      <trkpt lat="47.25453823634962" lon="9.423554169104111">
      <ele>1507.6</ele></trkpt>
      <trkpt lat="47.25455457349925" lon="9.423549080565307">
      <ele>1508.5</ele></trkpt>
      <trkpt lat="47.2545804721116" lon="9.423559306914111">
      <ele>1509.4</ele></trkpt>
      <trkpt lat="47.254612822175446" lon="9.423595635084745">
      <ele>1510.2</ele></trkpt>
      <trkpt lat="47.254650532893024" lon="9.423654007189434">
      <ele>1511.1</ele></trkpt>
      <trkpt lat="47.25467151244997" lon="9.42371265613203">
      <ele>1511.9</ele></trkpt>
      <trkpt lat="47.25469640643816" lon="9.423743593051991">
      <ele>1512.8</ele></trkpt>
      <trkpt lat="47.25473981114944" lon="9.423804132850229">
      <ele>1513.7</ele></trkpt>
      <trkpt lat="47.25476643736228" lon="9.423852551853658">
      <ele>1514.5</ele></trkpt>
      <trkpt lat="47.25478842158666" lon="9.423863848684306">
      <ele>1515.4</ele></trkpt>
      <trkpt lat="47.254838399352565" lon="9.423815475464549">
      <ele>1516.3</ele></trkpt>
      <trkpt lat="47.254893936752765" lon="9.423732156335854">
      <ele>1517.1</ele></trkpt>
      <trkpt lat="47.254901669857986" lon="9.423705273285407">
      <ele>1518.0</ele></trkpt>
      <trkpt lat="47.25490076944332" lon="9.423670840611331">
      <ele>1518.9</ele></trkpt>
      <trkpt lat="47.254885791359946" lon="9.423647699106757">
      <ele>1519.7</ele></trkpt>
      <trkpt lat="47.2548944513131" lon="9.423602005602298">
      <ele>1520.6</ele></trkpt>
      <trkpt lat="47.25488379908133" lon="9.42358263264928">
      <ele>1520.9</ele></trkpt>
      <trkpt lat="47.25486956593127" lon="9.423517811669164">
      <ele>1521.3</ele></trkpt>
      <trkpt lat="47.25485459639242" lon="9.423468055120084">
      <ele>1521.6</ele></trkpt>
      <trkpt lat="47.25482984521173" lon="9.423420987791692">
      <ele>1522.0</ele></trkpt>
      <trkpt lat="47.254814971541435" lon="9.423395960497592">
      <ele>1522.3</ele></trkpt>
      <trkpt lat="47.25481402296222" lon="9.423349169893152">
      <ele>1522.6</ele></trkpt>
      <trkpt lat="47.25482886587817" lon="9.423281953959762">
      <ele>1523.0</ele></trkpt>
      <trkpt lat="47.25483916323984" lon="9.423255589055934">
      <ele>1523.3</ele></trkpt>
      <trkpt lat="47.25485667786707" lon="9.423252658585112">
      <ele>1523.7</ele></trkpt>
      <trkpt lat="47.254860419021334" lon="9.423228732721316">
      <ele>1524.0</ele></trkpt>
      <trkpt lat="47.254843803969514" lon="9.423186223126645">
      <ele>1524.3</ele></trkpt>
      <trkpt lat="47.2548239720239" lon="9.423143990480924">
      <ele>1524.7</ele></trkpt>
      <trkpt lat="47.25482948389329" lon="9.423123302067795">
      <ele>1525.0</ele></trkpt>
      <trkpt lat="47.25485906730977" lon="9.42312384628522">
      <ele>1525.4</ele></trkpt>
      <trkpt lat="47.25488199056326" lon="9.423155330918162">
      <ele>1525.7</ele></trkpt>
      <trkpt lat="47.254909487219464" lon="9.42317255450635">
      <ele>1526.0</ele></trkpt>
      <trkpt lat="47.25493824784277" lon="9.423190049739075">
      <ele>1526.4</ele></trkpt>
      <trkpt lat="47.25496072990484" lon="9.423204311825737">
      <ele>1526.7</ele></trkpt>
      <trkpt lat="47.254983527541036" lon="9.423198683508538">
      <ele>1527.1</ele></trkpt>
      <trkpt lat="47.25502512220984" lon="9.423190370567788">
      <ele>1527.4</ele></trkpt>
      <trkpt lat="47.255044798662745" lon="9.423183119718924">
      <ele>1528.4</ele></trkpt>
      <trkpt lat="47.25503401201909" lon="9.423153262112844">
      <ele>1529.4</ele></trkpt>
      <trkpt lat="47.25503455689713" lon="9.423115354602405">
      <ele>1530.4</ele></trkpt>
      <trkpt lat="47.255014543212695" lon="9.423076881424059">
      <ele>1531.4</ele></trkpt>
      <trkpt lat="47.255018543753316" lon="9.423047295777618">
      <ele>1532.4</ele></trkpt>
      <trkpt lat="47.255033023436944" lon="9.423040869358015">
      <ele>1533.4</ele></trkpt>
      <trkpt lat="47.25503818048248" lon="9.422974429701135">
      <ele>1534.4</ele></trkpt>
      <trkpt lat="47.25506029838939" lon="9.422969608583376">
      <ele>1535.4</ele></trkpt>
      <trkpt lat="47.25507335299023" lon="9.42295241161686">
      <ele>1536.4</ele></trkpt>
      <trkpt lat="47.25508041518758" lon="9.42292633600422">
      <ele>1537.3</ele></trkpt>
      <trkpt lat="47.25505315578987" lon="9.422853009353382">
      <ele>1538.3</ele></trkpt>
      <trkpt lat="47.25501150473376" lon="9.42273866983045">
      <ele>1539.3</ele></trkpt>
      <trkpt lat="47.254978930016705" lon="9.422705967761662">
      <ele>1540.3</ele></trkpt>
      <trkpt lat="47.25491889232628" lon="9.422605482230123">
      <ele>1541.3</ele></trkpt>
      <trkpt lat="47.25492345130431" lon="9.422584216506664">
      <ele>1542.3</ele></trkpt>
      <trkpt lat="47.25491889647709" lon="9.422531556470283">
      <ele>1543.3</ele></trkpt>
      <trkpt lat="47.25489933734914" lon="9.422478167299618">
      <ele>1544.3</ele></trkpt>
      <trkpt lat="47.254870334615205" lon="9.422499291512098">
      <ele>1545.3</ele></trkpt>
      <trkpt lat="47.25483453045474" lon="9.422502084666897">
      <ele>1546.3</ele></trkpt>
      <trkpt lat="47.25477182148924" lon="9.422447000279313">
      <ele>1547.3</ele></trkpt>
      </trkseg>
  </trk>
</gpx>