<?xml version="1.0" encoding="UTF-8"?>
<gpx version="1.1" creator="hike-planner" xmlns="http://www.topografix.com/GPX/1/1">
  <metadata><name>Grindelwald -> Wetterhorn NE Ridge</name>
    <desc>Routed from OSM (ODbL); elevations from SwissTopo / Open-Elevation</desc>
  </metadata>
  <wpt lat="46.354481" lon="8.333645">
    <ele>2502.8</ele>
    <name>Grindelwald</name>
  </wpt>
  <wpt lat="46.340481" lon="8.328080">
    <ele>2298.2</ele>
    <name>Wetterhorn NE Ridge</name>
  </wpt>
  <trk>
    <name>Grindelwald -> Wetterhorn NE Ridge</name>
    <trkseg>
      <trkpt lat="46.354481" lon="8.333645">
        <ele>2502.8</ele>
      </trkpt>
      <trkpt lat="46.354381" lon="8.333532">
        <ele>2505.2</ele>
      </trkpt>
      <trkpt lat="46.354215" lon="8.333366">
        <ele>2499.0</ele>
      </trkpt>
      <trkpt lat="46.354096" lon="8.333382">
        <ele>2497.2</ele>
      </trkpt>
      <trkpt lat="46.353878" lon="8.333387">
        <ele>2503.1</ele>
      </trkpt>
      <trkpt lat="46.353544" lon="8.333216">
        <ele>2503.8</ele>
      </trkpt>
      <trkpt lat="46.353293" lon="8.333516">
        <ele>2506.9</ele>
      </trkpt>
      <trkpt lat="46.353041" lon="8.333586">
        <ele>2504.4</ele>
      </trkpt>
      <trkpt lat="46.352700" lon="8.333886">
        <ele>2509.4</ele>
      </trkpt>
      <trkpt lat="46.352437" lon="8.333784">
        <ele>2513.6</ele>
      </trkpt>
      <trkpt lat="46.352223" lon="8.334015">
        <ele>2521.4</ele>
      </trkpt>
      <trkpt lat="46.352041" lon="8.334128">
        <ele>2527.4</ele>
      </trkpt>
      <trkpt lat="46.351686" lon="8.333967">
        <ele>2530.9</ele>
      </trkpt>
      <trkpt lat="46.351334" lon="8.333945">
        <ele>2531.8</ele>
      </trkpt>
      <trkpt lat="46.350908" lon="8.334036">
        <ele>2536.4</ele>
      </trkpt>
      <trkpt lat="46.350560" lon="8.334256">
        <ele>2537.5</ele>
      </trkpt>
      <trkpt lat="46.350064" lon="8.334686">
        <ele>2544.6</ele>
      </trkpt>
      <trkpt lat="46.349657" lon="8.334729">
        <ele>2543.9</ele>
      </trkpt>
      <trkpt lat="46.349334" lon="8.334787">
        <ele>2544.6</ele>
      </trkpt>
      <trkpt lat="46.349246" lon="8.335125">
        <ele>2546.8</ele>
      </trkpt>
      <trkpt lat="46.349061" lon="8.335624">
        <ele>2548.9</ele>
      </trkpt>
      <trkpt lat="46.348720" lon="8.336037">
        <ele>2552.4</ele>
      </trkpt>
      <trkpt lat="46.348527" lon="8.335715">
        <ele>2549.5</ele>
      </trkpt>
      <trkpt lat="46.348287" lon="8.335356">
        <ele>2552.7</ele>
      </trkpt>
      <trkpt lat="46.348124" lon="8.335490">
        <ele>2556.9</ele>
      </trkpt>
      <trkpt lat="46.347824" lon="8.335512">
        <ele>2558.6</ele>
      </trkpt>
      <trkpt lat="46.347457" lon="8.335662">
        <ele>2559.7</ele>
      </trkpt>
      <trkpt lat="46.346939" lon="8.336016">
        <ele>2562.1</ele>
      </trkpt>
      <trkpt lat="46.346617" lon="8.336279">
        <ele>2563.0</ele>
      </trkpt>
      <trkpt lat="46.346283" lon="8.336654">
        <ele>2558.1</ele>
      </trkpt>
      <trkpt lat="46.346054" lon="8.336649">
        <ele>2559.0</ele>
      </trkpt>
      <trkpt lat="46.345761" lon="8.336445">
        <ele>2555.5</ele>
      </trkpt>
      <trkpt lat="46.345435" lon="8.336665">
        <ele>2560.0</ele>
      </trkpt>
      <trkpt lat="46.345198" lon="8.336745">
        <ele>2561.1</ele>
      </trkpt>
      <trkpt lat="46.344934" lon="8.336973">
        <ele>2564.5</ele>
      </trkpt>
      <trkpt lat="46.344791" lon="8.337400">
        <ele>2558.6</ele>
      </trkpt>
      <trkpt lat="46.344541" lon="8.337926">
        <ele>2557.7</ele>
      </trkpt>
      <trkpt lat="46.344424" lon="8.337990">
        <ele>2557.2</ele>
      </trkpt>
      <trkpt lat="46.344234" lon="8.338253">
        <ele>2557.9</ele>
      </trkpt>
      <trkpt lat="46.344104" lon="8.338202">
        <ele>2552.7</ele>
      </trkpt>
      <trkpt lat="46.343826" lon="8.338242">
        <ele>2553.1</ele>
      </trkpt>
      <trkpt lat="46.343702" lon="8.338451">
        <ele>2557.7</ele>
      </trkpt>
      <trkpt lat="46.343663" lon="8.338698">
        <ele>2563.1</ele>
      </trkpt>
      <trkpt lat="46.343561" lon="8.338531">
        <ele>2561.6</ele>
      </trkpt>
      <trkpt lat="46.343339" lon="8.338398">
        <ele>2563.0</ele>
      </trkpt>
      <trkpt lat="46.343187" lon="8.338275">
        <ele>2555.5</ele>
      </trkpt>
      <trkpt lat="46.342996" lon="8.338185">
        <ele>2548.6</ele>
      </trkpt>
      <trkpt lat="46.342749" lon="8.337990">
        <ele>2542.1</ele>
      </trkpt>
      <trkpt lat="46.342598" lon="8.337857">
        <ele>2536.6</ele>
      </trkpt>
      <trkpt lat="46.342316" lon="8.337867">
        <ele>2538.9</ele>
      </trkpt>
      <trkpt lat="46.342047" lon="8.337781">
        <ele>2534.3</ele>
      </trkpt>
      <trkpt lat="46.341949" lon="8.337686">
        <ele>2529.0</ele>
      </trkpt>
      <trkpt lat="46.341647" lon="8.337671">
        <ele>2530.6</ele>
      </trkpt>
      <trkpt lat="46.341451" lon="8.337696">
        <ele>2524.7</ele>
      </trkpt>
      <trkpt lat="46.341169" lon="8.337791">
        <ele>2522.6</ele>
      </trkpt>
      <trkpt lat="46.340946" lon="8.337439">
        <ele>2513.3</ele>
      </trkpt>
      <trkpt lat="46.340586" lon="8.337136">
        <ele>2516.8</ele>
      </trkpt>
      <trkpt lat="46.340520" lon="8.336974">
        <ele>2515.2</ele>
      </trkpt>
      <trkpt lat="46.340232" lon="8.336708">
        <ele>2514.3</ele>
      </trkpt>
      <trkpt lat="46.340088" lon="8.336642">
        <ele>2513.9</ele>
      </trkpt>
      <trkpt lat="46.339917" lon="8.336272">
        <ele>2503.2</ele>
      </trkpt>
      <trkpt lat="46.339681" lon="8.335968">
        <ele>2493.7</ele>
      </trkpt>
      <trkpt lat="46.339419" lon="8.335683">
        <ele>2484.5</ele>
      </trkpt>
      <trkpt lat="46.339327" lon="8.335379">
        <ele>2475.5</ele>
      </trkpt>
      <trkpt lat="46.339321" lon="8.335018">
        <ele>2466.5</ele>
      </trkpt>
      <trkpt lat="46.339131" lon="8.334876">
        <ele>2461.0</ele>
      </trkpt>
      <trkpt lat="46.339059" lon="8.334914">
        <ele>2459.5</ele>
      </trkpt>
      <trkpt lat="46.338848" lon="8.334818">
        <ele>2454.8</ele>
      </trkpt>
      <trkpt lat="46.338718" lon="8.334563">
        <ele>2451.7</ele>
      </trkpt>
      <trkpt lat="46.338619" lon="8.334582">
        <ele>2452.4</ele>
      </trkpt>
      <trkpt lat="46.338429" lon="8.334154">
        <ele>2450.7</ele>
      </trkpt>
      <trkpt lat="46.338423" lon="8.334040">
        <ele>2449.7</ele>
      </trkpt>
      <trkpt lat="46.338023" lon="8.333082">
        <ele>2438.6</ele>
      </trkpt>
      <trkpt lat="46.337997" lon="8.332958">
        <ele>2436.2</ele>
      </trkpt>
      <trkpt lat="46.337898" lon="8.332854">
        <ele>2434.2</ele>
      </trkpt>
      <trkpt lat="46.337846" lon="8.332673">
        <ele>2430.6</ele>
      </trkpt>
      <trkpt lat="46.337911" lon="8.332474">
        <ele>2427.6</ele>
      </trkpt>
      <trkpt lat="46.337970" lon="8.331819">
        <ele>2420.4</ele>
      </trkpt>
      <trkpt lat="46.337964" lon="8.331686">
        <ele>2418.0</ele>
      </trkpt>
      <trkpt lat="46.337859" lon="8.331610">
        <ele>2415.8</ele>
      </trkpt>
      <trkpt lat="46.337734" lon="8.331145">
        <ele>2406.4</ele>
      </trkpt>
      <trkpt lat="46.337734" lon="8.330679">
        <ele>2396.0</ele>
      </trkpt>
      <trkpt lat="46.337636" lon="8.330679">
        <ele>2392.3</ele>
      </trkpt>
      <trkpt lat="46.337623" lon="8.330474">
        <ele>2377.7</ele>
      </trkpt>
      <trkpt lat="46.337613" lon="8.330384">
        <ele>2374.5</ele>
      </trkpt>
      <trkpt lat="46.337613" lon="8.330207">
        <ele>2369.6</ele>
      </trkpt>
      <trkpt lat="46.337635" lon="8.330046">
        <ele>2367.1</ele>
      </trkpt>
      <trkpt lat="46.337672" lon="8.329948">
        <ele>2365.5</ele>
      </trkpt>
      <trkpt lat="46.337778" lon="8.329907">
        <ele>2360.8</ele>
      </trkpt>
      <trkpt lat="46.337927" lon="8.329939">
        <ele>2358.3</ele>
      </trkpt>
      <trkpt lat="46.337985" lon="8.329970">
        <ele>2358.1</ele>
      </trkpt>
      <trkpt lat="46.338066" lon="8.330034">
        <ele>2357.5</ele>
      </trkpt>
      <trkpt lat="46.338160" lon="8.330119">
        <ele>2357.8</ele>
      </trkpt>
      <trkpt lat="46.338229" lon="8.330131">
        <ele>2357.1</ele>
      </trkpt>
      <trkpt lat="46.338199" lon="8.330056">
        <ele>2355.5</ele>
      </trkpt>
      <trkpt lat="46.338197" lon="8.329901">
        <ele>2352.0</ele>
      </trkpt>
      <trkpt lat="46.338225" lon="8.329759">
        <ele>2349.4</ele>
      </trkpt>
      <trkpt lat="46.338353" lon="8.329583">
        <ele>2345.0</ele>
      </trkpt>
      <trkpt lat="46.338480" lon="8.329472">
        <ele>2340.8</ele>
      </trkpt>
      <trkpt lat="46.338565" lon="8.329396">
        <ele>2337.7</ele>
      </trkpt>
      <trkpt lat="46.338621" lon="8.329418">
        <ele>2336.4</ele>
      </trkpt>
      <trkpt lat="46.338690" lon="8.329414">
        <ele>2334.3</ele>
      </trkpt>
      <trkpt lat="46.338917" lon="8.329247">
        <ele>2326.4</ele>
      </trkpt>
      <trkpt lat="46.339739" lon="8.329209">
        <ele>2311.3</ele>
      </trkpt>
      <trkpt lat="46.340070" lon="8.329295">
        <ele>2308.9</ele>
      </trkpt>
      <trkpt lat="46.340214" lon="8.328882">
        <ele>2301.4</ele>
      </trkpt>
      <trkpt lat="46.340272" lon="8.328807">
        <ele>2300.3</ele>
      </trkpt>
      <trkpt lat="46.340413" lon="8.328449">
        <ele>2298.8</ele>
      </trkpt>
      <trkpt lat="46.340416" lon="8.328313">
        <ele>2298.2</ele>
      </trkpt>
      <trkpt lat="46.340481" lon="8.328080">
        <ele>2298.2</ele>
      </trkpt>
    </trkseg>
  </trk>
</gpx>
