<?xml version='1.0' encoding='utf-8'?>
<gpx xmlns="http://www.topografix.com/GPX/1/1" xmlns:xsi="http://www.w3.org/2001/XMLSchema-instance" xsi:schemaLocation="http://www.topografix.com/GPX/1/1 http://www.topografix.com/GPX/1/1/gpx.xsd" version="1.1" creator="gpx.py -- https://github.com/tkrajina/gpxpy">
  <trk>
    <name>berggasthaus-tschingelhorn</name>
    <trkseg>
      <trkpt lat="46.54564708946913" lon="7.902449583077934">
      <ele>905.6</ele></trkpt>
    <trkpt lat="46.54519384948409" lon="7.902682453269468">
      <ele>907.1</ele></trkpt>
      <trkpt lat="46.54506618693958" lon="7.902742923656563">
      <ele>908.6</ele></trkpt>
      <trkpt lat="46.54501514745972" lon="7.9027621732403635">
      <ele>910.0</ele></trkpt>
      <trkpt lat="46.54496075680533" lon="7.902771563588159">
      <ele>911.5</ele></trkpt>
      <trkpt lat="46.54474996476505" lon="7.902865023357849">
      <ele>913.0</ele></trkpt>
      <trkpt lat="46.54460264337512" lon="7.902937253734226">
      <ele>914.5</ele></trkpt>
      <trkpt lat="46.54454165731537" lon="7.902973457906167">
      <ele>915.8</ele></trkpt>
      <trkpt lat="46.544375611342645" lon="7.903079803031965">
      <ele>917.2</ele></trkpt>
      <trkpt lat="46.544218052023865" lon="7.903176416049421">
      <ele>918.5</ele></trkpt>
      <trkpt lat="46.544006280929324" lon="7.9033068650883065">
      <ele>919.9</ele></trkpt>
      <trkpt lat="46.543975558649194" lon="7.903322715836639">
      <ele>921.2</ele></trkpt>
      <trkpt lat="46.543961707718324" lon="7.903394759672289">
      <ele>922.5</ele></trkpt>
      <trkpt lat="46.543939582025146" lon="7.9034752720143455">
      <ele>923.9</ele></trkpt>
      <trkpt lat="46.54392193407959" lon="7.903569499089747">
      <ele>925.2</ele></trkpt>
      <trkpt lat="46.54387677415495" lon="7.903723840443724">
      <ele>926.6</ele></trkpt>
      <trkpt lat="46.543840963831094" lon="7.903811405592784">
      <ele>927.9</ele></trkpt>
      <trkpt lat="46.54371578389615" lon="7.90408287845335">
      <ele>929.2</ele></trkpt>
      <trkpt lat="46.5436543129" lon="7.904200117373796">
      <ele>930.6</ele></trkpt>
      <trkpt lat="46.54353953362967" lon="7.904365527176275">
      <ele>931.9</ele></trkpt>
      <trkpt lat="46.54347333261857" lon="7.904451513150052">
      <ele>933.3</ele></trkpt>
      <trkpt lat="46.54339870667248" lon="7.904523306933389">
      <ele>934.6</ele></trkpt>
      <trkpt lat="46.543355136277754" lon="7.904607727186893">
      <ele>935.9</ele></trkpt>
      <trkpt lat="46.54327253911603" lon="7.904758771292399">
      <ele>937.3</ele></trkpt>
      <trkpt lat="46.54322583259854" lon="7.904853294180681">
      <ele>938.6</ele></trkpt>
      <trkpt lat="46.54318822896303" lon="7.90493483188105">
      <ele>940.0</ele></trkpt>
      <trkpt lat="46.543151577590315" lon="7.905060548147952">
      <ele>941.3</ele></trkpt>
      <trkpt lat="46.543107135360145" lon="7.905153460409262">
      <ele>942.4</ele></trkpt>
      <trkpt lat="46.54305718497133" lon="7.905218516476143">
      <ele>943.5</ele></trkpt>
      <trkpt lat="46.5429937075475" lon="7.905271969997061">
      <ele>944.6</ele></trkpt>
      <trkpt lat="46.54293822652674" lon="7.905305884239853">
      <ele>945.7</ele></trkpt>
      <trkpt lat="46.54286248535087" lon="7.905324865618095">
      <ele>946.8</ele></trkpt>
      <trkpt lat="46.542728808578715" lon="7.9053445600769">
      <ele>947.9</ele></trkpt>
      <trkpt lat="46.54263249924284" lon="7.905355711209883">
      <ele>949.0</ele></trkpt>
      <trkpt lat="46.54259227379412" lon="7.905357033272651">
      <ele>950.1</ele></trkpt>
      <trkpt lat="46.54251912788447" lon="7.905333261842754">
      <ele>951.2</ele></trkpt>
      <trkpt lat="46.542465662217616" lon="7.905321054564914">
      <ele>952.2</ele></trkpt>
      <trkpt lat="46.542393680821895" lon="7.9053182178987855">
      <ele>953.3</ele></trkpt>
      <trkpt lat="46.54233726243277" lon="7.90531310349366">
      <ele>954.4</ele></trkpt>
      <trkpt lat="46.54226826787965" lon="7.9052948566369245">
      <ele>955.5</ele></trkpt>
      <trkpt lat="46.54223225802892" lon="7.905297010328599">
      <ele>956.6</ele></trkpt>
      <trkpt lat="46.54219422389949" lon="7.905314569462882">
      <ele>957.7</ele></trkpt>
      <trkpt lat="46.54217267894214" lon="7.9053452947411404">
      <ele>958.8</ele></trkpt>
      <trkpt lat="46.542155928970075" lon="7.905389111452613">
      <ele>959.9</ele></trkpt>
      <trkpt lat="46.54212041361454" lon="7.905492163326315">
      <ele>961.0</ele></trkpt>
      <trkpt lat="46.542086850229104" lon="7.905595218860855">
      <ele>962.1</ele></trkpt>
      <trkpt lat="46.54203303176167" lon="7.905704005355184">
      <ele>963.2</ele></trkpt>
      <trkpt lat="46.5419624308611" lon="7.905842540793809">
      <ele>963.9</ele></trkpt>
      <trkpt lat="46.541885125800796" lon="7.905966273135958">
      <ele>964.6</ele></trkpt>
      <trkpt lat="46.54179083285904" lon="7.906099675345642">
      <ele>965.3</ele></trkpt>
      <trkpt lat="46.54171136827459" lon="7.906197210017227">
      <ele>966.1</ele></trkpt>
      <trkpt lat="46.54162509873081" lon="7.906304489432636">
      <ele>966.8</ele></trkpt>
      <trkpt lat="46.54156939982116" lon="7.906389126659276">
      <ele>967.5</ele></trkpt>
      <trkpt lat="46.54152730639619" lon="7.906464051401219">
      <ele>968.2</ele></trkpt>
      <trkpt lat="46.541494210609486" lon="7.9065472540028345">
      <ele>968.9</ele></trkpt>
      <trkpt lat="46.54147028537865" lon="7.906594514725918">
      <ele>969.6</ele></trkpt>
      <trkpt lat="46.541409714858176" lon="7.906656242562199">
      <ele>970.4</ele></trkpt>
      <trkpt lat="46.541326246201805" lon="7.906690499152388">
      <ele>971.1</ele></trkpt>
      <trkpt lat="46.541302609055975" lon="7.906693971251158">
      <ele>971.8</ele></trkpt>
      <trkpt lat="46.54128113040263" lon="7.906695376102494">
      <ele>972.5</ele></trkpt>
      <trkpt lat="46.541246832815006" lon="7.906683659352833">
      <ele>973.2</ele></trkpt>
      <trkpt lat="46.54119543143554" lon="7.906655146718153">
      <ele>973.9</ele></trkpt>
      <trkpt lat="46.54113593371104" lon="7.906613553394497">
      <ele>974.6</ele></trkpt>
      <trkpt lat="46.541092631360165" lon="7.906601837133122">
      <ele>975.4</ele></trkpt>
      <trkpt lat="46.54095284851388" lon="7.906594736546292">
      <ele>976.1</ele></trkpt>
      <trkpt lat="46.54088497168686" lon="7.906600042617125">
      <ele>976.8</ele></trkpt>
      <trkpt lat="46.54082109510965" lon="7.906619163110992">
      <ele>977.5</ele></trkpt>
      <trkpt lat="46.540743637210646" lon="7.906642103285744">
      <ele>977.9</ele></trkpt>
      <trkpt lat="46.54068542138465" lon="7.9066081609301655">
      <ele>978.3</ele></trkpt>
      <trkpt lat="46.54064355916807" lon="7.9065547005733965">
      <ele>978.8</ele></trkpt>
      <trkpt lat="46.54058130886849" lon="7.906510880797741">
      <ele>979.2</ele></trkpt>
      <trkpt lat="46.54045270084856" lon="7.906431093261227">
      <ele>979.6</ele></trkpt>
      <trkpt lat="46.54033089061957" lon="7.906345459212206">
      <ele>980.0</ele></trkpt>
      <trkpt lat="46.54027822834014" lon="7.90628009494618">
      <ele>980.4</ele></trkpt>
      <trkpt lat="46.540143127757545" lon="7.90612746896694">
      <ele>980.9</ele></trkpt>
      <trkpt lat="46.54005659927334" lon="7.906046064626911">
      <ele>981.3</ele></trkpt>
      <trkpt lat="46.53997964157856" lon="7.905945110068844">
      <ele>981.7</ele></trkpt>
      <trkpt lat="46.53993507956214" lon="7.905889646072692">
      <ele>982.1</ele></trkpt>
      <trkpt lat="46.53989586187545" lon="7.905855868944731">
      <ele>982.5</ele></trkpt>
      <trkpt lat="46.5397687167443" lon="7.905750518950218">
      <ele>983.0</ele></trkpt>
      <trkpt lat="46.539690247121115" lon="7.905686901880262">
      <ele>983.4</ele></trkpt>
      <trkpt lat="46.53963473055224" lon="7.90565495300177">
      <ele>983.8</ele></trkpt>
      <trkpt lat="46.53956969868099" lon="7.905626846112586">
      <ele>984.2</ele></trkpt>
      <trkpt lat="46.53950340530432" lon="7.905575145469153">
      <ele>984.6</ele></trkpt>
      <trkpt lat="46.53933161601521" lon="7.905432036653778">
      <ele>985.1</ele></trkpt>
      <trkpt lat="46.539143049999296" lon="7.905255906465836">
      <ele>985.5</ele></trkpt>
      <trkpt lat="46.539105204792605" lon="7.905233992166269">
      <ele>985.9</ele></trkpt>
      <trkpt lat="46.539053723894725" lon="7.9052335486036975">
      <ele>987.4</ele></trkpt>
      <trkpt lat="46.53897506819636" lon="7.905252503609623">
      <ele>988.9</ele></trkpt>
      <trkpt lat="46.538892257989204" lon="7.905293010884744">
      <ele>990.3</ele></trkpt>
      <trkpt lat="46.53882708490674" lon="7.905327803699811">
      <ele>991.8</ele></trkpt>
      <trkpt lat="46.53877549841214" lon="7.90535090265809">
      <ele>993.3</ele></trkpt>
      <trkpt lat="46.53873076071472" lon="7.905362301886516">
      <ele>994.8</ele></trkpt>
      <trkpt lat="46.5386857304469" lon="7.905359502091567">
      <ele>996.3</ele></trkpt>
      <trkpt lat="46.538563474526796" lon="7.905290216842611">
      <ele>997.7</ele></trkpt>
      <trkpt lat="46.5385359898353" lon="7.905282093093423">
      <ele>999.2</ele></trkpt>
      <trkpt lat="46.53850474106484" lon="7.905303411795152">
      <ele>1000.7</ele></trkpt>
      <trkpt lat="46.53844210646615" lon="7.905379446681922">
      <ele>1002.2</ele></trkpt>
      <trkpt lat="46.53837549549964" lon="7.90543580159107">
      <ele>1003.7</ele></trkpt>
      <trkpt lat="46.538309028532055" lon="7.905454874169475">
      <ele>1005.1</ele></trkpt>
      <trkpt lat="46.538253497852395" lon="7.9054504585764915">
      <ele>1006.6</ele></trkpt>
      <trkpt lat="46.53819411967505" lon="7.905394973347758">
      <ele>1008.1</ele></trkpt>
      <trkpt lat="46.538120060604186" lon="7.905282432987063">
      <ele>1009.6</ele></trkpt>
      <trkpt lat="46.538022981170435" lon="7.905167726170875">
      <ele>1011.1</ele></trkpt>
      <trkpt lat="46.53790563824163" lon="7.905041060641371">
      <ele>1012.5</ele></trkpt>
      <trkpt lat="46.537751880774685" lon="7.904920873906889">
      <ele>1014.0</ele></trkpt>
      <trkpt lat="46.53770980561343" lon="7.904886252974448">
      <ele>1015.5</ele></trkpt>
      <trkpt lat="46.537647404599255" lon="7.904863684888653">
      <ele>1016.6</ele></trkpt>
      <trkpt lat="46.53757140107743" lon="7.904865481341328">
      <ele>1017.8</ele></trkpt>
      <trkpt lat="46.537471719510215" lon="7.904871962430224">
      <ele>1018.9</ele></trkpt>
      <trkpt lat="46.5373331544507" lon="7.904890349477231">
      <ele>1020.0</ele></trkpt>
      <trkpt lat="46.53723858644093" lon="7.9048870845508805">
      <ele>1021.2</ele></trkpt>
      <trkpt lat="46.5371086686963" lon="7.904856609251932">
      <ele>1022.3</ele></trkpt>
      <trkpt lat="46.536842240347845" lon="7.904751502192762">
      <ele>1023.4</ele></trkpt>
      <trkpt lat="46.53677667548106" lon="7.90467998405248">
      <ele>1024.6</ele></trkpt>
      <trkpt lat="46.5367246629788" lon="7.90459631601994">
      <ele>1025.7</ele></trkpt>
      <trkpt lat="46.53687675022908" lon="7.90457314329838">
      <ele>1026.8</ele></trkpt>
      <trkpt lat="46.536944315971986" lon="7.904571286899927">
      <ele>1028.0</ele></trkpt>
      <trkpt lat="46.5369899228544" lon="7.904571679278206">
      <ele>1029.1</ele></trkpt>
      <trkpt lat="46.53706752732008" lon="7.904591913783561">
      <ele>1030.3</ele></trkpt>
      <trkpt lat="46.53712149165819" lon="7.904611971012812">
      <ele>1031.4</ele></trkpt>
      <trkpt lat="46.53716538841502" lon="7.904614786423655">
      <ele>1032.5</ele></trkpt>
      <trkpt lat="46.537202658858654" lon="7.904588187980374">
      <ele>1033.7</ele></trkpt>
      <trkpt lat="46.53722648935418" lon="7.904541893943957">
      <ele>1034.8</ele></trkpt>
      <trkpt lat="46.53723175329555" lon="7.904495427119163">
      <ele>1035.9</ele></trkpt>
      <trkpt lat="46.5372268201235" lon="7.904461139363231">
      <ele>1037.1</ele></trkpt>
      <trkpt lat="46.537191541582274" lon="7.904414323839729">
      <ele>1038.2</ele></trkpt>
      <trkpt lat="46.537152758392224" lon="7.904401749583158">
      <ele>1039.7</ele></trkpt>
      <trkpt lat="46.537046331309796" lon="7.904405722718938">
      <ele>1041.2</ele></trkpt>
      <trkpt lat="46.53696197123514" lon="7.904385430389998">
      <ele>1042.8</ele></trkpt>
      <trkpt lat="46.536860878111376" lon="7.904325821598879">
      <ele>1044.3</ele></trkpt>
      <trkpt lat="46.53673811660511" lon="7.904197497601449">
      <ele>1045.8</ele></trkpt>
      <trkpt lat="46.53664898261255" lon="7.904106171900668">
      <ele>1047.4</ele></trkpt>
      <trkpt lat="46.53656302149167" lon="7.904063836020376">
      <ele>1048.9</ele></trkpt>
      <trkpt lat="46.53643481580677" lon="7.9040260126134205">
      <ele>1050.4</ele></trkpt>
      <trkpt lat="46.53630311763139" lon="7.904015091093701">
      <ele>1051.9</ele></trkpt>
      <trkpt lat="46.536113991473826" lon="7.904006139890959">
      <ele>1053.5</ele></trkpt>
      <trkpt lat="46.53596026436125" lon="7.904014595630577">
      <ele>1055.0</ele></trkpt>
      <trkpt lat="46.53576941605107" lon="7.90401540635291">
      <ele>1056.5</ele></trkpt>
      <trkpt lat="46.53559884449583" lon="7.904013940631821">
      <ele>1058.0</ele></trkpt>
      <trkpt lat="46.53547543280662" lon="7.904042249102432">
      <ele>1059.5</ele></trkpt>
      <trkpt lat="46.53539086239182" lon="7.904073341912191">
      <ele>1061.1</ele></trkpt>
      <trkpt lat="46.53531124727045" lon="7.904128944739633">
      <ele>1062.6</ele></trkpt>
      <trkpt lat="46.53523324213858" lon="7.904206578074524">
      <ele>1064.1</ele></trkpt>
      <trkpt lat="46.535160149951174" lon="7.904323437859187">
      <ele>1065.7</ele></trkpt>
      <trkpt lat="46.535115923554294" lon="7.9043989235779755">
      <ele>1067.2</ele></trkpt>
      <trkpt lat="46.535073006568425" lon="7.904389703465292">
      <ele>1068.7</ele></trkpt>
      <trkpt lat="46.53501430752322" lon="7.9043857312555055">
      <ele>1070.9</ele></trkpt>
      <trkpt lat="46.534890934669654" lon="7.904375975710276">
      <ele>1073.1</ele></trkpt>
      <trkpt lat="46.534807068275114" lon="7.904373520801105">
      <ele>1075.3</ele></trkpt>
      <trkpt lat="46.534735185704136" lon="7.904372902648993">
      <ele>1077.6</ele></trkpt>
      <trkpt lat="46.53468477091005" lon="7.904393299506235">
      <ele>1079.8</ele></trkpt>
      <trkpt lat="46.534628267428424" lon="7.904439701483586">
      <ele>1082.0</ele></trkpt>
      <trkpt lat="46.53459215101644" lon="7.904481051580992">
      <ele>1084.2</ele></trkpt>
      <trkpt lat="46.534554731455415" lon="7.904548447900175">
      <ele>1086.4</ele></trkpt>
      <trkpt lat="46.53452444943678" lon="7.904628054393886">
      <ele>1088.6</ele></trkpt>
      <trkpt lat="46.53448349570924" lon="7.904679777822297">
      <ele>1090.8</ele></trkpt>
      <trkpt lat="46.53436942730998" lon="7.904739579470931">
      <ele>1093.1</ele></trkpt>
      <trkpt lat="46.53429262922254" lon="7.9047684302229095">
      <ele>1095.3</ele></trkpt>
      <trkpt lat="46.534177524359606" lon="7.904784802399996">
      <ele>1097.5</ele></trkpt>
      <trkpt lat="46.53404571078038" lon="7.904788881941989">
      <ele>1099.7</ele></trkpt>
      <trkpt lat="46.533972637031596" lon="7.904784785652719">
      <ele>1101.9</ele></trkpt>
      <trkpt lat="46.53389363642745" lon="7.904764996240384">
      <ele>1104.1</ele></trkpt>
      <trkpt lat="46.533831405159205" lon="7.9047470979075944">
      <ele>1106.4</ele></trkpt>
      <trkpt lat="46.53376085939853" lon="7.904710031684696">
      <ele>1108.6</ele></trkpt>
      <trkpt lat="46.533684374333205" lon="7.904662499445586">
      <ele>1110.8</ele></trkpt>
      <trkpt lat="46.53353408241807" lon="7.904581210352106">
      <ele>1113.0</ele></trkpt>
      <trkpt lat="46.53343834921762" lon="7.904530788604372">
      <ele>1114.2</ele></trkpt>
      <trkpt lat="46.53336536810444" lon="7.904490899465827">
      <ele>1115.4</ele></trkpt>
      <trkpt lat="46.53323165784174" lon="7.904455102493789">
      <ele>1116.6</ele></trkpt>
      <trkpt lat="46.53303817226938" lon="7.904449684331813">
      <ele>1117.8</ele></trkpt>
      <trkpt lat="46.53291064423771" lon="7.9044243426672125">
      <ele>1119.0</ele></trkpt>
      <trkpt lat="46.532784682215805" lon="7.904361474264903">
      <ele>1120.2</ele></trkpt>
      <trkpt lat="46.53264143424954" lon="7.904255898912306">
      <ele>1121.4</ele></trkpt>
      <trkpt lat="46.53254214731934" lon="7.90420114654812">
      <ele>1122.6</ele></trkpt>
      <trkpt lat="46.53248677102925" lon="7.904187570600925">
      <ele>1123.8</ele></trkpt>
      <trkpt lat="46.53242086101634" lon="7.904195893758169">
      <ele>1125.0</ele></trkpt>
      <trkpt lat="46.53228812967464" lon="7.904259352875077">
      <ele>1126.2</ele></trkpt>
      <trkpt lat="46.532249655032174" lon="7.904285665049023">
      <ele>1127.4</ele></trkpt>
      <trkpt lat="46.53218147962624" lon="7.904344139093889">
      <ele>1128.6</ele></trkpt>
      <trkpt lat="46.532135008015885" lon="7.9043703823901">
      <ele>1129.8</ele></trkpt>
      <trkpt lat="46.53209580390854" lon="7.90437931292419">
      <ele>1131.0</ele></trkpt>
      <trkpt lat="46.53205509295984" lon="7.90436738806747">
      <ele>1132.2</ele></trkpt>
      <trkpt lat="46.53196499266918" lon="7.904312167622377">
      <ele>1133.4</ele></trkpt>
      <trkpt lat="46.531886115821024" lon="7.904248949349573">
      <ele>1134.6</ele></trkpt>
      <trkpt lat="46.531835095751596" lon="7.90421724072516">
      <ele>1135.8</ele></trkpt>
      <trkpt lat="46.531738452578296" lon="7.904197887828507">
      <ele>1137.0</ele></trkpt>
      <trkpt lat="46.53165933871983" lon="7.904192554447884">
      <ele>1138.0</ele></trkpt>
      <trkpt lat="46.53156178543689" lon="7.904202143549538">
      <ele>1138.9</ele></trkpt>
      <trkpt lat="46.53151139995354" lon="7.904210991030853">
      <ele>1139.8</ele></trkpt>
      <trkpt lat="46.53148014592426" lon="7.904229244426899">
      <ele>1140.8</ele></trkpt>
      <trkpt lat="46.5313887276485" lon="7.9043025727309475">
      <ele>1141.8</ele></trkpt>
      <trkpt lat="46.531316535460356" lon="7.904362184389476">
      <ele>1142.7</ele></trkpt>
      <trkpt lat="46.531248426367384" lon="7.904404456061169">
      <ele>1143.7</ele></trkpt>
      <trkpt lat="46.53116194957973" lon="7.904441929397858">
      <ele>1144.6</ele></trkpt>
      <trkpt lat="46.53112514775591" lon="7.90444856025076">
      <ele>1145.5</ele></trkpt>
      <trkpt lat="46.53108997557578" lon="7.904448257760633">
      <ele>1146.5</ele></trkpt>
      <trkpt lat="46.53105484554399" lon="7.904439861259472">
      <ele>1147.5</ele></trkpt>
      <trkpt lat="46.531016608103364" lon="7.904408249831523">
      <ele>1148.4</ele></trkpt>
      <trkpt lat="46.53097922339853" lon="7.904363911171779">
      <ele>1149.3</ele></trkpt>
      <trkpt lat="46.53092757395006" lon="7.904288193465231">
      <ele>1150.3</ele></trkpt>
      <trkpt lat="46.53087909363862" lon="7.904220610526989">
      <ele>1151.2</ele></trkpt>
      <trkpt lat="46.53079239001044" lon="7.904117936564735">
      <ele>1152.2</ele></trkpt>
      <trkpt lat="46.530763991572094" lon="7.904069295970544">
      <ele>1153.2</ele></trkpt>
      <trkpt lat="46.53073407769942" lon="7.904023861888646">
      <ele>1154.1</ele></trkpt>
      <trkpt lat="46.53069558585379" lon="7.903975251988352">
      <ele>1155.0</ele></trkpt>
      <trkpt lat="46.53064848534834" lon="7.903926568204152">
      <ele>1156.0</ele></trkpt>
      <trkpt lat="46.530604573357415" lon="7.903885693375869">
      <ele>1157.6</ele></trkpt>
      <trkpt lat="46.53055197510259" lon="7.903868114501861">
      <ele>1159.3</ele></trkpt>
      <trkpt lat="46.53045409493567" lon="7.9038828497222005">
      <ele>1160.9</ele></trkpt>
      <trkpt lat="46.53033368602914" lon="7.903889609924164">
      <ele>1162.5</ele></trkpt>
      <trkpt lat="46.53028633066626" lon="7.90390321495086">
      <ele>1164.2</ele></trkpt>
      <trkpt lat="46.53013988451944" lon="7.90396579847319">
      <ele>1165.8</ele></trkpt>
      <trkpt lat="46.53001182910413" lon="7.903998965151583">
      <ele>1167.4</ele></trkpt>
      <trkpt lat="46.52995809032657" lon="7.903998503439731">
      <ele>1169.0</ele></trkpt>
      <trkpt lat="46.529906347045824" lon="7.903985233278222">
      <ele>1170.7</ele></trkpt>
      <trkpt lat="46.52987528096125" lon="7.903955365854665">
      <ele>1172.3</ele></trkpt>
      <trkpt lat="46.529837719346794" lon="7.903941031479913">
      <ele>1173.9</ele></trkpt>
      <trkpt lat="46.52978293035626" lon="7.903931215346745">
      <ele>1175.6</ele></trkpt>
      <trkpt lat="46.5297248419284" lon="7.903938497694985">
      <ele>1177.2</ele></trkpt>
      <trkpt lat="46.52960536177208" lon="7.9039733019441165">
      <ele>1178.8</ele></trkpt>
      <trkpt lat="46.52952678995048" lon="7.903995983933127">
      <ele>1180.4</ele></trkpt>
      <trkpt lat="46.52948057506083" lon="7.903992484769631">
      <ele>1182.1</ele></trkpt>
      <trkpt lat="46.52941722466983" lon="7.90397324969961">
      <ele>1183.7</ele></trkpt>
      <trkpt lat="46.52927572684777" lon="7.903870772996612">
      <ele>1185.3</ele></trkpt>
      <trkpt lat="46.529185619132676" lon="7.903821708183386">
      <ele>1187.0</ele></trkpt>
      <trkpt lat="46.52905899093537" lon="7.903767676799863">
      <ele>1188.6</ele></trkpt>
      <trkpt lat="46.528958041842685" lon="7.903738760933376">
      <ele>1189.2</ele></trkpt>
      <trkpt lat="46.528891509256745" lon="7.903710153718101">
      <ele>1189.8</ele></trkpt>
      <trkpt lat="46.52878108745566" lon="7.903632879261625">
      <ele>1190.4</ele></trkpt>
      <trkpt lat="46.52870386636695" lon="7.903587041001632">
      <ele>1191.0</ele></trkpt>
      <trkpt lat="46.5286588647173" lon="7.903550824679828">
      <ele>1191.6</ele></trkpt>
      <trkpt lat="46.52861060183007" lon="7.903522374658394">
      <ele>1192.3</ele></trkpt>
      <trkpt lat="46.52846983490948" lon="7.903430255768553">
      <ele>1192.9</ele></trkpt>
      <trkpt lat="46.52842696271302" lon="7.903401252654849">
      <ele>1193.5</ele></trkpt>
      <trkpt lat="46.52836500418042" lon="7.903338576004147">
      <ele>1194.1</ele></trkpt>
      <trkpt lat="46.52831157662317" lon="7.903288367780393">
      <ele>1194.7</ele></trkpt>
      <trkpt lat="46.52822061733792" lon="7.903236299748495">
      <ele>1195.3</ele></trkpt>
      <trkpt lat="46.52815531407403" lon="7.903206218240868">
      <ele>1195.9</ele></trkpt>
      <trkpt lat="46.52807171464186" lon="7.903186849998073">
      <ele>1196.5</ele></trkpt>
      <trkpt lat="46.52792588897197" lon="7.903174716220537">
      <ele>1197.1</ele></trkpt>
      <trkpt lat="46.527876580690446" lon="7.903166525284677">
      <ele>1197.8</ele></trkpt>
      <trkpt lat="46.52777696984955" lon="7.903131483808743">
      <ele>1198.4</ele></trkpt>
      <trkpt lat="46.52766763070912" lon="7.9031150101287135">
      <ele>1199.0</ele></trkpt>
      <trkpt lat="46.527591424489415" lon="7.9031267906933795">
      <ele>1199.6</ele></trkpt>
      <trkpt lat="46.52756240469567" lon="7.903142077863815">
      <ele>1200.2</ele></trkpt>
      <trkpt lat="46.527516168087914" lon="7.903168113430041">
      <ele>1200.8</ele></trkpt>
      <trkpt lat="46.52747002943671" lon="7.903172370722199">
      <ele>1201.5</ele></trkpt>
      <trkpt lat="46.52729097294479" lon="7.903153748184219">
      <ele>1202.2</ele></trkpt>
      <trkpt lat="46.52725878362165" lon="7.903156561077375">
      <ele>1202.9</ele></trkpt>
      <trkpt lat="46.52721148554756" lon="7.903182587381949">
      <ele>1203.7</ele></trkpt>
      <trkpt lat="46.52716313080552" lon="7.903200823590279">
      <ele>1204.4</ele></trkpt>
      <trkpt lat="46.527092348310646" lon="7.9032017675006045">
      <ele>1205.1</ele></trkpt>
      <trkpt lat="46.52695194105053" lon="7.9031756955026005">
      <ele>1205.8</ele></trkpt>
      <trkpt lat="46.52691223781707" lon="7.903176905981216">
      <ele>1206.5</ele></trkpt>
      <trkpt lat="46.526870938371104" lon="7.903201106738204">
      <ele>1207.2</ele></trkpt>
      <trkpt lat="46.52675251147849" lon="7.902969282886264">
      <ele>1207.9</ele></trkpt>
      <trkpt lat="46.526665447892746" lon="7.902833315438609">
      <ele>1208.7</ele></trkpt>
      <trkpt lat="46.526495943712" lon="7.902594539118515">
      <ele>1209.4</ele></trkpt>
      <trkpt lat="46.52641346715288" lon="7.902502769018219">
      <ele>1210.1</ele></trkpt>
      <trkpt lat="46.52628436386025" lon="7.902398166247853">
      <ele>1210.8</ele></trkpt>
      <trkpt lat="46.52617897907028" lon="7.902318621394498">
      <ele>1211.5</ele></trkpt>
      <trkpt lat="46.52611340237078" lon="7.902284942618418">
      <ele>1212.2</ele></trkpt>
      <trkpt lat="46.52600976374213" lon="7.902242649039932">
      <ele>1213.0</ele></trkpt>
      <trkpt lat="46.52590902269657" lon="7.902193498902769">
      <ele>1213.7</ele></trkpt>
      <trkpt lat="46.52584147366966" lon="7.902173605687153">
      <ele>1214.4</ele></trkpt>
      <trkpt lat="46.52571309637087" lon="7.90212696935275">
      <ele>1215.1</ele></trkpt>
      <trkpt lat="46.525488716271184" lon="7.902033987337447">
      <ele>1216.2</ele></trkpt>
      <trkpt lat="46.52540221718477" lon="7.901993235876282">
      <ele>1217.3</ele></trkpt>
      <trkpt lat="46.52526162729393" lon="7.901903734547269">
      <ele>1218.4</ele></trkpt>
      <trkpt lat="46.52515422615398" lon="7.901853134236962">
      <ele>1219.5</ele></trkpt>
      <trkpt lat="46.52508764746455" lon="7.901829105533385">
      <ele>1220.5</ele></trkpt>
      <trkpt lat="46.52499439275468" lon="7.901810374770406">
      <ele>1221.6</ele></trkpt>
      <trkpt lat="46.524934421262024" lon="7.901802954520538">
      <ele>1222.7</ele></trkpt>
      <trkpt lat="46.52477059730252" lon="7.901805698223801">
      <ele>1223.8</ele></trkpt>
      <trkpt lat="46.52460495959867" lon="7.901787730214305">
      <ele>1224.9</ele></trkpt>
      <trkpt lat="46.52452135467695" lon="7.901738728699625">
      <ele>1226.0</ele></trkpt>
      <trkpt lat="46.52446743013765" lon="7.901651338709041">
      <ele>1227.1</ele></trkpt>
      <trkpt lat="46.52442490393402" lon="7.901568177706442">
      <ele>1228.2</ele></trkpt>
      <trkpt lat="46.524394582362454" lon="7.901532052276658">
      <ele>1229.3</ele></trkpt>
      <trkpt lat="46.52435561517557" lon="7.901513773118566">
      <ele>1230.4</ele></trkpt>
      <trkpt lat="46.524317446406634" lon="7.901531393124935">
      <ele>1231.5</ele></trkpt>
      <trkpt lat="46.52428201692475" lon="7.901576613890589">
      <ele>1232.5</ele></trkpt>
      <trkpt lat="46.52425706486636" lon="7.901624687096803">
      <ele>1233.6</ele></trkpt>
      <trkpt lat="46.52422052221958" lon="7.90171130335063">
      <ele>1234.7</ele></trkpt>
      <trkpt lat="46.524184961051745" lon="7.901791046581135">
      <ele>1235.8</ele></trkpt>
      <trkpt lat="46.52416768878257" lon="7.901819857691716">
      <ele>1236.9</ele></trkpt>
      <trkpt lat="46.52408847492623" lon="7.901863335287721">
      <ele>1238.2</ele></trkpt>
      <trkpt lat="46.524030249631615" lon="7.901893203631167">
      <ele>1239.4</ele></trkpt>
      <trkpt lat="46.52395308564304" lon="7.901899424999296">
      <ele>1240.7</ele></trkpt>
      <trkpt lat="46.523895066105496" lon="7.90188099582813">
      <ele>1241.9</ele></trkpt>
      <trkpt lat="46.52384488270068" lon="7.901811571661615">
      <ele>1243.2</ele></trkpt>
      <trkpt lat="46.52381178377846" lon="7.901750595494132">
      <ele>1244.4</ele></trkpt>
      <trkpt lat="46.52378239333128" lon="7.901719991148233">
      <ele>1245.7</ele></trkpt>
      <trkpt lat="46.52373859113117" lon="7.9017182352348545">
      <ele>1246.9</ele></trkpt>
      <trkpt lat="46.523686179145365" lon="7.901723313023195">
      <ele>1248.2</ele></trkpt>
      <trkpt lat="46.52364329455656" lon="7.901732590561717">
      <ele>1249.4</ele></trkpt>
      <trkpt lat="46.52361093119535" lon="7.901729550973735">
      <ele>1250.7</ele></trkpt>
      <trkpt lat="46.52357004795582" lon="7.901711268591086">
      <ele>1251.9</ele></trkpt>
      <trkpt lat="46.52353671645541" lon="7.901709602200224">
      <ele>1253.2</ele></trkpt>
      <trkpt lat="46.52347950203744" lon="7.901729821894985">
      <ele>1254.4</ele></trkpt>
      <trkpt lat="46.52345378405475" lon="7.901729602036172">
      <ele>1255.7</ele></trkpt>
      <trkpt lat="46.52342908479065" lon="7.901715589383226">
      <ele>1256.9</ele></trkpt>
      <trkpt lat="46.52339409345526" lon="7.901653203082388">
      <ele>1258.2</ele></trkpt>
      <trkpt lat="46.52330244379855" lon="7.901474434177004">
      <ele>1259.4</ele></trkpt>
      <trkpt lat="46.523253324814085" lon="7.901373286011232">
      <ele>1260.7</ele></trkpt>
      <trkpt lat="46.52324831194147" lon="7.901208016686003">
      <ele>1261.9</ele></trkpt>
      <trkpt lat="46.52322466813411" lon="7.901131339894507">
      <ele>1265.1</ele></trkpt>
      <trkpt lat="46.52316384349721" lon="7.901046135297402">
      <ele>1268.3</ele></trkpt>
      <trkpt lat="46.52309632036023" lon="7.900980005433477">
      <ele>1271.5</ele></trkpt>
      <trkpt lat="46.5230859281904" lon="7.90088979701612">
      <ele>1274.7</ele></trkpt>
      <trkpt lat="46.523143235322806" lon="7.900835666778838">
      <ele>1277.9</ele></trkpt>
      <trkpt lat="46.52323769683045" lon="7.900800985162007">
      <ele>1281.0</ele></trkpt>
      <trkpt lat="46.523367429767845" lon="7.900731116651211">
      <ele>1284.2</ele></trkpt>
      <trkpt lat="46.52336785113611" lon="7.900662842636548">
      <ele>1287.4</ele></trkpt>
      <trkpt lat="46.523215261186934" lon="7.900533157744558">
      <ele>1290.6</ele></trkpt>
      <trkpt lat="46.5231695592089" lon="7.900480872573675">
      <ele>1293.8</ele></trkpt>
      <trkpt lat="46.523102098137265" lon="7.900403809670918">
      <ele>1297.0</ele></trkpt>
      <trkpt lat="46.523025536728476" lon="7.900381288533847">
      <ele>1300.2</ele></trkpt>
      <trkpt lat="46.52291220869146" lon="7.900279242819661">
      <ele>1303.4</ele></trkpt>
      <trkpt lat="46.522807413484095" lon="7.900175980023003">
      <ele>1306.6</ele></trkpt>
      <trkpt lat="46.52273864428943" lon="7.900084271473535">
      <ele>1309.8</ele></trkpt>
      <trkpt lat="46.5228518459965" lon="7.900049031646718">
      <ele>1312.9</ele></trkpt>
      <trkpt lat="46.52292451620642" lon="7.900030688404936">
      <ele>1316.1</ele></trkpt>
      <trkpt lat="46.52299597605862" lon="7.90001577537874">
      <ele>1319.3</ele></trkpt>
      <trkpt lat="46.52295327261385" lon="7.89998266108476">
      <ele>1322.5</ele></trkpt>
      <trkpt lat="46.52293081196969" lon="7.89994453230962">
      <ele>1325.7</ele></trkpt>
      <trkpt lat="46.52288813652327" lon="7.899904511152234">
      <ele>1327.6</ele></trkpt>
      <trkpt lat="46.522871609800596" lon="7.899871619892104">
      <ele>1329.5</ele></trkpt>
      <trkpt lat="46.522901385712245" lon="7.899864979250143">
      <ele>1331.4</ele></trkpt>
      <trkpt lat="46.52296086961683" lon="7.899870659604805">
      <ele>1333.2</ele></trkpt>
      <trkpt lat="46.52291227414905" lon="7.899821960597412">
      <ele>1335.1</ele></trkpt>
      <trkpt lat="46.522880366135894" lon="7.899766522599467">
      <ele>1337.0</ele></trkpt>
      <trkpt lat="46.52284372048236" lon="7.899705870464895">
      <ele>1338.9</ele></trkpt>
      <trkpt lat="46.522760651307586" lon="7.899646543616606">
      <ele>1340.8</ele></trkpt>
      <trkpt lat="46.52267506053649" lon="7.899623399494088">
      <ele>1342.7</ele></trkpt>
      <trkpt lat="46.52262877183667" lon="7.899593695748919">
      <ele>1344.6</ele></trkpt>
      <trkpt lat="46.52269803153031" lon="7.89953566535034">
      <ele>1346.4</ele></trkpt>
      <trkpt lat="46.52275056174491" lon="7.8994947343692745">
      <ele>1348.3</ele></trkpt>
      <trkpt lat="46.522707744364034" lon="7.899487475960102">
      <ele>1350.2</ele></trkpt>
      <trkpt lat="46.52267331467186" lon="7.899468220918424">
      <ele>1352.1</ele></trkpt>
      <trkpt lat="46.522739052009115" lon="7.899398092337258">
      <ele>1354.0</ele></trkpt>
      <trkpt lat="46.52277368428207" lon="7.899367356713894">
      <ele>1355.9</ele></trkpt>
      <trkpt lat="46.5227071437891" lon="7.899342654766311">
      <ele>1357.7</ele></trkpt>
      <trkpt lat="46.52261504820402" lon="7.899315272434221">
      <ele>1359.6</ele></trkpt>
      <trkpt lat="46.52255925254933" lon="7.899296265912375">
      <ele>1361.5</ele></trkpt>
      <trkpt lat="46.52251322999601" lon="7.899263019972669">
      <ele>1363.4</ele></trkpt>
      <trkpt lat="46.52255459348957" lon="7.899245009085929">
      <ele>1365.5</ele></trkpt>
      <trkpt lat="46.522603235006024" lon="7.899229106136643">
      <ele>1367.5</ele></trkpt>
      <trkpt lat="46.52262520997265" lon="7.8992006477971035">
      <ele>1369.6</ele></trkpt>
      <trkpt lat="46.52258245478276" lon="7.899160261869361">
      <ele>1371.7</ele></trkpt>
      <trkpt lat="46.522519660167774" lon="7.899141313312646">
      <ele>1373.7</ele></trkpt>
      <trkpt lat="46.522468157667035" lon="7.899095105892105">
      <ele>1375.8</ele></trkpt>
      <trkpt lat="46.52245036103585" lon="7.89905808612206">
      <ele>1377.9</ele></trkpt>
      <trkpt lat="46.52252977636729" lon="7.899060116467392">
      <ele>1379.9</ele></trkpt>
      <trkpt lat="46.52257745706118" lon="7.899041559621624">
      <ele>1382.0</ele></trkpt>
      <trkpt lat="46.522528833273775" lon="7.898999768616806">
      <ele>1384.1</ele></trkpt>
      <trkpt lat="46.52247667320276" lon="7.898949320222373">
      <ele>1386.1</ele></trkpt>
      <trkpt lat="46.522428112154834" lon="7.898892021429917">
      <ele>1388.2</ele></trkpt>
      <trkpt lat="46.52235099057944" lon="7.8988344670805315">
      <ele>1390.2</ele></trkpt>
      <trkpt lat="46.52228210805117" lon="7.898799398438467">
      <ele>1392.3</ele></trkpt>
      <trkpt lat="46.52223590282555" lon="7.898749014077993">
      <ele>1394.4</ele></trkpt>
      <trkpt lat="46.52220393154197" lon="7.898709085288486">
      <ele>1396.4</ele></trkpt>
      <trkpt lat="46.52216492941915" lon="7.898641520548092">
      <ele>1398.5</ele></trkpt>
      <trkpt lat="46.522106824376124" lon="7.898530682999407">
      <ele>1400.6</ele></trkpt>
      <trkpt lat="46.52204912344544" lon="7.898448911027376">
      <ele>1402.6</ele></trkpt>
      <trkpt lat="46.52194079903135" lon="7.898330375784923">
      <ele>1404.7</ele></trkpt>
      <trkpt lat="46.521906910107035" lon="7.898241834073675">
      <ele>1407.4</ele></trkpt>
      <trkpt lat="46.5218727034544" lon="7.898202955504579">
      <ele>1410.1</ele></trkpt>
      <trkpt lat="46.521798306687984" lon="7.898165573600502">
      <ele>1412.9</ele></trkpt>
      <trkpt lat="46.521788798393466" lon="7.898080927109414">
      <ele>1415.6</ele></trkpt>
      <trkpt lat="46.52175884539483" lon="7.898051272483951">
      <ele>1418.3</ele></trkpt>
      <trkpt lat="46.52162111698846" lon="7.898040968928522">
      <ele>1421.0</ele></trkpt>
      <trkpt lat="46.52146837964393" lon="7.897909183178953">
      <ele>1423.7</ele></trkpt>
      <trkpt lat="46.521307420685595" lon="7.897714852763808">
      <ele>1426.5</ele></trkpt>
      <trkpt lat="46.521146604457016" lon="7.897498448460346">
      <ele>1429.2</ele></trkpt>
      <trkpt lat="46.520995788148554" lon="7.897289467119039">
      <ele>1431.9</ele></trkpt>
      <trkpt lat="46.52090196061761" lon="7.89714715858554">
      <ele>1434.6</ele></trkpt>
      <trkpt lat="46.520866878604956" lon="7.897021859096899">
      <ele>1437.3</ele></trkpt>
      <trkpt lat="46.52089939628303" lon="7.896875055457532">
      <ele>1440.1</ele></trkpt>
      <trkpt lat="46.520872327379635" lon="7.896841738337827">
      <ele>1442.8</ele></trkpt>
      <trkpt lat="46.52087256547305" lon="7.896804977189157">
      <ele>1445.5</ele></trkpt>
      <trkpt lat="46.52091706448301" lon="7.896803489967947">
      <ele>1448.2</ele></trkpt>
      <trkpt lat="46.520934569106345" lon="7.896761349250708">
      <ele>1450.9</ele></trkpt>
      <trkpt lat="46.52096469646409" lon="7.896763441538752">
      <ele>1453.7</ele></trkpt>
      <trkpt lat="46.521050332320314" lon="7.896844742621166">
      <ele>1456.4</ele></trkpt>
      <trkpt lat="46.521118651953095" lon="7.896872309801735">
      <ele>1459.1</ele></trkpt>
      <trkpt lat="46.52114454332225" lon="7.896862989367817">
      <ele>1460.5</ele></trkpt>
      <trkpt lat="46.52121343688476" lon="7.896853055253893">
      <ele>1462.0</ele></trkpt>
      <trkpt lat="46.52125595260851" lon="7.896832524489388">
      <ele>1463.4</ele></trkpt>
      <trkpt lat="46.52127620363221" lon="7.896825436917593">
      <ele>1464.9</ele></trkpt>
      <trkpt lat="46.5213134620675" lon="7.896866112359886">
      <ele>1466.3</ele></trkpt>
      <trkpt lat="46.52136339293127" lon="7.896925283324148">
      <ele>1467.7</ele></trkpt>
      <trkpt lat="46.521423481865206" lon="7.8970085324290205">
      <ele>1469.2</ele></trkpt>
      <trkpt lat="46.52148229108263" lon="7.8970945727922315">
      <ele>1470.6</ele></trkpt>
      <trkpt lat="46.52156089195736" lon="7.897153582820995">
      <ele>1472.1</ele></trkpt>
      <trkpt lat="46.521687340429835" lon="7.897194948520402">
      <ele>1473.5</ele></trkpt>
      <trkpt lat="46.52177964687687" lon="7.89721701142982">
      <ele>1474.9</ele></trkpt>
      <trkpt lat="46.521865117668796" lon="7.897223182422621">
      <ele>1476.4</ele></trkpt>
      <trkpt lat="46.52193186955814" lon="7.897260263773863">
      <ele>1477.8</ele></trkpt>
      <trkpt lat="46.522022613625126" lon="7.897339590353884">
      <ele>1479.3</ele></trkpt>
      <trkpt lat="46.522181655276086" lon="7.897434065700811">
      <ele>1480.7</ele></trkpt>
      <trkpt lat="46.522237121149004" lon="7.897454618218709">
      <ele>1482.1</ele></trkpt>
      <trkpt lat="46.52237049699949" lon="7.897547065358345">
      <ele>1483.6</ele></trkpt>
      <trkpt lat="46.522410873387656" lon="7.897588563509162">
      <ele>1485.0</ele></trkpt>
      <trkpt lat="46.522471438864514" lon="7.897622726152246">
      <ele>1486.5</ele></trkpt>
      <trkpt lat="46.52252630127221" lon="7.897632313645725">
      <ele>1487.9</ele></trkpt>
      <trkpt lat="46.522571635709966" lon="7.89762666377889">
      <ele>1488.9</ele></trkpt>
      <trkpt lat="46.52263319441152" lon="7.897653224069119">
      <ele>1489.9</ele></trkpt>
      <trkpt lat="46.522714760939316" lon="7.8976661005183235">
      <ele>1491.0</ele></trkpt>
      <trkpt lat="46.5228289079906" lon="7.897666129432344">
      <ele>1492.0</ele></trkpt>
      <trkpt lat="46.522880394739204" lon="7.897658446503395">
      <ele>1493.0</ele></trkpt>
      <trkpt lat="46.522936786158255" lon="7.897670327742286">
      <ele>1494.0</ele></trkpt>
      <trkpt lat="46.52303967311942" lon="7.897656342557157">
      <ele>1495.0</ele></trkpt>
      <trkpt lat="46.5230867910783" lon="7.897638965491867">
      <ele>1496.1</ele></trkpt>
      <trkpt lat="46.52311424308645" lon="7.897610748149494">
      <ele>1497.1</ele></trkpt>
      <trkpt lat="46.52310825947717" lon="7.897591044442318">
      <ele>1498.1</ele></trkpt>
      <trkpt lat="46.523074064301404" lon="7.89759384342879">
      <ele>1499.1</ele></trkpt>
      <trkpt lat="46.5230600888393" lon="7.897579493545775">
      <ele>1500.1</ele></trkpt>
      <trkpt lat="46.523047509112004" lon="7.897522448040949">
      <ele>1501.2</ele></trkpt>
      <trkpt lat="46.52304097429841" lon="7.897465453763472">
      <ele>1502.2</ele></trkpt>
      <trkpt lat="46.52302861819733" lon="7.897442151291575">
      <ele>1503.2</ele></trkpt>
      <trkpt lat="46.52300800600033" lon="7.89744733306182">
      <ele>1504.2</ele></trkpt>
      <trkpt lat="46.522975814383905" lon="7.897444062941007">
      <ele>1505.2</ele></trkpt>
      <trkpt lat="46.52294896049682" lon="7.89741546383026">
      <ele>1506.3</ele></trkpt>
      <trkpt lat="46.522950757474135" lon="7.8973847876017045">
      <ele>1507.3</ele></trkpt>
      <trkpt lat="46.522963593584045" lon="7.897371616223192">
      <ele>1508.3</ele></trkpt>
      <trkpt lat="46.522979020523785" lon="7.897351742024019">
      <ele>1509.0</ele></trkpt>
      <trkpt lat="46.52297665515481" lon="7.897336004837971">
      <ele>1509.7</ele></trkpt>
      <trkpt lat="46.52295027942078" lon="7.897327127943362">
      <ele>1510.4</ele></trkpt>
      <trkpt lat="46.52293171499224" lon="7.897297439201974">
      <ele>1511.1</ele></trkpt>
      <trkpt lat="46.52290894849389" lon="7.897292541724862">
      <ele>1511.8</ele></trkpt>
      <trkpt lat="46.522903483516764" lon="7.8972735984010365">
      <ele>1512.5</ele></trkpt>
      <trkpt lat="46.5229114581214" lon="7.897259134733755">
      <ele>1513.2</ele></trkpt>
      <trkpt lat="46.52293910765007" lon="7.8972555242452716">
      <ele>1513.9</ele></trkpt>
      <trkpt lat="46.522958191730794" lon="7.897238900001215">
      <ele>1514.6</ele></trkpt>
      <trkpt lat="46.52300673120358" lon="7.8971880020751986">
      <ele>1515.3</ele></trkpt>
      <trkpt lat="46.523021018731036" lon="7.89714059356923">
      <ele>1516.0</ele></trkpt>
      <trkpt lat="46.52304525904234" lon="7.897092317899135">
      <ele>1516.7</ele></trkpt>
      <trkpt lat="46.52305342841109" lon="7.897065240369192">
      <ele>1517.4</ele></trkpt>
      <trkpt lat="46.52304871404537" lon="7.897051998565942">
      <ele>1518.1</ele></trkpt>
      <trkpt lat="46.52302599007239" lon="7.897074482780757">
      <ele>1518.8</ele></trkpt>
      <trkpt lat="46.52300265347922" lon="7.897079341887304">
      <ele>1519.5</ele></trkpt>
      <trkpt lat="46.52299051742635" lon="7.897061684442671">
      <ele>1520.2</ele></trkpt>
      <trkpt lat="46.52298943110301" lon="7.897005361943804">
      <ele>1520.9</ele></trkpt>
      <trkpt lat="46.52297802028484" lon="7.896975160389955">
      <ele>1521.6</ele></trkpt>
      <trkpt lat="46.522965059653956" lon="7.896943355776126">
      <ele>1522.3</ele></trkpt>
      <trkpt lat="46.52296497016241" lon="7.896907528773584">
      <ele>1523.7</ele></trkpt>
      <trkpt lat="46.52298665467411" lon="7.896837154427042">
      <ele>1525.1</ele></trkpt>
      <trkpt lat="46.52301930890736" lon="7.8967948274613935">
      <ele>1526.5</ele></trkpt>
      <trkpt lat="46.52306542159686" lon="7.896747831338112">
      <ele>1527.9</ele></trkpt>
      <trkpt lat="46.523133397691865" lon="7.89670214080605">
      <ele>1529.3</ele></trkpt>
      <trkpt lat="46.523177259802715" lon="7.896693506234529">
      <ele>1530.7</ele></trkpt>
      <trkpt lat="46.52319282913693" lon="7.896680683561773">
      <ele>1532.1</ele></trkpt>
      <trkpt lat="46.52319317091499" lon="7.89665613318527">
      <ele>1533.5</ele></trkpt>
      <trkpt lat="46.523157469892936" lon="7.896628554283942">
      <ele>1534.9</ele></trkpt>
      <trkpt lat="46.52307549793251" lon="7.896575600955395">
      <ele>1536.3</ele></trkpt>
      <trkpt lat="46.52302205990849" lon="7.896569701635337">
      <ele>1537.8</ele></trkpt>
      <trkpt lat="46.52300905589925" lon="7.896557575764073">
      <ele>1539.2</ele></trkpt>
      <trkpt lat="46.52301306296792" lon="7.896545424271945">
      <ele>1540.6</ele></trkpt>
      <trkpt lat="46.52303239686609" lon="7.896533754210111">
      <ele>1542.0</ele></trkpt>
      <trkpt lat="46.52305140320999" lon="7.896518536535317">
      <ele>1543.4</ele></trkpt>
      <trkpt lat="46.52305656753376" lon="7.89649600792078">
      <ele>1544.8</ele></trkpt>
      <trkpt lat="46.523012968796806" lon="7.896490621915033">
      <ele>1546.2</ele></trkpt>
      <trkpt lat="46.52295589976919" lon="7.896490608734483">
      <ele>1547.6</ele></trkpt>
      <trkpt lat="46.5228964391732" lon="7.896465696397637">
      <ele>1549.0</ele></trkpt>
      <trkpt lat="46.52283230217306" lon="7.896473951232352">
      <ele>1550.4</ele></trkpt>
      <trkpt lat="46.522810161782346" lon="7.89646770402987">
      <ele>1551.4</ele></trkpt>
      <trkpt lat="46.52280187668427" lon="7.896449831715137">
      <ele>1552.3</ele></trkpt>
      <trkpt lat="46.52280683813353" lon="7.896430768108859">
      <ele>1553.3</ele></trkpt>
      <trkpt lat="46.522830554336004" lon="7.896409816895282">
      <ele>1554.2</ele></trkpt>
      <trkpt lat="46.522841370327654" lon="7.896384468984024">
      <ele>1555.2</ele></trkpt>
      <trkpt lat="46.52282677772361" lon="7.896371430536746">
      <ele>1556.1</ele></trkpt>
      <trkpt lat="46.52279186171348" lon="7.896367825268048">
      <ele>1557.1</ele></trkpt>
      <trkpt lat="46.52273685277094" lon="7.896323102395598">
      <ele>1558.0</ele></trkpt>
      <trkpt lat="46.522667095257546" lon="7.896277264555453">
      <ele>1559.0</ele></trkpt>
      <trkpt lat="46.52258507997379" lon="7.896243977723649">
      <ele>1560.0</ele></trkpt>
      <trkpt lat="46.522575948636195" lon="7.896221784654819">
      <ele>1560.9</ele></trkpt>
      <trkpt lat="46.52258443285858" lon="7.8962080680710836">
      <ele>1561.9</ele></trkpt>
      <trkpt lat="46.52261736688248" lon="7.8962079292206795">
      <ele>1562.8</ele></trkpt>
      <trkpt lat="46.522638783637184" lon="7.896179399777641">
      <ele>1563.8</ele></trkpt>
      <trkpt lat="46.52265633775732" lon="7.89616290568227">
      <ele>1564.7</ele></trkpt>
      <trkpt lat="46.52265955973307" lon="7.896144648451024">
      <ele>1565.7</ele></trkpt>
      <trkpt lat="46.522643416312185" lon="7.896128013108872">
      <ele>1566.6</ele></trkpt>
      <trkpt lat="46.52258934898538" lon="7.8961287163765075">
      <ele>1567.6</ele></trkpt>
      <trkpt lat="46.52255145747498" lon="7.896082105413509">
      <ele>1568.5</ele></trkpt>
      <trkpt lat="46.52252567897313" lon="7.8960656233460025">
      <ele>1569.5</ele></trkpt>
      <trkpt lat="46.52250464519155" lon="7.8960503933665915">
      <ele>1570.1</ele></trkpt>
      <trkpt lat="46.52247953303977" lon="7.896004672368038">
      <ele>1570.7</ele></trkpt>
      <trkpt lat="46.522456647747724" lon="7.895984565730171">
      <ele>1571.2</ele></trkpt>
      <trkpt lat="46.522435508585346" lon="7.895961984674353">
      <ele>1571.8</ele></trkpt>
      <trkpt lat="46.522436956334204" lon="7.89593752216814">
      <ele>1572.4</ele></trkpt>
      <trkpt lat="46.52245173156808" lon="7.895932003893503">
      <ele>1573.0</ele></trkpt>
      <trkpt lat="46.522474290005256" lon="7.895939440307901">
      <ele>1573.5</ele></trkpt>
      <trkpt lat="46.522489971664044" lon="7.895936692539826">
      <ele>1574.1</ele></trkpt>
      <trkpt lat="46.52250002309424" lon="7.895911299143375">
      <ele>1574.7</ele></trkpt>
      <trkpt lat="46.52249286719807" lon="7.8958877544436525">
      <ele>1575.2</ele></trkpt>
      <trkpt lat="46.522507431520694" lon="7.895867572971702">
      <ele>1575.8</ele></trkpt>
      <trkpt lat="46.52253404106209" lon="7.895860838288227">
      <ele>1576.4</ele></trkpt>
      <trkpt lat="46.52254270293157" lon="7.895849912083796">
      <ele>1577.0</ele></trkpt>
      <trkpt lat="46.52255014094058" lon="7.8958055345009415">
      <ele>1577.5</ele></trkpt>
      <trkpt lat="46.52255095275166" lon="7.895773664189712">
      <ele>1578.1</ele></trkpt>
      <trkpt lat="46.52253968937912" lon="7.895746983124228">
      <ele>1578.7</ele></trkpt>
      <trkpt lat="46.52253980567236" lon="7.895727005495719">
      <ele>1579.3</ele></trkpt>
      <trkpt lat="46.52255054927958" lon="7.89572634027174">
      <ele>1579.8</ele></trkpt>
      <trkpt lat="46.5225790962447" lon="7.895741151337508">
      <ele>1580.4</ele></trkpt>
      <trkpt lat="46.52259447025039" lon="7.895734373907051">
      <ele>1581.0</ele></trkpt>
      <trkpt lat="46.522600885549586" lon="7.895707190373724">
      <ele>1581.8</ele></trkpt>
      <trkpt lat="46.52261909502639" lon="7.895688772874481">
      <ele>1582.6</ele></trkpt>
      <trkpt lat="46.522660565651584" lon="7.8956932019077675">
      <ele>1583.4</ele></trkpt>
      <trkpt lat="46.522685806593" lon="7.89568229823822">
      <ele>1584.2</ele></trkpt>
      <trkpt lat="46.522693166912106" lon="7.895657233874147">
      <ele>1585.0</ele></trkpt>
      <trkpt lat="46.52270019896403" lon="7.895628791342519">
      <ele>1585.7</ele></trkpt>
      <trkpt lat="46.52272280543662" lon="7.8956175656656535">
      <ele>1586.5</ele></trkpt>
      <trkpt lat="46.52274130450861" lon="7.895603190584816">
      <ele>1587.3</ele></trkpt>
      <trkpt lat="46.52274036988263" lon="7.89559176631008">
      <ele>1588.1</ele></trkpt>
      <trkpt lat="46.52272597093801" lon="7.895582000868832">
      <ele>1588.9</ele></trkpt>
      <trkpt lat="46.52271074286408" lon="7.895568136264807">
      <ele>1589.7</ele></trkpt>
      <trkpt lat="46.52271584581763" lon="7.895554117344698">
      <ele>1590.5</ele></trkpt>
      <trkpt lat="46.52274458626722" lon="7.895547648070645">
      <ele>1591.3</ele></trkpt>
      <trkpt lat="46.52279713063387" lon="7.895527460935558">
      <ele>1592.1</ele></trkpt>
      <trkpt lat="46.522885099451756" lon="7.895496286429771">
      <ele>1592.8</ele></trkpt>
      <trkpt lat="46.52290968378945" lon="7.8954786393093705">
      <ele>1593.6</ele></trkpt>
      <trkpt lat="46.52291563530854" lon="7.895459401472433">
      <ele>1594.4</ele></trkpt>
      <trkpt lat="46.5229078727114" lon="7.89544578226302">
      <ele>1595.2</ele></trkpt>
      <trkpt lat="46.52287890069492" lon="7.895438239782044">
      <ele>1596.0</ele></trkpt>
      <trkpt lat="46.522856082161034" lon="7.895426122682898">
      <ele>1596.8</ele></trkpt>
      <trkpt lat="46.52282485664912" lon="7.895357009053108">
      <ele>1597.7</ele></trkpt>
      <trkpt lat="46.522789346234354" lon="7.895351327272236">
      <ele>1598.5</ele></trkpt>
      <trkpt lat="46.52278183341803" lon="7.895333748360674">
      <ele>1599.4</ele></trkpt>
      <trkpt lat="46.52278542218285" lon="7.8953182048744015">
      <ele>1600.2</ele></trkpt>
      <trkpt lat="46.5228185804667" lon="7.895300304173842">
      <ele>1601.1</ele></trkpt>
      <trkpt lat="46.522827551644745" lon="7.895266104510089">
      <ele>1601.9</ele></trkpt>
      <trkpt lat="46.522838634314404" lon="7.895241488438021">
      <ele>1602.8</ele></trkpt>
      <trkpt lat="46.52285139448626" lon="7.8952337244016855">
      <ele>1603.6</ele></trkpt>
      <trkpt lat="46.522867539778396" lon="7.895223043562443">
      <ele>1604.5</ele></trkpt>
      <trkpt lat="46.52287422397214" lon="7.895200553777615">
      <ele>1605.3</ele></trkpt>
      <trkpt lat="46.52285897662277" lon="7.895178035542226">
      <ele>1606.2</ele></trkpt>
      <trkpt lat="46.522850260142626" lon="7.895144325365899">
      <ele>1607.1</ele></trkpt>
      <trkpt lat="46.52285181508104" lon="7.895081913102391">
      <ele>1607.9</ele></trkpt>
      <trkpt lat="46.522840484766874" lon="7.895047216523624">
      <ele>1608.8</ele></trkpt>
      <trkpt lat="46.52284705461194" lon="7.894999416777413">
      <ele>1609.6</ele></trkpt>
      <trkpt lat="46.52284200267967" lon="7.894958152631156">
      <ele>1610.5</ele></trkpt>
      <trkpt lat="46.522846940814745" lon="7.894938111247189">
      <ele>1611.3</ele></trkpt>
      <trkpt lat="46.522879849461674" lon="7.8949061852834985">
      <ele>1612.2</ele></trkpt>
      <trkpt lat="46.52291224547521" lon="7.894892161550008">
      <ele>1613.0</ele></trkpt>
      <trkpt lat="46.52292300988005" lon="7.894872859923849">
      <ele>1613.9</ele></trkpt>
      <trkpt lat="46.52291886411021" lon="7.894852364058447">
      <ele>1615.0</ele></trkpt>
      <trkpt lat="46.52290018258743" lon="7.894842732137751">
      <ele>1616.2</ele></trkpt>
      <trkpt lat="46.52287588822969" lon="7.8948464242404945">
      <ele>1617.3</ele></trkpt>
      <trkpt lat="46.52283452325702" lon="7.894831349231489">
      <ele>1618.4</ele></trkpt>
      <trkpt lat="46.52275032965396" lon="7.894762415534761">
      <ele>1619.6</ele></trkpt>
      <trkpt lat="46.52267878020098" lon="7.89468771089177">
      <ele>1620.7</ele></trkpt>
      <trkpt lat="46.52261553280784" lon="7.894644653780542">
      <ele>1621.8</ele></trkpt>
      <trkpt lat="46.52260114431762" lon="7.894607585876754">
      <ele>1622.9</ele></trkpt>
      <trkpt lat="46.522530308040764" lon="7.89453896072558">
      <ele>1624.1</ele></trkpt>
      <trkpt lat="46.5224976165951" lon="7.89447635186697">
      <ele>1625.2</ele></trkpt>
      <trkpt lat="46.52246116133918" lon="7.894432582246882">
      <ele>1626.3</ele></trkpt>
      <trkpt lat="46.52245251151526" lon="7.894406874856811">
      <ele>1627.5</ele></trkpt>
      <trkpt lat="46.52245693831975" lon="7.894395430610091">
      <ele>1628.6</ele></trkpt>
      <trkpt lat="46.52248087590809" lon="7.89439770414654">
      <ele>1629.7</ele></trkpt>
      <trkpt lat="46.52252134357673" lon="7.894409982251791">
      <ele>1630.8</ele></trkpt>
      <trkpt lat="46.52253889744023" lon="7.894393487618698">
      <ele>1632.0</ele></trkpt>
      <trkpt lat="46.522540181325944" lon="7.894371669217228">
      <ele>1633.1</ele></trkpt>
      <trkpt lat="46.52251078582208" lon="7.894344080040982">
      <ele>1634.2</ele></trkpt>
      <trkpt lat="46.522466885675364" lon="7.894299400774661">
      <ele>1635.4</ele></trkpt>
      <trkpt lat="46.52245495630485" lon="7.894265976738762">
      <ele>1636.5</ele></trkpt>
      <trkpt lat="46.522460656657984" lon="7.894242019111971">
      <ele>1637.3</ele></trkpt>
      <trkpt lat="46.52247534552438" lon="7.894237828945823">
      <ele>1638.0</ele></trkpt>
      <trkpt lat="46.52251553370027" lon="7.894254757129892">
      <ele>1638.8</ele></trkpt>
      <trkpt lat="46.52253622152764" lon="7.894248623466977">
      <ele>1639.6</ele></trkpt>
      <trkpt lat="46.522563825118574" lon="7.894216040132431">
      <ele>1640.3</ele></trkpt>
      <trkpt lat="46.52256671977432" lon="7.894185099574148">
      <ele>1641.1</ele></trkpt>
      <trkpt lat="46.52255703715079" lon="7.8941679327199346">
      <ele>1641.9</ele></trkpt>
      <trkpt lat="46.52252085207445" lon="7.894155495314038">
      <ele>1642.7</ele></trkpt>
      <trkpt lat="46.52250773544824" lon="7.894133243052181">
      <ele>1643.4</ele></trkpt>
      <trkpt lat="46.52250675316274" lon="7.894104485424671">
      <ele>1644.2</ele></trkpt>
      <trkpt lat="46.52250922286168" lon="7.8940808133730975">
      <ele>1645.0</ele></trkpt>
      <trkpt lat="46.52247948993092" lon="7.894049859189293">
      <ele>1645.7</ele></trkpt>
      <trkpt lat="46.522457607430596" lon="7.894021864212217">
      <ele>1646.5</ele></trkpt>
      <trkpt lat="46.5224149881889" lon="7.894009972327505">
      <ele>1647.3</ele></trkpt>
      <trkpt lat="46.522407283332996" lon="7.893986384207796">
      <ele>1648.1</ele></trkpt>
      <trkpt lat="46.522408210563775" lon="7.893952520981549">
      <ele>1648.8</ele></trkpt>
      <trkpt lat="46.52244150383394" lon="7.893941293261881">
      <ele>1649.6</ele></trkpt>
      <trkpt lat="46.52246389903175" lon="7.89391539074371">
      <ele>1650.4</ele></trkpt>
      <trkpt lat="46.52246564500628" lon="7.8938949707058255">
      <ele>1651.1</ele></trkpt>
      <trkpt lat="46.52245295461654" lon="7.893856118912713">
      <ele>1651.9</ele></trkpt>
      <trkpt lat="46.522456812252216" lon="7.893845269326182">
      <ele>1652.8</ele></trkpt>
      <trkpt lat="46.52247897559466" lon="7.893841324313994">
      <ele>1653.7</ele></trkpt>
      <trkpt lat="46.522507099195735" lon="7.893836113115049">
      <ele>1654.7</ele></trkpt>
      <trkpt lat="46.522528867304594" lon="7.893820787526849">
      <ele>1655.6</ele></trkpt>
      <trkpt lat="46.52253200262422" lon="7.8938038587747315">
      <ele>1656.5</ele></trkpt>
      <trkpt lat="46.522533024948935" lon="7.893786677684712">
      <ele>1657.4</ele></trkpt>
      <trkpt lat="46.52254465710612" lon="7.893770784712228">
      <ele>1658.3</ele></trkpt>
      <trkpt lat="46.52256003998983" lon="7.893764006802363">
      <ele>1659.3</ele></trkpt>
      <trkpt lat="46.52262721366043" lon="7.893776899803239">
      <ele>1660.2</ele></trkpt>
      <trkpt lat="46.52266881956993" lon="7.893788001093453">
      <ele>1661.1</ele></trkpt>
      <trkpt lat="46.52273832761435" lon="7.8938065176993035">
      <ele>1662.0</ele></trkpt>
      <trkpt lat="46.522789481019096" lon="7.8938101274236026">
      <ele>1662.9</ele></trkpt>
      <trkpt lat="46.52283197551663" lon="7.893788016575789">
      <ele>1663.9</ele></trkpt>
      <trkpt lat="46.52288415261151" lon="7.893765113870107">
      <ele>1664.8</ele></trkpt>
      <trkpt lat="46.52293437453545" lon="7.893765457625417">
      <ele>1665.7</ele></trkpt>
      <trkpt lat="46.52302504188626" lon="7.893790394631278">
      <ele>1666.6</ele></trkpt>
      <trkpt lat="46.523086852720844" lon="7.893805875277966">
      <ele>1667.5</ele></trkpt>
      <trkpt lat="46.52312613798391" lon="7.893798933236805">
      <ele>1668.5</ele></trkpt>
      <trkpt lat="46.52316981104496" lon="7.893792523288348">
      <ele>1669.4</ele></trkpt>
      <trkpt lat="46.52322781149715" lon="7.893816039094893">
      <ele>1670.3</ele></trkpt>
      <trkpt lat="46.523268789039264" lon="7.893817816995797">
      <ele>1671.1</ele></trkpt>
      <trkpt lat="46.52333314177448" lon="7.89381854019118">
      <ele>1671.9</ele></trkpt>
      <trkpt lat="46.52336261636781" lon="7.893808426976041">
      <ele>1672.8</ele></trkpt>
      <trkpt lat="46.52339879332748" lon="7.893816159518609">
      <ele>1673.6</ele></trkpt>
      <trkpt lat="46.523427642330596" lon="7.893807266095312">
      <ele>1674.4</ele></trkpt>
      <trkpt lat="46.52347653295183" lon="7.893769387168193">
      <ele>1675.2</ele></trkpt>
      <trkpt lat="46.5235298390829" lon="7.893722865558313">
      <ele>1676.0</ele></trkpt>
      <trkpt lat="46.52357277015987" lon="7.893645604011232">
      <ele>1676.9</ele></trkpt>
      <trkpt lat="46.52357582337108" lon="7.893613217559572">
      <ele>1677.7</ele></trkpt>
      <trkpt lat="46.52358193591535" lon="7.893585131493964">
      <ele>1678.5</ele></trkpt>
      <trkpt lat="46.52358484302597" lon="7.893564525286637">
      <ele>1679.3</ele></trkpt>
      <trkpt lat="46.52357210181995" lon="7.89353609842838">
      <ele>1680.1</ele></trkpt>
      <trkpt lat="46.52354114998671" lon="7.893515220934649">
      <ele>1681.0</ele></trkpt>
      <trkpt lat="46.52351161256732" lon="7.893489324760434">
      <ele>1681.8</ele></trkpt>
      <trkpt lat="46.52345413102162" lon="7.89346650426457">
      <ele>1682.6</ele></trkpt>
      <trkpt lat="46.52339570684748" lon="7.893440952096896">
      <ele>1683.4</ele></trkpt>
      <trkpt lat="46.52336413682284" lon="7.893439683534606">
      <ele>1684.2</ele></trkpt>
      <trkpt lat="46.52330031052008" lon="7.893458031817827">
      <ele>1685.1</ele></trkpt>
      <trkpt lat="46.5232330899965" lon="7.893468088937023">
      <ele>1685.9</ele></trkpt>
      <trkpt lat="46.523171009766585" lon="7.893447979831113">
      <ele>1686.7</ele></trkpt>
      </trkseg>
  </trk>
</gpx>