<?xml version='1.0' encoding='utf-8'?>
<gpx xmlns="http://www.topografix.com/GPX/1/1" xmlns:xsi="http://www.w3.org/2001/XMLSchema-instance" xsi:schemaLocation="http://www.topografix.com/GPX/1/1 http://www.topografix.com/GPX/1/1/gpx.xsd" version="1.1" creator="gpx.py -- https://github.com/tkrajina/gpxpy">
  <trk>
    <name>furggahorn</name>
    <trkseg>
      <trkpt lat="46.78290420749902" lon="9.678766938130817">
      <ele>1741.9</ele></trkpt>
      <trkpt lat="46.782939713179026" lon="9.678771768792295">
      <ele>1741.7</ele></trkpt>
      <trkpt lat="46.78298356608791" lon="9.678782763302165">
      <ele>1741.5</ele></trkpt>
      <trkpt lat="46.7830741855771" lon="9.678816323428585">
      <ele>1741.3</ele></trkpt>
      <trkpt lat="46.7832394467664" lon="9.678896508733473">
      <ele>1741.1</ele></trkpt>
      <trkpt lat="46.78333949857994" lon="9.67893046160261">
      <ele>1740.9</ele></trkpt>
      <trkpt lat="46.78338261900888" lon="9.678938425817142">
      <ele>1740.7</ele></trkpt>
      <trkpt lat="46.78338027408974" lon="9.67900152551244">
      <ele>1740.5</ele></trkpt>
      <trkpt lat="46.7833762797623" lon="9.679109242693963">
      <ele>1740.3</ele></trkpt>
      <trkpt lat="46.783365041157325" lon="9.67941231573854">
      <ele>1740.1</ele></trkpt>
      <trkpt lat="46.78342038597819" lon="9.679419177624695">
      <ele>1739.9</ele></trkpt>
      <trkpt lat="46.78349818989822" lon="9.679422506734758">
      <ele>1739.7</ele></trkpt>
      <trkpt lat="46.78355258389981" lon="9.67942783561238">
      <ele>1739.5</ele></trkpt>
      <trkpt lat="46.78354993924928" lon="9.679563513637593">
      <ele>1739.3</ele></trkpt>
      <trkpt lat="46.78345427589769" lon="9.679560449893545">
      <ele>1739.1</ele></trkpt>
      <trkpt lat="46.78334976773216" lon="9.679555026818608">
      <ele>1738.9</ele></trkpt>
      <trkpt lat="46.783289238530244" lon="9.679551879239854">
      <ele>1738.7</ele></trkpt>
      <trkpt lat="46.783186006424934" lon="9.679549299713598">
      <ele>1738.5</ele></trkpt>
      <trkpt lat="46.78314924374184" lon="9.679554870437183">
      <ele>1738.3</ele></trkpt>
      <trkpt lat="46.78309287569642" lon="9.679580887481018">
      <ele>1738.1</ele></trkpt>
      <trkpt lat="46.78305345916911" lon="9.679603836925429">
      <ele>1737.9</ele></trkpt>
      <trkpt lat="46.78303455284302" lon="9.679620762066556">
      <ele>1737.6</ele></trkpt>
      <trkpt lat="46.78299669496744" lon="9.67965462353208">
      <ele>1737.3</ele></trkpt>
      <trkpt lat="46.782917297442445" lon="9.679726987880201">
      <ele>1737.0</ele></trkpt>
      <trkpt lat="46.782894516414835" lon="9.67975059013693">
      <ele>1736.7</ele></trkpt>
      <trkpt lat="46.782819236027734" lon="9.679822719436366">
      <ele>1736.4</ele></trkpt>
      <trkpt lat="46.78268618365908" lon="9.679950203955308">
      <ele>1736.1</ele></trkpt>
      <trkpt lat="46.78253731174734" lon="9.680095055555704">
      <ele>1735.8</ele></trkpt>
      <trkpt lat="46.78245355813096" lon="9.680153678450855">
      <ele>1735.5</ele></trkpt>
      <trkpt lat="46.78236086411589" lon="9.680078614658374">
      <ele>1735.2</ele></trkpt>
      <trkpt lat="46.7822802681675" lon="9.680073156250579">
      <ele>1734.9</ele></trkpt>
      <trkpt lat="46.7822227853984" lon="9.680065183027082">
      <ele>1734.6</ele></trkpt>
      <trkpt lat="46.78212571122932" lon="9.680025339634097">
      <ele>1734.3</ele></trkpt>
      <trkpt lat="46.78210125522501" lon="9.680009112345902">
      <ele>1734.0</ele></trkpt>
      <trkpt lat="46.78201405965639" lon="9.679963889965594">
      <ele>1733.7</ele></trkpt>
      <trkpt lat="46.78195620799953" lon="9.679938949825429">
      <ele>1733.4</ele></trkpt>
      <trkpt lat="46.78190454779518" lon="9.679919966015913">
      <ele>1733.1</ele></trkpt>
      <trkpt lat="46.781851833195816" lon="9.679921689113552">
      <ele>1732.8</ele></trkpt>
      <trkpt lat="46.78180686843531" lon="9.679938000869845">
      <ele>1732.5</ele></trkpt>
      <trkpt lat="46.78175265213385" lon="9.679970839920351">
      <ele>1732.2</ele></trkpt>
      <trkpt lat="46.781611097531965" lon="9.680085836926974">
      <ele>1731.9</ele></trkpt>
      <trkpt lat="46.781496538309874" lon="9.680162879248194">
      <ele>1731.2</ele></trkpt>
      <trkpt lat="46.78146211571638" lon="9.680178515975605">
      <ele>1730.5</ele></trkpt>
      <trkpt lat="46.781269498876554" lon="9.680266063931104">
      <ele>1729.8</ele></trkpt>
      <trkpt lat="46.78119782494882" lon="9.680278695867004">
      <ele>1729.0</ele></trkpt>
      <trkpt lat="46.78111017038522" lon="9.680283444464145">
      <ele>1728.3</ele></trkpt>
      <trkpt lat="46.78103753265006" lon="9.680275036880591">
      <ele>1727.6</ele></trkpt>
      <trkpt lat="46.78099306965328" lon="9.680276788665424">
      <ele>1726.9</ele></trkpt>
      <trkpt lat="46.78096207885599" lon="9.680284472215046">
      <ele>1726.2</ele></trkpt>
      <trkpt lat="46.78094722154912" lon="9.680300503899925">
      <ele>1725.5</ele></trkpt>
      <trkpt lat="46.78093297873762" lon="9.680320988954163">
      <ele>1724.8</ele></trkpt>
      <trkpt lat="46.78092740828176" lon="9.680353074783723">
      <ele>1724.0</ele></trkpt>
      <trkpt lat="46.780926809244484" lon="9.680383585946455">
      <ele>1723.3</ele></trkpt>
      <trkpt lat="46.7809443629059" lon="9.680432812844492">
      <ele>1722.6</ele></trkpt>
      <trkpt lat="46.7809825412183" lon="9.680499063747696">
      <ele>1721.9</ele></trkpt>
      <trkpt lat="46.781015897637985" lon="9.68055972990599">
      <ele>1721.2</ele></trkpt>
      <trkpt lat="46.78102628874595" lon="9.68059608274538">
      <ele>1720.5</ele></trkpt>
      <trkpt lat="46.78102917398896" lon="9.680637507236899">
      <ele>1719.7</ele></trkpt>
      <trkpt lat="46.781029322254334" lon="9.68069320161743">
      <ele>1719.0</ele></trkpt>
      <trkpt lat="46.781017134054416" lon="9.680748369299737">
      <ele>1718.3</ele></trkpt>
      <trkpt lat="46.78097639416593" lon="9.680852901199207">
      <ele>1717.6</ele></trkpt>
      <trkpt lat="46.780912281017194" lon="9.68097772106227">
      <ele>1716.5</ele></trkpt>
      <trkpt lat="46.780828034162624" lon="9.681121457052114">
      <ele>1715.3</ele></trkpt>
      <trkpt lat="46.78070345097712" lon="9.681310201131842">
      <ele>1714.2</ele></trkpt>
      <trkpt lat="46.78058818684832" lon="9.681463399368244">
      <ele>1713.0</ele></trkpt>
      <trkpt lat="46.78048602493992" lon="9.681577672651352">
      <ele>1711.9</ele></trkpt>
      <trkpt lat="46.780381267510705" lon="9.681699003032683">
      <ele>1710.8</ele></trkpt>
      <trkpt lat="46.7803517622251" lon="9.681725886454274">
      <ele>1709.6</ele></trkpt>
      <trkpt lat="46.780271996492345" lon="9.681798595699128">
      <ele>1708.5</ele></trkpt>
      <trkpt lat="46.780201354393775" lon="9.681878247770713">
      <ele>1707.3</ele></trkpt>
      <trkpt lat="46.780124200304385" lon="9.68197558822317">
      <ele>1706.2</ele></trkpt>
      <trkpt lat="46.78005626662227" lon="9.682105629685246">
      <ele>1705.1</ele></trkpt>
      <trkpt lat="46.77990891535804" lon="9.682384974541062">
      <ele>1703.9</ele></trkpt>
      <trkpt lat="46.77981803145809" lon="9.682553580687552">
      <ele>1702.8</ele></trkpt>
      <trkpt lat="46.77977837281915" lon="9.682626819456132">
      <ele>1701.6</ele></trkpt>
      <trkpt lat="46.77966495199737" lon="9.682799686275391">
      <ele>1700.5</ele></trkpt>
      <trkpt lat="46.779602106358624" lon="9.682878678573442">
      <ele>1699.4</ele></trkpt>
      <trkpt lat="46.77953869304873" lon="9.682943512485213">
      <ele>1698.2</ele></trkpt>
      <trkpt lat="46.77940174097777" lon="9.6830764519786">
      <ele>1697.1</ele></trkpt>
      <trkpt lat="46.77930151819665" lon="9.683179888579879">
      <ele>1695.9</ele></trkpt>
      <trkpt lat="46.77923809180454" lon="9.683246751674279">
      <ele>1694.8</ele></trkpt>
      <trkpt lat="46.779164690806255" lon="9.683341716676177">
      <ele>1694.4</ele></trkpt>
      <trkpt lat="46.779062151972255" lon="9.683515793424698">
      <ele>1693.9</ele></trkpt>
      <trkpt lat="46.77898769411391" lon="9.683654426877034">
      <ele>1693.5</ele></trkpt>
      <trkpt lat="46.7789350009452" lon="9.683767178732651">
      <ele>1693.0</ele></trkpt>
      <trkpt lat="46.77892758321863" lon="9.68378240554925">
      <ele>1692.6</ele></trkpt>
      <trkpt lat="46.77880599790552" lon="9.683787803473807">
      <ele>1692.2</ele></trkpt>
      <trkpt lat="46.77873858983424" lon="9.68379170033862">
      <ele>1691.7</ele></trkpt>
      <trkpt lat="46.77865938465776" lon="9.683814322314308">
      <ele>1691.3</ele></trkpt>
      <trkpt lat="46.77839522153839" lon="9.683896381200164">
      <ele>1690.8</ele></trkpt>
      <trkpt lat="46.778250168758746" lon="9.683942390955387">
      <ele>1690.4</ele></trkpt>
      <trkpt lat="46.778159111367984" lon="9.683978757367496">
      <ele>1690.0</ele></trkpt>
      <trkpt lat="46.77810614161673" lon="9.683992988689955">
      <ele>1689.5</ele></trkpt>
      <trkpt lat="46.77806466271107" lon="9.683996748018307">
      <ele>1689.1</ele></trkpt>
      <trkpt lat="46.778025872171675" lon="9.683991476102753">
      <ele>1688.6</ele></trkpt>
      <trkpt lat="46.7780010901684" lon="9.683975837200602">
      <ele>1688.2</ele></trkpt>
      <trkpt lat="46.77795884384487" lon="9.683925726444478">
      <ele>1687.8</ele></trkpt>
      <trkpt lat="46.777914173873256" lon="9.68381123655275">
      <ele>1687.3</ele></trkpt>
      <trkpt lat="46.77785161014373" lon="9.683638796458801">
      <ele>1686.9</ele></trkpt>
      <trkpt lat="46.77781753614245" lon="9.683536446341689">
      <ele>1686.4</ele></trkpt>
      <trkpt lat="46.77779204233585" lon="9.683493387509873">
      <ele>1686.0</ele></trkpt>
      <trkpt lat="46.777763663095214" lon="9.683468468799024">
      <ele>1685.2</ele></trkpt>
      <trkpt lat="46.77772627497265" lon="9.683455946375673">
      <ele>1684.4</ele></trkpt>
      <trkpt lat="46.777681279960106" lon="9.683446761596255">
      <ele>1683.6</ele></trkpt>
      <trkpt lat="46.777644026180646" lon="9.68342694854431">
      <ele>1682.8</ele></trkpt>
      <trkpt lat="46.77761096172957" lon="9.683385382058072">
      <ele>1682.0</ele></trkpt>
      <trkpt lat="46.777565332365924" lon="9.683281214856562">
      <ele>1681.1</ele></trkpt>
      <trkpt lat="46.77752581810462" lon="9.683184585830087">
      <ele>1680.3</ele></trkpt>
      <trkpt lat="46.77750915824774" lon="9.683148091466542">
      <ele>1679.5</ele></trkpt>
      <trkpt lat="46.77746207787959" lon="9.683044938337185">
      <ele>1678.7</ele></trkpt>
      <trkpt lat="46.77741403831382" lon="9.68293518274482">
      <ele>1677.9</ele></trkpt>
      <trkpt lat="46.77736678232215" lon="9.68284919565206">
      <ele>1677.1</ele></trkpt>
      <trkpt lat="46.77732386430504" lon="9.682776462399605">
      <ele>1676.3</ele></trkpt>
      <trkpt lat="46.777243747129816" lon="9.682661441078428">
      <ele>1675.5</ele></trkpt>
      <trkpt lat="46.77716895821422" lon="9.682572473510838">
      <ele>1674.7</ele></trkpt>
      <trkpt lat="46.77711066863334" lon="9.682492917574802">
      <ele>1673.8</ele></trkpt>
      <trkpt lat="46.77702004636777" lon="9.682393152173436">
      <ele>1673.0</ele></trkpt>
      <trkpt lat="46.77695531551861" lon="9.682266774330804">
      <ele>1672.2</ele></trkpt>
      <trkpt lat="46.77688739723919" lon="9.682108878763797">
      <ele>1671.4</ele></trkpt>
      <trkpt lat="46.77683674860528" lon="9.681975687205064">
      <ele>1670.6</ele></trkpt>
      <trkpt lat="46.7768038755721" lon="9.681906032869573">
      <ele>1669.8</ele></trkpt>
      <trkpt lat="46.77678472840964" lon="9.681884355570329">
      <ele>1669.1</ele></trkpt>
      <trkpt lat="46.77675614282138" lon="9.681870380351377">
      <ele>1668.5</ele></trkpt>
      <trkpt lat="46.776732323646826" lon="9.681869388277367">
      <ele>1667.8</ele></trkpt>
      <trkpt lat="46.776715842343755" lon="9.681877831817399">
      <ele>1667.1</ele></trkpt>
      <trkpt lat="46.77669657433734" lon="9.68190077774212">
      <ele>1666.5</ele></trkpt>
      <trkpt lat="46.77668593005132" lon="9.681931378967102">
      <ele>1665.8</ele></trkpt>
      <trkpt lat="46.77668274036733" lon="9.68196593219308">
      <ele>1665.1</ele></trkpt>
      <trkpt lat="46.776683030955525" lon="9.682015261931133">
      <ele>1664.4</ele></trkpt>
      <trkpt lat="46.77669434592219" lon="9.68207784857794">
      <ele>1663.8</ele></trkpt>
      <trkpt lat="46.776713756440955" lon="9.68216809695027">
      <ele>1663.1</ele></trkpt>
      <trkpt lat="46.77674311471715" lon="9.682287459674527">
      <ele>1662.4</ele></trkpt>
      <trkpt lat="46.776760056841965" lon="9.68239340276546">
      <ele>1661.8</ele></trkpt>
      <trkpt lat="46.77677761461876" lon="9.682532577538735">
      <ele>1661.1</ele></trkpt>
      <trkpt lat="46.776789665602266" lon="9.682693686480867">
      <ele>1660.4</ele></trkpt>
      <trkpt lat="46.77679831514601" lon="9.682891854947579">
      <ele>1659.8</ele></trkpt>
      <trkpt lat="46.77679950501487" lon="9.682986060185437">
      <ele>1659.1</ele></trkpt>
      <trkpt lat="46.77679974979109" lon="9.683005653400372">
      <ele>1658.4</ele></trkpt>
      <trkpt lat="46.776798181991346" lon="9.683106005051725">
      <ele>1657.7</ele></trkpt>
      <trkpt lat="46.776786943116036" lon="9.683163172309328">
      <ele>1657.1</ele></trkpt>
      <trkpt lat="46.77677390031917" lon="9.683183469270569">
      <ele>1656.4</ele></trkpt>
      <trkpt lat="46.776756038791746" lon="9.6831925360458">
      <ele>1655.7</ele></trkpt>
      <trkpt lat="46.77673664636089" lon="9.683192959174779">
      <ele>1655.0</ele></trkpt>
      <trkpt lat="46.77671069689205" lon="9.683184516105324">
      <ele>1654.3</ele></trkpt>
      <trkpt lat="46.77668914828904" lon="9.68316644531148">
      <ele>1653.6</ele></trkpt>
      <trkpt lat="46.77666679889548" lon="9.683123191128356">
      <ele>1652.9</ele></trkpt>
      <trkpt lat="46.77663367425775" lon="9.683001824177293">
      <ele>1652.2</ele></trkpt>
      <trkpt lat="46.77660493210998" lon="9.682915705907138">
      <ele>1651.5</ele></trkpt>
      <trkpt lat="46.77657941300628" lon="9.682859273265525">
      <ele>1650.8</ele></trkpt>
      <trkpt lat="46.77653618067617" lon="9.682800242564422">
      <ele>1650.1</ele></trkpt>
      <trkpt lat="46.77650927612169" lon="9.682749280075939">
      <ele>1649.5</ele></trkpt>
      <trkpt lat="46.77649284969474" lon="9.682682131672625">
      <ele>1648.8</ele></trkpt>
      <trkpt lat="46.776488032900886" lon="9.6826044115186">
      <ele>1648.1</ele></trkpt>
      <trkpt lat="46.77648988193148" lon="9.68251033345443">
      <ele>1647.4</ele></trkpt>
      <trkpt lat="46.776478336380016" lon="9.68245262323744">
      <ele>1646.7</ele></trkpt>
      <trkpt lat="46.77645400361438" lon="9.682399921176994">
      <ele>1646.0</ele></trkpt>
      <trkpt lat="46.77641544371542" lon="9.682361388950618">
      <ele>1645.3</ele></trkpt>
      <trkpt lat="46.77637254134032" lon="9.682320815835778">
      <ele>1644.6</ele></trkpt>
      <trkpt lat="46.77634042243319" lon="9.682345138544992">
      <ele>1643.9</ele></trkpt>
      <trkpt lat="46.77630045105557" lon="9.682306993002555">
      <ele>1643.2</ele></trkpt>
      <trkpt lat="46.77627572228457" lon="9.682290008420926">
      <ele>1642.5</ele></trkpt>
      <trkpt lat="46.77624282163948" lon="9.682290917060069">
      <ele>1641.4</ele></trkpt>
      <trkpt lat="46.776191620766326" lon="9.682265979046143">
      <ele>1640.2</ele></trkpt>
      <trkpt lat="46.77615742407629" lon="9.682253158513083">
      <ele>1639.1</ele></trkpt>
      <trkpt lat="46.77610729521842" lon="9.682253349498984">
      <ele>1637.9</ele></trkpt>
      <trkpt lat="46.77605151582715" lon="9.682269521441363">
      <ele>1636.8</ele></trkpt>
      <trkpt lat="46.77599769386794" lon="9.682260729971349">
      <ele>1635.7</ele></trkpt>
      <trkpt lat="46.775936544341874" lon="9.68220809288975">
      <ele>1634.5</ele></trkpt>
      <trkpt lat="46.77588570017187" lon="9.682129740032686">
      <ele>1633.4</ele></trkpt>
      <trkpt lat="46.775836660618886" lon="9.682080908522913">
      <ele>1632.2</ele></trkpt>
      <trkpt lat="46.77580091002044" lon="9.682036337570203">
      <ele>1631.1</ele></trkpt>
      <trkpt lat="46.7757881178729" lon="9.682008624826459">
      <ele>1630.0</ele></trkpt>
      <trkpt lat="46.7757736502083" lon="9.681991530889762">
      <ele>1628.8</ele></trkpt>
      <trkpt lat="46.77574903940292" lon="9.681969914578856">
      <ele>1627.7</ele></trkpt>
      <trkpt lat="46.77575160180181" lon="9.682032777400702">
      <ele>1626.5</ele></trkpt>
      <trkpt lat="46.77575616514068" lon="9.682123414330126">
      <ele>1625.4</ele></trkpt>
      <trkpt lat="46.775745776680616" lon="9.682200526182976">
      <ele>1624.3</ele></trkpt>
      <trkpt lat="46.77571796411415" lon="9.682324892855567">
      <ele>1623.1</ele></trkpt>
      <trkpt lat="46.77564851915125" lon="9.682567509303226">
      <ele>1622.0</ele></trkpt>
      <trkpt lat="46.775625524811375" lon="9.68264038878251">
      <ele>1620.8</ele></trkpt>
      <trkpt lat="46.775600212129945" lon="9.682702103195062">
      <ele>1619.7</ele></trkpt>
      <trkpt lat="46.775582978002554" lon="9.68274014421796">
      <ele>1619.5</ele></trkpt>
      <trkpt lat="46.77555940441499" lon="9.682777934174416">
      <ele>1619.2</ele></trkpt>
      <trkpt lat="46.77553069616214" lon="9.682819190886462">
      <ele>1619.0</ele></trkpt>
      <trkpt lat="46.77545822135153" lon="9.682869797077997">
      <ele>1618.7</ele></trkpt>
      <trkpt lat="46.77539036454308" lon="9.682907509996049">
      <ele>1618.5</ele></trkpt>
      <trkpt lat="46.77528818597372" lon="9.682941971951255">
      <ele>1618.3</ele></trkpt>
      <trkpt lat="46.775297440444334" lon="9.683016875743018">
      <ele>1618.0</ele></trkpt>
      <trkpt lat="46.77529535944951" lon="9.683061848350102">
      <ele>1617.8</ele></trkpt>
      <trkpt lat="46.77528822459868" lon="9.68312219773">
      <ele>1617.5</ele></trkpt>
      <trkpt lat="46.77525586339672" lon="9.683314918488394">
      <ele>1617.3</ele></trkpt>
      <trkpt lat="46.7748545290207" lon="9.683513571821214">
      <ele>1617.1</ele></trkpt>
      <trkpt lat="46.77445319428105" lon="9.683712222187928">
      <ele>1616.8</ele></trkpt>
      <trkpt lat="46.774433130291825" lon="9.683770132341852">
      <ele>1616.6</ele></trkpt>
      <trkpt lat="46.774418613291054" lon="9.683824658512505">
      <ele>1616.3</ele></trkpt>
      <trkpt lat="46.77440728767083" lon="9.683883469891859">
      <ele>1616.1</ele></trkpt>
      <trkpt lat="46.77440015657101" lon="9.683955502137747">
      <ele>1615.9</ele></trkpt>
      <trkpt lat="46.77439839940095" lon="9.684054911436741">
      <ele>1615.6</ele></trkpt>
      <trkpt lat="46.774399278273606" lon="9.68413467820326">
      <ele>1615.4</ele></trkpt>
      <trkpt lat="46.77439718102673" lon="9.684241303654723">
      <ele>1615.1</ele></trkpt>
      <trkpt lat="46.77439137262365" lon="9.68443548143322">
      <ele>1614.9</ele></trkpt>
      <trkpt lat="46.7743859580443" lon="9.684586752062238">
      <ele>1615.1</ele></trkpt>
      <trkpt lat="46.77437675625214" lon="9.684736567991685">
      <ele>1615.2</ele></trkpt>
      <trkpt lat="46.774418559525124" lon="9.684741939529111">
      <ele>1615.4</ele></trkpt>
      <trkpt lat="46.77438744778271" lon="9.684815669905829">
      <ele>1615.5</ele></trkpt>
      <trkpt lat="46.77434372981773" lon="9.684894349600784">
      <ele>1615.7</ele></trkpt>
      <trkpt lat="46.77429008318732" lon="9.684976361228191">
      <ele>1615.8</ele></trkpt>
      <trkpt lat="46.77422858831201" lon="9.68508906235154">
      <ele>1616.0</ele></trkpt>
      <trkpt lat="46.774177134057005" lon="9.685164380098325">
      <ele>1616.1</ele></trkpt>
      <trkpt lat="46.77410203520527" lon="9.685235318990301">
      <ele>1616.3</ele></trkpt>
      <trkpt lat="46.774078755020895" lon="9.685255868552185">
      <ele>1616.5</ele></trkpt>
      <trkpt lat="46.773980305492024" lon="9.685342703826382">
      <ele>1616.6</ele></trkpt>
      <trkpt lat="46.77394563805456" lon="9.685384914464663">
      <ele>1616.8</ele></trkpt>
      <trkpt lat="46.77390957280066" lon="9.68546705589484">
      <ele>1616.9</ele></trkpt>
      <trkpt lat="46.7738765564897" lon="9.685543796922964">
      <ele>1617.1</ele></trkpt>
      <trkpt lat="46.77387129419462" lon="9.685569747814096">
      <ele>1617.2</ele></trkpt>
      <trkpt lat="46.77386794312958" lon="9.685623415855918">
      <ele>1617.4</ele></trkpt>
      <trkpt lat="46.7738663363828" lon="9.685683103293648">
      <ele>1617.5</ele></trkpt>
      <trkpt lat="46.773845377189424" lon="9.68575855269399">
      <ele>1617.7</ele></trkpt>
      <trkpt lat="46.77381959096968" lon="9.685856578579982">
      <ele>1617.8</ele></trkpt>
      <trkpt lat="46.77381688548363" lon="9.685955161348524">
      <ele>1618.0</ele></trkpt>
      <trkpt lat="46.77382393745295" lon="9.686045846928549">
      <ele>1617.9</ele></trkpt>
      <trkpt lat="46.77382908401599" lon="9.686156519620996">
      <ele>1617.9</ele></trkpt>
      <trkpt lat="46.773839271168896" lon="9.686374546790056">
      <ele>1617.8</ele></trkpt>
      <trkpt lat="46.77384552611678" lon="9.686568309065034">
      <ele>1617.8</ele></trkpt>
      <trkpt lat="46.77384744462751" lon="9.686716753638676">
      <ele>1617.7</ele></trkpt>
      <trkpt lat="46.773857147957486" lon="9.686878411912645">
      <ele>1617.6</ele></trkpt>
      <trkpt lat="46.7738684960235" lon="9.687000411731855">
      <ele>1617.6</ele></trkpt>
      <trkpt lat="46.77387760002743" lon="9.687080534303645">
      <ele>1617.5</ele></trkpt>
      <trkpt lat="46.77388211007706" lon="9.687123409987205">
      <ele>1617.5</ele></trkpt>
      <trkpt lat="46.77389412275622" lon="9.687237696565205">
      <ele>1617.4</ele></trkpt>
      <trkpt lat="46.77391439674658" lon="9.687366592185297">
      <ele>1617.3</ele></trkpt>
      <trkpt lat="46.773937823285806" lon="9.68750036113223">
      <ele>1617.3</ele></trkpt>
      <trkpt lat="46.77394816825151" lon="9.687581426408977">
      <ele>1617.2</ele></trkpt>
      <trkpt lat="46.773964629287875" lon="9.687718388844754">
      <ele>1617.2</ele></trkpt>
      <trkpt lat="46.773964336640134" lon="9.687798564656902">
      <ele>1617.1</ele></trkpt>
      <trkpt lat="46.77402156309226" lon="9.688064807586136">
      <ele>1617.0</ele></trkpt>
      <trkpt lat="46.77406124207052" lon="9.688243292639353">
      <ele>1617.0</ele></trkpt>
      <trkpt lat="46.77408564698083" lon="9.688359328752172">
      <ele>1616.9</ele></trkpt>
      <trkpt lat="46.77414539953923" lon="9.688407367644492">
      <ele>1616.9</ele></trkpt>
      <trkpt lat="46.77412793372625" lon="9.68852327919523">
      <ele>1616.8</ele></trkpt>
      <trkpt lat="46.774123967625194" lon="9.688611737175338">
      <ele>1617.2</ele></trkpt>
      <trkpt lat="46.77410626567382" lon="9.688689849936004">
      <ele>1617.7</ele></trkpt>
      <trkpt lat="46.774078589066015" lon="9.688769969139798">
      <ele>1618.1</ele></trkpt>
      <trkpt lat="46.77407097581293" lon="9.688841194382142">
      <ele>1618.6</ele></trkpt>
      <trkpt lat="46.77408204861015" lon="9.688904005236765">
      <ele>1619.0</ele></trkpt>
      <trkpt lat="46.77409090348427" lon="9.688954240701207">
      <ele>1619.5</ele></trkpt>
      <trkpt lat="46.77408561318819" lon="9.689049140069683">
      <ele>1620.0</ele></trkpt>
      <trkpt lat="46.7740924312914" lon="9.689173021226376">
      <ele>1620.4</ele></trkpt>
      <trkpt lat="46.774105620894865" lon="9.689228873704572">
      <ele>1620.8</ele></trkpt>
      <trkpt lat="46.77412422989673" lon="9.68932479795611">
      <ele>1621.3</ele></trkpt>
      <trkpt lat="46.774133274330204" lon="9.68940649068837">
      <ele>1621.8</ele></trkpt>
      <trkpt lat="46.774125086332916" lon="9.689500456907435">
      <ele>1622.2</ele></trkpt>
      <trkpt lat="46.774127444018525" lon="9.689709500917855">
      <ele>1622.6</ele></trkpt>
      <trkpt lat="46.774121644667204" lon="9.689824707723865">
      <ele>1623.1</ele></trkpt>
      <trkpt lat="46.77412980106308" lon="9.689918558034385">
      <ele>1623.5</ele></trkpt>
      <trkpt lat="46.774155303802814" lon="9.689995267236458">
      <ele>1624.0</ele></trkpt>
      <trkpt lat="46.77418716432927" lon="9.690121033832149">
      <ele>1624.5</ele></trkpt>
      <trkpt lat="46.77422928685207" lon="9.690233410748286">
      <ele>1624.9</ele></trkpt>
      <trkpt lat="46.7742738581876" lon="9.690317440436829">
      <ele>1625.3</ele></trkpt>
      <trkpt lat="46.77431146206434" lon="9.690423930962265">
      <ele>1625.8</ele></trkpt>
      <trkpt lat="46.77431870140484" lon="9.690484407847652">
      <ele>1626.6</ele></trkpt>
      <trkpt lat="46.7743362634355" lon="9.690575416562883">
      <ele>1627.4</ele></trkpt>
      <trkpt lat="46.77434865297948" lon="9.690616592152155">
      <ele>1628.2</ele></trkpt>
      <trkpt lat="46.774346542790994" lon="9.690677490288335">
      <ele>1629.0</ele></trkpt>
      <trkpt lat="46.77433720021625" lon="9.69074781815471">
      <ele>1629.8</ele></trkpt>
      <trkpt lat="46.77432903328119" lon="9.690817396152696">
      <ele>1630.7</ele></trkpt>
      <trkpt lat="46.7743387082871" lon="9.690873914451316">
      <ele>1631.5</ele></trkpt>
      <trkpt lat="46.774357439190595" lon="9.690964959121706">
      <ele>1632.3</ele></trkpt>
      <trkpt lat="46.77438541549857" lon="9.691106007453397">
      <ele>1633.1</ele></trkpt>
      <trkpt lat="46.77440575754134" lon="9.691179240270204">
      <ele>1633.9</ele></trkpt>
      <trkpt lat="46.774443753021636" lon="9.691269492866535">
      <ele>1634.7</ele></trkpt>
      <trkpt lat="46.774475937304054" lon="9.691335912175234">
      <ele>1635.5</ele></trkpt>
      <trkpt lat="46.77449767894425" lon="9.691423035749999">
      <ele>1636.3</ele></trkpt>
      <trkpt lat="46.77451211551664" lon="9.691545612722345">
      <ele>1637.1</ele></trkpt>
      <trkpt lat="46.774531329370205" lon="9.69161717448427">
      <ele>1638.0</ele></trkpt>
      <trkpt lat="46.77457389315904" lon="9.69171167925207">
      <ele>1638.8</ele></trkpt>
      <trkpt lat="46.77461084168867" lon="9.691774250857913">
      <ele>1639.6</ele></trkpt>
      <trkpt lat="46.7746946989615" lon="9.6918657417254">
      <ele>1640.4</ele></trkpt>
      <trkpt lat="46.77472228737067" lon="9.691898266889456">
      <ele>1641.2</ele></trkpt>
      <trkpt lat="46.77475911863798" lon="9.691979997077777">
      <ele>1642.0</ele></trkpt>
      <trkpt lat="46.7747679903787" lon="9.692049371433537">
      <ele>1643.4</ele></trkpt>
      <trkpt lat="46.77476393809537" lon="9.692125645059711">
      <ele>1644.9</ele></trkpt>
      <trkpt lat="46.77475326511901" lon="9.69224281041231">
      <ele>1646.3</ele></trkpt>
      <trkpt lat="46.77473783324067" lon="9.692409118830152">
      <ele>1647.7</ele></trkpt>
      <trkpt lat="46.77473437763437" lon="9.692652528666043">
      <ele>1649.2</ele></trkpt>
      <trkpt lat="46.77475874049007" lon="9.692853877563271">
      <ele>1650.6</ele></trkpt>
      <trkpt lat="46.77476343049424" lon="9.692874769576804">
      <ele>1652.0</ele></trkpt>
      <trkpt lat="46.77476433229054" lon="9.692878776183404">
      <ele>1653.5</ele></trkpt>
      <trkpt lat="46.77477611185221" lon="9.692931204997432">
      <ele>1654.9</ele></trkpt>
      <trkpt lat="46.774819578772075" lon="9.693052836931905">
      <ele>1656.3</ele></trkpt>
      <trkpt lat="46.77486576106324" lon="9.693174582731459">
      <ele>1657.8</ele></trkpt>
      <trkpt lat="46.774886159472686" lon="9.693227123627643">
      <ele>1659.2</ele></trkpt>
      <trkpt lat="46.77490037346953" lon="9.693278397086605">
      <ele>1660.7</ele></trkpt>
      <trkpt lat="46.77490614722836" lon="9.693334176826973">
      <ele>1662.1</ele></trkpt>
      <trkpt lat="46.77490266053824" lon="9.6934596856884">
      <ele>1663.5</ele></trkpt>
      <trkpt lat="46.77490368612836" lon="9.69360550289791">
      <ele>1665.0</ele></trkpt>
      <trkpt lat="46.774917980221055" lon="9.693701917610174">
      <ele>1666.4</ele></trkpt>
      <trkpt lat="46.774935310723414" lon="9.693743471571189">
      <ele>1667.8</ele></trkpt>
      <trkpt lat="46.774950688592334" lon="9.69384196204548">
      <ele>1669.3</ele></trkpt>
      <trkpt lat="46.77496048319729" lon="9.693918317910486">
      <ele>1670.7</ele></trkpt>
      <trkpt lat="46.77495955803947" lon="9.693976083343905">
      <ele>1671.0</ele></trkpt>
      <trkpt lat="46.77498591762953" lon="9.694006095779288">
      <ele>1671.3</ele></trkpt>
      <trkpt lat="46.775008079296384" lon="9.694005805620698">
      <ele>1671.6</ele></trkpt>
      <trkpt lat="46.7750194247794" lon="9.694014585238701">
      <ele>1671.9</ele></trkpt>
      <trkpt lat="46.77502265702496" lon="9.69407099229168">
      <ele>1672.2</ele></trkpt>
      <trkpt lat="46.77502498900406" lon="9.694107373145489">
      <ele>1672.5</ele></trkpt>
      <trkpt lat="46.77504901121948" lon="9.694123141275485">
      <ele>1672.8</ele></trkpt>
      <trkpt lat="46.77505709900234" lon="9.694142852849907">
      <ele>1673.1</ele></trkpt>
      <trkpt lat="46.77504801608526" lon="9.694184898957857">
      <ele>1673.4</ele></trkpt>
      <trkpt lat="46.77504962726511" lon="9.694202191135554">
      <ele>1673.7</ele></trkpt>
      <trkpt lat="46.77506929431253" lon="9.694218392562966">
      <ele>1674.0</ele></trkpt>
      <trkpt lat="46.775087590932635" lon="9.694249298782129">
      <ele>1674.3</ele></trkpt>
      <trkpt lat="46.77509033365407" lon="9.694297682152047">
      <ele>1674.6</ele></trkpt>
      <trkpt lat="46.77507474662107" lon="9.694339154594774">
      <ele>1674.9</ele></trkpt>
      <trkpt lat="46.77505920863952" lon="9.694388619237616">
      <ele>1675.2</ele></trkpt>
      <trkpt lat="46.7750623856206" lon="9.694425952429711">
      <ele>1675.5</ele></trkpt>
      <trkpt lat="46.77505496830214" lon="9.694482529154824">
      <ele>1675.8</ele></trkpt>
      <trkpt lat="46.77504837644388" lon="9.694532853094383">
      <ele>1676.1</ele></trkpt>
      <trkpt lat="46.7750450598203" lon="9.69457773418861">
      <ele>1676.4</ele></trkpt>
      <trkpt lat="46.77505763687" lon="9.694612081667932">
      <ele>1676.7</ele></trkpt>
      <trkpt lat="46.775085469699924" lon="9.694622180751372">
      <ele>1676.7</ele></trkpt>
      <trkpt lat="46.775108776928064" lon="9.694608093555093">
      <ele>1676.7</ele></trkpt>
      <trkpt lat="46.775133214512444" lon="9.69458052277986">
      <ele>1676.7</ele></trkpt>
      <trkpt lat="46.77515618090684" lon="9.694561823646842">
      <ele>1676.6</ele></trkpt>
      <trkpt lat="46.775175023400465" lon="9.694543239939755">
      <ele>1676.6</ele></trkpt>
      <trkpt lat="46.7752025782859" lon="9.69448998218258">
      <ele>1676.6</ele></trkpt>
      <trkpt lat="46.77522736191964" lon="9.694456282519987">
      <ele>1676.6</ele></trkpt>
      <trkpt lat="46.775262652457926" lon="9.69441140434792">
      <ele>1676.6</ele></trkpt>
      <trkpt lat="46.77528826620775" lon="9.694409019059885">
      <ele>1676.6</ele></trkpt>
      <trkpt lat="46.775348877658416" lon="9.694401170341434">
      <ele>1676.6</ele></trkpt>
      <trkpt lat="46.77537403798002" lon="9.694396683358438">
      <ele>1676.5</ele></trkpt>
      <trkpt lat="46.77540565879609" lon="9.694364003427584">
      <ele>1676.5</ele></trkpt>
      <trkpt lat="46.775442787510535" lon="9.694320826274739">
      <ele>1676.5</ele></trkpt>
      <trkpt lat="46.7754678938227" lon="9.694252572333035">
      <ele>1676.5</ele></trkpt>
      <trkpt lat="46.77550602229399" lon="9.694197962422443">
      <ele>1676.5</ele></trkpt>
      <trkpt lat="46.77555421773109" lon="9.694144874312425">
      <ele>1676.5</ele></trkpt>
      <trkpt lat="46.77560258876414" lon="9.694082440940742">
      <ele>1676.4</ele></trkpt>
      <trkpt lat="46.77564638101523" lon="9.69403540326675">
      <ele>1676.4</ele></trkpt>
      <trkpt lat="46.775674196498706" lon="9.69402041725853">
      <ele>1676.4</ele></trkpt>
      <trkpt lat="46.77567463948973" lon="9.694084999726055">
      <ele>1676.4</ele></trkpt>
      <trkpt lat="46.775669494686504" lon="9.694280729011773">
      <ele>1678.0</ele></trkpt>
      <trkpt lat="46.77565637065515" lon="9.694425733051826">
      <ele>1679.7</ele></trkpt>
      <trkpt lat="46.77562236870268" lon="9.694492841741212">
      <ele>1681.3</ele></trkpt>
      <trkpt lat="46.77558875283547" lon="9.69456591335933">
      <ele>1682.9</ele></trkpt>
      <trkpt lat="46.7755392036589" lon="9.694631938396936">
      <ele>1684.5</ele></trkpt>
      <trkpt lat="46.775507062344374" lon="9.694705071585087">
      <ele>1686.2</ele></trkpt>
      <trkpt lat="46.77550763654215" lon="9.694749788567995">
      <ele>1687.8</ele></trkpt>
      <trkpt lat="46.77552900311836" lon="9.694778348160295">
      <ele>1689.4</ele></trkpt>
      <trkpt lat="46.77558776754452" lon="9.694763781375388">
      <ele>1691.0</ele></trkpt>
      <trkpt lat="46.775647787346436" lon="9.694759916455816">
      <ele>1692.7</ele></trkpt>
      <trkpt lat="46.77570772334904" lon="9.694760292027759">
      <ele>1694.3</ele></trkpt>
      <trkpt lat="46.775767533135614" lon="9.694767054533777">
      <ele>1695.9</ele></trkpt>
      <trkpt lat="46.77581686716191" lon="9.694786149582924">
      <ele>1697.5</ele></trkpt>
      <trkpt lat="46.775863606119394" lon="9.694788107472604">
      <ele>1699.2</ele></trkpt>
      <trkpt lat="46.775880635876995" lon="9.694814350487214">
      <ele>1700.8</ele></trkpt>
      <trkpt lat="46.77587252716679" lon="9.694854446923326">
      <ele>1702.4</ele></trkpt>
      <trkpt lat="46.77584114201874" lon="9.694889311134087">
      <ele>1704.0</ele></trkpt>
      <trkpt lat="46.77579251735853" lon="9.694908546643887">
      <ele>1705.7</ele></trkpt>
      <trkpt lat="46.77576099697606" lon="9.694949797326565">
      <ele>1707.3</ele></trkpt>
      <trkpt lat="46.775726050388265" lon="9.695016420894342">
      <ele>1708.9</ele></trkpt>
      <trkpt lat="46.77572191821293" lon="9.695077969338177">
      <ele>1710.4</ele></trkpt>
      <trkpt lat="46.77571063514712" lon="9.695130690858894">
      <ele>1711.9</ele></trkpt>
      <trkpt lat="46.775648850057785" lon="9.695223867522294">
      <ele>1713.4</ele></trkpt>
      <trkpt lat="46.77559805416429" lon="9.69527919050461">
      <ele>1714.8</ele></trkpt>
      <trkpt lat="46.77562246890338" lon="9.695301498971395">
      <ele>1716.3</ele></trkpt>
      <trkpt lat="46.77567492648228" lon="9.69531007602075">
      <ele>1717.8</ele></trkpt>
      <trkpt lat="46.775713700778105" lon="9.695345744431263">
      <ele>1719.3</ele></trkpt>
      <trkpt lat="46.77577183455142" lon="9.69536308670254">
      <ele>1720.8</ele></trkpt>
      <trkpt lat="46.77583514080602" lon="9.695414676508143">
      <ele>1722.3</ele></trkpt>
      <trkpt lat="46.77588138425014" lon="9.69544215692655">
      <ele>1723.8</ele></trkpt>
      <trkpt lat="46.77584544305471" lon="9.695485331040583">
      <ele>1725.2</ele></trkpt>
      <trkpt lat="46.77579000655865" lon="9.69555324397421">
      <ele>1726.7</ele></trkpt>
      <trkpt lat="46.775710612437116" lon="9.69564992639629">
      <ele>1728.2</ele></trkpt>
      <trkpt lat="46.77566931626332" lon="9.695741826017988">
      <ele>1729.7</ele></trkpt>
      <trkpt lat="46.77564488107694" lon="9.695868488980414">
      <ele>1731.2</ele></trkpt>
      <trkpt lat="46.77563114075962" lon="9.695972192550435">
      <ele>1732.7</ele></trkpt>
      <trkpt lat="46.77558872409084" lon="9.696047016428587">
      <ele>1734.1</ele></trkpt>
      <trkpt lat="46.77557735646967" lon="9.696103991191384">
      <ele>1735.6</ele></trkpt>
      <trkpt lat="46.775555647937594" lon="9.696166924688175">
      <ele>1737.1</ele></trkpt>
      <trkpt lat="46.77554666469484" lon="9.696251677029478">
      <ele>1738.6</ele></trkpt>
      <trkpt lat="46.77555503826695" lon="9.696345658017208">
      <ele>1740.4</ele></trkpt>
      <trkpt lat="46.77553320355244" lon="9.696414965204104">
      <ele>1742.3</ele></trkpt>
      <trkpt lat="46.775505683432954" lon="9.696475519805498">
      <ele>1744.1</ele></trkpt>
      <trkpt lat="46.775518324587814" lon="9.696501592317963">
      <ele>1746.0</ele></trkpt>
      <trkpt lat="46.775576173135356" lon="9.696533804033322">
      <ele>1747.8</ele></trkpt>
      <trkpt lat="46.77561135788363" lon="9.69652889994859">
      <ele>1749.7</ele></trkpt>
      <trkpt lat="46.775664025549695" lon="9.696526850782465">
      <ele>1751.5</ele></trkpt>
      <trkpt lat="46.775716365713066" lon="9.696541816333575">
      <ele>1753.4</ele></trkpt>
      <trkpt lat="46.77576152192677" lon="9.696550088519">
      <ele>1755.2</ele></trkpt>
      <trkpt lat="46.775826839722" lon="9.696574112423775">
      <ele>1757.0</ele></trkpt>
      <trkpt lat="46.77590074744717" lon="9.696606997664182">
      <ele>1758.9</ele></trkpt>
      <trkpt lat="46.775937440039066" lon="9.696600021697376">
      <ele>1760.7</ele></trkpt>
      <trkpt lat="46.7760166186509" lon="9.696588447733687">
      <ele>1762.6</ele></trkpt>
      <trkpt lat="46.77608001438508" lon="9.696561318618459">
      <ele>1764.4</ele></trkpt>
      <trkpt lat="46.77613795317412" lon="9.696514796963111">
      <ele>1766.3</ele></trkpt>
      <trkpt lat="46.77619935455835" lon="9.696515249025232">
      <ele>1768.1</ele></trkpt>
      <trkpt lat="46.77620067002843" lon="9.696596163845715">
      <ele>1770.0</ele></trkpt>
      <trkpt lat="46.77623526615223" lon="9.69662102204569">
      <ele>1771.8</ele></trkpt>
      <trkpt lat="46.77625061315955" lon="9.696732325297083">
      <ele>1773.7</ele></trkpt>
      <trkpt lat="46.77627806096592" lon="9.696822850196519">
      <ele>1775.5</ele></trkpt>
      <trkpt lat="46.77631139525258" lon="9.696911499979693">
      <ele>1776.3</ele></trkpt>
      <trkpt lat="46.77642790212029" lon="9.697082375422339">
      <ele>1777.1</ele></trkpt>
      <trkpt lat="46.77648531423698" lon="9.697210336792205">
      <ele>1778.0</ele></trkpt>
      <trkpt lat="46.77650403669235" lon="9.697298374391401">
      <ele>1778.8</ele></trkpt>
      <trkpt lat="46.77654071368933" lon="9.69736587915009">
      <ele>1779.6</ele></trkpt>
      <trkpt lat="46.77656527388671" lon="9.697528642761135">
      <ele>1780.4</ele></trkpt>
      <trkpt lat="46.77656321229251" lon="9.697632837590927">
      <ele>1781.2</ele></trkpt>
      <trkpt lat="46.77657000194674" lon="9.697733133404183">
      <ele>1782.1</ele></trkpt>
      <trkpt lat="46.776580461849804" lon="9.697795294752718">
      <ele>1782.9</ele></trkpt>
      <trkpt lat="46.776599487582345" lon="9.69786843875621">
      <ele>1783.7</ele></trkpt>
      <trkpt lat="46.77660885337454" lon="9.697985884585435">
      <ele>1784.5</ele></trkpt>
      <trkpt lat="46.77657916935414" lon="9.698082528361331">
      <ele>1785.3</ele></trkpt>
      <trkpt lat="46.77652928167093" lon="9.698165552879875">
      <ele>1786.2</ele></trkpt>
      <trkpt lat="46.77650923899747" lon="9.698217920200987">
      <ele>1787.0</ele></trkpt>
      <trkpt lat="46.77650537462257" lon="9.698339054897817">
      <ele>1787.8</ele></trkpt>
      <trkpt lat="46.77649647422046" lon="9.698419541640662">
      <ele>1788.6</ele></trkpt>
      <trkpt lat="46.77650339674202" lon="9.698438982847362">
      <ele>1789.4</ele></trkpt>
      <trkpt lat="46.77653765568013" lon="9.69848085696478">
      <ele>1790.3</ele></trkpt>
      <trkpt lat="46.776564086467914" lon="9.698556316042065">
      <ele>1791.1</ele></trkpt>
      <trkpt lat="46.776591894696416" lon="9.698594919924407">
      <ele>1791.9</ele></trkpt>
      <trkpt lat="46.77660938434963" lon="9.698649713535417">
      <ele>1793.5</ele></trkpt>
      <trkpt lat="46.77660933333943" lon="9.698724572387633">
      <ele>1795.2</ele></trkpt>
      <trkpt lat="46.776652758894784" lon="9.698767984163098">
      <ele>1796.8</ele></trkpt>
      <trkpt lat="46.77669382739192" lon="9.69878635648903">
      <ele>1798.5</ele></trkpt>
      <trkpt lat="46.77674093493637" lon="9.698788333357182">
      <ele>1800.1</ele></trkpt>
      <trkpt lat="46.776772046109976" lon="9.698804192013522">
      <ele>1801.7</ele></trkpt>
      <trkpt lat="46.77677358921447" lon="9.698870800082041">
      <ele>1803.4</ele></trkpt>
      <trkpt lat="46.77675828196897" lon="9.6989221479125">
      <ele>1805.0</ele></trkpt>
      <trkpt lat="46.77675477344019" lon="9.69895527231358">
      <ele>1806.7</ele></trkpt>
      <trkpt lat="46.77679298280376" lon="9.698973511725887">
      <ele>1808.3</ele></trkpt>
      <trkpt lat="46.77683984365996" lon="9.698987948745945">
      <ele>1809.9</ele></trkpt>
      <trkpt lat="46.77681454657827" lon="9.699038877337504">
      <ele>1811.6</ele></trkpt>
      <trkpt lat="46.77681233535751" lon="9.699078291381333">
      <ele>1813.2</ele></trkpt>
      <trkpt lat="46.77684051371525" lon="9.69909819264756">
      <ele>1814.9</ele></trkpt>
      <trkpt lat="46.776906992804676" lon="9.699132171820066">
      <ele>1816.5</ele></trkpt>
      <trkpt lat="46.776984100512664" lon="9.699206117259399">
      <ele>1818.1</ele></trkpt>
      <trkpt lat="46.77701797839723" lon="9.699299036700111">
      <ele>1819.8</ele></trkpt>
      <trkpt lat="46.77702268147069" lon="9.699421920658532">
      <ele>1821.4</ele></trkpt>
      <trkpt lat="46.77701528475144" lon="9.69950687246191">
      <ele>1823.1</ele></trkpt>
      <trkpt lat="46.77696543986585" lon="9.699571323610579">
      <ele>1824.7</ele></trkpt>
      <trkpt lat="46.77693329133721" lon="9.699607398207988">
      <ele>1826.4</ele></trkpt>
      <trkpt lat="46.77694735392778" lon="9.699691167995026">
      <ele>1828.1</ele></trkpt>
      <trkpt lat="46.77695805429974" lon="9.69979975050686">
      <ele>1829.8</ele></trkpt>
      <trkpt lat="46.77698539891779" lon="9.699933985742872">
      <ele>1831.6</ele></trkpt>
      <trkpt lat="46.77703237214842" lon="9.700014985133995">
      <ele>1833.3</ele></trkpt>
      <trkpt lat="46.777063431234296" lon="9.700105704069085">
      <ele>1835.0</ele></trkpt>
      <trkpt lat="46.77705383316348" lon="9.700157291580945">
      <ele>1836.7</ele></trkpt>
      <trkpt lat="46.77703127151174" lon="9.70021456990638">
      <ele>1838.4</ele></trkpt>
      <trkpt lat="46.77698268227759" lon="9.700287391114612">
      <ele>1840.1</ele></trkpt>
      <trkpt lat="46.776922641563075" lon="9.700361800955946">
      <ele>1841.8</ele></trkpt>
      <trkpt lat="46.77685786970026" lon="9.7003861174529">
      <ele>1843.6</ele></trkpt>
      <trkpt lat="46.77680183156832" lon="9.700402482743606">
      <ele>1845.3</ele></trkpt>
      <trkpt lat="46.77675797498666" lon="9.700452631235237">
      <ele>1847.0</ele></trkpt>
      <trkpt lat="46.776745320766814" lon="9.70051447761894">
      <ele>1848.7</ele></trkpt>
      <trkpt lat="46.77676582426548" lon="9.700561093806616">
      <ele>1850.4</ele></trkpt>
      <trkpt lat="46.776784742654485" lon="9.700615948279804">
      <ele>1852.1</ele></trkpt>
      <trkpt lat="46.776772664544666" lon="9.700648712687828">
      <ele>1853.9</ele></trkpt>
      <trkpt lat="46.77674741902741" lon="9.700624781391916">
      <ele>1855.6</ele></trkpt>
      <trkpt lat="46.776706309336966" lon="9.700608501752434">
      <ele>1857.3</ele></trkpt>
      <trkpt lat="46.77668180286928" lon="9.70061994281702">
      <ele>1859.0</ele></trkpt>
      <trkpt lat="46.776717635268106" lon="9.700685921379495">
      <ele>1860.6</ele></trkpt>
      <trkpt lat="46.77674414578389" lon="9.700718223737578">
      <ele>1862.3</ele></trkpt>
      <trkpt lat="46.776778548704876" lon="9.700784129304104">
      <ele>1863.9</ele></trkpt>
      <trkpt lat="46.77677923721619" lon="9.700821595416693">
      <ele>1865.5</ele></trkpt>
      <trkpt lat="46.7766980360112" lon="9.700809866827168">
      <ele>1867.2</ele></trkpt>
      <trkpt lat="46.77666882865967" lon="9.700841911658074">
      <ele>1868.8</ele></trkpt>
      <trkpt lat="46.776640829939815" lon="9.700886988384854">
      <ele>1870.4</ele></trkpt>
      <trkpt lat="46.77655759307757" lon="9.7009480179525">
      <ele>1872.0</ele></trkpt>
      <trkpt lat="46.776491014903854" lon="9.701040320210462">
      <ele>1873.7</ele></trkpt>
      <trkpt lat="46.776459861300424" lon="9.701005726961805">
      <ele>1875.3</ele></trkpt>
      <trkpt lat="46.77642866821678" lon="9.700994016054464">
      <ele>1876.9</ele></trkpt>
      <trkpt lat="46.77637898948895" lon="9.70097737628018">
      <ele>1878.6</ele></trkpt>
      <trkpt lat="46.77632993751611" lon="9.70092956109501">
      <ele>1880.2</ele></trkpt>
      <trkpt lat="46.77629940289507" lon="9.700884619629681">
      <ele>1881.8</ele></trkpt>
      <trkpt lat="46.77627000108128" lon="9.700854265647537">
      <ele>1883.4</ele></trkpt>
      <trkpt lat="46.77617461225802" lon="9.700837788834933">
      <ele>1885.1</ele></trkpt>
      <trkpt lat="46.77607896755355" lon="9.700833771502765">
      <ele>1886.7</ele></trkpt>
      <trkpt lat="46.7759879712828" lon="9.700884008572501">
      <ele>1888.3</ele></trkpt>
      <trkpt lat="46.77589538036422" lon="9.700942509374567">
      <ele>1890.0</ele></trkpt>
      <trkpt lat="46.7758127794516" lon="9.70100141651266">
      <ele>1891.6</ele></trkpt>
      <trkpt lat="46.77578614716603" lon="9.701064272580904">
      <ele>1892.6</ele></trkpt>
      <trkpt lat="46.77577510472972" lon="9.701143764074871">
      <ele>1893.6</ele></trkpt>
      <trkpt lat="46.77575720468811" lon="9.701176492765248">
      <ele>1894.6</ele></trkpt>
      <trkpt lat="46.77574732575215" lon="9.701194547126311">
      <ele>1895.6</ele></trkpt>
      <trkpt lat="46.775740518863444" lon="9.70119654037312">
      <ele>1896.6</ele></trkpt>
      <trkpt lat="46.77570843112222" lon="9.701205907239844">
      <ele>1897.6</ele></trkpt>
      <trkpt lat="46.775648549259515" lon="9.701225043992585">
      <ele>1898.6</ele></trkpt>
      <trkpt lat="46.77560698059964" lon="9.701290049222898">
      <ele>1899.6</ele></trkpt>
      <trkpt lat="46.77556265889238" lon="9.701350930462453">
      <ele>1900.6</ele></trkpt>
      <trkpt lat="46.77552950618423" lon="9.701432191001114">
      <ele>1901.5</ele></trkpt>
      <trkpt lat="46.77550091649565" lon="9.701495265567738">
      <ele>1902.5</ele></trkpt>
      <trkpt lat="46.775477409795585" lon="9.701518916741822">
      <ele>1903.5</ele></trkpt>
      <trkpt lat="46.77545207062904" lon="9.70153286330904">
      <ele>1904.5</ele></trkpt>
      <trkpt lat="46.775409261383274" lon="9.701541949743127">
      <ele>1905.5</ele></trkpt>
      <trkpt lat="46.77535310162886" lon="9.701549911990167">
      <ele>1906.5</ele></trkpt>
      <trkpt lat="46.775343219120465" lon="9.701558155041607">
      <ele>1907.5</ele></trkpt>
      <trkpt lat="46.77534009873321" lon="9.701560761573939">
      <ele>1908.5</ele></trkpt>
      <trkpt lat="46.77532661722886" lon="9.701588946871327">
      <ele>1909.5</ele></trkpt>
      <trkpt lat="46.77531022715007" lon="9.701620402518708">
      <ele>1910.5</ele></trkpt>
      <trkpt lat="46.775310642544916" lon="9.701652564266508">
      <ele>1911.5</ele></trkpt>
      <trkpt lat="46.77531093677549" lon="9.701690838033265">
      <ele>1912.3</ele></trkpt>
      <trkpt lat="46.77532716631194" lon="9.701720599165304">
      <ele>1913.0</ele></trkpt>
      <trkpt lat="46.77534220129047" lon="9.701757959787185">
      <ele>1913.8</ele></trkpt>
      <trkpt lat="46.77536452702111" lon="9.701848362348606">
      <ele>1914.6</ele></trkpt>
      <trkpt lat="46.77538273800473" lon="9.701887572431437">
      <ele>1915.3</ele></trkpt>
      <trkpt lat="46.77539811659048" lon="9.701926663517295">
      <ele>1916.1</ele></trkpt>
      <trkpt lat="46.77540857074659" lon="9.701964486686501">
      <ele>1916.9</ele></trkpt>
      <trkpt lat="46.775420115123005" lon="9.70201586051079">
      <ele>1917.7</ele></trkpt>
      <trkpt lat="46.77543679701096" lon="9.7020572987176">
      <ele>1918.4</ele></trkpt>
      <trkpt lat="46.7754499794527" lon="9.702090049485882">
      <ele>1919.2</ele></trkpt>
      <trkpt lat="46.77547032405893" lon="9.702140561936485">
      <ele>1920.0</ele></trkpt>
      <trkpt lat="46.775493268123604" lon="9.702189323647758">
      <ele>1920.7</ele></trkpt>
      <trkpt lat="46.77555161443544" lon="9.70229711630993">
      <ele>1921.5</ele></trkpt>
      <trkpt lat="46.775569249713804" lon="9.702344476142335">
      <ele>1922.3</ele></trkpt>
      <trkpt lat="46.775576383523564" lon="9.70240905180376">
      <ele>1923.1</ele></trkpt>
      <trkpt lat="46.7755846815304" lon="9.702467559276181">
      <ele>1923.8</ele></trkpt>
      <trkpt lat="46.77560766854564" lon="9.702528216762374">
      <ele>1924.6</ele></trkpt>
      <trkpt lat="46.77563154959104" lon="9.70259643060331">
      <ele>1925.4</ele></trkpt>
      <trkpt lat="46.77564315256416" lon="9.702647558373851">
      <ele>1926.1</ele></trkpt>
      <trkpt lat="46.775669823135324" lon="9.702734385124">
      <ele>1926.9</ele></trkpt>
      <trkpt lat="46.77568685242539" lon="9.702829988931782">
      <ele>1927.7</ele></trkpt>
      <trkpt lat="46.77569217571825" lon="9.702932750388083">
      <ele>1928.6</ele></trkpt>
      <trkpt lat="46.77570545178301" lon="9.703005234246298">
      <ele>1929.4</ele></trkpt>
      <trkpt lat="46.77571945498447" lon="9.703094593823636">
      <ele>1930.2</ele></trkpt>
      <trkpt lat="46.77572882528932" lon="9.703205188364059">
      <ele>1931.0</ele></trkpt>
      <trkpt lat="46.77575111114036" lon="9.703248094118916">
      <ele>1931.9</ele></trkpt>
      <trkpt lat="46.77575610288992" lon="9.703259123659109">
      <ele>1932.7</ele></trkpt>
      <trkpt lat="46.77580861310958" lon="9.703375265501373">
      <ele>1933.5</ele></trkpt>
      <trkpt lat="46.77581576881451" lon="9.703391075453759">
      <ele>1934.3</ele></trkpt>
      <trkpt lat="46.77582018802295" lon="9.703406469066131">
      <ele>1935.2</ele></trkpt>
      <trkpt lat="46.77583868864177" lon="9.703470973033648">
      <ele>1936.0</ele></trkpt>
      <trkpt lat="46.7758471852531" lon="9.703510823434303">
      <ele>1936.8</ele></trkpt>
      <trkpt lat="46.77585209200216" lon="9.703533848015136">
      <ele>1937.6</ele></trkpt>
      <trkpt lat="46.775871321923006" lon="9.703589711278894">
      <ele>1938.5</ele></trkpt>
      <trkpt lat="46.775896214767094" lon="9.703633656969666">
      <ele>1939.3</ele></trkpt>
      <trkpt lat="46.77589785811081" lon="9.70363655543941">
      <ele>1940.1</ele></trkpt>
      <trkpt lat="46.77590037832218" lon="9.703639255005674">
      <ele>1940.9</ele></trkpt>
      <trkpt lat="46.7759413998353" lon="9.703683093109362">
      <ele>1941.8</ele></trkpt>
      <trkpt lat="46.77596081206603" lon="9.703709806031666">
      <ele>1942.6</ele></trkpt>
      <trkpt lat="46.775970220381375" lon="9.703722750459132">
      <ele>1943.4</ele></trkpt>
      <trkpt lat="46.776006489469474" lon="9.703786587337486">
      <ele>1944.4</ele></trkpt>
      <trkpt lat="46.776008324134644" lon="9.7037898213373">
      <ele>1945.4</ele></trkpt>
      <trkpt lat="46.776017467561786" lon="9.703850133433768">
      <ele>1946.4</ele></trkpt>
      <trkpt lat="46.776014464644774" lon="9.703895800948057">
      <ele>1947.4</ele></trkpt>
      <trkpt lat="46.77602098462354" lon="9.703937297471922">
      <ele>1948.4</ele></trkpt>
      <trkpt lat="46.776004691932286" lon="9.703965626292938">
      <ele>1949.4</ele></trkpt>
      <trkpt lat="46.77598042653202" lon="9.704025672785113">
      <ele>1950.4</ele></trkpt>
      <trkpt lat="46.77596576592524" lon="9.704076967095736">
      <ele>1951.4</ele></trkpt>
      <trkpt lat="46.775974381161284" lon="9.704118538642">
      <ele>1952.4</ele></trkpt>
      <trkpt lat="46.775968768311714" lon="9.704190058357725">
      <ele>1953.3</ele></trkpt>
      <trkpt lat="46.775984816126304" lon="9.70424345652622">
      <ele>1954.3</ele></trkpt>
      <trkpt lat="46.77598130691439" lon="9.704336848229254">
      <ele>1955.3</ele></trkpt>
      <trkpt lat="46.77597567722651" lon="9.704365677881766">
      <ele>1956.3</ele></trkpt>
      <trkpt lat="46.77592998374789" lon="9.704408986136832">
      <ele>1957.3</ele></trkpt>
      <trkpt lat="46.77588946438746" lon="9.704427375224785">
      <ele>1958.3</ele></trkpt>
      <trkpt lat="46.7758499410928" lon="9.704458603794569">
      <ele>1959.3</ele></trkpt>
      <trkpt lat="46.77580887857771" lon="9.704504359704051">
      <ele>1960.3</ele></trkpt>
      <trkpt lat="46.775791996869685" lon="9.704532886147616">
      <ele>1961.3</ele></trkpt>
      <trkpt lat="46.77576519826353" lon="9.704555506930653">
      <ele>1962.3</ele></trkpt>
      <trkpt lat="46.775737775015365" lon="9.704609145692716">
      <ele>1963.3</ele></trkpt>
      <trkpt lat="46.77571386545876" lon="9.704675729808592">
      <ele>1964.8</ele></trkpt>
      <trkpt lat="46.77570367663108" lon="9.704746545744802">
      <ele>1966.4</ele></trkpt>
      <trkpt lat="46.775690798003644" lon="9.704826378372196">
      <ele>1967.9</ele></trkpt>
      <trkpt lat="46.77567878886923" lon="9.70486240573304">
      <ele>1969.4</ele></trkpt>
      <trkpt lat="46.775640008425206" lon="9.70491922094187">
      <ele>1971.0</ele></trkpt>
      <trkpt lat="46.77561068277459" lon="9.705005670495947">
      <ele>1972.5</ele></trkpt>
      <trkpt lat="46.77559285909558" lon="9.705081640265854">
      <ele>1974.0</ele></trkpt>
      <trkpt lat="46.77556185791505" lon="9.705126011257303">
      <ele>1975.5</ele></trkpt>
      <trkpt lat="46.7754711644157" lon="9.705206223437283">
      <ele>1977.1</ele></trkpt>
      <trkpt lat="46.775386955813794" lon="9.705275731495481">
      <ele>1978.6</ele></trkpt>
      <trkpt lat="46.77528454264571" lon="9.705377377232436">
      <ele>1980.1</ele></trkpt>
      <trkpt lat="46.77525092404696" lon="9.705427112916436">
      <ele>1981.7</ele></trkpt>
      <trkpt lat="46.77524537041657" lon="9.70543532786389">
      <ele>1983.2</ele></trkpt>
      <trkpt lat="46.775234115129194" lon="9.70545196110339">
      <ele>1984.7</ele></trkpt>
      <trkpt lat="46.775151073410825" lon="9.70548671430555">
      <ele>1986.2</ele></trkpt>
      <trkpt lat="46.77508732471604" lon="9.705513372310426">
      <ele>1987.8</ele></trkpt>
      <trkpt lat="46.775028021700024" lon="9.705529148979574">
      <ele>1989.3</ele></trkpt>
      <trkpt lat="46.77497145386823" lon="9.705534077148757">
      <ele>1990.8</ele></trkpt>
      <trkpt lat="46.774910113580844" lon="9.705526007051695">
      <ele>1992.4</ele></trkpt>
      <trkpt lat="46.774882463318676" lon="9.705528510902267">
      <ele>1993.9</ele></trkpt>
      <trkpt lat="46.77485558327512" lon="9.70555476880998">
      <ele>1995.6</ele></trkpt>
      <trkpt lat="46.77481570638483" lon="9.705604240575767">
      <ele>1997.3</ele></trkpt>
      <trkpt lat="46.774737501833485" lon="9.705686797240267">
      <ele>1999.0</ele></trkpt>
      <trkpt lat="46.77466719455387" lon="9.70575142664431">
      <ele>2000.7</ele></trkpt>
      <trkpt lat="46.7746507468451" lon="9.70582197756376">
      <ele>2002.4</ele></trkpt>
      <trkpt lat="46.774661115592295" lon="9.705849082772012">
      <ele>2004.0</ele></trkpt>
      <trkpt lat="46.774701710639405" lon="9.705955135117264">
      <ele>2005.7</ele></trkpt>
      <trkpt lat="46.77471754691962" lon="9.705996486060805">
      <ele>2007.4</ele></trkpt>
      <trkpt lat="46.774700166441235" lon="9.706050558957031">
      <ele>2009.1</ele></trkpt>
      <trkpt lat="46.774632548813166" lon="9.706106171365075">
      <ele>2010.8</ele></trkpt>
      <trkpt lat="46.77458366949356" lon="9.706166213933054">
      <ele>2012.5</ele></trkpt>
      <trkpt lat="46.774565601317995" lon="9.706191021669982">
      <ele>2014.2</ele></trkpt>
      <trkpt lat="46.77453317865946" lon="9.706180526939736">
      <ele>2015.9</ele></trkpt>
      <trkpt lat="46.77448057717038" lon="9.706238578822523">
      <ele>2017.6</ele></trkpt>
      <trkpt lat="46.77445155040253" lon="9.706246499526765">
      <ele>2019.2</ele></trkpt>
      <trkpt lat="46.77440159310616" lon="9.706297379801136">
      <ele>2020.9</ele></trkpt>
      <trkpt lat="46.7743797392349" lon="9.706323848716302">
      <ele>2022.6</ele></trkpt>
      <trkpt lat="46.774354362318505" lon="9.706337398214899">
      <ele>2024.3</ele></trkpt>
      <trkpt lat="46.774325552311325" lon="9.706398285280788">
      <ele>2026.0</ele></trkpt>
      <trkpt lat="46.77429798286372" lon="9.706459237616182">
      <ele>2027.7</ele></trkpt>
      <trkpt lat="46.77425368549468" lon="9.706541399320228">
      <ele>2029.2</ele></trkpt>
      <trkpt lat="46.774224151720716" lon="9.706574840542773">
      <ele>2030.6</ele></trkpt>
      <trkpt lat="46.77420233366415" lon="9.706599503177292">
      <ele>2032.1</ele></trkpt>
      <trkpt lat="46.774196663710235" lon="9.70663214162798">
      <ele>2033.6</ele></trkpt>
      <trkpt lat="46.774179636385114" lon="9.706667969393022">
      <ele>2035.0</ele></trkpt>
      <trkpt lat="46.77415961234342" lon="9.706665292400434">
      <ele>2036.5</ele></trkpt>
      <trkpt lat="46.77414316560181" lon="9.706671895685126">
      <ele>2038.0</ele></trkpt>
      <trkpt lat="46.77414487631986" lon="9.706712166943381">
      <ele>2039.4</ele></trkpt>
      <trkpt lat="46.77418280481605" lon="9.706761246138349">
      <ele>2040.9</ele></trkpt>
      <trkpt lat="46.7742291551735" lon="9.706828965568846">
      <ele>2042.3</ele></trkpt>
      <trkpt lat="46.77428230794093" lon="9.706869556413906">
      <ele>2043.8</ele></trkpt>
      <trkpt lat="46.774307204499976" lon="9.706879734561243">
      <ele>2045.3</ele></trkpt>
      <trkpt lat="46.77433858538395" lon="9.706879248531468">
      <ele>2046.7</ele></trkpt>
      <trkpt lat="46.77436119090722" lon="9.706878366740789">
      <ele>2048.2</ele></trkpt>
      <trkpt lat="46.77436380876002" lon="9.706880677541257">
      <ele>2049.7</ele></trkpt>
      <trkpt lat="46.774369821951865" lon="9.706886026108087">
      <ele>2051.1</ele></trkpt>
      <trkpt lat="46.77429864337918" lon="9.706994470661868">
      <ele>2052.6</ele></trkpt>
      <trkpt lat="46.774265021689416" lon="9.707031642855661">
      <ele>2054.1</ele></trkpt>
      <trkpt lat="46.774219088264005" lon="9.707082442842811">
      <ele>2055.5</ele></trkpt>
      <trkpt lat="46.77413447957411" lon="9.707172022602855">
      <ele>2057.0</ele></trkpt>
      <trkpt lat="46.774062703666225" lon="9.70724756402523">
      <ele>2058.6</ele></trkpt>
      <trkpt lat="46.774042660060246" lon="9.70730881954794">
      <ele>2060.2</ele></trkpt>
      <trkpt lat="46.774008008460655" lon="9.707347546000868">
      <ele>2061.9</ele></trkpt>
      <trkpt lat="46.773981714688404" lon="9.70738684713377">
      <ele>2063.5</ele></trkpt>
      <trkpt lat="46.77396403686416" lon="9.707413281744616">
      <ele>2065.1</ele></trkpt>
      <trkpt lat="46.77384753878567" lon="9.70752891909841">
      <ele>2066.8</ele></trkpt>
      <trkpt lat="46.773835067313186" lon="9.707541072987206">
      <ele>2068.4</ele></trkpt>
      <trkpt lat="46.773754117186925" lon="9.707619973162576">
      <ele>2070.0</ele></trkpt>
      <trkpt lat="46.773723542696835" lon="9.707654142456974">
      <ele>2071.6</ele></trkpt>
      <trkpt lat="46.77363603360115" lon="9.707751981267414">
      <ele>2073.2</ele></trkpt>
      <trkpt lat="46.773475238221195" lon="9.707885869903416">
      <ele>2074.9</ele></trkpt>
      <trkpt lat="46.77344686261509" lon="9.707924860007493">
      <ele>2076.5</ele></trkpt>
      <trkpt lat="46.77343717985086" lon="9.70797011275368">
      <ele>2078.1</ele></trkpt>
      <trkpt lat="46.773434564463486" lon="9.70800661233117">
      <ele>2079.8</ele></trkpt>
      <trkpt lat="46.773431960917854" lon="9.708042968323117">
      <ele>2081.4</ele></trkpt>
      <trkpt lat="46.773422847753814" lon="9.708122942451315">
      <ele>2083.0</ele></trkpt>
      <trkpt lat="46.77338649597888" lon="9.708148039566957">
      <ele>2084.6</ele></trkpt>
      <trkpt lat="46.773365411278746" lon="9.708207770028048">
      <ele>2086.2</ele></trkpt>
      <trkpt lat="46.77334328624675" lon="9.708228842853451">
      <ele>2087.9</ele></trkpt>
      <trkpt lat="46.77330139992216" lon="9.708243529282193">
      <ele>2089.5</ele></trkpt>
      <trkpt lat="46.77320990541894" lon="9.708297371678961">
      <ele>2090.7</ele></trkpt>
      <trkpt lat="46.773162505805665" lon="9.708317326953551">
      <ele>2091.9</ele></trkpt>
      <trkpt lat="46.7731264790963" lon="9.708310228956051">
      <ele>2093.1</ele></trkpt>
      <trkpt lat="46.773086252450504" lon="9.708274478444245">
      <ele>2094.3</ele></trkpt>
      <trkpt lat="46.773038343058204" lon="9.708255798677985">
      <ele>2095.6</ele></trkpt>
      <trkpt lat="46.77302218803076" lon="9.70827895667349">
      <ele>2096.8</ele></trkpt>
      <trkpt lat="46.77303499453301" lon="9.708362211538093">
      <ele>2098.0</ele></trkpt>
      <trkpt lat="46.77305166253282" lon="9.708493398375502">
      <ele>2099.2</ele></trkpt>
      <trkpt lat="46.77306004269768" lon="9.708616861709952">
      <ele>2100.4</ele></trkpt>
      <trkpt lat="46.77303147514602" lon="9.708716631858653">
      <ele>2101.6</ele></trkpt>
      <trkpt lat="46.77299367103631" lon="9.70879574967232">
      <ele>2102.8</ele></trkpt>
      <trkpt lat="46.772977343086275" lon="9.708886879868164">
      <ele>2104.0</ele></trkpt>
      <trkpt lat="46.77293289332799" lon="9.708936338121108">
      <ele>2105.2</ele></trkpt>
      <trkpt lat="46.77288783247821" lon="9.708956338923592">
      <ele>2106.4</ele></trkpt>
      <trkpt lat="46.77287513643831" lon="9.70898701672584">
      <ele>2107.6</ele></trkpt>
      <trkpt lat="46.77288288573581" lon="9.709022263118593">
      <ele>2108.9</ele></trkpt>
      <trkpt lat="46.772923109926325" lon="9.709062650719996">
      <ele>2110.1</ele></trkpt>
      <trkpt lat="46.77288597100929" lon="9.709108762571029">
      <ele>2111.3</ele></trkpt>
      <trkpt lat="46.77286556316436" lon="9.709162940831131">
      <ele>2112.5</ele></trkpt>
      <trkpt lat="46.77279163199611" lon="9.709178004503864">
      <ele>2113.7</ele></trkpt>
      <trkpt lat="46.77272873624252" lon="9.709184351541127">
      <ele>2114.9</ele></trkpt>
      <trkpt lat="46.772695284812215" lon="9.709226951116275">
      <ele>2116.2</ele></trkpt>
      <trkpt lat="46.772677067242796" lon="9.709292263201567">
      <ele>2117.4</ele></trkpt>
      <trkpt lat="46.7726608207756" lon="9.70937972868681">
      <ele>2118.6</ele></trkpt>
      <trkpt lat="46.77265973529739" lon="9.709441990713525">
      <ele>2119.9</ele></trkpt>
      <trkpt lat="46.77266814512528" lon="9.709493336289716">
      <ele>2121.1</ele></trkpt>
      <trkpt lat="46.772672221199585" lon="9.709532723943747">
      <ele>2122.3</ele></trkpt>
      <trkpt lat="46.77264963132049" lon="9.70957579431227">
      <ele>2123.6</ele></trkpt>
      <trkpt lat="46.77267507840606" lon="9.709630215917649">
      <ele>2124.8</ele></trkpt>
      <trkpt lat="46.772669145605356" lon="9.709685069603614">
      <ele>2126.1</ele></trkpt>
      <trkpt lat="46.772636433530224" lon="9.709690946671223">
      <ele>2127.3</ele></trkpt>
      <trkpt lat="46.772610302098634" lon="9.70973018704512">
      <ele>2128.5</ele></trkpt>
      <trkpt lat="46.772618069633694" lon="9.709763600413574">
      <ele>2129.8</ele></trkpt>
      <trkpt lat="46.77263995641172" lon="9.709816038214528">
      <ele>2131.0</ele></trkpt>
      <trkpt lat="46.77264033981806" lon="9.709856475192893">
      <ele>2132.2</ele></trkpt>
      <trkpt lat="46.772602735553924" lon="9.709865800234367">
      <ele>2133.5</ele></trkpt>
      <trkpt lat="46.772556277620914" lon="9.709894949196777">
      <ele>2134.7</ele></trkpt>
      <trkpt lat="46.772529872442824" lon="9.709947040204405">
      <ele>2135.9</ele></trkpt>
      <trkpt lat="46.77252482475635" lon="9.710018460837757">
      <ele>2137.2</ele></trkpt>
      <trkpt lat="46.772527069988605" lon="9.710086534647772">
      <ele>2138.4</ele></trkpt>
      <trkpt lat="46.772506068079366" lon="9.710170092360563">
      <ele>2140.1</ele></trkpt>
      <trkpt lat="46.77245994729999" lon="9.710302140666549">
      <ele>2141.7</ele></trkpt>
      <trkpt lat="46.772443736778996" lon="9.710387760213656">
      <ele>2143.4</ele></trkpt>
      <trkpt lat="46.772443452941225" lon="9.71052185947577">
      <ele>2145.1</ele></trkpt>
      <trkpt lat="46.772485584314296" lon="9.710527435026238">
      <ele>2146.7</ele></trkpt>
      <trkpt lat="46.77254167150258" lon="9.710559337019966">
      <ele>2148.4</ele></trkpt>
      <trkpt lat="46.77257605357055" lon="9.71059028423304">
      <ele>2150.1</ele></trkpt>
      <trkpt lat="46.77258032510706" lon="9.710618022843">
      <ele>2151.7</ele></trkpt>
      <trkpt lat="46.772543249758236" lon="9.710660455467014">
      <ele>2153.4</ele></trkpt>
      <trkpt lat="46.772524300484136" lon="9.710762489320604">
      <ele>2155.1</ele></trkpt>
      <trkpt lat="46.77252539323305" lon="9.710872166523107">
      <ele>2156.7</ele></trkpt>
      <trkpt lat="46.77249564121763" lon="9.710969854390827">
      <ele>2158.4</ele></trkpt>
      <trkpt lat="46.77245337835175" lon="9.711114652053135">
      <ele>2160.0</ele></trkpt>
      <trkpt lat="46.772429862903564" lon="9.711256625449602">
      <ele>2161.7</ele></trkpt>
      <trkpt lat="46.77239170903632" lon="9.711366781436492">
      <ele>2163.4</ele></trkpt>
      <trkpt lat="46.7723540391243" lon="9.711515452899476">
      <ele>2165.0</ele></trkpt>
      <trkpt lat="46.77231925482764" lon="9.7116330856663">
      <ele>2166.7</ele></trkpt>
      <trkpt lat="46.77228098190345" lon="9.711750557958332">
      <ele>2168.4</ele></trkpt>
      <trkpt lat="46.77223408953297" lon="9.711825451338084">
      <ele>2170.0</ele></trkpt>
      <trkpt lat="46.772242535689514" lon="9.711877178302728">
      <ele>2171.7</ele></trkpt>
      <trkpt lat="46.772206244924085" lon="9.711947070198399">
      <ele>2174.7</ele></trkpt>
      <trkpt lat="46.77216286715262" lon="9.7120881387642">
      <ele>2177.7</ele></trkpt>
      <trkpt lat="46.77213550529368" lon="9.712250119596861">
      <ele>2180.7</ele></trkpt>
      <trkpt lat="46.77212313857324" lon="9.712355940319245">
      <ele>2183.8</ele></trkpt>
      <trkpt lat="46.772078738867066" lon="9.712421782694769">
      <ele>2186.8</ele></trkpt>
      <trkpt lat="46.77200377085629" lon="9.71269895403594">
      <ele>2189.8</ele></trkpt>
      <trkpt lat="46.77195908394499" lon="9.712915174790462">
      <ele>2192.8</ele></trkpt>
      <trkpt lat="46.771905903636885" lon="9.713149347492628">
      <ele>2195.8</ele></trkpt>
      <trkpt lat="46.77185270688791" lon="9.713317479196066">
      <ele>2198.8</ele></trkpt>
      <trkpt lat="46.77180936128186" lon="9.713524586972268">
      <ele>2201.8</ele></trkpt>
      <trkpt lat="46.771760482430494" lon="9.71371309741424">
      <ele>2204.9</ele></trkpt>
      <trkpt lat="46.771728642417614" lon="9.713929872218163">
      <ele>2207.9</ele></trkpt>
      <trkpt lat="46.77169061836547" lon="9.714166569412056">
      <ele>2210.9</ele></trkpt>
      <trkpt lat="46.771682522665145" lon="9.714296407542896">
      <ele>2213.9</ele></trkpt>
      <trkpt lat="46.77165730891839" lon="9.71433377152896">
      <ele>2216.9</ele></trkpt>
      <trkpt lat="46.77163116100618" lon="9.714426120292275">
      <ele>2219.9</ele></trkpt>
      <trkpt lat="46.77159343203248" lon="9.714578452594626">
      <ele>2223.0</ele></trkpt>
      <trkpt lat="46.771579409495594" lon="9.714711694308178">
      <ele>2226.0</ele></trkpt>
      <trkpt lat="46.771567962373325" lon="9.714832208865637">
      <ele>2229.0</ele></trkpt>
      <trkpt lat="46.77156512755278" lon="9.714927441685155">
      <ele>2232.0</ele></trkpt>
      <trkpt lat="46.77156347955148" lon="9.715022724656729">
      <ele>2233.6</ele></trkpt>
      <trkpt lat="46.771560360702466" lon="9.7151344487984">
      <ele>2235.1</ele></trkpt>
      <trkpt lat="46.771563677682494" lon="9.7152794909296">
      <ele>2236.7</ele></trkpt>
      <trkpt lat="46.77154341942538" lon="9.715368433748639">
      <ele>2238.2</ele></trkpt>
      <trkpt lat="46.7715568197415" lon="9.715471740004777">
      <ele>2239.8</ele></trkpt>
      <trkpt lat="46.77152978618534" lon="9.715547534213805">
      <ele>2241.4</ele></trkpt>
      <trkpt lat="46.771510724187216" lon="9.715634693753138">
      <ele>2242.9</ele></trkpt>
      <trkpt lat="46.771498583697124" lon="9.715727660053073">
      <ele>2244.5</ele></trkpt>
      <trkpt lat="46.771476051102596" lon="9.715812852150892">
      <ele>2246.0</ele></trkpt>
      <trkpt lat="46.771447220148744" lon="9.715857384079563">
      <ele>2247.6</ele></trkpt>
      <trkpt lat="46.77143574784415" lon="9.71591188386561">
      <ele>2249.2</ele></trkpt>
      <trkpt lat="46.77144422869864" lon="9.715961778549492">
      <ele>2250.7</ele></trkpt>
      <trkpt lat="46.77140920526488" lon="9.71602620614681">
      <ele>2252.3</ele></trkpt>
      <trkpt lat="46.77139368593675" lon="9.716111694531048">
      <ele>2253.8</ele></trkpt>
      <trkpt lat="46.77138463002904" lon="9.716228655251168">
      <ele>2255.4</ele></trkpt>
      <trkpt lat="46.77137773217899" lon="9.71634434501972">
      <ele>2257.0</ele></trkpt>
      <trkpt lat="46.7713541181362" lon="9.716485065103557">
      <ele>2258.5</ele></trkpt>
      <trkpt lat="46.77134425418452" lon="9.716574852789146">
      <ele>2260.1</ele></trkpt>
      <trkpt lat="46.77136092802134" lon="9.716610568497849">
      <ele>2261.6</ele></trkpt>
      <trkpt lat="46.771368095703814" lon="9.716717684586115">
      <ele>2263.2</ele></trkpt>
      <trkpt lat="46.77131077572423" lon="9.716805360271774">
      <ele>2264.5</ele></trkpt>
      <trkpt lat="46.77130350720662" lon="9.716880522555693">
      <ele>2265.8</ele></trkpt>
      <trkpt lat="46.77131743847285" lon="9.716938218381205">
      <ele>2267.0</ele></trkpt>
      <trkpt lat="46.771314295271424" lon="9.717039344800945">
      <ele>2268.3</ele></trkpt>
      <trkpt lat="46.77130896034656" lon="9.717134851211052">
      <ele>2269.6</ele></trkpt>
      <trkpt lat="46.77126746889015" lon="9.717300564835934">
      <ele>2270.8</ele></trkpt>
      <trkpt lat="46.77125246612284" lon="9.71735697115906">
      <ele>2272.1</ele></trkpt>
      <trkpt lat="46.77125235875753" lon="9.717421407907027">
      <ele>2273.4</ele></trkpt>
      <trkpt lat="46.77124538347394" lon="9.717481860497875">
      <ele>2274.7</ele></trkpt>
      <trkpt lat="46.77122393801676" lon="9.71757113164038">
      <ele>2275.9</ele></trkpt>
      <trkpt lat="46.77121077711136" lon="9.71765157168203">
      <ele>2277.2</ele></trkpt>
      <trkpt lat="46.771199794486826" lon="9.717857292747786">
      <ele>2278.5</ele></trkpt>
      <trkpt lat="46.771193549656005" lon="9.717998786108446">
      <ele>2279.8</ele></trkpt>
      <trkpt lat="46.77117467177995" lon="9.718075277393">
      <ele>2281.0</ele></trkpt>
      <trkpt lat="46.77116964857776" lon="9.718154227956365">
      <ele>2282.3</ele></trkpt>
      <trkpt lat="46.771162709753156" lon="9.718212835128222">
      <ele>2283.6</ele></trkpt>
      <trkpt lat="46.77113174543152" lon="9.71831457812792">
      <ele>2284.9</ele></trkpt>
      <trkpt lat="46.77112849997252" lon="9.718421214015173">
      <ele>2286.1</ele></trkpt>
      <trkpt lat="46.77109583057068" lon="9.718474043004775">
      <ele>2287.4</ele></trkpt>
      <trkpt lat="46.7710858624357" lon="9.718527963806912">
      <ele>2288.7</ele></trkpt>
      <trkpt lat="46.77105619392553" lon="9.718563460373991">
      <ele>2289.1</ele></trkpt>
      <trkpt lat="46.77103022748745" lon="9.718646999074345">
      <ele>2289.5</ele></trkpt>
      <trkpt lat="46.77099756956453" lon="9.718776293089038">
      <ele>2290.0</ele></trkpt>
      <trkpt lat="46.770961985387444" lon="9.718936740521228">
      <ele>2290.4</ele></trkpt>
      <trkpt lat="46.77097027420896" lon="9.719045737371399">
      <ele>2290.8</ele></trkpt>
      <trkpt lat="46.770963485776335" lon="9.719214817118953">
      <ele>2291.2</ele></trkpt>
      <trkpt lat="46.770930071761846" lon="9.719323816414866">
      <ele>2291.6</ele></trkpt>
      <trkpt lat="46.77092576678532" lon="9.719424879764794">
      <ele>2292.1</ele></trkpt>
      <trkpt lat="46.770902865721716" lon="9.719528822994953">
      <ele>2292.5</ele></trkpt>
      <trkpt lat="46.77091572018563" lon="9.71964169365709">
      <ele>2292.9</ele></trkpt>
      <trkpt lat="46.77090187758851" lon="9.719757074914849">
      <ele>2293.3</ele></trkpt>
      <trkpt lat="46.770892581485036" lon="9.719817415473123">
      <ele>2293.7</ele></trkpt>
      <trkpt lat="46.77089818933682" lon="9.71988580056412">
      <ele>2294.2</ele></trkpt>
      <trkpt lat="46.770885791385666" lon="9.71998652105294">
      <ele>2294.6</ele></trkpt>
      <trkpt lat="46.770838625057976" lon="9.72014643753523">
      <ele>2295.0</ele></trkpt>
      <trkpt lat="46.77081048293175" lon="9.72021134973487">
      <ele>2295.4</ele></trkpt>
      <trkpt lat="46.770784079370635" lon="9.720251410546812">
      <ele>2295.8</ele></trkpt>
      <trkpt lat="46.77076397946936" lon="9.720313323386536">
      <ele>2296.3</ele></trkpt>
      <trkpt lat="46.77074530675333" lon="9.720371367325612">
      <ele>2296.7</ele></trkpt>
      <trkpt lat="46.770734334683" lon="9.720418290048352">
      <ele>2297.1</ele></trkpt>
      <trkpt lat="46.77074476404769" lon="9.720486761396016">
      <ele>2298.3</ele></trkpt>
      <trkpt lat="46.770753345046025" lon="9.7205756654904">
      <ele>2299.6</ele></trkpt>
      <trkpt lat="46.770777437732775" lon="9.720651212242906">
      <ele>2300.8</ele></trkpt>
      <trkpt lat="46.77077911677222" lon="9.720702272819114">
      <ele>2302.0</ele></trkpt>
      <trkpt lat="46.77077334698899" lon="9.720788316163379">
      <ele>2303.3</ele></trkpt>
      <trkpt lat="46.77077396818563" lon="9.720892286018334">
      <ele>2304.5</ele></trkpt>
      <trkpt lat="46.77079350496087" lon="9.721000344931987">
      <ele>2305.7</ele></trkpt>
      <trkpt lat="46.77079982088188" lon="9.721040482053859">
      <ele>2307.0</ele></trkpt>
      <trkpt lat="46.770805538778575" lon="9.721108727773991">
      <ele>2308.2</ele></trkpt>
      <trkpt lat="46.77079484343042" lon="9.721229559533723">
      <ele>2309.4</ele></trkpt>
      <trkpt lat="46.77078264585944" lon="9.721308048119797">
      <ele>2310.7</ele></trkpt>
      <trkpt lat="46.77079234063989" lon="9.721413227727185">
      <ele>2311.9</ele></trkpt>
      <trkpt lat="46.7708033050124" lon="9.721514767625145">
      <ele>2313.2</ele></trkpt>
      <trkpt lat="46.77079714860897" lon="9.721703808232753">
      <ele>2314.4</ele></trkpt>
      <trkpt lat="46.77075396038421" lon="9.721795639441527">
      <ele>2315.6</ele></trkpt>
      <trkpt lat="46.770750649740265" lon="9.721843279601064">
      <ele>2316.9</ele></trkpt>
      <trkpt lat="46.77074382428752" lon="9.721888923983235">
      <ele>2318.1</ele></trkpt>
      <trkpt lat="46.770718266363325" lon="9.721985208994418">
      <ele>2319.3</ele></trkpt>
      <trkpt lat="46.77072309949477" lon="9.722038721588897">
      <ele>2320.6</ele></trkpt>
      <trkpt lat="46.77074921621889" lon="9.722091315907399">
      <ele>2321.8</ele></trkpt>
      <trkpt lat="46.77074693649737" lon="9.722146347578533">
      <ele>2323.1</ele></trkpt>
      <trkpt lat="46.77072365812386" lon="9.722187600832209">
      <ele>2324.4</ele></trkpt>
      <trkpt lat="46.77067851491721" lon="9.722200343287035">
      <ele>2325.8</ele></trkpt>
      <trkpt lat="46.770670153114764" lon="9.722264298513014">
      <ele>2327.1</ele></trkpt>
      <trkpt lat="46.77062788525012" lon="9.722369030033484">
      <ele>2328.4</ele></trkpt>
      <trkpt lat="46.77060292342401" lon="9.722435948685224">
      <ele>2329.7</ele></trkpt>
      <trkpt lat="46.77061590017528" lon="9.722495333741172">
      <ele>2331.0</ele></trkpt>
      <trkpt lat="46.7706351153458" lon="9.722538427861261">
      <ele>2332.4</ele></trkpt>
      <trkpt lat="46.77060916158862" lon="9.722654918444915">
      <ele>2333.7</ele></trkpt>
      <trkpt lat="46.77058555479017" lon="9.722771495349905">
      <ele>2335.0</ele></trkpt>
      <trkpt lat="46.77061196498001" lon="9.722809406736756">
      <ele>2336.3</ele></trkpt>
      <trkpt lat="46.77060478073983" lon="9.722873411742125">
      <ele>2337.6</ele></trkpt>
      <trkpt lat="46.77060138017419" lon="9.722983536997603">
      <ele>2339.0</ele></trkpt>
      <trkpt lat="46.77057069662649" lon="9.723099813612384">
      <ele>2340.3</ele></trkpt>
      <trkpt lat="46.770569704318014" lon="9.723149398654995">
      <ele>2341.6</ele></trkpt>
      <trkpt lat="46.77055410991323" lon="9.72322038155986">
      <ele>2342.9</ele></trkpt>
      <trkpt lat="46.77053781528397" lon="9.723267444559617">
      <ele>2344.2</ele></trkpt>
      <trkpt lat="46.77051829947518" lon="9.723297841636315">
      <ele>2345.6</ele></trkpt>
      <trkpt lat="46.77050911737133" lon="9.72334339879697">
      <ele>2346.9</ele></trkpt>
      <trkpt lat="46.77052250917333" lon="9.723441374247457">
      <ele>2348.2</ele></trkpt>
      <trkpt lat="46.77052176879789" lon="9.723595712044059">
      <ele>2349.7</ele></trkpt>
      <trkpt lat="46.770498243116144" lon="9.7237086375791">
      <ele>2351.3</ele></trkpt>
      <trkpt lat="46.77051753144045" lon="9.72374805471474">
      <ele>2352.8</ele></trkpt>
      <trkpt lat="46.77053914900102" lon="9.72384823915696">
      <ele>2354.4</ele></trkpt>
      <trkpt lat="46.77053836930166" lon="9.723945626630739">
      <ele>2355.9</ele></trkpt>
      <trkpt lat="46.77055980302803" lon="9.724054984877244">
      <ele>2357.5</ele></trkpt>
      <trkpt lat="46.77055442236949" lon="9.724146636842805">
      <ele>2359.0</ele></trkpt>
      <trkpt lat="46.77053553295173" lon="9.724204617722467">
      <ele>2360.6</ele></trkpt>
      <trkpt lat="46.77050463512009" lon="9.724273104139735">
      <ele>2362.1</ele></trkpt>
      <trkpt lat="46.77049607048819" lon="9.724346231748237">
      <ele>2363.6</ele></trkpt>
      <trkpt lat="46.770498179065186" lon="9.724418004796723">
      <ele>2365.2</ele></trkpt>
      <trkpt lat="46.77051075943611" lon="9.724497583154132">
      <ele>2366.7</ele></trkpt>
      <trkpt lat="46.77052177645774" lon="9.724595458150787">
      <ele>2368.3</ele></trkpt>
      <trkpt lat="46.77051780266086" lon="9.724676154577281">
      <ele>2369.8</ele></trkpt>
      <trkpt lat="46.77051043365683" lon="9.724749332896941">
      <ele>2371.4</ele></trkpt>
      <trkpt lat="46.77048943623985" lon="9.72479437523995">
      <ele>2372.9</ele></trkpt>
      <trkpt lat="46.77049552885756" lon="9.724844247830175">
      <ele>2374.5</ele></trkpt>
      <trkpt lat="46.77047111728973" lon="9.724883617992061">
      <ele>2376.0</ele></trkpt>
      <trkpt lat="46.770455577210996" lon="9.724950935269673">
      <ele>2377.6</ele></trkpt>
      <trkpt lat="46.770438989173364" lon="9.72501306064464">
      <ele>2379.1</ele></trkpt>
      <trkpt lat="46.770431912877505" lon="9.725099021465306">
      <ele>2379.9</ele></trkpt>
      <trkpt lat="46.770410959099735" lon="9.725176023746409">
      <ele>2380.7</ele></trkpt>
      <trkpt lat="46.7703792344819" lon="9.72522195951408">
      <ele>2381.6</ele></trkpt>
      <trkpt lat="46.770372376014826" lon="9.725275473494897">
      <ele>2382.4</ele></trkpt>
      <trkpt lat="46.77038490739608" lon="9.725338599162777">
      <ele>2383.2</ele></trkpt>
      <trkpt lat="46.77040026888061" lon="9.725390725105372">
      <ele>2384.0</ele></trkpt>
      <trkpt lat="46.770400362759815" lon="9.725428266970743">
      <ele>2384.8</ele></trkpt>
      <trkpt lat="46.77038548745976" lon="9.725466875992469">
      <ele>2385.7</ele></trkpt>
      <trkpt lat="46.77038299978752" lon="9.72547335849316">
      <ele>2386.5</ele></trkpt>
      <trkpt lat="46.7703488095862" lon="9.72550310547853">
      <ele>2387.3</ele></trkpt>
      <trkpt lat="46.770353098186405" lon="9.725584165514046">
      <ele>2388.1</ele></trkpt>
      <trkpt lat="46.77034881179847" lon="9.725679530830497">
      <ele>2388.9</ele></trkpt>
      <trkpt lat="46.77034840764945" lon="9.725758544854308">
      <ele>2389.8</ele></trkpt>
      <trkpt lat="46.77035324861137" lon="9.725870866257967">
      <ele>2390.6</ele></trkpt>
      <trkpt lat="46.77033417424263" lon="9.72593803304327">
      <ele>2391.4</ele></trkpt>
      <trkpt lat="46.77032458673948" lon="9.726003768986992">
      <ele>2392.2</ele></trkpt>
      <trkpt lat="46.77029728596691" lon="9.726068739570003">
      <ele>2393.0</ele></trkpt>
      <trkpt lat="46.77028445956109" lon="9.726104789641749">
      <ele>2393.9</ele></trkpt>
      <trkpt lat="46.7702767918433" lon="9.726156003175374">
      <ele>2394.7</ele></trkpt>
      <trkpt lat="46.77028387088515" lon="9.726207816798286">
      <ele>2395.5</ele></trkpt>
      <trkpt lat="46.77033291708366" lon="9.726353305897149">
      <ele>2396.5</ele></trkpt>
      <trkpt lat="46.7703675070022" lon="9.726454055237589">
      <ele>2397.6</ele></trkpt>
      <trkpt lat="46.770401553467444" lon="9.726523543705705">
      <ele>2398.6</ele></trkpt>
      <trkpt lat="46.77041983821013" lon="9.72667135476816">
      <ele>2399.6</ele></trkpt>
      <trkpt lat="46.77041818214889" lon="9.726812791604631">
      <ele>2400.7</ele></trkpt>
      <trkpt lat="46.770408704378745" lon="9.726931839673227">
      <ele>2401.7</ele></trkpt>
      <trkpt lat="46.77038812940549" lon="9.727015471672095">
      <ele>2402.7</ele></trkpt>
      <trkpt lat="46.77037221999587" lon="9.727101148604483">
      <ele>2403.7</ele></trkpt>
      <trkpt lat="46.77036503308538" lon="9.727165165838748">
      <ele>2404.8</ele></trkpt>
      <trkpt lat="46.7703413480727" lon="9.727226609101045">
      <ele>2405.8</ele></trkpt>
      <trkpt lat="46.77030119141181" lon="9.72728550565737">
      <ele>2406.8</ele></trkpt>
      <trkpt lat="46.77026802840356" lon="9.72734837973164">
      <ele>2407.9</ele></trkpt>
      <trkpt lat="46.770259179571454" lon="9.727402817315614">
      <ele>2408.9</ele></trkpt>
      <trkpt lat="46.77026429478262" lon="9.727441685785333">
      <ele>2409.9</ele></trkpt>
      <trkpt lat="46.770291142327814" lon="9.727500796772384">
      <ele>2410.9</ele></trkpt>
      <trkpt lat="46.770314173984936" lon="9.727580112499673">
      <ele>2412.0</ele></trkpt>
      <trkpt lat="46.77034392301611" lon="9.727686157927996">
      <ele>2413.0</ele></trkpt>
      <trkpt lat="46.770349388229356" lon="9.727767255104313">
      <ele>2414.0</ele></trkpt>
      <trkpt lat="46.77036446929263" lon="9.727839592620214">
      <ele>2415.1</ele></trkpt>
      <trkpt lat="46.77038725217074" lon="9.727939828104867">
      <ele>2416.1</ele></trkpt>
      <trkpt lat="46.77039935163043" lon="9.728043263835135">
      <ele>2423.2</ele></trkpt>
      <trkpt lat="46.77039935163043" lon="9.728043263835135">
      <ele>2430.3</ele></trkpt>
      <trkpt lat="46.77053184225164" lon="9.72784974084005">
      <ele>2437.4</ele></trkpt>
      <trkpt lat="46.770827953613775" lon="9.727668478922208">
      <ele>2444.5</ele></trkpt>
      <trkpt lat="46.7710490948659" lon="9.727680496550375">
      <ele>2451.6</ele></trkpt>
      <trkpt lat="46.771140370165455" lon="9.727751174614303">
      <ele>2458.6</ele></trkpt>
      <trkpt lat="46.77139928158682" lon="9.727629889416377">
      <ele>2465.7</ele></trkpt>
      <trkpt lat="46.77157721387612" lon="9.727328339464307">
      <ele>2472.8</ele></trkpt>
      <trkpt lat="46.77154001207056" lon="9.727208877206223">
      <ele>2479.9</ele></trkpt>
      <trkpt lat="46.77170405775599" lon="9.727061291325166">
      <ele>2487.0</ele></trkpt>
      <trkpt lat="46.77180224005052" lon="9.726832318352534">
      <ele>2494.1</ele></trkpt>
      <trkpt lat="46.77208512127444" lon="9.726457942959463">
      <ele>2501.2</ele></trkpt>
      <trkpt lat="46.772322481348844" lon="9.726199513560932">
      <ele>2508.3</ele></trkpt>
      <trkpt lat="46.772351988013305" lon="9.725849736782601">
      <ele>2515.4</ele></trkpt>
      <trkpt lat="46.77268089320018" lon="9.725693427127624">
      <ele>2522.4</ele></trkpt>
      <trkpt lat="46.77291561767132" lon="9.725723696484387">
      <ele>2529.5</ele></trkpt>
      <trkpt lat="46.77315034212849" lon="9.725753966104703">
      <ele>2536.6</ele></trkpt>
      <trkpt lat="46.77332599139073" lon="9.725431346017396">
      <ele>2543.7</ele></trkpt>
      <trkpt lat="46.773170546320564" lon="9.725149681211995">
      <ele>2550.8</ele></trkpt>
      <trkpt lat="46.77311353446077" lon="9.725030685904267">
      <ele>2557.9</ele></trkpt>
      <trkpt lat="46.773092472866196" lon="9.724824148387206">
      <ele>2567.8</ele></trkpt>
      <trkpt lat="46.77328921130234" lon="9.724436928995338">
      <ele>2577.7</ele></trkpt>
      <trkpt lat="46.773468686665474" lon="9.72437250470281">
      <ele>2587.5</ele></trkpt>
      <trkpt lat="46.77378639232009" lon="9.724370924510476">
      <ele>2597.4</ele></trkpt>
      <trkpt lat="46.774104097963765" lon="9.7243693442983">
      <ele>2607.3</ele></trkpt>
      <trkpt lat="46.774247554374405" lon="9.724306009952535">
      <ele>2617.2</ele></trkpt>
      <trkpt lat="46.774336579703636" lon="9.72435432327924">
      <ele>2627.1</ele></trkpt>
      <trkpt lat="46.77438274990501" lon="9.724475480136743">
      <ele>2637.0</ele></trkpt>
      <trkpt lat="46.77447223865026" lon="9.724455700597183">
      <ele>2646.8</ele></trkpt>
      <trkpt lat="46.77454061184623" lon="9.724551908098539">
      <ele>2656.7</ele></trkpt>
      <trkpt lat="46.774660074128555" lon="9.724544953821495">
      <ele>2666.6</ele></trkpt>
      <trkpt lat="46.774817977071386" lon="9.724672094535789">
      <ele>2676.5</ele></trkpt>
      <trkpt lat="46.77509186456283" lon="9.724611676438068">
      <ele>2686.4</ele></trkpt>
      <trkpt lat="46.77515360656407" lon="9.724854005248197">
      <ele>2696.3</ele></trkpt>
      <trkpt lat="46.77548388834131" lon="9.724795684173996">
      <ele>2706.1</ele></trkpt>
      <trkpt lat="46.77551628924666" lon="9.725033137048973">
      <ele>2716.0</ele></trkpt>
      <trkpt lat="46.775613212910805" lon="9.725181339859798">
      <ele>2725.9</ele></trkpt>
    </trkseg>
  </trk>
</gpx>