<?xml version="1.0" encoding="UTF-8"?>
<gpx version="1.1" creator="hike-planner" xmlns="http://www.topografix.com/GPX/1/1">
  <metadata><name>Wasserauen -> Kreuzberge</name>
    <desc>Routed from OSM (ODbL); elevations from SwissTopo / Open-Elevation</desc>
  </metadata>
  <wpt lat="47.282938" lon="9.409750">
    <ele>1617.2</ele>
    <name>Wasserauen</name>
  </wpt>
  <wpt lat="47.248169" lon="9.423091">
    <ele>1758.2</ele>
    <name>Seealpsee</name>
  </wpt>
  <wpt lat="47.240439" lon="9.430046">
    <ele>1205.7</ele>
    <name>Kreuzberge</name>
  </wpt>
  <trk>
    <name>Wasserauen -> Kreuzberge</name>
    <trkseg>
      <trkpt lat="47.282938" lon="9.409750">
        <ele>1617.2</ele>
      </trkpt>
      <trkpt lat="47.283656" lon="9.410420">
        <ele>1610.3</ele>
      </trkpt>
      <trkpt lat="47.283901" lon="9.410840">
        <ele>1606.7</ele>
      </trkpt>
      <trkpt lat="47.284450" lon="9.411356">
        <ele>1595.4</ele>
      </trkpt>
      <trkpt lat="47.284647" lon="9.411304">
        <ele>1590.3</ele>
      </trkpt>
      <trkpt lat="47.284808" lon="9.411638">
        <ele>1584.0</ele>
      </trkpt>
      <trkpt lat="47.284931" lon="9.412182">
        <ele>1573.6</ele>
      </trkpt>
      <trkpt lat="47.285072" lon="9.413045">
        <ele>1556.7</ele>
      </trkpt>
      <trkpt lat="47.285168" lon="9.413384">
        <ele>1549.7</ele>
      </trkpt>
      <trkpt lat="47.285222" lon="9.413619">
        <ele>1545.0</ele>
      </trkpt>
      <trkpt lat="47.285658" lon="9.413964">
        <ele>1526.2</ele>
      </trkpt>
      <trkpt lat="47.285646" lon="9.414446">
        <ele>1518.5</ele>
      </trkpt>
      <trkpt lat="47.285448" lon="9.414524">
        <ele>1515.2</ele>
      </trkpt>
      <trkpt lat="47.285288" lon="9.414454">
        <ele>1511.5</ele>
      </trkpt>
      <trkpt lat="47.284746" lon="9.414428">
        <ele>1545.6</ele>
      </trkpt>
      <trkpt lat="47.284324" lon="9.415023">
        <ele>1502.2</ele>
      </trkpt>
      <trkpt lat="47.283759" lon="9.415042">
        <ele>1493.2</ele>
      </trkpt>
      <trkpt lat="47.283677" lon="9.414922">
        <ele>1531.0</ele>
      </trkpt>
      <trkpt lat="47.283424" lon="9.414485">
        <ele>1469.5</ele>
      </trkpt>
      <trkpt lat="47.283076" lon="9.413788">
        <ele>1463.8</ele>
      </trkpt>
      <trkpt lat="47.282919" lon="9.413275">
        <ele>1460.2</ele>
      </trkpt>
      <trkpt lat="47.282683" lon="9.413062">
        <ele>1456.2</ele>
      </trkpt>
      <trkpt lat="47.282609" lon="9.412897">
        <ele>1452.7</ele>
      </trkpt>
      <trkpt lat="47.282392" lon="9.412562">
        <ele>1446.3</ele>
      </trkpt>
      <trkpt lat="47.282151" lon="9.412446">
        <ele>1441.5</ele>
      </trkpt>
      <trkpt lat="47.281826" lon="9.412203">
        <ele>1435.0</ele>
      </trkpt>
      <trkpt lat="47.281708" lon="9.411982">
        <ele>1430.1</ele>
      </trkpt>
      <trkpt lat="47.281411" lon="9.411924">
        <ele>1425.6</ele>
      </trkpt>
      <trkpt lat="47.281034" lon="9.411665">
        <ele>1413.7</ele>
      </trkpt>
      <trkpt lat="47.280945" lon="9.411672">
        <ele>1407.0</ele>
      </trkpt>
      <trkpt lat="47.280928" lon="9.411883">
        <ele>1399.9</ele>
      </trkpt>
      <trkpt lat="47.280805" lon="9.411862">
        <ele>1391.0</ele>
      </trkpt>
      <trkpt lat="47.280705" lon="9.411579">
        <ele>1383.5</ele>
      </trkpt>
      <trkpt lat="47.280639" lon="9.411425">
        <ele>1378.6</ele>
      </trkpt>
      <trkpt lat="47.279752" lon="9.411007">
        <ele>1360.9</ele>
      </trkpt>
      <trkpt lat="47.279712" lon="9.410874">
        <ele>1354.8</ele>
      </trkpt>
      <trkpt lat="47.279687" lon="9.410769">
        <ele>1347.5</ele>
      </trkpt>
      <trkpt lat="47.279650" lon="9.410649">
        <ele>1337.9</ele>
      </trkpt>
      <trkpt lat="47.279471" lon="9.410520">
        <ele>1329.8</ele>
      </trkpt>
      <trkpt lat="47.279230" lon="9.410352">
        <ele>1316.2</ele>
      </trkpt>
      <trkpt lat="47.279138" lon="9.410298">
        <ele>1310.7</ele>
      </trkpt>
      <trkpt lat="47.278763" lon="9.410123">
        <ele>1287.0</ele>
      </trkpt>
      <trkpt lat="47.278583" lon="9.410008">
        <ele>1277.2</ele>
      </trkpt>
      <trkpt lat="47.278525" lon="9.410142">
        <ele>1268.0</ele>
      </trkpt>
      <trkpt lat="47.278416" lon="9.410115">
        <ele>1259.3</ele>
      </trkpt>
      <trkpt lat="47.278301" lon="9.410093">
        <ele>1250.1</ele>
      </trkpt>
      <trkpt lat="47.278135" lon="9.410114">
        <ele>1239.5</ele>
      </trkpt>
      <trkpt lat="47.277990" lon="9.409820">
        <ele>1236.1</ele>
      </trkpt>
      <trkpt lat="47.277679" lon="9.409424">
        <ele>1229.1</ele>
      </trkpt>
      <trkpt lat="47.277411" lon="9.408849">
        <ele>1220.7</ele>
      </trkpt>
      <trkpt lat="47.277270" lon="9.408751">
        <ele>1211.6</ele>
      </trkpt>
      <trkpt lat="47.277112" lon="9.408541">
        <ele>1207.7</ele>
      </trkpt>
      <trkpt lat="47.276914" lon="9.408138">
        <ele>1203.0</ele>
      </trkpt>
      <trkpt lat="47.276786" lon="9.408267">
        <ele>1193.7</ele>
      </trkpt>
      <trkpt lat="47.276737" lon="9.408501">
        <ele>1181.3</ele>
      </trkpt>
      <trkpt lat="47.276431" lon="9.408407">
        <ele>1172.9</ele>
      </trkpt>
      <trkpt lat="47.276331" lon="9.408257">
        <ele>1168.0</ele>
      </trkpt>
      <trkpt lat="47.276038" lon="9.408114">
        <ele>1161.0</ele>
      </trkpt>
      <trkpt lat="47.275910" lon="9.407792">
        <ele>1157.5</ele>
      </trkpt>
      <trkpt lat="47.275505" lon="9.407353">
        <ele>1151.7</ele>
      </trkpt>
      <trkpt lat="47.275238" lon="9.407181">
        <ele>1146.4</ele>
      </trkpt>
      <trkpt lat="47.274991" lon="9.407077">
        <ele>1141.0</ele>
      </trkpt>
      <trkpt lat="47.274574" lon="9.406765">
        <ele>1136.2</ele>
      </trkpt>
      <trkpt lat="47.274205" lon="9.406636">
        <ele>1129.1</ele>
      </trkpt>
      <trkpt lat="47.273880" lon="9.406354">
        <ele>1125.6</ele>
      </trkpt>
      <trkpt lat="47.273617" lon="9.406102">
        <ele>1121.6</ele>
      </trkpt>
      <trkpt lat="47.273591" lon="9.405888">
        <ele>1121.2</ele>
      </trkpt>
      <trkpt lat="47.273553" lon="9.405876">
        <ele>1120.0</ele>
      </trkpt>
      <trkpt lat="47.273381" lon="9.405781">
        <ele>1115.9</ele>
      </trkpt>
      <trkpt lat="47.273218" lon="9.405618">
        <ele>1113.2</ele>
      </trkpt>
      <trkpt lat="47.273082" lon="9.405611">
        <ele>1113.3</ele>
      </trkpt>
      <trkpt lat="47.272663" lon="9.405504">
        <ele>1124.1</ele>
      </trkpt>
      <trkpt lat="47.272535" lon="9.405288">
        <ele>1126.5</ele>
      </trkpt>
      <trkpt lat="47.272247" lon="9.405136">
        <ele>1129.7</ele>
      </trkpt>
      <trkpt lat="47.271894" lon="9.404898">
        <ele>1131.8</ele>
      </trkpt>
      <trkpt lat="47.271538" lon="9.404590">
        <ele>1130.5</ele>
      </trkpt>
      <trkpt lat="47.271387" lon="9.404322">
        <ele>1129.9</ele>
      </trkpt>
      <trkpt lat="47.270912" lon="9.403510">
        <ele>1130.3</ele>
      </trkpt>
      <trkpt lat="47.270784" lon="9.403711">
        <ele>1129.6</ele>
      </trkpt>
      <trkpt lat="47.270823" lon="9.404040">
        <ele>1130.8</ele>
      </trkpt>
      <trkpt lat="47.270766" lon="9.405175">
        <ele>1130.6</ele>
      </trkpt>
      <trkpt lat="47.270747" lon="9.405770">
        <ele>1134.3</ele>
      </trkpt>
      <trkpt lat="47.270488" lon="9.405988">
        <ele>1136.1</ele>
      </trkpt>
      <trkpt lat="47.270430" lon="9.406519">
        <ele>1140.6</ele>
      </trkpt>
      <trkpt lat="47.270428" lon="9.407286">
        <ele>1152.9</ele>
      </trkpt>
      <trkpt lat="47.270360" lon="9.407904">
        <ele>1154.5</ele>
      </trkpt>
      <trkpt lat="47.270530" lon="9.408810">
        <ele>1161.8</ele>
      </trkpt>
      <trkpt lat="47.270691" lon="9.409280">
        <ele>1165.9</ele>
      </trkpt>
      <trkpt lat="47.270946" lon="9.410134">
        <ele>1177.0</ele>
      </trkpt>
      <trkpt lat="47.271324" lon="9.411118">
        <ele>1181.7</ele>
      </trkpt>
      <trkpt lat="47.271483" lon="9.412172">
        <ele>1179.5</ele>
      </trkpt>
      <trkpt lat="47.271638" lon="9.413355">
        <ele>1183.0</ele>
      </trkpt>
      <trkpt lat="47.271803" lon="9.413752">
        <ele>1186.1</ele>
      </trkpt>
      <trkpt lat="47.272153" lon="9.414376">
        <ele>1189.6</ele>
      </trkpt>
      <trkpt lat="47.272397" lon="9.414718">
        <ele>1191.5</ele>
      </trkpt>
      <trkpt lat="47.272559" lon="9.415933">
        <ele>1195.3</ele>
      </trkpt>
      <trkpt lat="47.272771" lon="9.416801">
        <ele>1196.1</ele>
      </trkpt>
      <trkpt lat="47.273129" lon="9.417432">
        <ele>1200.8</ele>
      </trkpt>
      <trkpt lat="47.273491" lon="9.418087">
        <ele>1203.9</ele>
      </trkpt>
      <trkpt lat="47.273667" lon="9.418690">
        <ele>1205.9</ele>
      </trkpt>
      <trkpt lat="47.273910" lon="9.419564">
        <ele>1208.2</ele>
      </trkpt>
      <trkpt lat="47.273888" lon="9.420183">
        <ele>1210.0</ele>
      </trkpt>
      <trkpt lat="47.274325" lon="9.420834">
        <ele>1210.5</ele>
      </trkpt>
      <trkpt lat="47.274594" lon="9.421363">
        <ele>1201.5</ele>
      </trkpt>
      <trkpt lat="47.274834" lon="9.421590">
        <ele>1199.0</ele>
      </trkpt>
      <trkpt lat="47.275196" lon="9.422046">
        <ele>1196.1</ele>
      </trkpt>
      <trkpt lat="47.275399" lon="9.422428">
        <ele>1192.8</ele>
      </trkpt>
      <trkpt lat="47.275396" lon="9.422658">
        <ele>1191.3</ele>
      </trkpt>
      <trkpt lat="47.275333" lon="9.422913">
        <ele>1188.7</ele>
      </trkpt>
      <trkpt lat="47.275313" lon="9.423089">
        <ele>1185.2</ele>
      </trkpt>
      <trkpt lat="47.275379" lon="9.423152">
        <ele>1183.3</ele>
      </trkpt>
      <trkpt lat="47.275350" lon="9.423427">
        <ele>1179.3</ele>
      </trkpt>
      <trkpt lat="47.275399" lon="9.423597">
        <ele>1178.0</ele>
      </trkpt>
      <trkpt lat="47.275298" lon="9.423720">
        <ele>1182.5</ele>
      </trkpt>
      <trkpt lat="47.274895" lon="9.423662">
        <ele>1193.6</ele>
      </trkpt>
      <trkpt lat="47.274786" lon="9.423893">
        <ele>1200.4</ele>
      </trkpt>
      <trkpt lat="47.274666" lon="9.423987">
        <ele>1205.6</ele>
      </trkpt>
      <trkpt lat="47.274433" lon="9.423799">
        <ele>1216.3</ele>
      </trkpt>
      <trkpt lat="47.274353" lon="9.423883">
        <ele>1221.6</ele>
      </trkpt>
      <trkpt lat="47.274351" lon="9.424098">
        <ele>1225.9</ele>
      </trkpt>
      <trkpt lat="47.274273" lon="9.424222">
        <ele>1231.7</ele>
      </trkpt>
      <trkpt lat="47.274239" lon="9.424299">
        <ele>1234.0</ele>
      </trkpt>
      <trkpt lat="47.273913" lon="9.424144">
        <ele>1241.7</ele>
      </trkpt>
      <trkpt lat="47.273836" lon="9.424111">
        <ele>1244.1</ele>
      </trkpt>
      <trkpt lat="47.273761" lon="9.424152">
        <ele>1247.5</ele>
      </trkpt>
      <trkpt lat="47.273851" lon="9.424546">
        <ele>1252.2</ele>
      </trkpt>
      <trkpt lat="47.273766" lon="9.424511">
        <ele>1254.8</ele>
      </trkpt>
      <trkpt lat="47.273672" lon="9.424593">
        <ele>1258.9</ele>
      </trkpt>
      <trkpt lat="47.273465" lon="9.424485">
        <ele>1264.3</ele>
      </trkpt>
      <trkpt lat="47.273349" lon="9.424692">
        <ele>1270.9</ele>
      </trkpt>
      <trkpt lat="47.273258" lon="9.424980">
        <ele>1278.6</ele>
      </trkpt>
      <trkpt lat="47.273118" lon="9.424807">
        <ele>1285.2</ele>
      </trkpt>
      <trkpt lat="47.273034" lon="9.424883">
        <ele>1290.9</ele>
      </trkpt>
      <trkpt lat="47.272996" lon="9.425064">
        <ele>1295.2</ele>
      </trkpt>
      <trkpt lat="47.272770" lon="9.424935">
        <ele>1302.7</ele>
      </trkpt>
      <trkpt lat="47.272776" lon="9.425156">
        <ele>1306.3</ele>
      </trkpt>
      <trkpt lat="47.272644" lon="9.425132">
        <ele>1310.9</ele>
      </trkpt>
      <trkpt lat="47.272545" lon="9.425256">
        <ele>1314.6</ele>
      </trkpt>
      <trkpt lat="47.272456" lon="9.425296">
        <ele>1318.0</ele>
      </trkpt>
      <trkpt lat="47.272551" lon="9.425660">
        <ele>1325.5</ele>
      </trkpt>
      <trkpt lat="47.272706" lon="9.425864">
        <ele>1331.6</ele>
      </trkpt>
      <trkpt lat="47.272406" lon="9.425883">
        <ele>1340.1</ele>
      </trkpt>
      <trkpt lat="47.272459" lon="9.426006">
        <ele>1343.4</ele>
      </trkpt>
      <trkpt lat="47.272146" lon="9.425856">
        <ele>1351.9</ele>
      </trkpt>
      <trkpt lat="47.271977" lon="9.425568">
        <ele>1358.6</ele>
      </trkpt>
      <trkpt lat="47.271910" lon="9.425690">
        <ele>1364.0</ele>
      </trkpt>
      <trkpt lat="47.271735" lon="9.425632">
        <ele>1369.1</ele>
      </trkpt>
      <trkpt lat="47.271450" lon="9.425591">
        <ele>1377.8</ele>
      </trkpt>
      <trkpt lat="47.271468" lon="9.425691">
        <ele>1379.9</ele>
      </trkpt>
      <trkpt lat="47.271347" lon="9.425603">
        <ele>1383.2</ele>
      </trkpt>
      <trkpt lat="47.271311" lon="9.425704">
        <ele>1387.1</ele>
      </trkpt>
      <trkpt lat="47.271223" lon="9.425724">
        <ele>1389.9</ele>
      </trkpt>
      <trkpt lat="47.271324" lon="9.425978">
        <ele>1395.6</ele>
      </trkpt>
      <trkpt lat="47.271215" lon="9.426002">
        <ele>1400.5</ele>
      </trkpt>
      <trkpt lat="47.271090" lon="9.426004">
        <ele>1404.0</ele>
      </trkpt>
      <trkpt lat="47.271114" lon="9.426108">
        <ele>1406.8</ele>
      </trkpt>
      <trkpt lat="47.270952" lon="9.426228">
        <ele>1414.2</ele>
      </trkpt>
      <trkpt lat="47.270816" lon="9.426359">
        <ele>1417.2</ele>
      </trkpt>
      <trkpt lat="47.270458" lon="9.426403">
        <ele>1421.6</ele>
      </trkpt>
      <trkpt lat="47.270275" lon="9.426300">
        <ele>1427.0</ele>
      </trkpt>
      <trkpt lat="47.270100" lon="9.426271">
        <ele>1433.0</ele>
      </trkpt>
      <trkpt lat="47.270077" lon="9.425968">
        <ele>1440.5</ele>
      </trkpt>
      <trkpt lat="47.270172" lon="9.425611">
        <ele>1449.2</ele>
      </trkpt>
      <trkpt lat="47.270106" lon="9.425163">
        <ele>1468.0</ele>
      </trkpt>
      <trkpt lat="47.269435" lon="9.424682">
        <ele>1482.6</ele>
      </trkpt>
      <trkpt lat="47.269174" lon="9.424585">
        <ele>1497.7</ele>
      </trkpt>
      <trkpt lat="47.268979" lon="9.424569">
        <ele>1510.7</ele>
      </trkpt>
      <trkpt lat="47.268908" lon="9.424528">
        <ele>1515.8</ele>
      </trkpt>
      <trkpt lat="47.268761" lon="9.424368">
        <ele>1527.1</ele>
      </trkpt>
      <trkpt lat="47.268474" lon="9.424570">
        <ele>1537.1</ele>
      </trkpt>
      <trkpt lat="47.267988" lon="9.424765">
        <ele>1558.6</ele>
      </trkpt>
      <trkpt lat="47.267714" lon="9.424977">
        <ele>1574.3</ele>
      </trkpt>
      <trkpt lat="47.267361" lon="9.424869">
        <ele>1592.2</ele>
      </trkpt>
      <trkpt lat="47.267160" lon="9.424836">
        <ele>1603.3</ele>
      </trkpt>
      <trkpt lat="47.267095" lon="9.424980">
        <ele>1609.4</ele>
      </trkpt>
      <trkpt lat="47.267010" lon="9.425100">
        <ele>1616.6</ele>
      </trkpt>
      <trkpt lat="47.266894" lon="9.425127">
        <ele>1622.4</ele>
      </trkpt>
      <trkpt lat="47.266363" lon="9.424364">
        <ele>1647.5</ele>
      </trkpt>
      <trkpt lat="47.265939" lon="9.423948">
        <ele>1673.9</ele>
      </trkpt>
      <trkpt lat="47.265854" lon="9.423867">
        <ele>1680.4</ele>
      </trkpt>
      <trkpt lat="47.265812" lon="9.423872">
        <ele>1684.0</ele>
      </trkpt>
      <trkpt lat="47.265691" lon="9.423870">
        <ele>1692.0</ele>
      </trkpt>
      <trkpt lat="47.265570" lon="9.423793">
        <ele>1701.9</ele>
      </trkpt>
      <trkpt lat="47.265447" lon="9.423717">
        <ele>1709.5</ele>
      </trkpt>
      <trkpt lat="47.265378" lon="9.423693">
        <ele>1705.1</ele>
      </trkpt>
      <trkpt lat="47.265318" lon="9.423577">
        <ele>1700.7</ele>
      </trkpt>
      <trkpt lat="47.265146" lon="9.423319">
        <ele>1690.3</ele>
      </trkpt>
      <trkpt lat="47.265034" lon="9.423211">
        <ele>1686.2</ele>
      </trkpt>
      <trkpt lat="47.264912" lon="9.423196">
        <ele>1678.3</ele>
      </trkpt>
      <trkpt lat="47.264920" lon="9.423595">
        <ele>1670.3</ele>
      </trkpt>
      <trkpt lat="47.264803" lon="9.423781">
        <ele>1660.3</ele>
      </trkpt>
      <trkpt lat="47.264760" lon="9.423907">
        <ele>1657.7</ele>
      </trkpt>
      <trkpt lat="47.264641" lon="9.423918">
        <ele>1648.9</ele>
      </trkpt>
      <trkpt lat="47.264568" lon="9.423644">
        <ele>1641.7</ele>
      </trkpt>
      <trkpt lat="47.264514" lon="9.423735">
        <ele>1637.5</ele>
      </trkpt>
      <trkpt lat="47.264285" lon="9.424108">
        <ele>1623.9</ele>
      </trkpt>
      <trkpt lat="47.264209" lon="9.423925">
        <ele>1615.3</ele>
      </trkpt>
      <trkpt lat="47.264136" lon="9.423998">
        <ele>1609.7</ele>
      </trkpt>
      <trkpt lat="47.264077" lon="9.424012">
        <ele>1606.2</ele>
      </trkpt>
      <trkpt lat="47.264004" lon="9.424120">
        <ele>1600.8</ele>
      </trkpt>
      <trkpt lat="47.263969" lon="9.424173">
        <ele>1598.8</ele>
      </trkpt>
      <trkpt lat="47.263929" lon="9.424192">
        <ele>1596.9</ele>
      </trkpt>
      <trkpt lat="47.263866" lon="9.424169">
        <ele>1592.4</ele>
      </trkpt>
      <trkpt lat="47.263841" lon="9.424146">
        <ele>1589.1</ele>
      </trkpt>
      <trkpt lat="47.263796" lon="9.424153">
        <ele>1586.7</ele>
      </trkpt>
      <trkpt lat="47.263718" lon="9.424223">
        <ele>1581.9</ele>
      </trkpt>
      <trkpt lat="47.263668" lon="9.424188">
        <ele>1579.7</ele>
      </trkpt>
      <trkpt lat="47.263611" lon="9.424285">
        <ele>1575.2</ele>
      </trkpt>
      <trkpt lat="47.263362" lon="9.424366">
        <ele>1562.1</ele>
      </trkpt>
      <trkpt lat="47.263363" lon="9.424270">
        <ele>1558.6</ele>
      </trkpt>
      <trkpt lat="47.263247" lon="9.424324">
        <ele>1552.6</ele>
      </trkpt>
      <trkpt lat="47.263107" lon="9.424392">
        <ele>1545.4</ele>
      </trkpt>
      <trkpt lat="47.263020" lon="9.424440">
        <ele>1540.6</ele>
      </trkpt>
      <trkpt lat="47.262880" lon="9.424398">
        <ele>1529.0</ele>
      </trkpt>
      <trkpt lat="47.262842" lon="9.424327">
        <ele>1525.6</ele>
      </trkpt>
      <trkpt lat="47.262709" lon="9.424341">
        <ele>1515.7</ele>
      </trkpt>
      <trkpt lat="47.262678" lon="9.424364">
        <ele>1515.2</ele>
      </trkpt>
      <trkpt lat="47.262611" lon="9.424441">
        <ele>1509.5</ele>
      </trkpt>
      <trkpt lat="47.262550" lon="9.424304">
        <ele>1505.1</ele>
      </trkpt>
      <trkpt lat="47.262552" lon="9.424174">
        <ele>1501.8</ele>
      </trkpt>
      <trkpt lat="47.262401" lon="9.424328">
        <ele>1493.8</ele>
      </trkpt>
      <trkpt lat="47.262357" lon="9.424215">
        <ele>1489.7</ele>
      </trkpt>
      <trkpt lat="47.262250" lon="9.424254">
        <ele>1483.6</ele>
      </trkpt>
      <trkpt lat="47.262191" lon="9.424211">
        <ele>1480.5</ele>
      </trkpt>
      <trkpt lat="47.262130" lon="9.424034">
        <ele>1474.3</ele>
      </trkpt>
      <trkpt lat="47.261988" lon="9.424024">
        <ele>1467.2</ele>
      </trkpt>
      <trkpt lat="47.261614" lon="9.423777">
        <ele>1457.5</ele>
      </trkpt>
      <trkpt lat="47.261338" lon="9.423829">
        <ele>1454.3</ele>
      </trkpt>
      <trkpt lat="47.261123" lon="9.423578">
        <ele>1448.0</ele>
      </trkpt>
      <trkpt lat="47.260916" lon="9.423651">
        <ele>1439.3</ele>
      </trkpt>
      <trkpt lat="47.260753" lon="9.423547">
        <ele>1432.4</ele>
      </trkpt>
      <trkpt lat="47.260722" lon="9.423839">
        <ele>1423.2</ele>
      </trkpt>
      <trkpt lat="47.260767" lon="9.423965">
        <ele>1418.8</ele>
      </trkpt>
      <trkpt lat="47.260824" lon="9.424261">
        <ele>1411.8</ele>
      </trkpt>
      <trkpt lat="47.260833" lon="9.424439">
        <ele>1407.2</ele>
      </trkpt>
      <trkpt lat="47.260961" lon="9.424668">
        <ele>1401.9</ele>
      </trkpt>
      <trkpt lat="47.261018" lon="9.425023">
        <ele>1394.8</ele>
      </trkpt>
      <trkpt lat="47.261050" lon="9.425232">
        <ele>1389.2</ele>
      </trkpt>
      <trkpt lat="47.260920" lon="9.425306">
        <ele>1383.1</ele>
      </trkpt>
      <trkpt lat="47.260838" lon="9.425352">
        <ele>1380.5</ele>
      </trkpt>
      <trkpt lat="47.260583" lon="9.425347">
        <ele>1369.6</ele>
      </trkpt>
      <trkpt lat="47.260491" lon="9.425428">
        <ele>1364.4</ele>
      </trkpt>
      <trkpt lat="47.260432" lon="9.425551">
        <ele>1359.7</ele>
      </trkpt>
      <trkpt lat="47.260404" lon="9.425639">
        <ele>1357.1</ele>
      </trkpt>
      <trkpt lat="47.260248" lon="9.425640">
        <ele>1351.1</ele>
      </trkpt>
      <trkpt lat="47.260036" lon="9.425710">
        <ele>1341.9</ele>
      </trkpt>
      <trkpt lat="47.259855" lon="9.425802">
        <ele>1335.2</ele>
      </trkpt>
      <trkpt lat="47.259595" lon="9.425948">
        <ele>1325.1</ele>
      </trkpt>
      <trkpt lat="47.259281" lon="9.425706">
        <ele>1320.5</ele>
      </trkpt>
      <trkpt lat="47.259000" lon="9.425598">
        <ele>1317.3</ele>
      </trkpt>
      <trkpt lat="47.258701" lon="9.425938">
        <ele>1318.3</ele>
      </trkpt>
      <trkpt lat="47.258345" lon="9.425296">
        <ele>1329.4</ele>
      </trkpt>
      <trkpt lat="47.258236" lon="9.425317">
        <ele>1333.6</ele>
      </trkpt>
      <trkpt lat="47.258162" lon="9.425207">
        <ele>1334.6</ele>
      </trkpt>
      <trkpt lat="47.258085" lon="9.425045">
        <ele>1332.4</ele>
      </trkpt>
      <trkpt lat="47.257739" lon="9.424845">
        <ele>1342.2</ele>
      </trkpt>
      <trkpt lat="47.257453" lon="9.424776">
        <ele>1357.6</ele>
      </trkpt>
      <trkpt lat="47.257478" lon="9.424905">
        <ele>1362.4</ele>
      </trkpt>
      <trkpt lat="47.257245" lon="9.424733">
        <ele>1364.4</ele>
      </trkpt>
      <trkpt lat="47.256997" lon="9.424471">
        <ele>1361.3</ele>
      </trkpt>
      <trkpt lat="47.256905" lon="9.424637">
        <ele>1384.1</ele>
      </trkpt>
      <trkpt lat="47.256754" lon="9.424660">
        <ele>1396.3</ele>
      </trkpt>
      <trkpt lat="47.256770" lon="9.424842">
        <ele>1395.1</ele>
      </trkpt>
      <trkpt lat="47.256655" lon="9.424759">
        <ele>1402.8</ele>
      </trkpt>
      <trkpt lat="47.256525" lon="9.424942">
        <ele>1414.0</ele>
      </trkpt>
      <trkpt lat="47.256088" lon="9.424909">
        <ele>1435.9</ele>
      </trkpt>
      <trkpt lat="47.255727" lon="9.424885">
        <ele>1449.6</ele>
      </trkpt>
      <trkpt lat="47.255508" lon="9.424967">
        <ele>1461.8</ele>
      </trkpt>
      <trkpt lat="47.255426" lon="9.424886">
        <ele>1465.5</ele>
      </trkpt>
      <trkpt lat="47.254894" lon="9.424795">
        <ele>1471.9</ele>
      </trkpt>
      <trkpt lat="47.254594" lon="9.424649">
        <ele>1478.5</ele>
      </trkpt>
      <trkpt lat="47.254364" lon="9.424599">
        <ele>1472.6</ele>
      </trkpt>
      <trkpt lat="47.253973" lon="9.424782">
        <ele>1468.5</ele>
      </trkpt>
      <trkpt lat="47.253733" lon="9.424721">
        <ele>1466.5</ele>
      </trkpt>
      <trkpt lat="47.253316" lon="9.424602">
        <ele>1473.7</ele>
      </trkpt>
      <trkpt lat="47.253121" lon="9.424382">
        <ele>1476.7</ele>
      </trkpt>
      <trkpt lat="47.252841" lon="9.424358">
        <ele>1473.5</ele>
      </trkpt>
      <trkpt lat="47.252672" lon="9.424411">
        <ele>1473.5</ele>
      </trkpt>
      <trkpt lat="47.252467" lon="9.424365">
        <ele>1475.1</ele>
      </trkpt>
      <trkpt lat="47.252168" lon="9.424430">
        <ele>1477.4</ele>
      </trkpt>
      <trkpt lat="47.251869" lon="9.424447">
        <ele>1481.5</ele>
      </trkpt>
      <trkpt lat="47.251468" lon="9.424534">
        <ele>1483.1</ele>
      </trkpt>
      <trkpt lat="47.250804" lon="9.424542">
        <ele>1493.2</ele>
      </trkpt>
      <trkpt lat="47.250506" lon="9.424159">
        <ele>1510.6</ele>
      </trkpt>
      <trkpt lat="47.250339" lon="9.424055">
        <ele>1514.9</ele>
      </trkpt>
      <trkpt lat="47.249748" lon="9.424148">
        <ele>1537.3</ele>
      </trkpt>
      <trkpt lat="47.249464" lon="9.424218">
        <ele>1546.3</ele>
      </trkpt>
      <trkpt lat="47.249280" lon="9.424463">
        <ele>1554.0</ele>
      </trkpt>
      <trkpt lat="47.249075" lon="9.424863">
        <ele>1566.7</ele>
      </trkpt>
      <trkpt lat="47.249016" lon="9.424831">
        <ele>1570.4</ele>
      </trkpt>
      <trkpt lat="47.248972" lon="9.424938">
        <ele>1573.5</ele>
      </trkpt>
      <trkpt lat="47.248954" lon="9.425079">
        <ele>1576.7</ele>
      </trkpt>
      <trkpt lat="47.248862" lon="9.425052">
        <ele>1581.1</ele>
      </trkpt>
      <trkpt lat="47.248832" lon="9.425097">
        <ele>1583.6</ele>
      </trkpt>
      <trkpt lat="47.248804" lon="9.425147">
        <ele>1586.2</ele>
      </trkpt>
      <trkpt lat="47.248722" lon="9.425125">
        <ele>1589.4</ele>
      </trkpt>
      <trkpt lat="47.248816" lon="9.425429">
        <ele>1596.1</ele>
      </trkpt>
      <trkpt lat="47.248581" lon="9.425276">
        <ele>1602.5</ele>
      </trkpt>
      <trkpt lat="47.248308" lon="9.424931">
        <ele>1610.4</ele>
      </trkpt>
      <trkpt lat="47.248278" lon="9.425152">
        <ele>1614.4</ele>
      </trkpt>
      <trkpt lat="47.248118" lon="9.424962">
        <ele>1619.6</ele>
      </trkpt>
      <trkpt lat="47.248108" lon="9.425127">
        <ele>1623.7</ele>
      </trkpt>
      <trkpt lat="47.247963" lon="9.425022">
        <ele>1628.7</ele>
      </trkpt>
      <trkpt lat="47.247685" lon="9.424923">
        <ele>1637.8</ele>
      </trkpt>
      <trkpt lat="47.247603" lon="9.424884">
        <ele>1641.5</ele>
      </trkpt>
      <trkpt lat="47.247518" lon="9.424810">
        <ele>1645.2</ele>
      </trkpt>
      <trkpt lat="47.247450" lon="9.424541">
        <ele>1655.5</ele>
      </trkpt>
      <trkpt lat="47.247519" lon="9.424410">
        <ele>1662.1</ele>
      </trkpt>
      <trkpt lat="47.247557" lon="9.424278">
        <ele>1670.2</ele>
      </trkpt>
      <trkpt lat="47.247531" lon="9.424213">
        <ele>1676.1</ele>
      </trkpt>
      <trkpt lat="47.247542" lon="9.423931">
        <ele>1690.4</ele>
      </trkpt>
      <trkpt lat="47.247640" lon="9.423688">
        <ele>1704.7</ele>
      </trkpt>
      <trkpt lat="47.247721" lon="9.423629">
        <ele>1710.6</ele>
      </trkpt>
      <trkpt lat="47.247824" lon="9.423540">
        <ele>1719.3</ele>
      </trkpt>
      <trkpt lat="47.247907" lon="9.423457">
        <ele>1727.0</ele>
      </trkpt>
      <trkpt lat="47.248023" lon="9.423292">
        <ele>1738.9</ele>
      </trkpt>
      <trkpt lat="47.248169" lon="9.423091">
        <ele>1758.2</ele>
      </trkpt>
      <trkpt lat="47.248169" lon="9.423091">
        <ele>1758.2</ele>
      </trkpt>
      <trkpt lat="47.248023" lon="9.423292">
        <ele>1738.9</ele>
      </trkpt>
      <trkpt lat="47.247907" lon="9.423457">
        <ele>1727.0</ele>
      </trkpt>
      <trkpt lat="47.247824" lon="9.423540">
        <ele>1719.3</ele>
      </trkpt>
      <trkpt lat="47.247698" lon="9.423621">
        <ele>1709.8</ele>
      </trkpt>
      <trkpt lat="47.247640" lon="9.423688">
        <ele>1704.7</ele>
      </trkpt>
      <trkpt lat="47.247542" lon="9.423931">
        <ele>1690.4</ele>
      </trkpt>
      <trkpt lat="47.247531" lon="9.424213">
        <ele>1676.1</ele>
      </trkpt>
      <trkpt lat="47.247557" lon="9.424278">
        <ele>1670.2</ele>
      </trkpt>
      <trkpt lat="47.247519" lon="9.424410">
        <ele>1662.1</ele>
      </trkpt>
      <trkpt lat="47.247450" lon="9.424541">
        <ele>1655.5</ele>
      </trkpt>
      <trkpt lat="47.247191" lon="9.424792">
        <ele>1646.8</ele>
      </trkpt>
      <trkpt lat="47.247124" lon="9.424910">
        <ele>1640.2</ele>
      </trkpt>
      <trkpt lat="47.247062" lon="9.424871">
        <ele>1634.9</ele>
      </trkpt>
      <trkpt lat="47.247018" lon="9.424833">
        <ele>1632.6</ele>
      </trkpt>
      <trkpt lat="47.246950" lon="9.424929">
        <ele>1628.2</ele>
      </trkpt>
      <trkpt lat="47.246900" lon="9.424838">
        <ele>1624.4</ele>
      </trkpt>
      <trkpt lat="47.246814" lon="9.424865">
        <ele>1618.6</ele>
      </trkpt>
      <trkpt lat="47.246742" lon="9.424958">
        <ele>1613.9</ele>
      </trkpt>
      <trkpt lat="47.246700" lon="9.424897">
        <ele>1610.7</ele>
      </trkpt>
      <trkpt lat="47.246610" lon="9.425007">
        <ele>1605.1</ele>
      </trkpt>
      <trkpt lat="47.246479" lon="9.425162">
        <ele>1599.7</ele>
      </trkpt>
      <trkpt lat="47.246261" lon="9.425263">
        <ele>1591.3</ele>
      </trkpt>
      <trkpt lat="47.246026" lon="9.425450">
        <ele>1581.0</ele>
      </trkpt>
      <trkpt lat="47.245969" lon="9.425320">
        <ele>1575.8</ele>
      </trkpt>
      <trkpt lat="47.245910" lon="9.425356">
        <ele>1571.7</ele>
      </trkpt>
      <trkpt lat="47.245857" lon="9.425411">
        <ele>1568.8</ele>
      </trkpt>
      <trkpt lat="47.245825" lon="9.425303">
        <ele>1565.6</ele>
      </trkpt>
      <trkpt lat="47.245787" lon="9.425367">
        <ele>1563.3</ele>
      </trkpt>
      <trkpt lat="47.245765" lon="9.425329">
        <ele>1561.5</ele>
      </trkpt>
      <trkpt lat="47.245717" lon="9.425232">
        <ele>1558.2</ele>
      </trkpt>
      <trkpt lat="47.245690" lon="9.425250">
        <ele>1557.3</ele>
      </trkpt>
      <trkpt lat="47.245620" lon="9.425124">
        <ele>1553.4</ele>
      </trkpt>
      <trkpt lat="47.245553" lon="9.425006">
        <ele>1550.5</ele>
      </trkpt>
      <trkpt lat="47.245365" lon="9.425093">
        <ele>1544.9</ele>
      </trkpt>
      <trkpt lat="47.245309" lon="9.425325">
        <ele>1538.8</ele>
      </trkpt>
      <trkpt lat="47.245295" lon="9.425603">
        <ele>1531.0</ele>
      </trkpt>
      <trkpt lat="47.245170" lon="9.425758">
        <ele>1523.9</ele>
      </trkpt>
      <trkpt lat="47.245058" lon="9.426283">
        <ele>1510.6</ele>
      </trkpt>
      <trkpt lat="47.244933" lon="9.426690">
        <ele>1502.2</ele>
      </trkpt>
      <trkpt lat="47.244817" lon="9.427332">
        <ele>1490.8</ele>
      </trkpt>
      <trkpt lat="47.244776" lon="9.427681">
        <ele>1484.3</ele>
      </trkpt>
      <trkpt lat="47.244653" lon="9.427828">
        <ele>1478.3</ele>
      </trkpt>
      <trkpt lat="47.244354" lon="9.428140">
        <ele>1468.8</ele>
      </trkpt>
      <trkpt lat="47.244193" lon="9.428333">
        <ele>1462.7</ele>
      </trkpt>
      <trkpt lat="47.244015" lon="9.428445">
        <ele>1454.4</ele>
      </trkpt>
      <trkpt lat="47.243864" lon="9.428498">
        <ele>1449.0</ele>
      </trkpt>
      <trkpt lat="47.243858" lon="9.428177">
        <ele>1443.0</ele>
      </trkpt>
      <trkpt lat="47.243975" lon="9.427789">
        <ele>1435.3</ele>
      </trkpt>
      <trkpt lat="47.243954" lon="9.427564">
        <ele>1428.6</ele>
      </trkpt>
      <trkpt lat="47.243799" lon="9.427486">
        <ele>1418.7</ele>
      </trkpt>
      <trkpt lat="47.243664" lon="9.427269">
        <ele>1412.1</ele>
      </trkpt>
      <trkpt lat="47.243334" lon="9.427030">
        <ele>1400.5</ele>
      </trkpt>
      <trkpt lat="47.242967" lon="9.426906">
        <ele>1395.6</ele>
      </trkpt>
      <trkpt lat="47.242635" lon="9.426981">
        <ele>1391.2</ele>
      </trkpt>
      <trkpt lat="47.242495" lon="9.427234">
        <ele>1387.6</ele>
      </trkpt>
      <trkpt lat="47.242151" lon="9.427243">
        <ele>1379.5</ele>
      </trkpt>
      <trkpt lat="47.241906" lon="9.427252">
        <ele>1375.1</ele>
      </trkpt>
      <trkpt lat="47.241745" lon="9.427317">
        <ele>1371.2</ele>
      </trkpt>
      <trkpt lat="47.241548" lon="9.427195">
        <ele>1363.9</ele>
      </trkpt>
      <trkpt lat="47.241350" lon="9.427274">
        <ele>1358.0</ele>
      </trkpt>
      <trkpt lat="47.241350" lon="9.427461">
        <ele>1351.3</ele>
      </trkpt>
      <trkpt lat="47.241357" lon="9.427717">
        <ele>1342.8</ele>
      </trkpt>
      <trkpt lat="47.241341" lon="9.427959">
        <ele>1334.2</ele>
      </trkpt>
      <trkpt lat="47.241405" lon="9.428064">
        <ele>1329.9</ele>
      </trkpt>
      <trkpt lat="47.241300" lon="9.428186">
        <ele>1323.1</ele>
      </trkpt>
      <trkpt lat="47.241192" lon="9.428290">
        <ele>1319.4</ele>
      </trkpt>
      <trkpt lat="47.241330" lon="9.428533">
        <ele>1311.3</ele>
      </trkpt>
      <trkpt lat="47.241238" lon="9.428793">
        <ele>1302.5</ele>
      </trkpt>
      <trkpt lat="47.241370" lon="9.428937">
        <ele>1297.3</ele>
      </trkpt>
      <trkpt lat="47.241197" lon="9.429080">
        <ele>1290.8</ele>
      </trkpt>
      <trkpt lat="47.241291" lon="9.429331">
        <ele>1285.1</ele>
      </trkpt>
      <trkpt lat="47.241310" lon="9.429544">
        <ele>1278.1</ele>
      </trkpt>
      <trkpt lat="47.241322" lon="9.429633">
        <ele>1273.1</ele>
      </trkpt>
      <trkpt lat="47.241368" lon="9.429922">
        <ele>1268.7</ele>
      </trkpt>
      <trkpt lat="47.241580" lon="9.430438">
        <ele>1263.5</ele>
      </trkpt>
      <trkpt lat="47.241702" lon="9.430960">
        <ele>1252.5</ele>
      </trkpt>
      <trkpt lat="47.241633" lon="9.431074">
        <ele>1244.1</ele>
      </trkpt>
      <trkpt lat="47.241393" lon="9.430931">
        <ele>1236.9</ele>
      </trkpt>
      <trkpt lat="47.241094" lon="9.430455">
        <ele>1225.6</ele>
      </trkpt>
      <trkpt lat="47.241026" lon="9.430218">
        <ele>1222.3</ele>
      </trkpt>
      <trkpt lat="47.240665" lon="9.430272">
        <ele>1212.6</ele>
      </trkpt>
      <trkpt lat="47.240439" lon="9.430046">
        <ele>1205.7</ele>
      </trkpt>
    </trkseg>
  </trk>
</gpx>
