<?xml version="1.0" encoding="UTF-8"?>
<gpx version="1.1" creator="hike-planner" xmlns="http://www.topografix.com/GPX/1/1">
  <metadata><name>Engi -> Sädelgrat</name>
    <desc>Routed from OSM (ODbL); elevations from SwissTopo / Open-Elevation</desc>
  </metadata>
  <wpt lat="46.772855" lon="8.905124">
    <ele>2441.9</ele>
    <name>Engi</name>
  </wpt>
  <wpt lat="46.772358" lon="8.900519">
    <ele>2486.1</ele>
    <name>Sädelgrat</name>
  </wpt>
  <trk>
    <name>Engi -> Sädelgrat</name>
    <trkseg>
      <trkpt lat="46.772855" lon="8.905124">
        <ele>2441.9</ele>
      </trkpt>
      <trkpt lat="46.772832" lon="8.904889">
        <ele>2442.5</ele>
      </trkpt>
      <trkpt lat="46.772874" lon="8.904597">
        <ele>2438.2</ele>
      </trkpt>
      <trkpt lat="46.772826" lon="8.904060">
        <ele>2441.7</ele>
      </trkpt>
      <trkpt lat="46.772826" lon="8.903691">
        <ele>2442.9</ele>
      </trkpt>
      <trkpt lat="46.772872" lon="8.903430">
        <ele>2442.3</ele>
      </trkpt>
      <trkpt lat="46.772863" lon="8.903219">
        <ele>2443.9</ele>
      </trkpt>
      <trkpt lat="46.772866" lon="8.902906">
        <ele>2445.9</ele>
      </trkpt>
      <trkpt lat="46.772722" lon="8.902227">
        <ele>2455.2</ele>
      </trkpt>
      <trkpt lat="46.772680" lon="8.901653">
        <ele>2457.7</ele>
      </trkpt>
      <trkpt lat="46.772485" lon="8.901017">
        <ele>2474.2</ele>
      </trkpt>
      <trkpt lat="46.772464" lon="8.900951">
        <ele>2475.6</ele>
      </trkpt>
      <trkpt lat="46.772478" lon="8.900874">
        <ele>2476.0</ele>
      </trkpt>
      <trkpt lat="46.772450" lon="8.900806">
        <ele>2478.4</ele>
      </trkpt>
      <trkpt lat="46.772410" lon="8.900698">
        <ele>2480.7</ele>
      </trkpt>
      <trkpt lat="46.772358" lon="8.900519">
        <ele>2486.1</ele>
      </trkpt>
    </trkseg>
  </trk>
</gpx>
