<?xml version='1.0' encoding='utf-8'?>
<gpx xmlns="http://www.topografix.com/GPX/1/1" xmlns:xsi="http://www.w3.org/2001/XMLSchema-instance" xsi:schemaLocation="http://www.topografix.com/GPX/1/1 http://www.topografix.com/GPX/1/1/gpx.xsd" version="1.1" creator="gpx.py -- https://github.com/tkrajina/gpxpy">
  <trk>
    <name>sparrhorn-sparrhoru</name>
    <trkseg>
      <trkpt lat="46.37168567019329" lon="7.97431585598075">
      <ele>2095.9</ele></trkpt>
      <trkpt lat="46.37173580918016" lon="7.974349022977494">
      <ele>2096.1</ele></trkpt>
      <trkpt lat="46.37177298687643" lon="7.974400867815622">
      <ele>2096.2</ele></trkpt>
      <trkpt lat="46.37180598373732" lon="7.974457947977446">
      <ele>2096.4</ele></trkpt>
      <trkpt lat="46.37184166262425" lon="7.974531884855164">
      <ele>2096.6</ele></trkpt>
      <trkpt lat="46.3718669607604" lon="7.974605719414778">
      <ele>2096.8</ele></trkpt>
      <trkpt lat="46.37189881413146" lon="7.974704857539834">
      <ele>2096.9</ele></trkpt>
      <trkpt lat="46.372012786655986" lon="7.9746791967652415">
      <ele>2097.1</ele></trkpt>
      <trkpt lat="46.37210484075777" lon="7.974658310215343">
      <ele>2097.3</ele></trkpt>
      <trkpt lat="46.372147056434386" lon="7.974656777301186">
      <ele>2097.4</ele></trkpt>
      <trkpt lat="46.3721871523259" lon="7.97466788193194">
      <ele>2097.6</ele></trkpt>
      <trkpt lat="46.37222724145388" lon="7.974693737401594">
      <ele>2097.8</ele></trkpt>
      <trkpt lat="46.37226108099209" lon="7.974724768781641">
      <ele>2097.9</ele></trkpt>
      <trkpt lat="46.37228263817495" lon="7.974752637833215">
      <ele>2098.1</ele></trkpt>
      <trkpt lat="46.37232476230182" lon="7.974804714240544">
      <ele>2098.3</ele></trkpt>
      <trkpt lat="46.37237212136168" lon="7.974872139179204">
      <ele>2098.5</ele></trkpt>
      <trkpt lat="46.37242473337713" lon="7.974949194459707">
      <ele>2098.6</ele></trkpt>
      <trkpt lat="46.37246418565395" lon="7.975006976204564">
      <ele>2098.8</ele></trkpt>
      <trkpt lat="46.372495821558424" lon="7.97503981865572">
      <ele>2099.0</ele></trkpt>
      <trkpt lat="46.37253146972033" lon="7.9750612248982895">
      <ele>2099.1</ele></trkpt>
      <trkpt lat="46.3725790277152" lon="7.975086569736662">
      <ele>2099.3</ele></trkpt>
      <trkpt lat="46.37263451063555" lon="7.975115800848755">
      <ele>2099.7</ele></trkpt>
      <trkpt lat="46.3726807100761" lon="7.975148787297111">
      <ele>2100.2</ele></trkpt>
      <trkpt lat="46.372718930385176" lon="7.975187439445725">
      <ele>2100.6</ele></trkpt>
      <trkpt lat="46.37275315669125" lon="7.975229860173915">
      <ele>2101.0</ele></trkpt>
      <trkpt lat="46.37279132266485" lon="7.975279987816309">
      <ele>2101.4</ele></trkpt>
      <trkpt lat="46.37283611829439" lon="7.975330168030155">
      <ele>2101.9</ele></trkpt>
      <trkpt lat="46.372878305578666" lon="7.975368846615434">
      <ele>2102.3</ele></trkpt>
      <trkpt lat="46.372927095165096" lon="7.975415258459843">
      <ele>2102.7</ele></trkpt>
      <trkpt lat="46.37297983372984" lon="7.9754636069088445">
      <ele>2103.1</ele></trkpt>
      <trkpt lat="46.37303123174742" lon="7.975517686688146">
      <ele>2103.6</ele></trkpt>
      <trkpt lat="46.37306678918901" lon="7.975560134022692">
      <ele>2104.0</ele></trkpt>
      <trkpt lat="46.373112870822546" lon="7.97561607192827">
      <ele>2104.4</ele></trkpt>
      <trkpt lat="46.373183967572594" lon="7.975702877232365">
      <ele>2104.8</ele></trkpt>
      <trkpt lat="46.37324854331125" lon="7.975770474257953">
      <ele>2105.2</ele></trkpt>
      <trkpt lat="46.37332503798135" lon="7.975836278803216">
      <ele>2105.7</ele></trkpt>
      <trkpt lat="46.37338571002621" lon="7.975890463996093">
      <ele>2106.1</ele></trkpt>
      <trkpt lat="46.37343313192674" lon="7.97594259474801">
      <ele>2106.5</ele></trkpt>
      <trkpt lat="46.373479249646145" lon="7.975990878670122">
      <ele>2107.0</ele></trkpt>
      <trkpt lat="46.373528075316884" lon="7.976029623898658">
      <ele>2107.4</ele></trkpt>
      <trkpt lat="46.37360331095689" lon="7.976082030082448">
      <ele>2107.8</ele></trkpt>
      <trkpt lat="46.37367985072635" lon="7.976140180872004">
      <ele>2108.7</ele></trkpt>
      <trkpt lat="46.373749742736365" lon="7.97620018956032">
      <ele>2109.6</ele></trkpt>
      <trkpt lat="46.37382097509213" lon="7.97626019867172">
      <ele>2110.5</ele></trkpt>
      <trkpt lat="46.37389086691382" lon="7.976322131192303">
      <ele>2111.5</ele></trkpt>
      <trkpt lat="46.37397792148966" lon="7.976397607473855">
      <ele>2112.4</ele></trkpt>
      <trkpt lat="46.37406761167003" lon="7.976473110092227">
      <ele>2113.3</ele></trkpt>
      <trkpt lat="46.374157356169505" lon="7.976539047822609">
      <ele>2114.2</ele></trkpt>
      <trkpt lat="46.37423782630315" lon="7.976604906922499">
      <ele>2115.1</ele></trkpt>
      <trkpt lat="46.374298498173616" lon="7.976657157352075">
      <ele>2116.0</ele></trkpt>
      <trkpt lat="46.37433673616085" lon="7.976691977812529">
      <ele>2116.9</ele></trkpt>
      <trkpt lat="46.37441731925964" lon="7.97679656925175">
      <ele>2117.9</ele></trkpt>
      <trkpt lat="46.3745001277489" lon="7.976913686094289">
      <ele>2118.8</ele></trkpt>
      <trkpt lat="46.37457464760161" lon="7.977020141634658">
      <ele>2119.7</ele></trkpt>
      <trkpt lat="46.374676089807124" lon="7.977164919464444">
      <ele>2120.6</ele></trkpt>
      <trkpt lat="46.37471816995496" lon="7.977229814631662">
      <ele>2121.5</ele></trkpt>
      <trkpt lat="46.3747513170715" lon="7.9772682244436925">
      <ele>2122.4</ele></trkpt>
      <trkpt lat="46.37480315034597" lon="7.977300568042709">
      <ele>2123.4</ele></trkpt>
      <trkpt lat="46.37485913137713" lon="7.977330873313873">
      <ele>2124.3</ele></trkpt>
      <trkpt lat="46.3749137252169" lon="7.977365349932146">
      <ele>2125.2</ele></trkpt>
      <trkpt lat="46.374976472480654" lon="7.977385896677153">
      <ele>2126.1</ele></trkpt>
      <trkpt lat="46.37502266361616" lon="7.977395881624724">
      <ele>2126.3</ele></trkpt>
      <trkpt lat="46.37507945148184" lon="7.977398368406251">
      <ele>2126.5</ele></trkpt>
      <trkpt lat="46.37513322864719" lon="7.977407817760049">
      <ele>2126.6</ele></trkpt>
      <trkpt lat="46.375184789464896" lon="7.977425550289898">
      <ele>2126.8</ele></trkpt>
      <trkpt lat="46.37523630482971" lon="7.977452848269103">
      <ele>2127.0</ele></trkpt>
      <trkpt lat="46.375282530950024" lon="7.9774800808364335">
      <ele>2127.2</ele></trkpt>
      <trkpt lat="46.37532475373392" lon="7.977513031462404">
      <ele>2127.4</ele></trkpt>
      <trkpt lat="46.37536826253786" lon="7.977551739630637">
      <ele>2127.5</ele></trkpt>
      <trkpt lat="46.375403928363596" lon="7.977571225257254">
      <ele>2127.7</ele></trkpt>
      <trkpt lat="46.37544625110335" lon="7.97758503221546">
      <ele>2127.9</ele></trkpt>
      <trkpt lat="46.37550051100162" lon="7.977593225882654">
      <ele>2128.1</ele></trkpt>
      <trkpt lat="46.37557330143895" lon="7.977601603422108">
      <ele>2128.3</ele></trkpt>
      <trkpt lat="46.375626257171945" lon="7.977605963010002">
      <ele>2128.4</ele></trkpt>
      <trkpt lat="46.375671297409404" lon="7.977602575718063">
      <ele>2128.6</ele></trkpt>
      <trkpt lat="46.37570840372033" lon="7.977597212108709">
      <ele>2128.8</ele></trkpt>
      <trkpt lat="46.37574419684793" lon="7.977589911874116">
      <ele>2129.0</ele></trkpt>
      <trkpt lat="46.375774637222676" lon="7.977592124484161">
      <ele>2129.2</ele></trkpt>
      <trkpt lat="46.37581463499827" lon="7.9776124590937645">
      <ele>2129.3</ele></trkpt>
      <trkpt lat="46.37586109644827" lon="7.977648844487131">
      <ele>2129.5</ele></trkpt>
      <trkpt lat="46.37590863920168" lon="7.977707556972468">
      <ele>2129.7</ele></trkpt>
      <trkpt lat="46.37594849911095" lon="7.9777928377170895">
      <ele>2130.6</ele></trkpt>
      <trkpt lat="46.37599843732872" lon="7.97787369557955">
      <ele>2131.5</ele></trkpt>
      <trkpt lat="46.37606029431279" lon="7.977956582528033">
      <ele>2132.5</ele></trkpt>
      <trkpt lat="46.376131416690235" lon="7.97803574045991">
      <ele>2133.4</ele></trkpt>
      <trkpt lat="46.376198617357154" lon="7.978109114830922">
      <ele>2134.3</ele></trkpt>
      <trkpt lat="46.37625264061746" lon="7.9781651500130675">
      <ele>2135.2</ele></trkpt>
      <trkpt lat="46.37630276962881" lon="7.978207746348858">
      <ele>2136.2</ele></trkpt>
      <trkpt lat="46.37635823350293" lon="7.9782408166972045">
      <ele>2137.1</ele></trkpt>
      <trkpt lat="46.376404523170116" lon="7.978252766210334">
      <ele>2138.0</ele></trkpt>
      <trkpt lat="46.376449545182986" lon="7.978253213455925">
      <ele>2138.9</ele></trkpt>
      <trkpt lat="46.376492004489904" lon="7.9782364136861235">
      <ele>2139.9</ele></trkpt>
      <trkpt lat="46.37653724504813" lon="7.978190930231212">
      <ele>2140.8</ele></trkpt>
      <trkpt lat="46.376577250824646" lon="7.978133930982043">
      <ele>2141.7</ele></trkpt>
      <trkpt lat="46.37661718380341" lon="7.978092228904101">
      <ele>2142.6</ele></trkpt>
      <trkpt lat="46.37665170923015" lon="7.978073439544115">
      <ele>2143.6</ele></trkpt>
      <trkpt lat="46.37668877021553" lon="7.978075718209784">
      <ele>2144.5</ele></trkpt>
      <trkpt lat="46.3767257127096" lon="7.978104796460867">
      <ele>2145.4</ele></trkpt>
      <trkpt lat="46.37674933215227" lon="7.97815093807449">
      <ele>2146.3</ele></trkpt>
      <trkpt lat="46.37676497208459" lon="7.978204681971702">
      <ele>2147.3</ele></trkpt>
      <trkpt lat="46.37678457908963" lon="7.978258439314455">
      <ele>2148.2</ele></trkpt>
      <trkpt lat="46.37681351488693" lon="7.978300825601789">
      <ele>2148.3</ele></trkpt>
      <trkpt lat="46.37684646323012" lon="7.978333672653524">
      <ele>2148.5</ele></trkpt>
      <trkpt lat="46.37688604115284" lon="7.978364700980389">
      <ele>2148.6</ele></trkpt>
      <trkpt lat="46.376930908391934" lon="7.978397666549278">
      <ele>2148.8</ele></trkpt>
      <trkpt lat="46.37697318549985" lon="7.978421040260648">
      <ele>2148.9</ele></trkpt>
      <trkpt lat="46.377026032045364" lon="7.978446442677533">
      <ele>2149.0</ele></trkpt>
      <trkpt lat="46.377076270376875" lon="7.978464163670662">
      <ele>2149.2</ele></trkpt>
      <trkpt lat="46.37711329471387" lon="7.9784779190946455">
      <ele>2149.3</ele></trkpt>
      <trkpt lat="46.37714635227435" lon="7.978487813831303">
      <ele>2149.5</ele></trkpt>
      <trkpt lat="46.37717540645409" lon="7.9785034267139245">
      <ele>2149.6</ele></trkpt>
      <trkpt lat="46.37720219456319" lon="7.978526412709799">
      <ele>2149.7</ele></trkpt>
      <trkpt lat="46.37722313400169" lon="7.978566692361702">
      <ele>2149.9</ele></trkpt>
      <trkpt lat="46.3772413922233" lon="7.978616511612434">
      <ele>2150.0</ele></trkpt>
      <trkpt lat="46.37725282992139" lon="7.978655345117804">
      <ele>2150.2</ele></trkpt>
      <trkpt lat="46.37726190381535" lon="7.978695623865597">
      <ele>2150.3</ele></trkpt>
      <trkpt lat="46.37726959978283" lon="7.978747560761304">
      <ele>2150.4</ele></trkpt>
      <trkpt lat="46.37727735562333" lon="7.9787963658479555">
      <ele>2150.6</ele></trkpt>
      <trkpt lat="46.37728920066402" lon="7.978842209171589">
      <ele>2150.7</ele></trkpt>
      <trkpt lat="46.37731954191556" lon="7.978848229858348">
      <ele>2150.9</ele></trkpt>
      <trkpt lat="46.37735251850293" lon="7.978860008706322">
      <ele>2151.0</ele></trkpt>
      <trkpt lat="46.377399977268645" lon="7.978879574202032">
      <ele>2151.4</ele></trkpt>
      <trkpt lat="46.37745923701446" lon="7.978920235287283">
      <ele>2151.9</ele></trkpt>
      <trkpt lat="46.37752639460503" lon="7.978962885677327">
      <ele>2152.3</ele></trkpt>
      <trkpt lat="46.37758827170543" lon="7.979007407297203">
      <ele>2152.8</ele></trkpt>
      <trkpt lat="46.37763167244163" lon="7.979047923882959">
      <ele>2153.2</ele></trkpt>
      <trkpt lat="46.377680307891886" lon="7.979099943579635">
      <ele>2153.6</ele></trkpt>
      <trkpt lat="46.37771838310573" lon="7.979146113305593">
      <ele>2154.1</ele></trkpt>
      <trkpt lat="46.37776047950811" lon="7.979184719454624">
      <ele>2154.5</ele></trkpt>
      <trkpt lat="46.37780389857032" lon="7.979219491502434">
      <ele>2155.0</ele></trkpt>
      <trkpt lat="46.37784864881816" lon="7.9792543028501655">
      <ele>2155.4</ele></trkpt>
      <trkpt lat="46.37788021207788" lon="7.979285148669534">
      <ele>2155.8</ele></trkpt>
      <trkpt lat="46.37790381410499" lon="7.979319749614149">
      <ele>2156.3</ele></trkpt>
      <trkpt lat="46.3779445123917" lon="7.979313850809841">
      <ele>2156.7</ele></trkpt>
      <trkpt lat="46.37800128212267" lon="7.979320134898785">
      <ele>2157.2</ele></trkpt>
      <trkpt lat="46.37805807906728" lon="7.979322597924874">
      <ele>2157.6</ele></trkpt>
      <trkpt lat="46.378112185867494" lon="7.979332689877669">
      <ele>2158.0</ele></trkpt>
      <trkpt lat="46.37817937956717" lon="7.9793696226163116">
      <ele>2158.5</ele></trkpt>
      <trkpt lat="46.378253121226955" lon="7.979419969401312">
      <ele>2158.9</ele></trkpt>
      <trkpt lat="46.37832028767972" lon="7.979460723438227">
      <ele>2159.4</ele></trkpt>
      <trkpt lat="46.37837424862754" lon="7.979505167454203">
      <ele>2159.8</ele></trkpt>
      <trkpt lat="46.37842961407198" lon="7.979528620990848">
      <ele>2160.6</ele></trkpt>
      <trkpt lat="46.37848240758677" lon="7.97953868714264">
      <ele>2161.4</ele></trkpt>
      <trkpt lat="46.37853255638919" lon="7.979548739975336">
      <ele>2162.3</ele></trkpt>
      <trkpt lat="46.378586654180275" lon="7.979560716848474">
      <ele>2163.1</ele></trkpt>
      <trkpt lat="46.37862357949735" lon="7.97957445942005">
      <ele>2163.9</ele></trkpt>
      <trkpt lat="46.37866957722102" lon="7.979553288949672">
      <ele>2164.7</ele></trkpt>
      <trkpt lat="46.37871078970108" lon="7.979533890503341">
      <ele>2165.5</ele></trkpt>
      <trkpt lat="46.37873848205457" lon="7.97947475267198">
      <ele>2166.4</ele></trkpt>
      <trkpt lat="46.378785608934294" lon="7.979446938363198">
      <ele>2167.2</ele></trkpt>
      <trkpt lat="46.37886017637488" lon="7.979416550645215">
      <ele>2168.0</ele></trkpt>
      <trkpt lat="46.37891112642959" lon="7.979405723654186">
      <ele>2168.8</ele></trkpt>
      <trkpt lat="46.37894974382323" lon="7.979417403369794">
      <ele>2169.6</ele></trkpt>
      <trkpt lat="46.37898266586285" lon="7.97943872290656">
      <ele>2170.5</ele></trkpt>
      <trkpt lat="46.37899965598669" lon="7.979477080200092">
      <ele>2171.3</ele></trkpt>
      <trkpt lat="46.37902737965837" lon="7.979481164660759">
      <ele>2172.1</ele></trkpt>
      <trkpt lat="46.37905523975849" lon="7.97945664184805">
      <ele>2172.9</ele></trkpt>
      <trkpt lat="46.37908842577413" lon="7.979422605489298">
      <ele>2173.7</ele></trkpt>
      <trkpt lat="46.379111033004506" lon="7.979390387482116">
      <ele>2174.6</ele></trkpt>
      <trkpt lat="46.37914425531542" lon="7.979348734558915">
      <ele>2175.4</ele></trkpt>
      <trkpt lat="46.37918402570879" lon="7.979318585045776">
      <ele>2176.2</ele></trkpt>
      <trkpt lat="46.379218497459625" lon="7.979294114891173">
      <ele>2177.2</ele></trkpt>
      <trkpt lat="46.37924766186429" lon="7.97927148959777">
      <ele>2178.2</ele></trkpt>
      <trkpt lat="46.37927015077069" lon="7.979264083568667">
      <ele>2179.2</ele></trkpt>
      <trkpt lat="46.37929905104751" lon="7.979300635846172">
      <ele>2180.2</ele></trkpt>
      <trkpt lat="46.37933718059972" lon="7.9793372800349625">
      <ele>2181.2</ele></trkpt>
      <trkpt lat="46.37938061771205" lon="7.97936825795096">
      <ele>2182.3</ele></trkpt>
      <trkpt lat="46.379409563446224" lon="7.979395270204269">
      <ele>2183.3</ele></trkpt>
      <trkpt lat="46.379439740743244" lon="7.979437554528151">
      <ele>2184.3</ele></trkpt>
      <trkpt lat="46.379472608171234" lon="7.979470325067063">
      <ele>2185.3</ele></trkpt>
      <trkpt lat="46.37951072849428" lon="7.979508893123464">
      <ele>2186.3</ele></trkpt>
      <trkpt lat="46.37954539984117" lon="7.979529346482707">
      <ele>2187.3</ele></trkpt>
      <trkpt lat="46.379624087505285" lon="7.9795687215751">
      <ele>2188.3</ele></trkpt>
      <trkpt lat="46.37965444779186" lon="7.979604690879348">
      <ele>2189.3</ele></trkpt>
      <trkpt lat="46.379679808436805" lon="7.97962325787422">
      <ele>2190.3</ele></trkpt>
      <trkpt lat="46.379724887066764" lon="7.979640123546151">
      <ele>2191.3</ele></trkpt>
      <trkpt lat="46.379747651470254" lon="7.979669258241269">
      <ele>2192.4</ele></trkpt>
      <trkpt lat="46.379781251470746" lon="7.979691767833147">
      <ele>2193.4</ele></trkpt>
      <trkpt lat="46.379804709602254" lon="7.979709367092075">
      <ele>2194.4</ele></trkpt>
      <trkpt lat="46.37983865876753" lon="7.979792555832024">
      <ele>2195.4</ele></trkpt>
      <trkpt lat="46.379852627957845" lon="7.979798492207045">
      <ele>2196.4</ele></trkpt>
      <trkpt lat="46.37987223554819" lon="7.97982181137946">
      <ele>2197.2</ele></trkpt>
      <trkpt lat="46.37991030176796" lon="7.979843416748374">
      <ele>2197.9</ele></trkpt>
      <trkpt lat="46.379979992000024" lon="7.979901953297626">
      <ele>2198.7</ele></trkpt>
      <trkpt lat="46.38003257896025" lon="7.979945865489428">
      <ele>2199.5</ele></trkpt>
      <trkpt lat="46.38006977201614" lon="7.98001658273412">
      <ele>2200.2</ele></trkpt>
      <trkpt lat="46.380091934444984" lon="7.980038003801029">
      <ele>2201.0</ele></trkpt>
      <trkpt lat="46.38014834918083" lon="7.980079068754026">
      <ele>2201.8</ele></trkpt>
      <trkpt lat="46.380174329991185" lon="7.980101502813107">
      <ele>2202.6</ele></trkpt>
      <trkpt lat="46.380250682728956" lon="7.980230427228561">
      <ele>2203.3</ele></trkpt>
      <trkpt lat="46.38027277149624" lon="7.980267263715015">
      <ele>2204.1</ele></trkpt>
      <trkpt lat="46.380336129384496" lon="7.980319953795146">
      <ele>2204.9</ele></trkpt>
      <trkpt lat="46.38036268456967" lon="7.980353962290497">
      <ele>2205.6</ele></trkpt>
      <trkpt lat="46.38040955033896" lon="7.980397805168664">
      <ele>2206.4</ele></trkpt>
      <trkpt lat="46.380470367062" lon="7.980449508307405">
      <ele>2207.2</ele></trkpt>
      <trkpt lat="46.38048048540388" lon="7.980463101536444">
      <ele>2208.0</ele></trkpt>
      <trkpt lat="46.3805012412799" lon="7.980513417279449">
      <ele>2208.7</ele></trkpt>
      <trkpt lat="46.38053604480081" lon="7.980551355785009">
      <ele>2209.5</ele></trkpt>
      <trkpt lat="46.38058851647263" lon="7.980619340917329">
      <ele>2210.3</ele></trkpt>
      <trkpt lat="46.38061832981352" lon="7.980636042375185">
      <ele>2211.0</ele></trkpt>
      <trkpt lat="46.38068576398293" lon="7.9806338686233875">
      <ele>2211.8</ele></trkpt>
      <trkpt lat="46.38074367221578" lon="7.9806296760446465">
      <ele>2212.6</ele></trkpt>
      <trkpt lat="46.38077604044864" lon="7.980644479283026">
      <ele>2213.4</ele></trkpt>
      <trkpt lat="46.38079993624213" lon="7.980630705420152">
      <ele>2214.2</ele></trkpt>
      <trkpt lat="46.38082124874834" lon="7.980594652437119">
      <ele>2214.9</ele></trkpt>
      <trkpt lat="46.380863536421195" lon="7.980591252834084">
      <ele>2215.7</ele></trkpt>
      <trkpt lat="46.380891168806585" lon="7.980614431828174">
      <ele>2216.5</ele></trkpt>
      <trkpt lat="46.38092684472125" lon="7.980612877037334">
      <ele>2217.3</ele></trkpt>
      <trkpt lat="46.38095848974432" lon="7.980624657453116">
      <ele>2218.1</ele></trkpt>
      <trkpt lat="46.38099398321539" lon="7.980661277389755">
      <ele>2218.9</ele></trkpt>
      <trkpt lat="46.3810176820458" lon="7.980656717441677">
      <ele>2219.7</ele></trkpt>
      <trkpt lat="46.38102906411802" lon="7.980671285346026">
      <ele>2220.4</ele></trkpt>
      <trkpt lat="46.3810582109951" lon="7.98069567542775">
      <ele>2221.2</ele></trkpt>
      <trkpt lat="46.381075948154574" lon="7.980711281662979">
      <ele>2222.0</ele></trkpt>
      <trkpt lat="46.38109561079013" lon="7.980723046568834">
      <ele>2222.8</ele></trkpt>
      <trkpt lat="46.381102729071344" lon="7.980696158704482">
      <ele>2223.6</ele></trkpt>
      <trkpt lat="46.381104135524374" lon="7.980667277055226">
      <ele>2224.4</ele></trkpt>
      <trkpt lat="46.381098584779174" lon="7.98063157975508">
      <ele>2225.1</ele></trkpt>
      <trkpt lat="46.381083490156755" lon="7.980593850456911">
      <ele>2225.9</ele></trkpt>
      <trkpt lat="46.38108810853418" lon="7.980559229525841">
      <ele>2226.7</ele></trkpt>
      <trkpt lat="46.38109955049352" lon="7.980561267464655">
      <ele>2227.5</ele></trkpt>
      <trkpt lat="46.38111918550498" lon="7.9805788163835905">
      <ele>2228.6</ele></trkpt>
      <trkpt lat="46.381138825110185" lon="7.98059540347079">
      <ele>2229.7</ele></trkpt>
      <trkpt lat="46.381155492082854" lon="7.980567648949754">
      <ele>2230.8</ele></trkpt>
      <trkpt lat="46.381204748205974" lon="7.98050846413622">
      <ele>2231.9</ele></trkpt>
      <trkpt lat="46.38124802556695" lon="7.980503150531267">
      <ele>2233.0</ele></trkpt>
      <trkpt lat="46.38129646351789" lon="7.980481523220501">
      <ele>2234.1</ele></trkpt>
      <trkpt lat="46.38137868976926" lon="7.980444842614434">
      <ele>2235.2</ele></trkpt>
      <trkpt lat="46.38146459662116" lon="7.9804361325903574">
      <ele>2236.3</ele></trkpt>
      <trkpt lat="46.381501495846734" lon="7.980434602867356">
      <ele>2237.4</ele></trkpt>
      <trkpt lat="46.3815058841169" lon="7.980448139192433">
      <ele>2238.4</ele></trkpt>
      <trkpt lat="46.38147501767176" lon="7.980520051497809">
      <ele>2239.5</ele></trkpt>
      <trkpt lat="46.38147680948001" lon="7.980546066569957">
      <ele>2240.6</ele></trkpt>
      <trkpt lat="46.38148053142418" lon="7.980565380626343">
      <ele>2241.7</ele></trkpt>
      <trkpt lat="46.38151295494474" lon="7.980568615819034">
      <ele>2242.8</ele></trkpt>
      <trkpt lat="46.38155436211362" lon="7.980555575392588">
      <ele>2243.9</ele></trkpt>
      <trkpt lat="46.38156961806297" lon="7.980557664400235">
      <ele>2245.0</ele></trkpt>
      <trkpt lat="46.381612007983634" lon="7.980606286260768">
      <ele>2246.1</ele></trkpt>
      <trkpt lat="46.381670075008195" lon="7.980711920712128">
      <ele>2247.2</ele></trkpt>
      <trkpt lat="46.38168168417866" lon="7.980771193417559">
      <ele>2248.3</ele></trkpt>
      <trkpt lat="46.38169723290288" lon="7.980834353075547">
      <ele>2249.4</ele></trkpt>
      <trkpt lat="46.38170490238045" lon="7.980887867097958">
      <ele>2250.2</ele></trkpt>
      <trkpt lat="46.38171652960787" lon="7.980943344452683">
      <ele>2250.9</ele></trkpt>
      <trkpt lat="46.38174553900515" lon="7.98095508591823">
      <ele>2251.7</ele></trkpt>
      <trkpt lat="46.381786330947534" lon="7.980987937900213">
      <ele>2252.4</ele></trkpt>
      <trkpt lat="46.38180857335621" lon="7.981033980337177">
      <ele>2253.2</ele></trkpt>
      <trkpt lat="46.38181892416922" lon="7.981076069439824">
      <ele>2254.0</ele></trkpt>
      <trkpt lat="46.38179884241845" lon="7.98113312805108">
      <ele>2254.7</ele></trkpt>
      <trkpt lat="46.38178014682358" lon="7.981176850831414">
      <ele>2255.5</ele></trkpt>
      <trkpt lat="46.3817614696401" lon="7.981214841353609">
      <ele>2256.2</ele></trkpt>
      <trkpt lat="46.38180367526886" lon="7.981226714800605">
      <ele>2257.0</ele></trkpt>
      <trkpt lat="46.381847239432645" lon="7.981234793222329">
      <ele>2257.8</ele></trkpt>
      <trkpt lat="46.3819131924683" lon="7.981254521182511">
      <ele>2258.5</ele></trkpt>
      <trkpt lat="46.381964718380424" lon="7.981251227315492">
      <ele>2259.3</ele></trkpt>
      <trkpt lat="46.38200428835173" lon="7.981263074503979">
      <ele>2260.0</ele></trkpt>
      <trkpt lat="46.38204582408139" lon="7.981281466713913">
      <ele>2260.8</ele></trkpt>
      <trkpt lat="46.38208156473456" lon="7.981334065740792">
      <ele>2261.6</ele></trkpt>
      <trkpt lat="46.38209736787819" lon="7.98139663062797">
      <ele>2262.3</ele></trkpt>
      <trkpt lat="46.38212006455613" lon="7.981404110737618">
      <ele>2263.1</ele></trkpt>
      <trkpt lat="46.382140069433575" lon="7.9813781831441775">
      <ele>2263.8</ele></trkpt>
      <trkpt lat="46.38216366198607" lon="7.981395837237063">
      <ele>2264.6</ele></trkpt>
      <trkpt lat="46.38219883799053" lon="7.981367162489956">
      <ele>2266.0</ele></trkpt>
      <trkpt lat="46.38224529392779" lon="7.981357461647024">
      <ele>2267.4</ele></trkpt>
      <trkpt lat="46.382294382323295" lon="7.981374772588564">
      <ele>2268.9</ele></trkpt>
      <trkpt lat="46.38231660649717" lon="7.981422713258805">
      <ele>2270.3</ele></trkpt>
      <trkpt lat="46.38233351376583" lon="7.981478244126499">
      <ele>2271.7</ele></trkpt>
      <trkpt lat="46.382360862891865" lon="7.98155868113103">
      <ele>2273.1</ele></trkpt>
      <trkpt lat="46.38239221531251" lon="7.981633438759666">
      <ele>2274.5</ele></trkpt>
      <trkpt lat="46.382409085943365" lon="7.981696599713713">
      <ele>2276.0</ele></trkpt>
      <trkpt lat="46.38242205340009" lon="7.981748269711673">
      <ele>2277.4</ele></trkpt>
      <trkpt lat="46.382458869050886" lon="7.98178298076778">
      <ele>2278.8</ele></trkpt>
      <trkpt lat="46.382496988494644" lon="7.981823450398762">
      <ele>2280.2</ele></trkpt>
      <trkpt lat="46.382539148145156" lon="7.981846789009432">
      <ele>2281.6</ele></trkpt>
      <trkpt lat="46.382574650374444" lon="7.981881500069613">
      <ele>2283.1</ele></trkpt>
      <trkpt lat="46.382602273501085" lon="7.9819046803606915">
      <ele>2284.5</ele></trkpt>
      <trkpt lat="46.382646931515794" lon="7.981958578438569">
      <ele>2285.9</ele></trkpt>
      <trkpt lat="46.382704867994896" lon="7.981997322748953">
      <ele>2287.3</ele></trkpt>
      <trkpt lat="46.38274153714888" lon="7.982062593109201">
      <ele>2288.7</ele></trkpt>
      <trkpt lat="46.38278350471981" lon="7.982126005736299">
      <ele>2290.2</ele></trkpt>
      <trkpt lat="46.38282544484473" lon="7.982195137713093">
      <ele>2291.6</ele></trkpt>
      <trkpt lat="46.38287795446553" lon="7.982264388586249">
      <ele>2293.0</ele></trkpt>
      <trkpt lat="46.38292525695835" lon="7.982318313706511">
      <ele>2293.9</ele></trkpt>
      <trkpt lat="46.38295018944315" lon="7.9823529195130085">
      <ele>2294.7</ele></trkpt>
      <trkpt lat="46.38296832725735" lon="7.982425635264653">
      <ele>2295.6</ele></trkpt>
      <trkpt lat="46.38297075220666" lon="7.98247148086899">
      <ele>2296.4</ele></trkpt>
      <trkpt lat="46.38300627263297" lon="7.98250235810247">
      <ele>2297.3</ele></trkpt>
      <trkpt lat="46.3830377806224" lon="7.982553928559132">
      <ele>2298.1</ele></trkpt>
      <trkpt lat="46.383128352928935" lon="7.982620987474409">
      <ele>2299.0</ele></trkpt>
      <trkpt lat="46.38314639231365" lon="7.982652300755047">
      <ele>2299.8</ele></trkpt>
      <trkpt lat="46.38316574307711" lon="7.982669029310259">
      <ele>2300.7</ele></trkpt>
      <trkpt lat="46.383211325365" lon="7.982706455086802">
      <ele>2301.6</ele></trkpt>
      <trkpt lat="46.383236999047114" lon="7.9827196722905045">
      <ele>2302.4</ele></trkpt>
      <trkpt lat="46.38326122457219" lon="7.982775979774668">
      <ele>2303.3</ele></trkpt>
      <trkpt lat="46.383323100068196" lon="7.982822408301079">
      <ele>2304.1</ele></trkpt>
      <trkpt lat="46.38335990615928" lon="7.9828590444284355">
      <ele>2305.0</ele></trkpt>
      <trkpt lat="46.383396638944085" lon="7.982910953766545">
      <ele>2305.8</ele></trkpt>
      <trkpt lat="46.38343739352633" lon="7.982953349165161">
      <ele>2306.7</ele></trkpt>
      <trkpt lat="46.38348473255274" lon="7.982997721485701">
      <ele>2307.5</ele></trkpt>
      <trkpt lat="46.38351228196364" lon="7.983038086790703">
      <ele>2308.4</ele></trkpt>
      <trkpt lat="46.38357150388554" lon="7.983082578363375">
      <ele>2309.2</ele></trkpt>
      <trkpt lat="46.383591174119104" lon="7.983113323443239">
      <ele>2310.1</ele></trkpt>
      <trkpt lat="46.38362812652726" lon="7.983121337363539">
      <ele>2311.1</ele></trkpt>
      <trkpt lat="46.383675401215015" lon="7.9831809703173">
      <ele>2312.1</ele></trkpt>
      <trkpt lat="46.38372004045292" lon="7.983236781200854">
      <ele>2313.2</ele></trkpt>
      <trkpt lat="46.38377534995593" lon="7.983273603426101">
      <ele>2314.2</ele></trkpt>
      <trkpt lat="46.3838267474697" lon="7.983298934232214">
      <ele>2315.2</ele></trkpt>
      <trkpt lat="46.38386748385386" lon="7.983341343075941">
      <ele>2316.2</ele></trkpt>
      <trkpt lat="46.383916291523434" lon="7.983357106612682">
      <ele>2317.2</ele></trkpt>
      <trkpt lat="46.38395567796967" lon="7.983407119558038">
      <ele>2318.3</ele></trkpt>
      <trkpt lat="46.38401481683105" lon="7.983472617785992">
      <ele>2319.3</ele></trkpt>
      <trkpt lat="46.384060842447624" lon="7.9835150799705055">
      <ele>2320.3</ele></trkpt>
      <trkpt lat="46.384104186553984" lon="7.983567056758364">
      <ele>2321.3</ele></trkpt>
      <trkpt lat="46.384151461131424" lon="7.983624792734874">
      <ele>2322.3</ele></trkpt>
      <trkpt lat="46.38417947401999" lon="7.983666008457935">
      <ele>2323.4</ele></trkpt>
      <trkpt lat="46.384203542035955" lon="7.983680120186542">
      <ele>2324.4</ele></trkpt>
      <trkpt lat="46.38421500311492" lon="7.983709990501271">
      <ele>2325.4</ele></trkpt>
      <trkpt lat="46.38425061365821" lon="7.983740766166148">
      <ele>2326.4</ele></trkpt>
      <trkpt lat="46.38428209380758" lon="7.983766196711169">
      <ele>2327.4</ele></trkpt>
      <trkpt lat="46.38430314134158" lon="7.98379483738519">
      <ele>2328.5</ele></trkpt>
      <trkpt lat="46.38438000910935" lon="7.983896236498651">
      <ele>2329.5</ele></trkpt>
      <trkpt lat="46.38442598869432" lon="7.983948240359009">
      <ele>2330.5</ele></trkpt>
      <trkpt lat="46.38448378679786" lon="7.984015624184277">
      <ele>2331.3</ele></trkpt>
      <trkpt lat="46.38453774602581" lon="7.984060064772838">
      <ele>2332.2</ele></trkpt>
      <trkpt lat="46.38458764662078" lon="7.984121649824226">
      <ele>2333.0</ele></trkpt>
      <trkpt lat="46.384635141243265" lon="7.984133579273267">
      <ele>2333.9</ele></trkpt>
      <trkpt lat="46.384671956039575" lon="7.984168319358629">
      <ele>2334.7</ele></trkpt>
      <trkpt lat="46.38471537331756" lon="7.984205023722627">
      <ele>2335.6</ele></trkpt>
      <trkpt lat="46.384768019473704" lon="7.984245642677469">
      <ele>2336.4</ele></trkpt>
      <trkpt lat="46.384789356987405" lon="7.984298127598407">
      <ele>2337.3</ele></trkpt>
      <trkpt lat="46.38483279308436" lon="7.984357087317185">
      <ele>2338.1</ele></trkpt>
      <trkpt lat="46.38487014363248" lon="7.984435641091445">
      <ele>2338.9</ele></trkpt>
      <trkpt lat="46.38489677117161" lon="7.984478663777143">
      <ele>2339.8</ele></trkpt>
      <trkpt lat="46.38494190202989" lon="7.98453312998957">
      <ele>2340.6</ele></trkpt>
      <trkpt lat="46.384982000445035" lon="7.984593980429145">
      <ele>2341.5</ele></trkpt>
      <trkpt lat="46.3850111166314" lon="7.98463204951157">
      <ele>2342.3</ele></trkpt>
      <trkpt lat="46.385017531929016" lon="7.984667290516445">
      <ele>2343.2</ele></trkpt>
      <trkpt lat="46.38504181742401" lon="7.98472028646694">
      <ele>2344.0</ele></trkpt>
      <trkpt lat="46.38508707501404" lon="7.984770828462183">
      <ele>2344.9</ele></trkpt>
      <trkpt lat="46.38509767793223" lon="7.98480698260931">
      <ele>2345.7</ele></trkpt>
      <trkpt lat="46.38510980893056" lon="7.9848433861290005">
      <ele>2346.6</ele></trkpt>
      <trkpt lat="46.38513776765035" lon="7.984925642022994">
      <ele>2347.4</ele></trkpt>
      <trkpt lat="46.38518694428573" lon="7.985023502851397">
      <ele>2347.0</ele></trkpt>
      <trkpt lat="46.38523621620089" lon="7.985103438502143">
      <ele>2346.6</ele></trkpt>
      <trkpt lat="46.38527664667994" lon="7.985175589613576">
      <ele>2346.2</ele></trkpt>
      <trkpt lat="46.385293932096154" lon="7.9852680081294505">
      <ele>2345.7</ele></trkpt>
      <trkpt lat="46.38532908328079" lon="7.985332410580128">
      <ele>2345.3</ele></trkpt>
      <trkpt lat="46.385351656748036" lon="7.9854325781970585">
      <ele>2344.9</ele></trkpt>
      <trkpt lat="46.38540087898471" lon="7.985522757603669">
      <ele>2344.5</ele></trkpt>
      <trkpt lat="46.38543245207983" lon="7.985592259136029">
      <ele>2344.1</ele></trkpt>
      <trkpt lat="46.385497854471765" lon="7.9856364793362316">
      <ele>2343.7</ele></trkpt>
      <trkpt lat="46.385510057976134" lon="7.985680176800618">
      <ele>2343.2</ele></trkpt>
      <trkpt lat="46.385527581228466" lon="7.98572134095676">
      <ele>2342.8</ele></trkpt>
      <trkpt lat="46.385561191475134" lon="7.9857396189413485">
      <ele>2342.4</ele></trkpt>
      <trkpt lat="46.385615980376876" lon="7.985776036740475">
      <ele>2342.0</ele></trkpt>
      <trkpt lat="46.385688347401754" lon="7.985845962715775">
      <ele>2341.6</ele></trkpt>
      <trkpt lat="46.38576246525124" lon="7.985918441448408">
      <ele>2341.2</ele></trkpt>
      <trkpt lat="46.385824310907466" lon="7.9859652003975405">
      <ele>2340.8</ele></trkpt>
      <trkpt lat="46.385879050239765" lon="7.986011874831884">
      <ele>2340.3</ele></trkpt>
      <trkpt lat="46.38592504031766" lon="7.986035412759918">
      <ele>2339.9</ele></trkpt>
      <trkpt lat="46.385945074066775" lon="7.986083869469409">
      <ele>2339.5</ele></trkpt>
      <trkpt lat="46.385966079778" lon="7.986029729549415">
      <ele>2339.1</ele></trkpt>
      <trkpt lat="46.386001019817265" lon="7.985955125513655">
      <ele>2339.5</ele></trkpt>
      <trkpt lat="46.38600936997353" lon="7.985876405549354">
      <ele>2339.8</ele></trkpt>
      <trkpt lat="46.38602445073209" lon="7.985782400733446">
      <ele>2340.2</ele></trkpt>
      <trkpt lat="46.386045946830784" lon="7.985740329278146">
      <ele>2340.6</ele></trkpt>
      <trkpt lat="46.386063440181246" lon="7.985696306514514">
      <ele>2341.0</ele></trkpt>
      <trkpt lat="46.38606253517643" lon="7.985607899429965">
      <ele>2341.3</ele></trkpt>
      <trkpt lat="46.38607078261023" lon="7.985554163720413">
      <ele>2341.7</ele></trkpt>
      <trkpt lat="46.3860963471648" lon="7.985492932536384">
      <ele>2342.1</ele></trkpt>
      <trkpt lat="46.386127376237546" lon="7.985400998982247">
      <ele>2342.5</ele></trkpt>
      <trkpt lat="46.386159653501885" lon="7.98532444356165">
      <ele>2342.8</ele></trkpt>
      <trkpt lat="46.386195794374345" lon="7.985278697303607">
      <ele>2343.2</ele></trkpt>
      <trkpt lat="46.38624239243356" lon="7.9852657115859635">
      <ele>2343.6</ele></trkpt>
      <trkpt lat="46.38627018543845" lon="7.985255370524513">
      <ele>2344.0</ele></trkpt>
      <trkpt lat="46.386293076890624" lon="7.985235451299406">
      <ele>2344.3</ele></trkpt>
      <trkpt lat="46.38631185473476" lon="7.985202984888594">
      <ele>2344.7</ele></trkpt>
      <trkpt lat="46.38633079003717" lon="7.985137838630899">
      <ele>2345.1</ele></trkpt>
      <trkpt lat="46.386331297615726" lon="7.985081034765407">
      <ele>2345.5</ele></trkpt>
      <trkpt lat="46.38635411053604" lon="7.985043798960439">
      <ele>2345.8</ele></trkpt>
      <trkpt lat="46.386384886082155" lon="7.985015626076173">
      <ele>2346.2</ele></trkpt>
      <trkpt lat="46.386423979364814" lon="7.984982557916705">
      <ele>2346.6</ele></trkpt>
      <trkpt lat="46.386458647725" lon="7.98499783043702">
      <ele>2347.5</ele></trkpt>
      <trkpt lat="46.386490010821674" lon="7.9849541286187184">
      <ele>2348.4</ele></trkpt>
      <trkpt lat="46.386512485329334" lon="7.984891890617027">
      <ele>2349.2</ele></trkpt>
      <trkpt lat="46.3865478999695" lon="7.9848754900575285">
      <ele>2350.1</ele></trkpt>
      <trkpt lat="46.38656115029115" lon="7.984860660534118">
      <ele>2351.0</ele></trkpt>
      <trkpt lat="46.38657047189604" lon="7.984793012214364">
      <ele>2351.9</ele></trkpt>
      <trkpt lat="46.386579573207264" lon="7.9847711080374415">
      <ele>2352.8</ele></trkpt>
      <trkpt lat="46.38661124138784" lon="7.984785466307421">
      <ele>2353.6</ele></trkpt>
      <trkpt lat="46.386634810065196" lon="7.984742582857567">
      <ele>2354.5</ele></trkpt>
      <trkpt lat="46.386663597614486" lon="7.98473492942241">
      <ele>2355.4</ele></trkpt>
      <trkpt lat="46.386694939394125" lon="7.984695634023731">
      <ele>2356.3</ele></trkpt>
      <trkpt lat="46.3867177503923" lon="7.984692405415449">
      <ele>2357.2</ele></trkpt>
      <trkpt lat="46.38677119790783" lon="7.984676783963806">
      <ele>2358.0</ele></trkpt>
      <trkpt lat="46.386817404307585" lon="7.984668525611827">
      <ele>2358.9</ele></trkpt>
      <trkpt lat="46.38684951993404" lon="7.984619838924112">
      <ele>2359.8</ele></trkpt>
      <trkpt lat="46.38686961299574" lon="7.984586956194298">
      <ele>2360.7</ele></trkpt>
      <trkpt lat="46.38691267923859" lon="7.984571347239211">
      <ele>2361.6</ele></trkpt>
      <trkpt lat="46.386952534404486" lon="7.984559384957017">
      <ele>2362.4</ele></trkpt>
      <trkpt lat="46.386993259441006" lon="7.984538643453291">
      <ele>2363.3</ele></trkpt>
      <trkpt lat="46.387041029676695" lon="7.984493298856851">
      <ele>2364.2</ele></trkpt>
      <trkpt lat="46.3870888363513" lon="7.984442247570864">
      <ele>2365.4</ele></trkpt>
      <trkpt lat="46.38714858135965" lon="7.984377926204922">
      <ele>2366.6</ele></trkpt>
      <trkpt lat="46.38719507485167" lon="7.98432495052646">
      <ele>2367.8</ele></trkpt>
      <trkpt lat="46.38724289090307" lon="7.984270064047688">
      <ele>2369.0</ele></trkpt>
      <trkpt lat="46.38729054133747" lon="7.984251471791065">
      <ele>2370.1</ele></trkpt>
      <trkpt lat="46.38733555663393" lon="7.984229005027621">
      <ele>2371.3</ele></trkpt>
      <trkpt lat="46.38738066332317" lon="7.98419127712728">
      <ele>2372.5</ele></trkpt>
      <trkpt lat="46.387407275778465" lon="7.984149554389583">
      <ele>2373.7</ele></trkpt>
      <trkpt lat="46.387432584141926" lon="7.984105894509004">
      <ele>2374.9</ele></trkpt>
      <trkpt lat="46.38745770888697" lon="7.984100413842224">
      <ele>2376.1</ele></trkpt>
      <trkpt lat="46.387485469028185" lon="7.984096883645161">
      <ele>2377.3</ele></trkpt>
      <trkpt lat="46.38749641407324" lon="7.983970269156907">
      <ele>2378.5</ele></trkpt>
      <trkpt lat="46.387522817419224" lon="7.983985120336213">
      <ele>2379.7</ele></trkpt>
      <trkpt lat="46.387547394904814" lon="7.983968103060564">
      <ele>2380.9</ele></trkpt>
      <trkpt lat="46.387569721691854" lon="7.983938349111456">
      <ele>2382.1</ele></trkpt>
      <trkpt lat="46.38757097010074" lon="7.983916313543897">
      <ele>2383.2</ele></trkpt>
      <trkpt lat="46.38756477117438" lon="7.983864082068163">
      <ele>2384.4</ele></trkpt>
      <trkpt lat="46.387565637642915" lon="7.983839156653602">
      <ele>2385.6</ele></trkpt>
      <trkpt lat="46.387593032986416" lon="7.983816070555282">
      <ele>2386.8</ele></trkpt>
      <trkpt lat="46.387627568114034" lon="7.983793589106384">
      <ele>2388.0</ele></trkpt>
      <trkpt lat="46.38769140882412" lon="7.983773572803993">
      <ele>2388.8</ele></trkpt>
      <trkpt lat="46.387750820215324" lon="7.983776717180273">
      <ele>2389.6</ele></trkpt>
      <trkpt lat="46.38782176791007" lon="7.983766002234014">
      <ele>2390.4</ele></trkpt>
      <trkpt lat="46.38784515814902" lon="7.983762037975637">
      <ele>2391.2</ele></trkpt>
      <trkpt lat="46.38788477503165" lon="7.98376220162974">
      <ele>2392.1</ele></trkpt>
      <trkpt lat="46.387920383324044" lon="7.983780343247089">
      <ele>2392.9</ele></trkpt>
      <trkpt lat="46.3879478602527" lon="7.983813275435891">
      <ele>2393.7</ele></trkpt>
      <trkpt lat="46.387976741074354" lon="7.983849835795768">
      <ele>2394.5</ele></trkpt>
      <trkpt lat="46.388008303149114" lon="7.983880677041132">
      <ele>2395.3</ele></trkpt>
      <trkpt lat="46.388055788549465" lon="7.983894530965186">
      <ele>2396.1</ele></trkpt>
      <trkpt lat="46.38810468794545" lon="7.9838911998614845">
      <ele>2396.9</ele></trkpt>
      <trkpt lat="46.3881403367301" lon="7.9838915577745615">
      <ele>2397.7</ele></trkpt>
      <trkpt lat="46.38818003452854" lon="7.983880503158517">
      <ele>2398.5</ele></trkpt>
      <trkpt lat="46.38823015545377" lon="7.983896281618986">
      <ele>2399.3</ele></trkpt>
      <trkpt lat="46.38826715393083" lon="7.983892831020558">
      <ele>2400.1</ele></trkpt>
      <trkpt lat="46.38830304098053" lon="7.983847365497386">
      <ele>2401.0</ele></trkpt>
      <trkpt lat="46.388329579892435" lon="7.983820916429845">
      <ele>2401.8</ele></trkpt>
      <trkpt lat="46.38836534757717" lon="7.983800280087355">
      <ele>2402.6</ele></trkpt>
      <trkpt lat="46.38840376909115" lon="7.983777759318674">
      <ele>2403.4</ele></trkpt>
      <trkpt lat="46.388441979610924" lon="7.983799138307995">
      <ele>2404.2</ele></trkpt>
      <trkpt lat="46.38846304577257" lon="7.983810803018711">
      <ele>2405.1</ele></trkpt>
      <trkpt lat="46.38848555315736" lon="7.983801486755573">
      <ele>2405.9</ele></trkpt>
      <trkpt lat="46.388507877030655" lon="7.983830350478527">
      <ele>2406.8</ele></trkpt>
      <trkpt lat="46.388531798717345" lon="7.983800039944429">
      <ele>2407.7</ele></trkpt>
      <trkpt lat="46.38853369134931" lon="7.983754388921962">
      <ele>2408.6</ele></trkpt>
      <trkpt lat="46.38853560888966" lon="7.983692318778777">
      <ele>2409.4</ele></trkpt>
      <trkpt lat="46.38858022321902" lon="7.983678388212334">
      <ele>2410.3</ele></trkpt>
      <trkpt lat="46.38864625491759" lon="7.983674175797741">
      <ele>2411.2</ele></trkpt>
      <trkpt lat="46.38867192179108" lon="7.983632624351628">
      <ele>2412.1</ele></trkpt>
      <trkpt lat="46.388703940344485" lon="7.983594685693126">
      <ele>2412.9</ele></trkpt>
      <trkpt lat="46.388753284563144" lon="7.983586769622414">
      <ele>2413.8</ele></trkpt>
      <trkpt lat="46.38880760942631" lon="7.983581360582182">
      <ele>2414.7</ele></trkpt>
      <trkpt lat="46.38884336794935" lon="7.9835626218621">
      <ele>2415.6</ele></trkpt>
      <trkpt lat="46.38888437004946" lon="7.9835515799501575">
      <ele>2416.4</ele></trkpt>
      <trkpt lat="46.388924012917435" lon="7.983550079665708">
      <ele>2417.3</ele></trkpt>
      <trkpt lat="46.38895953637576" lon="7.98353720170336">
      <ele>2418.2</ele></trkpt>
      <trkpt lat="46.38898364867069" lon="7.98348966717367">
      <ele>2419.1</ele></trkpt>
      <trkpt lat="46.38901799606835" lon="7.983461306875402">
      <ele>2419.9</ele></trkpt>
      <trkpt lat="46.3890689013721" lon="7.983461752567518">
      <ele>2420.8</ele></trkpt>
      <trkpt lat="46.38913568450802" lon="7.983465906669868">
      <ele>2421.7</ele></trkpt>
      <trkpt lat="46.389163548387295" lon="7.983461376046595">
      <ele>2422.5</ele></trkpt>
      <trkpt lat="46.38917881889432" lon="7.983430458181175">
      <ele>2423.3</ele></trkpt>
      <trkpt lat="46.38918309381297" lon="7.983371999059713">
      <ele>2424.1</ele></trkpt>
      <trkpt lat="46.3891574987421" lon="7.983342426334119">
      <ele>2424.9</ele></trkpt>
      <trkpt lat="46.38915239279092" lon="7.983304192833545">
      <ele>2425.7</ele></trkpt>
      <trkpt lat="46.3891723744681" lon="7.983271944131108">
      <ele>2426.5</ele></trkpt>
      <trkpt lat="46.38921339507143" lon="7.983255168918969">
      <ele>2427.3</ele></trkpt>
      <trkpt lat="46.38925578345075" lon="7.9832326871941275">
      <ele>2428.1</ele></trkpt>
      <trkpt lat="46.38929822699045" lon="7.983196841500949">
      <ele>2428.9</ele></trkpt>
      <trkpt lat="46.38934578593447" lon="7.983195394322844">
      <ele>2429.6</ele></trkpt>
      <trkpt lat="46.389385548117566" lon="7.9831671659464485">
      <ele>2430.4</ele></trkpt>
      <trkpt lat="46.38944237244388" lon="7.983163913568736">
      <ele>2431.2</ele></trkpt>
      <trkpt lat="46.38949129028281" lon="7.983154861679075">
      <ele>2432.0</ele></trkpt>
      <trkpt lat="46.389530988366275" lon="7.983139984097927">
      <ele>2432.8</ele></trkpt>
      <trkpt lat="46.389580042678176" lon="7.983102501358177">
      <ele>2433.6</ele></trkpt>
      <trkpt lat="46.38960268827607" lon="7.9830868677308615">
      <ele>2434.4</ele></trkpt>
      <trkpt lat="46.38963387509956" lon="7.983100349953457">
      <ele>2435.2</ele></trkpt>
      <trkpt lat="46.38965565713832" lon="7.983084707652264">
      <ele>2436.0</ele></trkpt>
      <trkpt lat="46.389678201398596" lon="7.98309018589582">
      <ele>2436.8</ele></trkpt>
      <trkpt lat="46.38970419255001" lon="7.9831009769326595">
      <ele>2437.6</ele></trkpt>
      <trkpt lat="46.3897242068393" lon="7.983091908180539">
      <ele>2438.5</ele></trkpt>
      <trkpt lat="46.389753587908196" lon="7.983119880981653">
      <ele>2439.5</ele></trkpt>
      <trkpt lat="46.389788310356295" lon="7.983120190110294">
      <ele>2440.4</ele></trkpt>
      <trkpt lat="46.38986894950552" lon="7.983140707531638">
      <ele>2441.4</ele></trkpt>
      <trkpt lat="46.38994271121517" lon="7.9831453212905785">
      <ele>2442.3</ele></trkpt>
      <trkpt lat="46.389975776189836" lon="7.983131105108774">
      <ele>2443.2</ele></trkpt>
      <trkpt lat="46.389983666635786" lon="7.983114010379301">
      <ele>2444.2</ele></trkpt>
      <trkpt lat="46.38998905868136" lon="7.983075790560542">
      <ele>2445.1</ele></trkpt>
      <trkpt lat="46.38998591210172" lon="7.983009780779207">
      <ele>2446.1</ele></trkpt>
      <trkpt lat="46.38999737876698" lon="7.982972921901206">
      <ele>2447.0</ele></trkpt>
      <trkpt lat="46.389991557449974" lon="7.982918767893356">
      <ele>2447.9</ele></trkpt>
      <trkpt lat="46.38999531730852" lon="7.982860731718726">
      <ele>2448.9</ele></trkpt>
      <trkpt lat="46.39000263535105" lon="7.982782931213649">
      <ele>2449.8</ele></trkpt>
      <trkpt lat="46.3900298346546" lon="7.982723777787647">
      <ele>2450.8</ele></trkpt>
      <trkpt lat="46.390028310066945" lon="7.982681536410343">
      <ele>2451.7</ele></trkpt>
      <trkpt lat="46.39004222575622" lon="7.98255416543725">
      <ele>2452.6</ele></trkpt>
      <trkpt lat="46.390066809572915" lon="7.982535781721326">
      <ele>2453.6</ele></trkpt>
      <trkpt lat="46.390094805392046" lon="7.982511230843869">
      <ele>2454.5</ele></trkpt>
      <trkpt lat="46.390126144619174" lon="7.982504199325602">
      <ele>2455.5</ele></trkpt>
      <trkpt lat="46.39014659600072" lon="7.982494016602802">
      <ele>2456.4</ele></trkpt>
      <trkpt lat="46.39016304821512" lon="7.982464240801077">
      <ele>2457.1</ele></trkpt>
      <trkpt lat="46.39018554148768" lon="7.982454091504299">
      <ele>2457.8</ele></trkpt>
      <trkpt lat="46.39021142851913" lon="7.98244908545483">
      <ele>2458.5</ele></trkpt>
      <trkpt lat="46.390223726714396" lon="7.982435765889225">
      <ele>2459.2</ele></trkpt>
      <trkpt lat="46.39022176627634" lon="7.9824131120510815">
      <ele>2459.8</ele></trkpt>
      <trkpt lat="46.39020619231562" lon="7.982387292745216">
      <ele>2460.5</ele></trkpt>
      <trkpt lat="46.39019130704744" lon="7.9823604272940445">
      <ele>2461.2</ele></trkpt>
      <trkpt lat="46.39018394545604" lon="7.982325394748514">
      <ele>2461.9</ele></trkpt>
      <trkpt lat="46.39020034329241" lon="7.98230695493134">
      <ele>2462.6</ele></trkpt>
      <trkpt lat="46.39022963963818" lon="7.982301969940729">
      <ele>2463.3</ele></trkpt>
      <trkpt lat="46.39025956536298" lon="7.9823083148572795">
      <ele>2464.0</ele></trkpt>
      <trkpt lat="46.39028269043658" lon="7.982314617698413">
      <ele>2464.7</ele></trkpt>
      <trkpt lat="46.39029159898493" lon="7.982297168927299">
      <ele>2465.4</ele></trkpt>
      <trkpt lat="46.39029516156431" lon="7.982253951227556">
      <ele>2466.1</ele></trkpt>
      <trkpt lat="46.390295316564234" lon="7.982206591189732">
      <ele>2466.8</ele></trkpt>
      <trkpt lat="46.39029818147942" lon="7.9821644065556985">
      <ele>2467.4</ele></trkpt>
      <trkpt lat="46.39029625239268" lon="7.982131443446786">
      <ele>2468.1</ele></trkpt>
      <trkpt lat="46.390302526663085" lon="7.982089266925032">
      <ele>2468.8</ele></trkpt>
      <trkpt lat="46.39031551338731" lon="7.982074927089623">
      <ele>2469.5</ele></trkpt>
      <trkpt lat="46.390323520969545" lon="7.982052125958494">
      <ele>2470.2</ele></trkpt>
      <trkpt lat="46.39034096768943" lon="7.981993121255438">
      <ele>2471.4</ele></trkpt>
      <trkpt lat="46.390371646715565" lon="7.981932350789086">
      <ele>2472.5</ele></trkpt>
      <trkpt lat="46.390406210812436" lon="7.981884957873785">
      <ele>2473.7</ele></trkpt>
      <trkpt lat="46.39045655148536" lon="7.981854909695233">
      <ele>2474.9</ele></trkpt>
      <trkpt lat="46.39050414673917" lon="7.981847754340917">
      <ele>2476.0</ele></trkpt>
      <trkpt lat="46.39055831716482" lon="7.98184639808437">
      <ele>2477.2</ele></trkpt>
      <trkpt lat="46.39060312168144" lon="7.981867842520881">
      <ele>2478.4</ele></trkpt>
      <trkpt lat="46.39065459273153" lon="7.981877886979727">
      <ele>2479.6</ele></trkpt>
      <trkpt lat="46.39071131634433" lon="7.981895654479924">
      <ele>2480.7</ele></trkpt>
      <trkpt lat="46.39076941747785" lon="7.981900031948602">
      <ele>2481.9</ele></trkpt>
      <trkpt lat="46.390823652067056" lon="7.98188340039621">
      <ele>2483.1</ele></trkpt>
      <trkpt lat="46.390871357180124" lon="7.981851427498116">
      <ele>2484.2</ele></trkpt>
      <trkpt lat="46.39090982400282" lon="7.98181936213923">
      <ele>2485.4</ele></trkpt>
      <trkpt lat="46.39094299242941" lon="7.9817891418680915">
      <ele>2486.6</ele></trkpt>
      <trkpt lat="46.390982818252525" lon="7.981747547372509">
      <ele>2487.8</ele></trkpt>
      <trkpt lat="46.39102246115948" lon="7.981746032713255">
      <ele>2488.9</ele></trkpt>
      <trkpt lat="46.39105290263181" lon="7.981732972242712">
      <ele>2490.1</ele></trkpt>
      <trkpt lat="46.39107952317901" lon="7.981691245568838">
      <ele>2491.3</ele></trkpt>
      <trkpt lat="46.39111267333632" lon="7.981664834208071">
      <ele>2492.4</ele></trkpt>
      <trkpt lat="46.39116163673649" lon="7.981646238473284">
      <ele>2493.6</ele></trkpt>
      <trkpt lat="46.39121711140304" lon="7.981646793176815">
      <ele>2494.7</ele></trkpt>
      <trkpt lat="46.391268627938054" lon="7.981649219441788">
      <ele>2495.8</ele></trkpt>
      <trkpt lat="46.39133738089419" lon="7.981636528935771">
      <ele>2496.9</ele></trkpt>
      <trkpt lat="46.39139299244233" lon="7.981610368000572">
      <ele>2498.1</ele></trkpt>
      <trkpt lat="46.39145242508765" lon="7.981610962244214">
      <ele>2499.2</ele></trkpt>
      <trkpt lat="46.39150141576946" lon="7.981588544323738">
      <ele>2500.3</ele></trkpt>
      <trkpt lat="46.39152923071717" lon="7.981573546242206">
      <ele>2501.4</ele></trkpt>
      <trkpt lat="46.391589940165005" lon="7.981581784811283">
      <ele>2502.5</ele></trkpt>
      <trkpt lat="46.39163885772658" lon="7.981574642289079">
      <ele>2503.6</ele></trkpt>
      <trkpt lat="46.391678519077466" lon="7.9815673942107">
      <ele>2504.8</ele></trkpt>
      <trkpt lat="46.39171567249077" lon="7.981535315044452">
      <ele>2505.9</ele></trkpt>
      <trkpt lat="46.391751366954026" lon="7.981526129114992">
      <ele>2507.0</ele></trkpt>
      <trkpt lat="46.39176072558345" lon="7.981495436162163">
      <ele>2508.1</ele></trkpt>
      <trkpt lat="46.391772844179584" lon="7.981455709046086">
      <ele>2509.2</ele></trkpt>
      <trkpt lat="46.39180488196794" lon="7.981385394469687">
      <ele>2510.3</ele></trkpt>
      <trkpt lat="46.39182490881706" lon="7.981343588151983">
      <ele>2511.4</ele></trkpt>
      <trkpt lat="46.39182914077029" lon="7.98128636070086">
      <ele>2512.6</ele></trkpt>
      <trkpt lat="46.39181836123284" lon="7.981254920394802">
      <ele>2513.7</ele></trkpt>
      <trkpt lat="46.39179345706228" lon="7.981199273996855">
      <ele>2514.8</ele></trkpt>
      <trkpt lat="46.39179107197466" lon="7.981154383482429">
      <ele>2515.9</ele></trkpt>
      <trkpt lat="46.39180869834571" lon="7.981099097001921">
      <ele>2517.0</ele></trkpt>
      <trkpt lat="46.39181844083461" lon="7.981059593050181">
      <ele>2518.0</ele></trkpt>
      <trkpt lat="46.391821147805025" lon="7.981037180233738">
      <ele>2519.1</ele></trkpt>
      <trkpt lat="46.391796142581" lon="7.981002646660276">
      <ele>2520.1</ele></trkpt>
      <trkpt lat="46.391785826785124" lon="7.98098144290092">
      <ele>2521.2</ele></trkpt>
      <trkpt lat="46.39178678772677" lon="7.980962964981327">
      <ele>2522.3</ele></trkpt>
      <trkpt lat="46.391816434292" lon="7.980935516763251">
      <ele>2523.3</ele></trkpt>
      <trkpt lat="46.39183553794115" lon="7.980934368426036">
      <ele>2524.4</ele></trkpt>
      <trkpt lat="46.39187454843089" lon="7.98094658898364">
      <ele>2525.4</ele></trkpt>
      <trkpt lat="46.39190409405714" lon="7.980940253481888">
      <ele>2526.5</ele></trkpt>
      <trkpt lat="46.39193810435384" lon="7.980908883431463">
      <ele>2527.6</ele></trkpt>
      <trkpt lat="46.391951310070105" lon="7.980869400931474">
      <ele>2528.6</ele></trkpt>
      <trkpt lat="46.39192519083345" lon="7.980813846453452">
      <ele>2529.7</ele></trkpt>
      <trkpt lat="46.39192592694865" lon="7.980733233984257">
      <ele>2530.7</ele></trkpt>
      <trkpt lat="46.39190823819176" lon="7.980620896956789">
      <ele>2531.8</ele></trkpt>
      <trkpt lat="46.39191271540258" lon="7.980593223304279">
      <ele>2532.9</ele></trkpt>
      <trkpt lat="46.391931213992464" lon="7.980537958225371">
      <ele>2533.9</ele></trkpt>
      <trkpt lat="46.39196734487063" lon="7.980426093199221">
      <ele>2535.0</ele></trkpt>
      <trkpt lat="46.39199292020147" lon="7.98034318022773">
      <ele>2536.0</ele></trkpt>
      <trkpt lat="46.39199970963206" lon="7.980196738370675">
      <ele>2537.1</ele></trkpt>
      <trkpt lat="46.392040846950835" lon="7.980127150555422">
      <ele>2538.1</ele></trkpt>
      <trkpt lat="46.392094351217025" lon="7.980012806003021">
      <ele>2539.2</ele></trkpt>
      <trkpt lat="46.39210050825912" lon="7.979895116055035">
      <ele>2540.2</ele></trkpt>
      <trkpt lat="46.39210002105304" lon="7.979842625595675">
      <ele>2541.3</ele></trkpt>
      <trkpt lat="46.3921069896552" lon="7.979794265792393">
      <ele>2542.3</ele></trkpt>
      <trkpt lat="46.39209896990983" lon="7.97974994299425">
      <ele>2543.4</ele></trkpt>
      <trkpt lat="46.392081051733825" lon="7.979710019977765">
      <ele>2544.4</ele></trkpt>
      <trkpt lat="46.39207344550376" lon="7.979643118364107">
      <ele>2545.5</ele></trkpt>
      <trkpt lat="46.392077740332326" lon="7.979572525986683">
      <ele>2546.5</ele></trkpt>
      <trkpt lat="46.392103056047546" lon="7.979526949140778">
      <ele>2547.6</ele></trkpt>
      <trkpt lat="46.39213222937332" lon="7.979504344696829">
      <ele>2548.6</ele></trkpt>
      <trkpt lat="46.39216657383875" lon="7.97950468676618">
      <ele>2549.6</ele></trkpt>
      <trkpt lat="46.392204812558084" lon="7.979518432820253">
      <ele>2550.7</ele></trkpt>
      <trkpt lat="46.39223101348817" lon="7.979566421087264">
      <ele>2551.7</ele></trkpt>
      <trkpt lat="46.39226116338176" lon="7.979614448740364">
      <ele>2552.8</ele></trkpt>
      <trkpt lat="46.392309917066214" lon="7.979639753697285">
      <ele>2553.8</ele></trkpt>
      <trkpt lat="46.39235607155068" lon="7.979657388097674">
      <ele>2554.9</ele></trkpt>
      <trkpt lat="46.39240208036708" lon="7.979703675748853">
      <ele>2555.9</ele></trkpt>
      <trkpt lat="46.392450670184125" lon="7.979763328453087">
      <ele>2557.0</ele></trkpt>
      <trkpt lat="46.39247417165522" lon="7.979822757239347">
      <ele>2558.0</ele></trkpt>
      <trkpt lat="46.39251625889872" lon="7.979861361317692">
      <ele>2559.0</ele></trkpt>
      <trkpt lat="46.39255308412454" lon="7.979894192458289">
      <ele>2560.0</ele></trkpt>
      <trkpt lat="46.39257792627815" lon="7.979947888223701">
      <ele>2561.0</ele></trkpt>
      <trkpt lat="46.392594834269985" lon="7.980003429127581">
      <ele>2562.0</ele></trkpt>
      <trkpt lat="46.39262771072104" lon="7.980034283855087">
      <ele>2563.0</ele></trkpt>
      <trkpt lat="46.39268158041714" lon="7.980095926940674">
      <ele>2564.0</ele></trkpt>
      <trkpt lat="46.39272879283455" lon="7.980168944898121">
      <ele>2565.0</ele></trkpt>
      <trkpt lat="46.39275230347585" lon="7.980222640685978">
      <ele>2566.0</ele></trkpt>
      <trkpt lat="46.39278523449238" lon="7.980242055032341">
      <ele>2567.0</ele></trkpt>
      <trkpt lat="46.39282222360532" lon="7.98024242394942">
      <ele>2567.9</ele></trkpt>
      <trkpt lat="46.392814997679096" lon="7.980197679372856">
      <ele>2568.9</ele></trkpt>
      <trkpt lat="46.39282254264272" lon="7.980175600379216">
      <ele>2569.9</ele></trkpt>
      <trkpt lat="46.39284775824665" lon="7.9801510453226285">
      <ele>2570.9</ele></trkpt>
      <trkpt lat="46.39289653918244" lon="7.980170617720686">
      <ele>2571.9</ele></trkpt>
      <trkpt lat="46.39295326312551" lon="7.980188371171156">
      <ele>2572.9</ele></trkpt>
      <trkpt lat="46.393013972607996" lon="7.980198506605952">
      <ele>2573.9</ele></trkpt>
      <trkpt lat="46.39307332288558" lon="7.9802201217223665">
      <ele>2574.9</ele></trkpt>
      <trkpt lat="46.39310748517019" lon="7.980256736289176">
      <ele>2575.9</ele></trkpt>
      <trkpt lat="46.39315094015083" lon="7.980287696978383">
      <ele>2576.9</ele></trkpt>
      <trkpt lat="46.393185138855905" lon="7.980316680181415">
      <ele>2577.9</ele></trkpt>
      <trkpt lat="46.393219455940816" lon="7.980322756119601">
      <ele>2578.9</ele></trkpt>
      <trkpt lat="46.39326429705886" lon="7.98033848008837">
      <ele>2579.8</ele></trkpt>
      <trkpt lat="46.3933131052804" lon="7.9803523324478745">
      <ele>2580.8</ele></trkpt>
      <trkpt lat="46.39336071882426" lon="7.98033944194798">
      <ele>2581.7</ele></trkpt>
      <trkpt lat="46.393407064605825" lon="7.980316995712148">
      <ele>2582.7</ele></trkpt>
      <trkpt lat="46.393453319248884" lon="7.980313634679266">
      <ele>2583.6</ele></trkpt>
      <trkpt lat="46.39350086896932" lon="7.980314108993131">
      <ele>2584.6</ele></trkpt>
      <trkpt lat="46.39354965900347" lon="7.980331770645623">
      <ele>2585.5</ele></trkpt>
      <trkpt lat="46.39358935627162" lon="7.9803546592348305">
      <ele>2586.5</ele></trkpt>
      <trkpt lat="46.39367598231745" lon="7.9803950220200415">
      <ele>2587.4</ele></trkpt>
      <trkpt lat="46.39375227718014" lon="7.980415493517323">
      <ele>2588.4</ele></trkpt>
      <trkpt lat="46.39378869793494" lon="7.9804237358251875">
      <ele>2589.4</ele></trkpt>
      <trkpt lat="46.393834562033376" lon="7.980453173889515">
      <ele>2590.3</ele></trkpt>
      <trkpt lat="46.39400705229215" lon="7.980508812584414">
      <ele>2591.3</ele></trkpt>
      <trkpt lat="46.39407635852255" lon="7.980538458773525">
      <ele>2592.2</ele></trkpt>
      <trkpt lat="46.39412756600875" lon="7.980541557115836">
      <ele>2593.2</ele></trkpt>
      <trkpt lat="46.39420735828867" lon="7.980556785225177">
      <ele>2594.1</ele></trkpt>
      <trkpt lat="46.39425853428456" lon="7.9805664751185645">
      <ele>2595.1</ele></trkpt>
      <trkpt lat="46.39428806100853" lon="7.980564091449919">
      <ele>2596.0</ele></trkpt>
      <trkpt lat="46.394296703750555" lon="7.9805720957186175">
      <ele>2597.0</ele></trkpt>
      <trkpt lat="46.39431405820944" lon="7.98066027722924">
      <ele>2597.0</ele></trkpt>
      <trkpt lat="46.3943206035199" lon="7.9807062254658625">
      <ele>2597.1</ele></trkpt>
      <trkpt lat="46.39435501173935" lon="7.980879569316745">
      <ele>2597.1</ele></trkpt>
      <trkpt lat="46.3943833453619" lon="7.980963050050513">
      <ele>2597.2</ele></trkpt>
      <trkpt lat="46.394404353163964" lon="7.981017086870771">
      <ele>2597.2</ele></trkpt>
      <trkpt lat="46.394399993032174" lon="7.981057881636166">
      <ele>2597.3</ele></trkpt>
      <trkpt lat="46.39442735044637" lon="7.9811103307269144">
      <ele>2597.3</ele></trkpt>
      <trkpt lat="46.39445159801243" lon="7.981141517016582">
      <ele>2597.4</ele></trkpt>
      <trkpt lat="46.394479064348864" lon="7.981158017556063">
      <ele>2597.4</ele></trkpt>
      <trkpt lat="46.394517877620935" lon="7.981173851378121">
      <ele>2597.4</ele></trkpt>
      <trkpt lat="46.39455607028903" lon="7.9811990662710395">
      <ele>2597.5</ele></trkpt>
      <trkpt lat="46.39459688944258" lon="7.981228103951556">
      <ele>2597.5</ele></trkpt>
      <trkpt lat="46.3946376722519" lon="7.9812609768287315">
      <ele>2597.6</ele></trkpt>
      <trkpt lat="46.39468773881414" lon="7.981288195753003">
      <ele>2597.6</ele></trkpt>
      <trkpt lat="46.39473910934652" lon="7.9813192632823915">
      <ele>2597.7</ele></trkpt>
      <trkpt lat="46.394786512810505" lon="7.981352189482722">
      <ele>2597.7</ele></trkpt>
      <trkpt lat="46.39483922408657" lon="7.981377536737365">
      <ele>2597.8</ele></trkpt>
      <trkpt lat="46.394903827345935" lon="7.981402989905135">
      <ele>2597.8</ele></trkpt>
      <trkpt lat="46.39494472856288" lon="7.981414866339256">
      <ele>2597.9</ele></trkpt>
      <trkpt lat="46.39497906402766" lon="7.98141520954547">
      <ele>2597.9</ele></trkpt>
      <trkpt lat="46.395002884459096" lon="7.981407802566876">
      <ele>2598.7</ele></trkpt>
      <trkpt lat="46.39503454769196" lon="7.981415764143185">
      <ele>2599.4</ele></trkpt>
      <trkpt lat="46.395074218028896" lon="7.981408515586198">
      <ele>2600.2</ele></trkpt>
      <trkpt lat="46.395084595864844" lon="7.981446818773524">
      <ele>2600.9</ele></trkpt>
      <trkpt lat="46.39510422078893" lon="7.981489010962246">
      <ele>2601.7</ele></trkpt>
      <trkpt lat="46.39513836443357" lon="7.981529437062753">
      <ele>2602.5</ele></trkpt>
      <trkpt lat="46.39516725507742" lon="7.981564102867921">
      <ele>2603.2</ele></trkpt>
      <trkpt lat="46.39520005792271" lon="7.981610249486983">
      <ele>2604.0</ele></trkpt>
      <trkpt lat="46.3952301793519" lon="7.981665925737809">
      <ele>2604.7</ele></trkpt>
      <trkpt lat="46.3952590698623" lon="7.98170248995058">
      <ele>2605.5</ele></trkpt>
      <trkpt lat="46.39527474626445" lon="7.98173701075906">
      <ele>2606.3</ele></trkpt>
      <trkpt lat="46.3953011016903" lon="7.981752538598324">
      <ele>2607.0</ele></trkpt>
      <trkpt lat="46.3953315797017" lon="7.981731845343745">
      <ele>2607.8</ele></trkpt>
      <trkpt lat="46.3953671367469" lon="7.981755123363852">
      <ele>2608.5</ele></trkpt>
      <trkpt lat="46.395397349553214" lon="7.981791700943095">
      <ele>2609.3</ele></trkpt>
      <trkpt lat="46.39541299853591" lon="7.981831942442982">
      <ele>2610.1</ele></trkpt>
      <trkpt lat="46.39545782114149" lon="7.9818514906830496">
      <ele>2610.8</ele></trkpt>
      <trkpt lat="46.39550532500163" lon="7.981863420627909">
      <ele>2611.6</ele></trkpt>
      <trkpt lat="46.39554615338984" lon="7.981886738544053">
      <ele>2612.3</ele></trkpt>
      <trkpt lat="46.39559230746343" lon="7.9819043889076635">
      <ele>2613.1</ele></trkpt>
      <trkpt lat="46.39563325445482" lon="7.981906696865148">
      <ele>2614.1</ele></trkpt>
      <trkpt lat="46.395668948791666" lon="7.981899421809978">
      <ele>2615.0</ele></trkpt>
      <trkpt lat="46.395701916071275" lon="7.981911206405373">
      <ele>2616.0</ele></trkpt>
      <trkpt lat="46.39574152243196" lon="7.981917323551962">
      <ele>2617.0</ele></trkpt>
      <trkpt lat="46.39576379202237" lon="7.981955746295343">
      <ele>2617.9</ele></trkpt>
      <trkpt lat="46.39579815478828" lon="7.981952267525884">
      <ele>2618.9</ele></trkpt>
      <trkpt lat="46.395831140369935" lon="7.981960229766035">
      <ele>2619.9</ele></trkpt>
      <trkpt lat="46.395859966863526" lon="7.982008261702415">
      <ele>2620.8</ele></trkpt>
      <trkpt lat="46.395911300543226" lon="7.982048860723868">
      <ele>2621.8</ele></trkpt>
      <trkpt lat="46.39595470019847" lon="7.982089393418281">
      <ele>2622.8</ele></trkpt>
      <trkpt lat="46.39600732880283" lon="7.98213384116163">
      <ele>2623.7</ele></trkpt>
      <trkpt lat="46.39606130734833" lon="7.98217065727445">
      <ele>2624.7</ele></trkpt>
      <trkpt lat="46.39611788496616" lon="7.982215131714238">
      <ele>2625.6</ele></trkpt>
      <trkpt lat="46.396158612397784" lon="7.982263257183009">
      <ele>2626.6</ele></trkpt>
      <trkpt lat="46.39626645165831" lon="7.982359577501072">
      <ele>2627.6</ele></trkpt>
      <trkpt lat="46.3963329841197" lon="7.982387886297906">
      <ele>2628.5</ele></trkpt>
      <trkpt lat="46.39639183443562" lon="7.982416131234313">
      <ele>2629.5</ele></trkpt>
      <trkpt lat="46.39643363502479" lon="7.982433660711929">
      <ele>2630.5</ele></trkpt>
      <trkpt lat="46.39646184228905" lon="7.982432551965805">
      <ele>2631.4</ele></trkpt>
      <trkpt lat="46.39653183106821" lon="7.98245295122317">
      <ele>2632.4</ele></trkpt>
      <trkpt lat="46.396617211169094" lon="7.982473465678023">
      <ele>2633.6</ele></trkpt>
      <trkpt lat="46.396644464971956" lon="7.982494854261996">
      <ele>2634.8</ele></trkpt>
      <trkpt lat="46.39665122177601" lon="7.982513424114878">
      <ele>2636.0</ele></trkpt>
      <trkpt lat="46.39663823345269" lon="7.982554355063002">
      <ele>2637.2</ele></trkpt>
      <trkpt lat="46.39662089881136" lon="7.982612444396147">
      <ele>2638.4</ele></trkpt>
      <trkpt lat="46.39658824894542" lon="7.982654543545972">
      <ele>2639.6</ele></trkpt>
      <trkpt lat="46.396574406007716" lon="7.982695465850426">
      <ele>2640.8</ele></trkpt>
      <trkpt lat="46.396565999989946" lon="7.982731917843771">
      <ele>2642.0</ele></trkpt>
      <trkpt lat="46.39654207620242" lon="7.982760855074618">
      <ele>2643.2</ele></trkpt>
      <trkpt lat="46.39655446887095" lon="7.98278411019051">
      <ele>2644.4</ele></trkpt>
      <trkpt lat="46.396573518237254" lon="7.9827886568298965">
      <ele>2645.7</ele></trkpt>
      <trkpt lat="46.39661171977717" lon="7.9828119495771075">
      <ele>2646.9</ele></trkpt>
      <trkpt lat="46.396651280421075" lon="7.982825712339003">
      <ele>2648.1</ele></trkpt>
      <trkpt lat="46.396677653972766" lon="7.982837431627489">
      <ele>2649.3</ele></trkpt>
      <trkpt lat="46.39671343981665" lon="7.98281296898881">
      <ele>2650.5</ele></trkpt>
      <trkpt lat="46.39674641616976" lon="7.982822843126068">
      <ele>2651.7</ele></trkpt>
      <trkpt lat="46.396769998782666" lon="7.982861280115023">
      <ele>2652.9</ele></trkpt>
      <trkpt lat="46.396802874220505" lon="7.982894063279787">
      <ele>2654.1</ele></trkpt>
      <trkpt lat="46.39683310517443" lon="7.982924908641589">
      <ele>2655.3</ele></trkpt>
      <trkpt lat="46.396868707826485" lon="7.982938631866713">
      <ele>2656.5</ele></trkpt>
      <trkpt lat="46.39690290574184" lon="7.982969517058436">
      <ele>2657.7</ele></trkpt>
      <trkpt lat="46.39691591859075" lon="7.983009746591746">
      <ele>2659.0</ele></trkpt>
      <trkpt lat="46.39695797729646" lon="7.983054077039191">
      <ele>2660.2</ele></trkpt>
      <trkpt lat="46.39700136735744" lon="7.983096535569048">
      <ele>2661.4</ele></trkpt>
      <trkpt lat="46.39705284741108" lon="7.983104684129474">
      <ele>2662.7</ele></trkpt>
      <trkpt lat="46.39710566831263" lon="7.983107112117549">
      <ele>2663.9</ele></trkpt>
      <trkpt lat="46.39715454934205" lon="7.983107602260339">
      <ele>2665.1</ele></trkpt>
      <trkpt lat="46.39718508233471" lon="7.983077378878262">
      <ele>2666.4</ele></trkpt>
      <trkpt lat="46.397214339155845" lon="7.983035648573483">
      <ele>2667.6</ele></trkpt>
      <trkpt lat="46.397243632345536" lon="7.982988210545674">
      <ele>2668.8</ele></trkpt>
      <trkpt lat="46.39728722419073" lon="7.982986749209783">
      <ele>2670.1</ele></trkpt>
      <trkpt lat="46.39732402088391" lon="7.983027217484543">
      <ele>2671.3</ele></trkpt>
      <trkpt lat="46.397368760859045" lon="7.983063942751016">
      <ele>2672.6</ele></trkpt>
      <trkpt lat="46.39742282165818" lon="7.983083559340277">
      <ele>2673.8</ele></trkpt>
      <trkpt lat="46.397471739253405" lon="7.983076430407426">
      <ele>2675.0</ele></trkpt>
      <trkpt lat="46.39750343929945" lon="7.983074823895456">
      <ele>2676.3</ele></trkpt>
      <trkpt lat="46.39753518472875" lon="7.98306750976315">
      <ele>2677.5</ele></trkpt>
      <trkpt lat="46.39756951083947" lon="7.983071676659002">
      <ele>2678.7</ele></trkpt>
      <trkpt lat="46.39758642653778" lon="7.9831252993707045">
      <ele>2680.0</ele></trkpt>
      <trkpt lat="46.39761382024619" lon="7.983196229456809">
      <ele>2681.2</ele></trkpt>
      <trkpt lat="46.397629312573514" lon="7.983272748323965">
      <ele>2682.5</ele></trkpt>
      <trkpt lat="46.397642306843046" lon="7.9833186993702965">
      <ele>2683.8</ele></trkpt>
      <trkpt lat="46.39765925919153" lon="7.983362791785203">
      <ele>2685.1</ele></trkpt>
      <trkpt lat="46.39768945318615" lon="7.983403181347381">
      <ele>2686.4</ele></trkpt>
      <trkpt lat="46.39770247487672" lon="7.983443411657706">
      <ele>2687.7</ele></trkpt>
      <trkpt lat="46.39772216349376" lon="7.983468443961554">
      <ele>2689.0</ele></trkpt>
      <trkpt lat="46.39771666313246" lon="7.983514209542867">
      <ele>2690.3</ele></trkpt>
      <trkpt lat="46.39770189717802" lon="7.9835636918566735">
      <ele>2691.6</ele></trkpt>
      <trkpt lat="46.39771077769699" lon="7.983638259230523">
      <ele>2692.9</ele></trkpt>
      <trkpt lat="46.39770516719651" lon="7.983706934061672">
      <ele>2694.1</ele></trkpt>
      <trkpt lat="46.39772201849418" lon="7.9837720246585535">
      <ele>2695.4</ele></trkpt>
      <trkpt lat="46.39770448830437" lon="7.983848212266469">
      <ele>2696.7</ele></trkpt>
      <trkpt lat="46.39768812352477" lon="7.983927103043143">
      <ele>2698.0</ele></trkpt>
      <trkpt lat="46.3976880718416" lon="7.983964055580494">
      <ele>2699.3</ele></trkpt>
      <trkpt lat="46.39770718520489" lon="7.9839627652552885">
      <ele>2700.6</ele></trkpt>
      <trkpt lat="46.39771191162709" lon="7.984001313092198">
      <ele>2701.9</ele></trkpt>
      <trkpt lat="46.397741533117625" lon="7.984001688620769">
      <ele>2703.2</ele></trkpt>
      <trkpt lat="46.3977749459215" lon="7.9840236733829135">
      <ele>2704.5</ele></trkpt>
      <trkpt lat="46.39777010768927" lon="7.984068262378069">
      <ele>2705.8</ele></trkpt>
      <trkpt lat="46.39773660308055" lon="7.98411401966536">
      <ele>2707.1</ele></trkpt>
      <trkpt lat="46.39771744276206" lon="7.984156878427299">
      <ele>2708.2</ele></trkpt>
      <trkpt lat="46.39769253604399" lon="7.984201200712895">
      <ele>2709.3</ele></trkpt>
      <trkpt lat="46.39771447241576" lon="7.984224578552879">
      <ele>2710.4</ele></trkpt>
      <trkpt lat="46.39775078377044" lon="7.984231197609412">
      <ele>2711.5</ele></trkpt>
      <trkpt lat="46.39777748815303" lon="7.984263881181365">
      <ele>2712.6</ele></trkpt>
      <trkpt lat="46.39782048458166" lon="7.984272127750797">
      <ele>2713.7</ele></trkpt>
      <trkpt lat="46.397865365834896" lon="7.984285009170561">
      <ele>2714.8</ele></trkpt>
      <trkpt lat="46.3979005924051" lon="7.984272152591097">
      <ele>2715.9</ele></trkpt>
      <trkpt lat="46.39794949181496" lon="7.9842688212264665">
      <ele>2717.0</ele></trkpt>
      <trkpt lat="46.39798768399325" lon="7.984292128517162">
      <ele>2718.1</ele></trkpt>
      <trkpt lat="46.3980178592695" lon="7.9843363414089294">
      <ele>2719.1</ele></trkpt>
      <trkpt lat="46.39803867717907" lon="7.984401472449052">
      <ele>2720.2</ele></trkpt>
      <trkpt lat="46.39806871480079" lon="7.984472417353213">
      <ele>2721.3</ele></trkpt>
      <trkpt lat="46.39809085495657" lon="7.984537561800863">
      <ele>2722.4</ele></trkpt>
      <trkpt lat="46.39812232493026" lon="7.984587509070236">
      <ele>2723.5</ele></trkpt>
      <trkpt lat="46.398147284257846" lon="7.984616404742888">
      <ele>2724.6</ele></trkpt>
      <trkpt lat="46.39815896485805" lon="7.984660431962412">
      <ele>2725.7</ele></trkpt>
      <trkpt lat="46.398164052156815" lon="7.98470058313195">
      <ele>2726.8</ele></trkpt>
      <trkpt lat="46.39817835911434" lon="7.984746561183349">
      <ele>2727.9</ele></trkpt>
      <trkpt lat="46.398207267034536" lon="7.984779306439247">
      <ele>2729.0</ele></trkpt>
      <trkpt lat="46.398250767014446" lon="7.984796933435557">
      <ele>2730.3</ele></trkpt>
      <trkpt lat="46.39829305481829" lon="7.984793536018923">
      <ele>2731.5</ele></trkpt>
      <trkpt lat="46.39834324902604" lon="7.98479593928538">
      <ele>2732.8</ele></trkpt>
      <trkpt lat="46.398389559091555" lon="7.984779228596902">
      <ele>2734.1</ele></trkpt>
      <trkpt lat="46.3984371087943" lon="7.984779706866271">
      <ele>2735.3</ele></trkpt>
      <trkpt lat="46.39848204124625" lon="7.98477633602517">
      <ele>2736.6</ele></trkpt>
      <trkpt lat="46.39852430124012" lon="7.984780583876615">
      <ele>2737.9</ele></trkpt>
      <trkpt lat="46.3985572222757" lon="7.984801914355556">
      <ele>2739.2</ele></trkpt>
      <trkpt lat="46.39859684702792" lon="7.984802312931133">
      <ele>2740.4</ele></trkpt>
      <trkpt lat="46.398652358218584" lon="7.984797150110926">
      <ele>2741.7</ele></trkpt>
      <trkpt lat="46.39869600529575" lon="7.984784222341549">
      <ele>2743.0</ele></trkpt>
      <trkpt lat="46.39871603487357" lon="7.984822456793377">
      <ele>2744.2</ele></trkpt>
      <trkpt lat="46.398747517719904" lon="7.984865968578723">
      <ele>2745.5</ele></trkpt>
      <trkpt lat="46.39877418751269" lon="7.984926348561714">
      <ele>2746.8</ele></trkpt>
      <trkpt lat="46.39880569311194" lon="7.984948315123707">
      <ele>2748.1</ele></trkpt>
      <trkpt lat="46.39884298496322" lon="7.984928783109079">
      <ele>2749.3</ele></trkpt>
      <trkpt lat="46.39887066288211" lon="7.984946069200029">
      <ele>2750.6</ele></trkpt>
      <trkpt lat="46.39890605200586" lon="7.984921889028842">
      <ele>2751.9</ele></trkpt>
      <trkpt lat="46.398894682737335" lon="7.984852456860048">
      <ele>2753.1</ele></trkpt>
      <trkpt lat="46.39889382403711" lon="7.984778566467714">
      <ele>2754.4</ele></trkpt>
      <trkpt lat="46.3988977307769" lon="7.98472010628526">
      <ele>2756.2</ele></trkpt>
      <trkpt lat="46.39890639754092" lon="7.984663254295697">
      <ele>2758.0</ele></trkpt>
      <trkpt lat="46.39893502419937" lon="7.984702108425318">
      <ele>2759.8</ele></trkpt>
      <trkpt lat="46.39896167078624" lon="7.984774801943143">
      <ele>2761.6</ele></trkpt>
      <trkpt lat="46.3989912604565" lon="7.984796736218202">
      <ele>2763.3</ele></trkpt>
      <trkpt lat="46.39902467787029" lon="7.984823338019221">
      <ele>2765.1</ele></trkpt>
      <trkpt lat="46.39902947182519" lon="7.984814167253903">
      <ele>2766.9</ele></trkpt>
      <trkpt lat="46.39903625335481" lon="7.984743435187301">
      <ele>2768.7</ele></trkpt>
      <trkpt lat="46.39905162003295" lon="7.984685129106604">
      <ele>2770.5</ele></trkpt>
      <trkpt lat="46.39907174038352" lon="7.984648442464409">
      <ele>2772.3</ele></trkpt>
      <trkpt lat="46.39910742311373" lon="7.984660438817896">
      <ele>2774.1</ele></trkpt>
      <trkpt lat="46.39912444839773" lon="7.98469114066782">
      <ele>2775.9</ele></trkpt>
      <trkpt lat="46.39914805763149" lon="7.984727656006722">
      <ele>2777.7</ele></trkpt>
      <trkpt lat="46.39916798382405" lon="7.984748127839048">
      <ele>2779.5</ele></trkpt>
      <trkpt lat="46.39918934766438" lon="7.98474091809031">
      <ele>2781.2</ele></trkpt>
      <trkpt lat="46.39920300722741" lon="7.984637318765113">
      <ele>2783.0</ele></trkpt>
      <trkpt lat="46.399231835571086" lon="7.9846211860546354">
      <ele>2784.8</ele></trkpt>
      <trkpt lat="46.39924351350609" lon="7.984676981712809">
      <ele>2786.6</ele></trkpt>
      <trkpt lat="46.399276048024284" lon="7.9846608732787665">
      <ele>2788.4</ele></trkpt>
      <trkpt lat="46.39929981256703" lon="7.984609048771778">
      <ele>2790.2</ele></trkpt>
      <trkpt lat="46.39931201568521" lon="7.9846117980584985">
      <ele>2791.5</ele></trkpt>
      <trkpt lat="46.39933008923359" lon="7.984660207465522">
      <ele>2792.9</ele></trkpt>
      <trkpt lat="46.399355288515295" lon="7.9847270876492695">
      <ele>2794.2</ele></trkpt>
      <trkpt lat="46.39937018987993" lon="7.984743023024411">
      <ele>2795.6</ele></trkpt>
      <trkpt lat="46.39938579295826" lon="7.984730918231735">
      <ele>2796.9</ele></trkpt>
      <trkpt lat="46.399400002479396" lon="7.984664447320877">
      <ele>2798.3</ele></trkpt>
      <trkpt lat="46.39940896104423" lon="7.984647893704963">
      <ele>2799.6</ele></trkpt>
      <trkpt lat="46.39941889112302" lon="7.984659384101347">
      <ele>2801.0</ele></trkpt>
      <trkpt lat="46.39944684883031" lon="7.984730687118937">
      <ele>2802.3</ele></trkpt>
      <trkpt lat="46.39947769944934" lon="7.984776598616136">
      <ele>2803.7</ele></trkpt>
      <trkpt lat="46.3994899188557" lon="7.984774094935613">
      <ele>2805.0</ele></trkpt>
      <trkpt lat="46.399497268724325" lon="7.984747876965282">
      <ele>2806.4</ele></trkpt>
      <trkpt lat="46.39950134037343" lon="7.984709351262763">
      <ele>2807.8</ele></trkpt>
      <trkpt lat="46.39951856541586" lon="7.9847060267128604">
      <ele>2809.1</ele></trkpt>
      <trkpt lat="46.399539498743586" lon="7.984737795346991">
      <ele>2810.4</ele></trkpt>
      <trkpt lat="46.39956376449282" lon="7.984768739330834">
      <ele>2811.8</ele></trkpt>
      <trkpt lat="46.39959637687799" lon="7.9847962565063835">
      <ele>2813.1</ele></trkpt>
      <trkpt lat="46.399602146975205" lon="7.984752494631588">
      <ele>2814.5</ele></trkpt>
      <trkpt lat="46.39961542217983" lon="7.984760520941929">
      <ele>2815.8</ele></trkpt>
      <trkpt lat="46.39965229653322" lon="7.984805283916986">
      <ele>2817.2</ele></trkpt>
      <trkpt lat="46.39967998335344" lon="7.98481511959563">
      <ele>2818.8</ele></trkpt>
      <trkpt lat="46.39971306962288" lon="7.984803996801792">
      <ele>2820.3</ele></trkpt>
      <trkpt lat="46.39972518212619" lon="7.984758296169291">
      <ele>2821.9</ele></trkpt>
      <trkpt lat="46.399738608002636" lon="7.984712595722614">
      <ele>2823.4</ele></trkpt>
      <trkpt lat="46.39976103286687" lon="7.984718568574149">
      <ele>2825.0</ele></trkpt>
      <trkpt lat="46.399782025108124" lon="7.984749310711832">
      <ele>2826.5</ele></trkpt>
      <trkpt lat="46.399807232565244" lon="7.984726652978131">
      <ele>2828.1</ele></trkpt>
      <trkpt lat="46.39984041090523" lon="7.984694531186725">
      <ele>2829.6</ele></trkpt>
      <trkpt lat="46.399898565540845" lon="7.984676560749539">
      <ele>2831.2</ele></trkpt>
      <trkpt lat="46.399944648119956" lon="7.984669729491775">
      <ele>2832.8</ele></trkpt>
      <trkpt lat="46.399975447261355" lon="7.984632889564876">
      <ele>2834.3</ele></trkpt>
      <trkpt lat="46.399999350830164" lon="7.984606382689478">
      <ele>2835.9</ele></trkpt>
      <trkpt lat="46.400031154885404" lon="7.984568213480285">
      <ele>2837.4</ele></trkpt>
      <trkpt lat="46.40007107850376" lon="7.984566326363936">
      <ele>2839.0</ele></trkpt>
      <trkpt lat="46.40010388297262" lon="7.984600672213714">
      <ele>2840.5</ele></trkpt>
      <trkpt lat="46.40012601048099" lon="7.984623572063011">
      <ele>2842.1</ele></trkpt>
      <trkpt lat="46.40014065804673" lon="7.984610001115551">
      <ele>2843.6</ele></trkpt>
      <trkpt lat="46.40016605785635" lon="7.984597838585145">
      <ele>2845.2</ele></trkpt>
      <trkpt lat="46.40019202328934" lon="7.984619554762816">
      <ele>2846.7</ele></trkpt>
      <trkpt lat="46.400215201668814" lon="7.98459232531405">
      <ele>2848.3</ele></trkpt>
      <trkpt lat="46.400237148301365" lon="7.98464907044213">
      <ele>2849.9</ele></trkpt>
      <trkpt lat="46.40026845369114" lon="7.984677133876153">
      <ele>2851.5</ele></trkpt>
      <trkpt lat="46.40028479919263" lon="7.984636000395895">
      <ele>2853.1</ele></trkpt>
      <trkpt lat="46.40032621888062" lon="7.984639147567673">
      <ele>2854.7</ele></trkpt>
      <trkpt lat="46.40035040010238" lon="7.9845680296068355">
      <ele>2856.4</ele></trkpt>
      <trkpt lat="46.40038851739931" lon="7.984612493480047">
      <ele>2858.0</ele></trkpt>
      <trkpt lat="46.40040646140779" lon="7.984558840940551">
      <ele>2859.6</ele></trkpt>
      <trkpt lat="46.40042702347724" lon="7.984589253977628">
      <ele>2861.2</ele></trkpt>
      <trkpt lat="46.400443441276565" lon="7.984557392319289">
      <ele>2862.8</ele></trkpt>
      <trkpt lat="46.40045780348117" lon="7.984591904042912">
      <ele>2864.4</ele></trkpt>
      <trkpt lat="46.40047768467868" lon="7.98457873671329">
      <ele>2866.0</ele></trkpt>
      <trkpt lat="46.40050397553135" lon="7.984605735560821">
      <ele>2867.6</ele></trkpt>
      <trkpt lat="46.400526308462595" lon="7.98463268163054">
      <ele>2869.2</ele></trkpt>
      <trkpt lat="46.40055540034862" lon="7.984625341317869">
      <ele>2870.8</ele></trkpt>
      <trkpt lat="46.40058778367674" lon="7.984640646621934">
      <ele>2872.4</ele></trkpt>
      <trkpt lat="46.400611318077445" lon="7.984642248622117">
      <ele>2874.1</ele></trkpt>
      <trkpt lat="46.40064343913107" lon="7.984631674963522">
      <ele>2875.7</ele></trkpt>
      <trkpt lat="46.40068414702195" lon="7.984608886611777">
      <ele>2877.3</ele></trkpt>
      <trkpt lat="46.40072554513439" lon="7.984599693521812">
      <ele>2878.9</ele></trkpt>
      <trkpt lat="46.400771982523935" lon="7.984569602898246">
      <ele>2880.5</ele></trkpt>
      <trkpt lat="46.400799907483226" lon="7.984531823229951">
      <ele>2881.7</ele></trkpt>
      <trkpt lat="46.40083411333282" lon="7.9845385387287">
      <ele>2882.9</ele></trkpt>
      <trkpt lat="46.40087764335027" lon="7.984529366994327">
      <ele>2884.1</ele></trkpt>
      <trkpt lat="46.40091610428243" lon="7.984543550142624">
      <ele>2885.3</ele></trkpt>
      <trkpt lat="46.40096101418973" lon="7.984546732373017">
      <ele>2886.5</ele></trkpt>
      <trkpt lat="46.40097466120506" lon="7.984514881541161">
      <ele>2887.7</ele></trkpt>
      <trkpt lat="46.40100116776311" lon="7.984474616821775">
      <ele>2888.9</ele></trkpt>
      <trkpt lat="46.40102694612995" lon="7.984441730607868">
      <ele>2890.1</ele></trkpt>
      <trkpt lat="46.40103847558834" lon="7.984397518307333">
      <ele>2891.3</ele></trkpt>
      <trkpt lat="46.401064861472996" lon="7.984399161881281">
      <ele>2892.4</ele></trkpt>
      <trkpt lat="46.40109122940572" lon="7.98440453722303">
      <ele>2893.6</ele></trkpt>
      <trkpt lat="46.401134629708594" lon="7.984437286701909">
      <ele>2894.8</ele></trkpt>
      <trkpt lat="46.40118313720448" lon="7.984433145142865">
      <ele>2896.0</ele></trkpt>
      <trkpt lat="46.40121522893932" lon="7.984432401470865">
      <ele>2897.2</ele></trkpt>
      <trkpt lat="46.40125015124934" lon="7.984437914850377">
      <ele>2898.4</ele></trkpt>
      <trkpt lat="46.40129853198053" lon="7.984473211163845">
      <ele>2899.6</ele></trkpt>
      <trkpt lat="46.401349834866274" lon="7.984486379192966">
      <ele>2900.8</ele></trkpt>
      <trkpt lat="46.4013940196468" lon="7.984498175346516">
      <ele>2902.0</ele></trkpt>
      <trkpt lat="46.401431855372984" lon="7.984481508304238">
      <ele>2903.2</ele></trkpt>
      <trkpt lat="46.40147458032913" lon="7.984503172371792">
      <ele>2904.4</ele></trkpt>
      <trkpt lat="46.40151301205442" lon="7.984530904906318">
      <ele>2905.0</ele></trkpt>
      <trkpt lat="46.40154936446916" lon="7.984532726787053">
      <ele>2905.6</ele></trkpt>
      <trkpt lat="46.401584484620145" lon="7.984476554045476">
      <ele>2906.2</ele></trkpt>
      <trkpt lat="46.40162091095516" lon="7.984457402110244">
      <ele>2906.7</ele></trkpt>
      <trkpt lat="46.40167011560182" lon="7.984433632350535">
      <ele>2907.3</ele></trkpt>
      <trkpt lat="46.401708418031404" lon="7.984434017388155">
      <ele>2907.9</ele></trkpt>
      <trkpt lat="46.40175074234365" lon="7.98442489831961">
      <ele>2908.5</ele></trkpt>
      <trkpt lat="46.401806272107734" lon="7.984414000471359">
      <ele>2909.1</ele></trkpt>
      <trkpt lat="46.401855217634036" lon="7.984399213392347">
      <ele>2909.7</ele></trkpt>
      <trkpt lat="46.40190011349539" lon="7.984401576197391">
      <ele>2910.2</ele></trkpt>
      <trkpt lat="46.401947709174266" lon="7.984392497054939">
      <ele>2910.8</ele></trkpt>
      <trkpt lat="46.401992622963995" lon="7.984394873042232">
      <ele>2911.4</ele></trkpt>
      <trkpt lat="46.40204808822561" lon="7.984399253611441">
      <ele>2912.0</ele></trkpt>
      <trkpt lat="46.40210095501174" lon="7.984392138946977">
      <ele>2912.6</ele></trkpt>
      <trkpt lat="46.402143261130696" lon="7.984384931119008">
      <ele>2913.2</ele></trkpt>
      <trkpt lat="46.40219489747208" lon="7.984358701826492">
      <ele>2913.8</ele></trkpt>
      <trkpt lat="46.4022346595508" lon="7.984334290670571">
      <ele>2914.3</ele></trkpt>
      <trkpt lat="46.402270427727444" lon="7.984309826335113">
      <ele>2914.9</ele></trkpt>
      <trkpt lat="46.40231140218829" lon="7.984306415089084">
      <ele>2915.5</ele></trkpt>
      <trkpt lat="46.40234182563344" lon="7.98429716321067">
      <ele>2916.1</ele></trkpt>
      <trkpt lat="46.40237895244008" lon="7.98426890239962">
      <ele>2917.3</ele></trkpt>
      <trkpt lat="46.402418613705336" lon="7.984263579390955">
      <ele>2918.5</ele></trkpt>
      <trkpt lat="46.40246093826349" lon="7.984252535536291">
      <ele>2919.7</ele></trkpt>
      <trkpt lat="46.40250860727954" lon="7.984228203639535">
      <ele>2920.9</ele></trkpt>
      <trkpt lat="46.40254567924093" lon="7.984209473816545">
      <ele>2922.2</ele></trkpt>
      <trkpt lat="46.40258139191327" lon="7.984200287996117">
      <ele>2923.4</ele></trkpt>
      <trkpt lat="46.402615782322975" lon="7.984191075873473">
      <ele>2924.6</ele></trkpt>
      <trkpt lat="46.40266603156679" lon="7.984182036094107">
      <ele>2925.8</ele></trkpt>
      <trkpt lat="46.40273204844568" lon="7.98418652252516">
      <ele>2927.0</ele></trkpt>
      <trkpt lat="46.402796779373425" lon="7.984187172955752">
      <ele>2928.2</ele></trkpt>
      <trkpt lat="46.402861492176996" lon="7.984189721749227">
      <ele>2929.4</ele></trkpt>
      <trkpt lat="46.40292221017458" lon="7.984199889608616">
      <ele>2930.6</ele></trkpt>
      <trkpt lat="46.40297628903673" lon="7.984215712426001">
      <ele>2931.8</ele></trkpt>
      <trkpt lat="46.403010614971976" lon="7.984221779013948">
      <ele>2933.0</ele></trkpt>
      <trkpt lat="46.40305413342345" lon="7.9842355842012545">
      <ele>2934.2</ele></trkpt>
      <trkpt lat="46.403076420614404" lon="7.984270190147097">
      <ele>2935.5</ele></trkpt>
      <trkpt lat="46.40312512716107" lon="7.984306960200811">
      <ele>2936.7</ele></trkpt>
      <trkpt lat="46.40315797479858" lon="7.984343570919811">
      <ele>2937.9</ele></trkpt>
      <trkpt lat="46.403185569643036" lon="7.984374407210895">
      <ele>2939.1</ele></trkpt>
      <trkpt lat="46.403223734203785" lon="7.984405323776008">
      <ele>2940.3</ele></trkpt>
      <trkpt lat="46.40325525022709" lon="7.984443845799532">
      <ele>2941.3</ele></trkpt>
      <trkpt lat="46.4032775742015" lon="7.98447079307822">
      <ele>2942.3</ele></trkpt>
      <trkpt lat="46.40331038506187" lon="7.984515036878217">
      <ele>2943.3</ele></trkpt>
      <trkpt lat="46.403339449350455" lon="7.984513430541238">
      <ele>2944.3</ele></trkpt>
      <trkpt lat="46.40336732893591" lon="7.984485076388473">
      <ele>2945.3</ele></trkpt>
      <trkpt lat="46.40337151642273" lon="7.984439279936193">
      <ele>2946.3</ele></trkpt>
      <trkpt lat="46.403371736855355" lon="7.984393456603469">
      <ele>2947.3</ele></trkpt>
      <trkpt lat="46.40338382187263" lon="7.984351562652382">
      <ele>2948.3</ele></trkpt>
      <trkpt lat="46.40338668691861" lon="7.984305765889022">
      <ele>2949.3</ele></trkpt>
      <trkpt lat="46.40336850460726" lon="7.98424065495527">
      <ele>2950.4</ele></trkpt>
      <trkpt lat="46.40336083671143" lon="7.984187119104165">
      <ele>2951.4</ele></trkpt>
      <trkpt lat="46.40339761471816" lon="7.984231389662185">
      <ele>2952.4</ele></trkpt>
      <trkpt lat="46.403425191208" lon="7.984266048981642">
      <ele>2953.4</ele></trkpt>
      <trkpt lat="46.403463383252394" lon="7.9842912571856965">
      <ele>2954.4</ele></trkpt>
      <trkpt lat="46.403483007452934" lon="7.984329646784229">
      <ele>2955.4</ele></trkpt>
      <trkpt lat="46.4035303458832" lon="7.984374049698179">
      <ele>2956.4</ele></trkpt>
      <trkpt lat="46.40358301963148" lon="7.984408935456756">
      <ele>2957.4</ele></trkpt>
      <trkpt lat="46.40360524246234" lon="7.984456909174363">
      <ele>2958.4</ele></trkpt>
      <trkpt lat="46.403636832038735" lon="7.984480139642114">
      <ele>2959.4</ele></trkpt>
      <trkpt lat="46.40363450892424" lon="7.98441327620054">
      <ele>2960.4</ele></trkpt>
      <trkpt lat="46.40364401319981" lon="7.984361811240108">
      <ele>2961.6</ele></trkpt>
      <trkpt lat="46.403658742791634" lon="7.984319956656083">
      <ele>2962.7</ele></trkpt>
      <trkpt lat="46.40367974421003" lon="7.984348815370364">
      <ele>2963.9</ele></trkpt>
      <trkpt lat="46.40370995657905" lon="7.984381576844928">
      <ele>2965.1</ele></trkpt>
      <trkpt lat="46.40375335520194" lon="7.984424028805279">
      <ele>2966.2</ele></trkpt>
      <trkpt lat="46.40379400832872" lon="7.9844855430241735">
      <ele>2967.4</ele></trkpt>
      <trkpt lat="46.4038373336001" lon="7.984541362463342">
      <ele>2968.6</ele></trkpt>
      <trkpt lat="46.403864864193515" lon="7.984585540661452">
      <ele>2969.7</ele></trkpt>
      <trkpt lat="46.403897638354934" lon="7.984635532396039">
      <ele>2970.9</ele></trkpt>
      <trkpt lat="46.40392650037298" lon="7.984677825501381">
      <ele>2972.1</ele></trkpt>
      <trkpt lat="46.40395276366479" lon="7.984710547588751">
      <ele>2973.2</ele></trkpt>
      <trkpt lat="46.40395294740952" lon="7.9846723697392115">
      <ele>2974.4</ele></trkpt>
      <trkpt lat="46.40395314040276" lon="7.984632267392805">
      <ele>2975.5</ele></trkpt>
      <trkpt lat="46.40397442919004" lon="7.984649997860416">
      <ele>2976.7</ele></trkpt>
      <trkpt lat="46.403997126778485" lon="7.9846722028809785">
      <ele>2977.9</ele></trkpt>
      <trkpt lat="46.40402245102047" lon="7.984694434338518">
      <ele>2979.0</ele></trkpt>
      <trkpt lat="46.40404514667702" lon="7.984715169925216">
      <ele>2980.2</ele></trkpt>
      <trkpt lat="46.404069575215985" lon="7.984740331319791">
      <ele>2981.4</ele></trkpt>
      <trkpt lat="46.40409235548628" lon="7.984743486362948">
      <ele>2982.5</ele></trkpt>
      <trkpt lat="46.40412037883496" lon="7.984752558962796">
      <ele>2983.7</ele></trkpt>
      <trkpt lat="46.40414226340986" lon="7.984758643915035">
      <ele>2984.6</ele></trkpt>
      <trkpt lat="46.404143215435965" lon="7.984744010953872">
      <ele>2985.4</ele></trkpt>
      <trkpt lat="46.404131183488275" lon="7.984692615049296">
      <ele>2986.3</ele></trkpt>
      <trkpt lat="46.40412787973313" lon="7.984650097667479">
      <ele>2987.2</ele></trkpt>
      <trkpt lat="46.404138418435664" lon="7.984647277748916">
      <ele>2988.1</ele></trkpt>
      <trkpt lat="46.40415492985892" lon="7.984678211344859">
      <ele>2988.9</ele></trkpt>
      <trkpt lat="46.40416542631928" lon="7.9846841687292125">
      <ele>2989.8</ele></trkpt>
      <trkpt lat="46.4041725182864" lon="7.984666671604003">
      <ele>2990.7</ele></trkpt>
      <trkpt lat="46.40416055167819" lon="7.984603559711715">
      <ele>2991.6</ele></trkpt>
      <trkpt lat="46.40416150175951" lon="7.9845874572676605">
      <ele>2992.4</ele></trkpt>
      <trkpt lat="46.40417552758137" lon="7.984589054761735">
      <ele>2993.3</ele></trkpt>
      <trkpt lat="46.404189438596795" lon="7.98461264093505">
      <ele>2994.2</ele></trkpt>
      <trkpt lat="46.40419296795432" lon="7.984608281061396">
      <ele>2995.1</ele></trkpt>
      <trkpt lat="46.40418786776686" lon="7.984574536303922">
      <ele>2995.9</ele></trkpt>
      <trkpt lat="46.404182739351945" lon="7.98454665609072">
      <ele>2996.8</ele></trkpt>
      <trkpt lat="46.404189889718936" lon="7.98451888633715">
      <ele>2997.7</ele></trkpt>
      <trkpt lat="46.4041969765796" lon="7.9845043150409065">
      <ele>2998.6</ele></trkpt>
      <trkpt lat="46.40420753642425" lon="7.984497099935918">
      <ele>2999.4</ele></trkpt>
      <trkpt lat="46.40420340040262" lon="7.98444431394908">
      <ele>3000.3</ele></trkpt>
      <trkpt lat="46.40419304486083" lon="7.984409059918369">
      <ele>3001.2</ele></trkpt>
      <trkpt lat="46.404179422635195" lon="7.984325424051033">
      <ele>3002.1</ele></trkpt>
      <trkpt lat="46.40417437877186" lon="7.984279950254272">
      <ele>3003.1</ele></trkpt>
      <trkpt lat="46.40415979742981" lon="7.9842124168083615">
      <ele>3004.0</ele></trkpt>
      <trkpt lat="46.40414873639171" lon="7.984140523407806">
      <ele>3004.9</ele></trkpt>
      <trkpt lat="46.40414882085516" lon="7.984122955811222">
      <ele>3005.8</ele></trkpt>
      <trkpt lat="46.40416019690101" lon="7.9841274654731125">
      <ele>3006.8</ele></trkpt>
      <trkpt lat="46.40416798220467" lon="7.984150976966433">
      <ele>3007.7</ele></trkpt>
      <trkpt lat="46.404183605148326" lon="7.984183370955524">
      <ele>3008.6</ele></trkpt>
      <trkpt lat="46.40419927234416" lon="7.984208431127972">
      <ele>3009.6</ele></trkpt>
      <trkpt lat="46.40422808374921" lon="7.984235092863451">
      <ele>3010.5</ele></trkpt>
      <trkpt lat="46.40424378421081" lon="7.984251362665688">
      <ele>3011.4</ele></trkpt>
      <trkpt lat="46.404244818782786" lon="7.984217679559817">
      <ele>3012.4</ele></trkpt>
      <trkpt lat="46.40425788745226" lon="7.984236861830984">
      <ele>3013.3</ele></trkpt>
      <trkpt lat="46.404274518738845" lon="7.984242893797358">
      <ele>3014.2</ele></trkpt>
      <trkpt lat="46.40428702795647" lon="7.984193213945202">
      <ele>3015.2</ele></trkpt>
      <trkpt lat="46.40430205563703" lon="7.9842240545516985">
      <ele>3016.1</ele></trkpt>
      <trkpt lat="46.40430352543428" lon="7.984227073261604">
      <ele>3017.0</ele></trkpt>
      <trkpt lat="46.40431672598836" lon="7.984216958709556">
      <ele>3017.9</ele></trkpt>
      <trkpt lat="46.40433452063166" lon="7.984164393000709">
      <ele>3018.9</ele></trkpt>
      <trkpt lat="46.40435535975076" lon="7.984096793919747">
      <ele>3019.8</ele></trkpt>
    </trkseg>
  </trk>
</gpx>