<?xml version='1.0' encoding='utf-8'?>
<gpx xmlns="http://www.topografix.com/GPX/1/1" xmlns:xsi="http://www.w3.org/2001/XMLSchema-instance" xsi:schemaLocation="http://www.topografix.com/GPX/1/1 http://www.topografix.com/GPX/1/1/gpx.xsd" version="1.1" creator="gpx.py -- https://github.com/tkrajina/gpxpy">
  <trk>
    <name>gross-mythen</name>
    <trkseg>
      <trkpt lat="47.0288426593791" lon="8.698129992270673">
      <ele>1402.8</ele></trkpt>
    <trkpt lat="47.02884362091029" lon="8.698088281324248">
      <ele>1403.3</ele></trkpt>
      <trkpt lat="47.02884314895359" lon="8.698052588876202">
      <ele>1403.8</ele></trkpt>
      <trkpt lat="47.02883572382263" lon="8.697961882326256">
      <ele>1404.4</ele></trkpt>
      <trkpt lat="47.02881211803586" lon="8.697802788328907">
      <ele>1404.9</ele></trkpt>
      <trkpt lat="47.02877925100419" lon="8.697682592402188">
      <ele>1405.4</ele></trkpt>
      <trkpt lat="47.02876734577404" lon="8.697644342414046">
      <ele>1405.9</ele></trkpt>
      <trkpt lat="47.02876104413091" lon="8.69758322580595">
      <ele>1406.4</ele></trkpt>
      <trkpt lat="47.02875850355325" lon="8.697530249440865">
      <ele>1406.9</ele></trkpt>
      <trkpt lat="47.028764424208404" lon="8.697475195481276">
      <ele>1407.5</ele></trkpt>
      <trkpt lat="47.02876203332773" lon="8.697406105520619">
      <ele>1408.0</ele></trkpt>
      <trkpt lat="47.0287529403038" lon="8.697317320446679">
      <ele>1408.5</ele></trkpt>
      <trkpt lat="47.02873562751153" lon="8.69720530498901">
      <ele>1409.0</ele></trkpt>
      <trkpt lat="47.02871874544988" lon="8.697127836345697">
      <ele>1409.5</ele></trkpt>
      <trkpt lat="47.0286962133486" lon="8.697076654098092">
      <ele>1410.0</ele></trkpt>
      <trkpt lat="47.028672579674826" lon="8.697053733181269">
      <ele>1410.6</ele></trkpt>
      <trkpt lat="47.028651091684736" lon="8.697038598808716">
      <ele>1411.1</ele></trkpt>
      <trkpt lat="47.028634826599536" lon="8.697001667735032">
      <ele>1411.6</ele></trkpt>
      <trkpt lat="47.028627245993455" lon="8.696933271973855">
      <ele>1412.5</ele></trkpt>
      <trkpt lat="47.02862977373211" lon="8.696855337799034">
      <ele>1413.4</ele></trkpt>
      <trkpt lat="47.02864044262302" lon="8.696794672050121">
      <ele>1414.3</ele></trkpt>
      <trkpt lat="47.02863937502629" lon="8.696738599074674">
      <ele>1415.2</ele></trkpt>
      <trkpt lat="47.02862061883758" lon="8.69662607656611">
      <ele>1416.1</ele></trkpt>
      <trkpt lat="47.02862956139434" lon="8.69657023832077">
      <ele>1417.0</ele></trkpt>
      <trkpt lat="47.02863702688495" lon="8.696497314224436">
      <ele>1417.9</ele></trkpt>
      <trkpt lat="47.02862751526837" lon="8.696453226485815">
      <ele>1418.8</ele></trkpt>
      <trkpt lat="47.02858849834934" lon="8.69636459550649">
      <ele>1419.7</ele></trkpt>
      <trkpt lat="47.02857560559716" lon="8.696325296579568">
      <ele>1420.7</ele></trkpt>
      <trkpt lat="47.028564919120385" lon="8.69623489585386">
      <ele>1421.6</ele></trkpt>
      <trkpt lat="47.02852742391852" lon="8.69616090481605">
      <ele>1422.5</ele></trkpt>
      <trkpt lat="47.02848653813558" lon="8.696089281572247">
      <ele>1423.4</ele></trkpt>
      <trkpt lat="47.028442876310066" lon="8.69596886080295">
      <ele>1424.3</ele></trkpt>
      <trkpt lat="47.0284300900542" lon="8.695919828589489">
      <ele>1425.2</ele></trkpt>
      <trkpt lat="47.028429057680576" lon="8.69586132269042">
      <ele>1426.1</ele></trkpt>
      <trkpt lat="47.02843496560924" lon="8.695778613137595">
      <ele>1427.0</ele></trkpt>
      <trkpt lat="47.02844637208417" lon="8.695649733821861">
      <ele>1427.9</ele></trkpt>
      <trkpt lat="47.028467219431825" lon="8.695572242217427">
      <ele>1428.8</ele></trkpt>
      <trkpt lat="47.02850192027428" lon="8.695446342468653">
      <ele>1429.7</ele></trkpt>
      <trkpt lat="47.028540251251115" lon="8.695293714102906">
      <ele>1431.6</ele></trkpt>
      <trkpt lat="47.02857663316766" lon="8.695165432534935">
      <ele>1433.5</ele></trkpt>
      <trkpt lat="47.02862858607854" lon="8.694986322384603">
      <ele>1435.4</ele></trkpt>
      <trkpt lat="47.02866002943676" lon="8.69485304360012">
      <ele>1437.3</ele></trkpt>
      <trkpt lat="47.02869352778585" lon="8.694685697190213">
      <ele>1439.2</ele></trkpt>
      <trkpt lat="47.0287141345202" lon="8.694630131631932">
      <ele>1441.0</ele></trkpt>
      <trkpt lat="47.028714534549096" lon="8.694593578233585">
      <ele>1442.9</ele></trkpt>
      <trkpt lat="47.02870633946592" lon="8.694581203188426">
      <ele>1444.8</ele></trkpt>
      <trkpt lat="47.028676247053696" lon="8.69459024792548">
      <ele>1446.7</ele></trkpt>
      <trkpt lat="47.02860733396127" lon="8.694644682573808">
      <ele>1448.6</ele></trkpt>
      <trkpt lat="47.02857721476836" lon="8.694656173791314">
      <ele>1450.5</ele></trkpt>
      <trkpt lat="47.02854393689064" lon="8.694652960726122">
      <ele>1452.4</ele></trkpt>
      <trkpt lat="47.028522057328104" lon="8.694671933667722">
      <ele>1454.3</ele></trkpt>
      <trkpt lat="47.02848995438325" lon="8.694712612709852">
      <ele>1456.2</ele></trkpt>
      <trkpt lat="47.02846141930516" lon="8.694731429787742">
      <ele>1458.0</ele></trkpt>
      <trkpt lat="47.02845851824554" lon="8.694692365280602">
      <ele>1459.9</ele></trkpt>
      <trkpt lat="47.028471196351376" lon="8.694600078071575">
      <ele>1461.8</ele></trkpt>
      <trkpt lat="47.02847662362301" lon="8.69456120852386">
      <ele>1463.7</ele></trkpt>
      <trkpt lat="47.0284673244302" lon="8.694497641111989">
      <ele>1465.6</ele></trkpt>
      <trkpt lat="47.02850142861499" lon="8.694425340499027">
      <ele>1467.5</ele></trkpt>
      <trkpt lat="47.028507184754524" lon="8.694357231146004">
      <ele>1469.2</ele></trkpt>
      <trkpt lat="47.028543272490445" lon="8.694255742488163">
      <ele>1470.8</ele></trkpt>
      <trkpt lat="47.02858568712757" lon="8.694186083264167">
      <ele>1472.5</ele></trkpt>
      <trkpt lat="47.02863977612726" lon="8.694116670807324">
      <ele>1474.2</ele></trkpt>
      <trkpt lat="47.028643237122026" lon="8.694104568612913">
      <ele>1475.8</ele></trkpt>
      <trkpt lat="47.02857977800149" lon="8.69411770080486">
      <ele>1477.5</ele></trkpt>
      <trkpt lat="47.0284962453742" lon="8.694137678378187">
      <ele>1479.2</ele></trkpt>
      <trkpt lat="47.028484642484614" lon="8.694132538860268">
      <ele>1480.9</ele></trkpt>
      <trkpt lat="47.02849825574003" lon="8.694106043965911">
      <ele>1482.5</ele></trkpt>
      <trkpt lat="47.028577187449926" lon="8.694049409171534">
      <ele>1484.2</ele></trkpt>
      <trkpt lat="47.02858570229719" lon="8.694032557238026">
      <ele>1485.9</ele></trkpt>
      <trkpt lat="47.02856907216168" lon="8.694029734103303">
      <ele>1487.5</ele></trkpt>
      <trkpt lat="47.02851244639477" lon="8.694028409107545">
      <ele>1489.2</ele></trkpt>
      <trkpt lat="47.02848613485266" lon="8.69399611199103">
      <ele>1490.9</ele></trkpt>
      <trkpt lat="47.02842645641629" lon="8.69396791533918">
      <ele>1492.6</ele></trkpt>
      <trkpt lat="47.02842666977867" lon="8.69394840889593">
      <ele>1494.2</ele></trkpt>
      <trkpt lat="47.02845697521158" lon="8.693919883693365">
      <ele>1495.9</ele></trkpt>
      <trkpt lat="47.028488571468145" lon="8.693925504108059">
      <ele>1497.6</ele></trkpt>
      <trkpt lat="47.02855574050061" lon="8.693878329864468">
      <ele>1499.2</ele></trkpt>
      <trkpt lat="47.02863596280498" lon="8.693855853569334">
      <ele>1500.9</ele></trkpt>
      <trkpt lat="47.028636282602925" lon="8.69382661351961">
      <ele>1502.5</ele></trkpt>
      <trkpt lat="47.02859981878514" lon="8.693808709252533">
      <ele>1504.2</ele></trkpt>
      <trkpt lat="47.02853213170561" lon="8.69375107791775">
      <ele>1505.8</ele></trkpt>
      <trkpt lat="47.02844779683519" lon="8.693693057289556">
      <ele>1507.5</ele></trkpt>
      <trkpt lat="47.02838640122686" lon="8.693669688815595">
      <ele>1509.1</ele></trkpt>
      <trkpt lat="47.02832503222274" lon="8.693643887026688">
      <ele>1510.8</ele></trkpt>
      <trkpt lat="47.0282567679329" lon="8.693639856210057">
      <ele>1512.4</ele></trkpt>
      <trkpt lat="47.028223578618395" lon="8.693626896765103">
      <ele>1514.1</ele></trkpt>
      <trkpt lat="47.02820880789369" lon="8.693607053057166">
      <ele>1515.7</ele></trkpt>
      <trkpt lat="47.028219542585774" lon="8.693588753233152">
      <ele>1517.3</ele></trkpt>
      <trkpt lat="47.02824415823384" lon="8.693573764652278">
      <ele>1519.0</ele></trkpt>
      <trkpt lat="47.02827603849072" lon="8.693552591295107">
      <ele>1520.6</ele></trkpt>
      <trkpt lat="47.028276464783346" lon="8.693513604821378">
      <ele>1522.3</ele></trkpt>
      <trkpt lat="47.02824511710218" lon="8.693486071444639">
      <ele>1523.9</ele></trkpt>
      <trkpt lat="47.02822686729374" lon="8.693478342642557">
      <ele>1525.6</ele></trkpt>
      <trkpt lat="47.028235462162556" lon="8.693454164328555">
      <ele>1527.2</ele></trkpt>
      <trkpt lat="47.028263970427126" lon="8.69343778001635">
      <ele>1528.9</ele></trkpt>
      <trkpt lat="47.02831209043697" lon="8.693455956537255">
      <ele>1530.5</ele></trkpt>
      <trkpt lat="47.02837694701745" lon="8.693467222558755">
      <ele>1532.2</ele></trkpt>
      <trkpt lat="47.02843001428926" lon="8.693490396003675">
      <ele>1533.8</ele></trkpt>
      <trkpt lat="47.02846639819341" lon="8.693515613275798">
      <ele>1535.0</ele></trkpt>
      <trkpt lat="47.02848458564635" lon="8.693528221819548">
      <ele>1536.2</ele></trkpt>
      <trkpt lat="47.028488082180054" lon="8.693513686456674">
      <ele>1537.4</ele></trkpt>
      <trkpt lat="47.02846531138241" lon="8.693461974134225">
      <ele>1538.6</ele></trkpt>
      <trkpt lat="47.02842607917492" lon="8.693392825739611">
      <ele>1539.8</ele></trkpt>
      <trkpt lat="47.02840834440042" lon="8.693338810465663">
      <ele>1541.0</ele></trkpt>
      <trkpt lat="47.02846468610013" lon="8.693366941525383">
      <ele>1542.2</ele></trkpt>
      <trkpt lat="47.028497769025705" lon="8.693389634373196">
      <ele>1543.4</ele></trkpt>
      <trkpt lat="47.02852404528326" lon="8.693424351212855">
      <ele>1544.6</ele></trkpt>
      <trkpt lat="47.028517762529" lon="8.693390101965868">
      <ele>1545.8</ele></trkpt>
      <trkpt lat="47.02850501053381" lon="8.69333618997212">
      <ele>1547.0</ele></trkpt>
      <trkpt lat="47.02848381482474" lon="8.693294276849683">
      <ele>1548.2</ele></trkpt>
      <trkpt lat="47.02844420966864" lon="8.693259235250759">
      <ele>1549.4</ele></trkpt>
      <trkpt lat="47.0284178713089" lon="8.69322937192568">
      <ele>1550.6</ele></trkpt>
      <trkpt lat="47.02839037489126" lon="8.693153196201726">
      <ele>1551.8</ele></trkpt>
      <trkpt lat="47.02838277438707" lon="8.693087234879863">
      <ele>1553.0</ele></trkpt>
      <trkpt lat="47.028378253090814" lon="8.693043264664063">
      <ele>1554.2</ele></trkpt>
      <trkpt lat="47.02835688855927" lon="8.693015964920692">
      <ele>1555.4</ele></trkpt>
      <trkpt lat="47.028304362810786" lon="8.692944059064166">
      <ele>1556.6</ele></trkpt>
      <trkpt lat="47.02827130653399" lon="8.69291892005338">
      <ele>1557.8</ele></trkpt>
      <trkpt lat="47.02822832032031" lon="8.692888667804098">
      <ele>1559.5</ele></trkpt>
      <trkpt lat="47.028210212576184" lon="8.69286875944673">
      <ele>1561.2</ele></trkpt>
      <trkpt lat="47.02819894691662" lon="8.692831933687017">
      <ele>1562.9</ele></trkpt>
      <trkpt lat="47.02820074375538" lon="8.692819805767071">
      <ele>1564.6</ele></trkpt>
      <trkpt lat="47.0282605022546" lon="8.69284070092493">
      <ele>1566.2</ele></trkpt>
      <trkpt lat="47.028307278025856" lon="8.692829598135912">
      <ele>1567.9</ele></trkpt>
      <trkpt lat="47.02829107376213" lon="8.692787802052163">
      <ele>1569.6</ele></trkpt>
      <trkpt lat="47.028254822794906" lon="8.692750405374538">
      <ele>1571.3</ele></trkpt>
      <trkpt lat="47.028202154650906" lon="8.692690692828107">
      <ele>1573.0</ele></trkpt>
      <trkpt lat="47.02818079902871" lon="8.692663393525045">
      <ele>1574.7</ele></trkpt>
      <trkpt lat="47.0281572689305" lon="8.692528816613077">
      <ele>1576.4</ele></trkpt>
      <trkpt lat="47.028167474161734" lon="8.69250955694124">
      <ele>1578.1</ele></trkpt>
      <trkpt lat="47.02819526360809" lon="8.692558951871396">
      <ele>1579.8</ele></trkpt>
      <trkpt lat="47.028239656760505" lon="8.692613589740365">
      <ele>1581.5</ele></trkpt>
      <trkpt lat="47.028288078505994" lon="8.692604985530572">
      <ele>1583.1</ele></trkpt>
      <trkpt lat="47.0282687772658" lon="8.69254115863331">
      <ele>1584.8</ele></trkpt>
      <trkpt lat="47.02824305074976" lon="8.692455275744408">
      <ele>1586.5</ele></trkpt>
      <trkpt lat="47.02824406207215" lon="8.692362702635231">
      <ele>1588.2</ele></trkpt>
      <trkpt lat="47.0282303199468" lon="8.692247852605632">
      <ele>1589.9</ele></trkpt>
      <trkpt lat="47.028213178925256" lon="8.692140251495514">
      <ele>1591.6</ele></trkpt>
      <trkpt lat="47.02820381624397" lon="8.692081551333994">
      <ele>1593.1</ele></trkpt>
      <trkpt lat="47.028222163459006" lon="8.69207954598916">
      <ele>1594.7</ele></trkpt>
      <trkpt lat="47.02825190089818" lon="8.69210215977319">
      <ele>1596.2</ele></trkpt>
      <trkpt lat="47.02829110730623" lon="8.692173740366114">
      <ele>1597.7</ele></trkpt>
      <trkpt lat="47.02833010074013" lon="8.69226481432511">
      <ele>1599.2</ele></trkpt>
      <trkpt lat="47.028364315414535" lon="8.692336278499294">
      <ele>1600.8</ele></trkpt>
      <trkpt lat="47.02835110541771" lon="8.692172708199625">
      <ele>1602.3</ele></trkpt>
      <trkpt lat="47.02834456868485" lon="8.692009293882958">
      <ele>1603.8</ele></trkpt>
      <trkpt lat="47.028335959837946" lon="8.691882380537812">
      <ele>1605.4</ele></trkpt>
      <trkpt lat="47.028312428680884" lon="8.691747816733331">
      <ele>1606.9</ele></trkpt>
      <trkpt lat="47.02831782841784" lon="8.691711380381951">
      <ele>1608.4</ele></trkpt>
      <trkpt lat="47.028346008327915" lon="8.691724221658825">
      <ele>1610.0</ele></trkpt>
      <trkpt lat="47.02836869120474" lon="8.691783233031646">
      <ele>1611.5</ele></trkpt>
      <trkpt lat="47.02841789891912" lon="8.69185506031528">
      <ele>1613.0</ele></trkpt>
      <trkpt lat="47.02844146276886" lon="8.691906711477202">
      <ele>1614.5</ele></trkpt>
      <trkpt lat="47.02845375150676" lon="8.691910840302919">
      <ele>1616.1</ele></trkpt>
      <trkpt lat="47.02845693124572" lon="8.691889048086804">
      <ele>1617.6</ele></trkpt>
      <trkpt lat="47.028450836331224" lon="8.691854856088238">
      <ele>1619.1</ele></trkpt>
      <trkpt lat="47.02844116011369" lon="8.691800963760052">
      <ele>1620.7</ele></trkpt>
      <trkpt lat="47.02843386648888" lon="8.691754613279837">
      <ele>1622.2</ele></trkpt>
      <trkpt lat="47.02842684382555" lon="8.691685915861948">
      <ele>1623.4</ele></trkpt>
      <trkpt lat="47.0284330888891" lon="8.69163302694542">
      <ele>1624.6</ele></trkpt>
      <trkpt lat="47.028428228803335" lon="8.691589548868102">
      <ele>1625.8</ele></trkpt>
      <trkpt lat="47.02843263304481" lon="8.691559417561763">
      <ele>1627.0</ele></trkpt>
      <trkpt lat="47.02843170677944" lon="8.691505821734967">
      <ele>1628.2</ele></trkpt>
      <trkpt lat="47.028420954302646" lon="8.691467271415954">
      <ele>1629.5</ele></trkpt>
      <trkpt lat="47.028411081595785" lon="8.691447845216876">
      <ele>1630.7</ele></trkpt>
      <trkpt lat="47.028404246101225" lon="8.691419674942873">
      <ele>1631.9</ele></trkpt>
      <trkpt lat="47.02840455451322" lon="8.691356806175953">
      <ele>1633.1</ele></trkpt>
      <trkpt lat="47.02840115350728" lon="8.691322229845708">
      <ele>1634.3</ele></trkpt>
      <trkpt lat="47.02839434856151" lon="8.691291257926018">
      <ele>1635.5</ele></trkpt>
      <trkpt lat="47.02839824176096" lon="8.691284862562155">
      <ele>1636.7</ele></trkpt>
      <trkpt lat="47.028417550524516" lon="8.691302732884022">
      <ele>1637.9</ele></trkpt>
      <trkpt lat="47.02844672672417" lon="8.691358646054487">
      <ele>1639.1</ele></trkpt>
      <trkpt lat="47.028481125717185" lon="8.691409155410035">
      <ele>1640.4</ele></trkpt>
      <trkpt lat="47.02851178730111" lon="8.691435303359144">
      <ele>1641.6</ele></trkpt>
      <trkpt lat="47.028535468334944" lon="8.69146305133847">
      <ele>1642.8</ele></trkpt>
      <trkpt lat="47.02857124098086" lon="8.691544300806129">
      <ele>1644.0</ele></trkpt>
      <trkpt lat="47.028613163867504" lon="8.69167197954472">
      <ele>1645.2</ele></trkpt>
      <trkpt lat="47.028653529016395" lon="8.6917898860819">
      <ele>1646.4</ele></trkpt>
      <trkpt lat="47.028671911788955" lon="8.691785447445387">
      <ele>1648.5</ele></trkpt>
      <trkpt lat="47.02866999376575" lon="8.69165625562621">
      <ele>1650.7</ele></trkpt>
      <trkpt lat="47.02867005867903" lon="8.69149786259062">
      <ele>1652.8</ele></trkpt>
      <trkpt lat="47.02866845035875" lon="8.691339443648314">
      <ele>1654.9</ele></trkpt>
      <trkpt lat="47.02864796288757" lon="8.691231750683675">
      <ele>1657.0</ele></trkpt>
      <trkpt lat="47.02863961902401" lon="8.691080476599984">
      <ele>1659.2</ele></trkpt>
      <trkpt lat="47.02860591765042" lon="8.690962726190772">
      <ele>1661.3</ele></trkpt>
      <trkpt lat="47.028590138106125" lon="8.690881943717098">
      <ele>1663.4</ele></trkpt>
      <trkpt lat="47.02854805504894" lon="8.690768865931233">
      <ele>1665.5</ele></trkpt>
      <trkpt lat="47.0285045025267" lon="8.690636268896986">
      <ele>1667.7</ele></trkpt>
      <trkpt lat="47.0284638704678" lon="8.690542723625715">
      <ele>1669.8</ele></trkpt>
      <trkpt lat="47.028439602703465" lon="8.690476373724714">
      <ele>1671.9</ele></trkpt>
      <trkpt lat="47.0284368330465" lon="8.690425129436262">
      <ele>1674.0</ele></trkpt>
      <trkpt lat="47.0284368330465" lon="8.690425129436262">
      <ele>1676.2</ele></trkpt>
      <trkpt lat="47.02846646435542" lon="8.690457502205337">
      <ele>1678.3</ele></trkpt>
      <trkpt lat="47.02850406099706" lon="8.690524176300542">
      <ele>1680.4</ele></trkpt>
      <trkpt lat="47.02858359207769" lon="8.690565002394028">
      <ele>1682.5</ele></trkpt>
      <trkpt lat="47.02866404258489" lon="8.690674107450885">
      <ele>1684.7</ele></trkpt>
      <trkpt lat="47.02875396281935" lon="8.69083215349719">
      <ele>1686.8</ele></trkpt>
      <trkpt lat="47.02880313572327" lon="8.690906400451404">
      <ele>1688.9</ele></trkpt>
      <trkpt lat="47.02877324037728" lon="8.690744873822378">
      <ele>1691.1</ele></trkpt>
      <trkpt lat="47.02874260052534" lon="8.690651574335517">
      <ele>1693.2</ele></trkpt>
      <trkpt lat="47.02881679423368" lon="8.690723971021278">
      <ele>1695.4</ele></trkpt>
      <trkpt lat="47.028781791539345" lon="8.690572087634841">
      <ele>1697.6</ele></trkpt>
      <trkpt lat="47.02877581817957" lon="8.69050857189643">
      <ele>1699.7</ele></trkpt>
      <trkpt lat="47.02882684112587" lon="8.69056581050851">
      <ele>1701.9</ele></trkpt>
      <trkpt lat="47.028869447179176" lon="8.690632615185187">
      <ele>1704.1</ele></trkpt>
      <trkpt lat="47.028900184386124" lon="8.690716167934708">
      <ele>1706.2</ele></trkpt>
      <trkpt lat="47.028941347855366" lon="8.690760993529173">
      <ele>1708.4</ele></trkpt>
      <trkpt lat="47.02904240305595" lon="8.690814532244445">
      <ele>1710.6</ele></trkpt>
      <trkpt lat="47.02907040606185" lon="8.69084442041183">
      <ele>1712.7</ele></trkpt>
      <trkpt lat="47.02909939929245" lon="8.690935261280051">
      <ele>1714.9</ele></trkpt>
      <trkpt lat="47.02915172285365" lon="8.691026633700906">
      <ele>1717.0</ele></trkpt>
      <trkpt lat="47.029197275326325" lon="8.691127610660304">
      <ele>1719.2</ele></trkpt>
      <trkpt lat="47.02922590521844" lon="8.691252546160419">
      <ele>1721.4</ele></trkpt>
      <trkpt lat="47.0292534735809" lon="8.691321421650231">
      <ele>1723.5</ele></trkpt>
      <trkpt lat="47.029302362541635" lon="8.691422476967723">
      <ele>1725.7</ele></trkpt>
      <trkpt lat="47.0293252757914" lon="8.691459575167418">
      <ele>1727.9</ele></trkpt>
      <trkpt lat="47.02930659454209" lon="8.691339713367707">
      <ele>1730.0</ele></trkpt>
      <trkpt lat="47.029321667107155" lon="8.69133276319731">
      <ele>1732.2</ele></trkpt>
      <trkpt lat="47.02938668097589" lon="8.691482928575343">
      <ele>1734.0</ele></trkpt>
      <trkpt lat="47.02939847007206" lon="8.691471020525324">
      <ele>1735.8</ele></trkpt>
      <trkpt lat="47.02939268314498" lon="8.691390470030457">
      <ele>1737.6</ele></trkpt>
      <trkpt lat="47.02937552362252" lon="8.691282840135987">
      <ele>1739.4</ele></trkpt>
      <trkpt lat="47.029375322024464" lon="8.691148818650404">
      <ele>1741.2</ele></trkpt>
      <trkpt lat="47.0293522775418" lon="8.69097039866303">
      <ele>1743.0</ele></trkpt>
      <trkpt lat="47.02932972715277" lon="8.690899206322182">
      <ele>1744.8</ele></trkpt>
      <trkpt lat="47.029325320358055" lon="8.690845488910888">
      <ele>1746.6</ele></trkpt>
      <trkpt lat="47.02933856057627" lon="8.69085311320254">
      <ele>1748.4</ele></trkpt>
      <trkpt lat="47.02938430820464" lon="8.690937043497891">
      <ele>1750.2</ele></trkpt>
      <trkpt lat="47.029441623393346" lon="8.691028532928284">
      <ele>1752.1</ele></trkpt>
      <trkpt lat="47.029471236965286" lon="8.69106334026855">
      <ele>1753.9</ele></trkpt>
      <trkpt lat="47.02955914033674" lon="8.691099495261948">
      <ele>1755.7</ele></trkpt>
      <trkpt lat="47.02961400487537" lon="8.691110525422923">
      <ele>1757.5</ele></trkpt>
      <trkpt lat="47.02967096760641" lon="8.691082620307803">
      <ele>1759.3</ele></trkpt>
      <trkpt lat="47.02970916639195" lon="8.691093261413805">
      <ele>1761.1</ele></trkpt>
      <trkpt lat="47.029762021391846" lon="8.691135926869896">
      <ele>1762.9</ele></trkpt>
      <trkpt lat="47.029804928526545" lon="8.691173465734579">
      <ele>1764.7</ele></trkpt>
      <trkpt lat="47.02980663079028" lon="8.691145257259773">
      <ele>1766.5</ele></trkpt>
      <trkpt lat="47.029792493674236" lon="8.691096167149663">
      <ele>1768.3</ele></trkpt>
      <trkpt lat="47.0297801526534" lon="8.691072919983517">
      <ele>1769.6</ele></trkpt>
      <trkpt lat="47.02976079751025" lon="8.691049403833325">
      <ele>1771.0</ele></trkpt>
      <trkpt lat="47.02976344275367" lon="8.691032058802794">
      <ele>1772.3</ele></trkpt>
      <trkpt lat="47.029772851513684" lon="8.691025581497698">
      <ele>1773.6</ele></trkpt>
      <trkpt lat="47.0297988042044" lon="8.691037252418022">
      <ele>1775.0</ele></trkpt>
      <trkpt lat="47.02982944056789" lon="8.691056650629049">
      <ele>1776.3</ele></trkpt>
      <trkpt lat="47.029853838022866" lon="8.691068219485219">
      <ele>1777.6</ele></trkpt>
      <trkpt lat="47.02986749441005" lon="8.691089642241188">
      <ele>1779.0</ele></trkpt>
      <trkpt lat="47.02994844970537" lon="8.691152449504935">
      <ele>1780.3</ele></trkpt>
      <trkpt lat="47.02996475775057" lon="8.691175723593531">
      <ele>1781.7</ele></trkpt>
      <trkpt lat="47.02997874660105" lon="8.69118069464357">
      <ele>1783.0</ele></trkpt>
      <trkpt lat="47.0299848340492" lon="8.691164482480048">
      <ele>1784.3</ele></trkpt>
      <trkpt lat="47.0299809915607" lon="8.69113243415943">
      <ele>1785.7</ele></trkpt>
      <trkpt lat="47.02996280116983" lon="8.691095340647193">
      <ele>1787.0</ele></trkpt>
      <trkpt lat="47.02994408041207" lon="8.691058208465186">
      <ele>1788.3</ele></trkpt>
      <trkpt lat="47.02993653713419" lon="8.691023166068831">
      <ele>1789.7</ele></trkpt>
      <trkpt lat="47.02994179560481" lon="8.690988935641176">
      <ele>1791.0</ele></trkpt>
      <trkpt lat="47.02996015443037" lon="8.6909734967283">
      <ele>1792.3</ele></trkpt>
      <trkpt lat="47.02999029374379" lon="8.690994751667668">
      <ele>1793.7</ele></trkpt>
      <trkpt lat="47.03003463645009" lon="8.691072216476808">
      <ele>1795.0</ele></trkpt>
      <trkpt lat="47.030076632327095" lon="8.691162757442008">
      <ele>1795.9</ele></trkpt>
      <trkpt lat="47.03011261793067" lon="8.691224515130035">
      <ele>1796.7</ele></trkpt>
      <trkpt lat="47.03015324942083" lon="8.69131806379318">
      <ele>1797.6</ele></trkpt>
      <trkpt lat="47.03017272855821" lon="8.691364831800813">
      <ele>1798.5</ele></trkpt>
      <trkpt lat="47.0301703050084" lon="8.691281911456123">
      <ele>1799.3</ele></trkpt>
      <trkpt lat="47.030167420340135" lon="8.69124041222864">
      <ele>1800.2</ele></trkpt>
      <trkpt lat="47.03014651643584" lon="8.691171691200253">
      <ele>1801.1</ele></trkpt>
      <trkpt lat="47.030158172568804" lon="8.691171963330829">
      <ele>1801.9</ele></trkpt>
      <trkpt lat="47.03019410490606" lon="8.691238601181487">
      <ele>1802.8</ele></trkpt>
      <trkpt lat="47.0302150620338" lon="8.69130244223252">
      <ele>1803.7</ele></trkpt>
      <trkpt lat="47.030241560392234" lon="8.69131769171792">
      <ele>1804.5</ele></trkpt>
      <trkpt lat="47.03026805889214" lon="8.691332928064565">
      <ele>1805.4</ele></trkpt>
      <trkpt lat="47.03028769782271" lon="8.691365055964722">
      <ele>1806.2</ele></trkpt>
      <trkpt lat="47.03031099223246" lon="8.691368060288735">
      <ele>1807.1</ele></trkpt>
      <trkpt lat="47.030324498600784" lon="8.691351297631575">
      <ele>1808.0</ele></trkpt>
      <trkpt lat="47.030324923858075" lon="8.691312335959392">
      <ele>1808.8</ele></trkpt>
      <trkpt lat="47.03029916144697" lon="8.691231304553272">
      <ele>1809.7</ele></trkpt>
      <trkpt lat="47.03025845864269" lon="8.691142635350104">
      <ele>1810.6</ele></trkpt>
      <trkpt lat="47.03022192845393" lon="8.691096153463572">
      <ele>1811.4</ele></trkpt>
      <trkpt lat="47.030190646516616" lon="8.691065016989326">
      <ele>1812.3</ele></trkpt>
      <trkpt lat="47.03016032573023" lon="8.691029890057804">
      <ele>1813.8</ele></trkpt>
      <trkpt lat="47.030135996374284" lon="8.690993942554151">
      <ele>1815.3</ele></trkpt>
      <trkpt lat="47.03011301566588" lon="8.690958066035666">
      <ele>1816.7</ele></trkpt>
      <trkpt lat="47.03009339035479" lon="8.690910663277478">
      <ele>1818.2</ele></trkpt>
      <trkpt lat="47.030086826892685" lon="8.690883932668525">
      <ele>1819.7</ele></trkpt>
      <trkpt lat="47.03007100899102" lon="8.69082397482727">
      <ele>1821.2</ele></trkpt>
      <trkpt lat="47.03006121103487" lon="8.690743264005887">
      <ele>1822.7</ele></trkpt>
      <trkpt lat="47.03004582834424" lon="8.690779468637848">
      <ele>1824.1</ele></trkpt>
      <trkpt lat="47.0300345336931" lon="8.690898605885854">
      <ele>1825.6</ele></trkpt>
      <trkpt lat="47.03002003685921" lon="8.690851967619338">
      <ele>1827.1</ele></trkpt>
      <trkpt lat="47.02999265434785" lon="8.690766030961104">
      <ele>1828.6</ele></trkpt>
      <trkpt lat="47.029990309862185" lon="8.690675823739697">
      <ele>1830.1</ele></trkpt>
      <trkpt lat="47.029987248002875" lon="8.690651372165032">
      <ele>1831.5</ele></trkpt>
      <trkpt lat="47.029973537920824" lon="8.69068516858582">
      <ele>1833.0</ele></trkpt>
      <trkpt lat="47.02995743772422" lon="8.690787141929398">
      <ele>1834.5</ele></trkpt>
      <trkpt lat="47.02995785230208" lon="8.690901684163679">
      <ele>1836.0</ele></trkpt>
      <trkpt lat="47.02995073598575" lon="8.69094293660562">
      <ele>1837.5</ele></trkpt>
      <trkpt lat="47.029940575132684" lon="8.690957330120144">
      <ele>1838.9</ele></trkpt>
      <trkpt lat="47.02993063598114" lon="8.690952229991083">
      <ele>1840.4</ele></trkpt>
      <trkpt lat="47.02991935215233" lon="8.69091783710553">
      <ele>1841.9</ele></trkpt>
      <trkpt lat="47.029913813067715" lon="8.690815358813902">
      <ele>1843.4</ele></trkpt>
      <trkpt lat="47.02991516846957" lon="8.690691121737471">
      <ele>1844.9</ele></trkpt>
      <trkpt lat="47.02991631123644" lon="8.69058636534557">
      <ele>1846.4</ele></trkpt>
      <trkpt lat="47.02993555292247" lon="8.690501530077366">
      <ele>1847.9</ele></trkpt>
      <trkpt lat="47.02995116599353" lon="8.690445845156264">
      <ele>1849.4</ele></trkpt>
      <trkpt lat="47.029943625712" lon="8.69037256839615">
      <ele>1850.9</ele></trkpt>
      <trkpt lat="47.02993118250495" lon="8.690291861928271">
      <ele>1852.4</ele></trkpt>
      <trkpt lat="47.02996415059147" lon="8.690324313373589">
      <ele>1853.9</ele></trkpt>
      <trkpt lat="47.02996285883265" lon="8.69029015371843">
      <ele>1855.4</ele></trkpt>
      <trkpt lat="47.02995004361656" lon="8.690243554915426">
      <ele>1856.9</ele></trkpt>
      <trkpt lat="47.0299505217146" lon="8.690199713465466">
      <ele>1858.4</ele></trkpt>
      <trkpt lat="47.02997323268038" lon="8.690102775461854">
      <ele>1859.9</ele></trkpt>
      <trkpt lat="47.029966099736896" lon="8.68999294464535">
      <ele>1861.4</ele></trkpt>
      <trkpt lat="47.02995242583936" lon="8.689870790995474">
      <ele>1862.9</ele></trkpt>
      <trkpt lat="47.029951967191906" lon="8.689733788615337">
      <ele>1864.4</ele></trkpt>
      <trkpt lat="47.029923440901676" lon="8.689626432560713">
      <ele>1865.9</ele></trkpt>
      <trkpt lat="47.02989198214974" lon="8.689575991566445">
      <ele>1867.4</ele></trkpt>
      <trkpt lat="47.029878712591696" lon="8.689549591680072">
      <ele>1868.9</ele></trkpt>
      <trkpt lat="47.029882479058784" lon="8.689530878034919">
      <ele>1870.4</ele></trkpt>
      <trkpt lat="47.029895411099794" lon="8.689523864219082">
      <ele>1871.9</ele></trkpt>
      <trkpt lat="47.02991621879827" lon="8.689523915181717">
      <ele>1865.4</ele></trkpt>
      <trkpt lat="47.02993809750339" lon="8.689504939646767">
      <ele>1858.9</ele></trkpt>
      <trkpt lat="47.02992329069881" lon="8.68948751652028">
      <ele>1852.4</ele></trkpt>
      <trkpt lat="47.029883498458155" lon="8.68946953718959">
      <ele>1845.9</ele></trkpt>
      <trkpt lat="47.02985875214285" lon="8.689447040554862">
      <ele>1839.5</ele></trkpt>
      <trkpt lat="47.029837669915956" lon="8.68939293399091">
      <ele>1833.0</ele></trkpt>
      <trkpt lat="47.02980424141007" lon="8.689250808385845">
      <ele>1826.5</ele></trkpt>
      <trkpt lat="47.02977431693954" lon="8.68909173941073">
      <ele>1820.0</ele></trkpt>
      <trkpt lat="47.029727470524755" lon="8.688956603623259">
      <ele>1813.5</ele></trkpt>
      <trkpt lat="47.02978243328183" lon="8.688825924567347">
      <ele>1807.0</ele></trkpt>
      <trkpt lat="47.029922819805634" lon="8.688765584073556">
      <ele>1800.5</ele></trkpt>
      <trkpt lat="47.029922819805634" lon="8.688765584073556">
      <ele>1794.0</ele></trkpt>
      <trkpt lat="47.03002885528079" lon="8.688596695333164">
      <ele>1787.5</ele></trkpt>
      <trkpt lat="47.03004502820253" lon="8.688423014028666">
      <ele>1781.0</ele></trkpt>
      <trkpt lat="47.03014971404248" lon="8.688130895921311">
      <ele>1774.5</ele></trkpt>
      <trkpt lat="47.03022874723821" lon="8.687666524519464">
      <ele>1768.1</ele></trkpt>
      <trkpt lat="47.03039847460619" lon="8.68748578048808">
      <ele>1761.6</ele></trkpt>
      <trkpt lat="47.030501433958904" lon="8.687256131104412">
      <ele>1755.1</ele></trkpt>
      <trkpt lat="47.03035978624115" lon="8.686915195994438">
      <ele>1748.6</ele></trkpt>
      <trkpt lat="47.03021813750667" lon="8.686574262685985">
      <ele>1742.1</ele></trkpt>
      <trkpt lat="47.030099188469066" lon="8.68605574782124">
      <ele>1738.6</ele></trkpt>
      <trkpt lat="47.02998023708592" lon="8.685537235258352">
      <ele>1735.2</ele></trkpt>
      <trkpt lat="47.02981031654044" lon="8.68588646669306">
      <ele>1731.8</ele></trkpt>
      <trkpt lat="47.029640394926254" lon="8.686235695915101">
      <ele>1728.3</ele></trkpt>
      <trkpt lat="47.02933965526524" lon="8.686645761569103">
      <ele>1724.8</ele></trkpt>
      <trkpt lat="47.029091969323545" lon="8.68666796623191">
      <ele>1721.4</ele></trkpt>
      <trkpt lat="47.028978213946054" lon="8.686988749601019">
      <ele>1717.9</ele></trkpt>
      <trkpt lat="47.02881506309787" lon="8.687206578553734">
      <ele>1714.5</ele></trkpt>
      <trkpt lat="47.02856794007403" lon="8.687256739762105">
      <ele>1711.0</ele></trkpt>
      <trkpt lat="47.028238095276414" lon="8.687468348204822">
      <ele>1707.6</ele></trkpt>
      <trkpt lat="47.027912805389036" lon="8.687846122573323">
      <ele>1704.1</ele></trkpt>
      <trkpt lat="47.02785661604147" lon="8.688294977097902">
      <ele>1700.7</ele></trkpt>
      <trkpt lat="47.02787452279611" lon="8.688778720986264">
      <ele>1697.2</ele></trkpt>
      <trkpt lat="47.02786247684673" lon="8.68897584164279">
      <ele>1693.8</ele></trkpt>
      <trkpt lat="47.027885258343744" lon="8.689406110114577">
      <ele>1690.3</ele></trkpt>
      <trkpt lat="47.028123642016254" lon="8.689605361622997">
      <ele>1686.9</ele></trkpt>
      <trkpt lat="47.02836202533179" lon="8.689804614902101">
      <ele>1683.4</ele></trkpt>
      <trkpt lat="47.028570044834694" lon="8.690104965453052">
      <ele>1680.0</ele></trkpt>
      <trkpt lat="47.02856202664154" lon="8.690331808773458">
      <ele>1676.5</ele></trkpt>
      <trkpt lat="47.0284368330465" lon="8.690425129436262">
      <ele>1673.1</ele></trkpt>
      </trkseg>
  </trk>
</gpx>