<?xml version='1.0' encoding='utf-8'?>
<gpx xmlns="http://www.topografix.com/GPX/1/1" xmlns:xsi="http://www.w3.org/2001/XMLSchema-instance" xsi:schemaLocation="http://www.topografix.com/GPX/1/1 http://www.topografix.com/GPX/1/1/gpx.xsd" version="1.1" creator="gpx.py -- https://github.com/tkrajina/gpxpy">
  <trk>
    <name>capanna-cadagno</name>
    <trkseg>
      <trkpt lat="46.527325490686415" lon="8.672523083347492">
      <ele>1793.4</ele></trkpt>
      <trkpt lat="46.52746993954154" lon="8.673027228133767">
      <ele>1793.7</ele></trkpt>
      <trkpt lat="46.5275017725698" lon="8.673109017936016">
      <ele>1794.1</ele></trkpt>
      <trkpt lat="46.52757376075507" lon="8.673272565984227">
      <ele>1794.4</ele></trkpt>
      <trkpt lat="46.527628676640404" lon="8.673400152795336">
      <ele>1794.8</ele></trkpt>
      <trkpt lat="46.527648224894364" lon="8.67345414613359">
      <ele>1795.1</ele></trkpt>
      <trkpt lat="46.52766702015208" lon="8.673527766022268">
      <ele>1795.5</ele></trkpt>
      <trkpt lat="46.52769257930403" lon="8.673643773508333">
      <ele>1795.8</ele></trkpt>
      <trkpt lat="46.527711890558095" lon="8.673700525009037">
      <ele>1796.2</ele></trkpt>
      <trkpt lat="46.5277385644084" lon="8.673763596993842">
      <ele>1796.5</ele></trkpt>
      <trkpt lat="46.52776220315187" lon="8.673807086441258">
      <ele>1796.8</ele></trkpt>
      <trkpt lat="46.52779541387666" lon="8.673855591148365">
      <ele>1797.2</ele></trkpt>
      <trkpt lat="46.52788738065314" lon="8.67398537998359">
      <ele>1797.5</ele></trkpt>
      <trkpt lat="46.52793196844171" lon="8.674044989613295">
      <ele>1797.9</ele></trkpt>
      <trkpt lat="46.528018369197326" lon="8.67414965088726">
      <ele>1798.2</ele></trkpt>
      <trkpt lat="46.52806825208162" lon="8.674199683537454">
      <ele>1798.6</ele></trkpt>
      <trkpt lat="46.52810724307764" lon="8.674225418047927">
      <ele>1798.9</ele></trkpt>
      <trkpt lat="46.528133081765844" lon="8.674233685290508">
      <ele>1799.3</ele></trkpt>
      <trkpt lat="46.52819405815157" lon="8.674243927479372">
      <ele>1799.6</ele></trkpt>
      <trkpt lat="46.528234849567035" lon="8.674253005205653">
      <ele>1800.0</ele></trkpt>
      <trkpt lat="46.528279578608995" lon="8.674280565334369">
      <ele>1800.3</ele></trkpt>
      <trkpt lat="46.52833313847336" lon="8.67432421683644">
      <ele>1800.5</ele></trkpt>
      <trkpt lat="46.52848578099792" lon="8.674477786930556">
      <ele>1800.8</ele></trkpt>
      <trkpt lat="46.528523798032616" lon="8.674524421056226">
      <ele>1801.0</ele></trkpt>
      <trkpt lat="46.5285613039041" lon="8.674584143933316">
      <ele>1801.2</ele></trkpt>
      <trkpt lat="46.528583659730074" lon="8.67462975592909">
      <ele>1801.4</ele></trkpt>
      <trkpt lat="46.52859511190197" lon="8.674667884543853">
      <ele>1801.6</ele></trkpt>
      <trkpt lat="46.52861722354582" lon="8.674749194416236">
      <ele>1801.9</ele></trkpt>
      <trkpt lat="46.52862644493465" lon="8.674777352373582">
      <ele>1802.1</ele></trkpt>
      <trkpt lat="46.52863997906077" lon="8.674806860174385">
      <ele>1802.3</ele></trkpt>
      <trkpt lat="46.528675560962526" lon="8.674864792737065">
      <ele>1802.5</ele></trkpt>
      <trkpt lat="46.52871328344" lon="8.674925263974055">
      <ele>1802.8</ele></trkpt>
      <trkpt lat="46.52875685767588" lon="8.674987029039777">
      <ele>1803.0</ele></trkpt>
      <trkpt lat="46.52879734012323" lon="8.675033615772627">
      <ele>1803.2</ele></trkpt>
      <trkpt lat="46.52885119885835" lon="8.675088642004559">
      <ele>1803.5</ele></trkpt>
      <trkpt lat="46.52894675436844" lon="8.675176204963503">
      <ele>1803.7</ele></trkpt>
      <trkpt lat="46.52898215094667" lon="8.67520400933825">
      <ele>1803.9</ele></trkpt>
      <trkpt lat="46.529007776810154" lon="8.675222739657698">
      <ele>1804.1</ele></trkpt>
      <trkpt lat="46.52904532136328" lon="8.675239995453541">
      <ele>1804.3</ele></trkpt>
      <trkpt lat="46.52910982380049" lon="8.67524698243704">
      <ele>1804.6</ele></trkpt>
      <trkpt lat="46.529140356836216" lon="8.675233914431105">
      <ele>1804.8</ele></trkpt>
      <trkpt lat="46.529161421603476" lon="8.67521787973297">
      <ele>1804.9</ele></trkpt>
      <trkpt lat="46.52918835930909" lon="8.675185476412382">
      <ele>1804.9</ele></trkpt>
      <trkpt lat="46.52920297180864" lon="8.675162972202143">
      <ele>1805.0</ele></trkpt>
      <trkpt lat="46.52923498210388" lon="8.67508272764614">
      <ele>1805.0</ele></trkpt>
      <trkpt lat="46.529249035320504" lon="8.675015681885498">
      <ele>1805.1</ele></trkpt>
      <trkpt lat="46.52926543219515" lon="8.67485471778398">
      <ele>1805.1</ele></trkpt>
      <trkpt lat="46.52927148078579" lon="8.67479984670366">
      <ele>1805.2</ele></trkpt>
      <trkpt lat="46.52928026006968" lon="8.674766885194911">
      <ele>1805.2</ele></trkpt>
      <trkpt lat="46.52928957652256" lon="8.674738302781149">
      <ele>1805.3</ele></trkpt>
      <trkpt lat="46.52931390860936" lon="8.674699778227444">
      <ele>1805.3</ele></trkpt>
      <trkpt lat="46.52942569764422" lon="8.674584294650584">
      <ele>1805.4</ele></trkpt>
      <trkpt lat="46.52946890825542" lon="8.674539657054657">
      <ele>1805.5</ele></trkpt>
      <trkpt lat="46.52958027197861" lon="8.674429351211371">
      <ele>1805.5</ele></trkpt>
      <trkpt lat="46.52963406626786" lon="8.674372792840725">
      <ele>1805.6</ele></trkpt>
      <trkpt lat="46.52966059997707" lon="8.67434691035839">
      <ele>1805.6</ele></trkpt>
      <trkpt lat="46.529733853025476" lon="8.674274723147672">
      <ele>1805.7</ele></trkpt>
      <trkpt lat="46.52980104867199" lon="8.674222641615168">
      <ele>1805.7</ele></trkpt>
      <trkpt lat="46.52983617428246" lon="8.674200891746935">
      <ele>1805.8</ele></trkpt>
      <trkpt lat="46.52987390773715" lon="8.674185875527577">
      <ele>1805.8</ele></trkpt>
      <trkpt lat="46.52995639780608" lon="8.674169390746966">
      <ele>1805.9</ele></trkpt>
      <trkpt lat="46.53000794141426" lon="8.674160151468843">
      <ele>1806.0</ele></trkpt>
      <trkpt lat="46.53003401405558" lon="8.674148545125536">
      <ele>1806.1</ele></trkpt>
      <trkpt lat="46.53008397670381" lon="8.674119208041908">
      <ele>1806.2</ele></trkpt>
      <trkpt lat="46.53015786496098" lon="8.674069690257333">
      <ele>1806.3</ele></trkpt>
      <trkpt lat="46.53021007153104" lon="8.67403917888642">
      <ele>1806.4</ele></trkpt>
      <trkpt lat="46.53028409464118" lon="8.674019476349226">
      <ele>1806.5</ele></trkpt>
      <trkpt lat="46.530437341426236" lon="8.673996588579762">
      <ele>1806.6</ele></trkpt>
      <trkpt lat="46.53055334598493" lon="8.673983253478323">
      <ele>1806.7</ele></trkpt>
      <trkpt lat="46.53064577941688" lon="8.673956644705433">
      <ele>1806.8</ele></trkpt>
      <trkpt lat="46.530719385918985" lon="8.673933882040377">
      <ele>1806.9</ele></trkpt>
      <trkpt lat="46.5308778327124" lon="8.67388367225707">
      <ele>1807.0</ele></trkpt>
      <trkpt lat="46.530976904224076" lon="8.673863823713866">
      <ele>1807.1</ele></trkpt>
      <trkpt lat="46.531035176779085" lon="8.673862089648866">
      <ele>1807.2</ele></trkpt>
      <trkpt lat="46.531102694397546" lon="8.67386233934961">
      <ele>1807.3</ele></trkpt>
      <trkpt lat="46.53115971307094" lon="8.673853459127777">
      <ele>1807.4</ele></trkpt>
      <trkpt lat="46.53123054161362" lon="8.673832992219351">
      <ele>1807.5</ele></trkpt>
      <trkpt lat="46.53126500023834" lon="8.673829567717767">
      <ele>1807.6</ele></trkpt>
      <trkpt lat="46.53131085215293" lon="8.673834107294006">
      <ele>1807.7</ele></trkpt>
      <trkpt lat="46.5314387735528" lon="8.673880747749978">
      <ele>1807.8</ele></trkpt>
      <trkpt lat="46.53157320542543" lon="8.673937613707054">
      <ele>1807.9</ele></trkpt>
      <trkpt lat="46.53160606711261" lon="8.673960276778137">
      <ele>1809.1</ele></trkpt>
      <trkpt lat="46.53164890706621" lon="8.673998589022283">
      <ele>1810.3</ele></trkpt>
      <trkpt lat="46.53169156009359" lon="8.674054104488972">
      <ele>1811.5</ele></trkpt>
      <trkpt lat="46.531769859425395" lon="8.674160830373262">
      <ele>1812.7</ele></trkpt>
      <trkpt lat="46.53182243502667" lon="8.674237938460443">
      <ele>1813.9</ele></trkpt>
      <trkpt lat="46.531877188588474" lon="8.674317455913666">
      <ele>1815.1</ele></trkpt>
      <trkpt lat="46.531917887540644" lon="8.674391334083111">
      <ele>1816.3</ele></trkpt>
      <trkpt lat="46.5319394121241" lon="8.67444224853889">
      <ele>1817.5</ele></trkpt>
      <trkpt lat="46.5319611904321" lon="8.674510376340521">
      <ele>1818.7</ele></trkpt>
      <trkpt lat="46.53197024024001" lon="8.674571708693374">
      <ele>1819.8</ele></trkpt>
      <trkpt lat="46.531972857780396" lon="8.674657832102485">
      <ele>1821.0</ele></trkpt>
      <trkpt lat="46.531969575258664" lon="8.674758681865683">
      <ele>1822.2</ele></trkpt>
      <trkpt lat="46.531956731478516" lon="8.674886623732878">
      <ele>1823.4</ele></trkpt>
      <trkpt lat="46.531942823420685" lon="8.674990802698982">
      <ele>1824.6</ele></trkpt>
      <trkpt lat="46.5319141863189" lon="8.675167907506">
      <ele>1825.8</ele></trkpt>
      <trkpt lat="46.53190355999672" lon="8.675272252526778">
      <ele>1827.0</ele></trkpt>
      <trkpt lat="46.53190055497238" lon="8.675374007956897">
      <ele>1828.2</ele></trkpt>
      <trkpt lat="46.53191237330335" lon="8.675509135170968">
      <ele>1829.4</ele></trkpt>
      <trkpt lat="46.531941777105814" lon="8.67573384343376">
      <ele>1830.6</ele></trkpt>
      <trkpt lat="46.53199841359803" lon="8.675992442153621">
      <ele>1831.8</ele></trkpt>
      <trkpt lat="46.53203356113133" lon="8.676135702944237">
      <ele>1831.5</ele></trkpt>
      <trkpt lat="46.532117611765074" lon="8.676409816378026">
      <ele>1831.2</ele></trkpt>
      <trkpt lat="46.532145418747035" lon="8.676547174082735">
      <ele>1830.9</ele></trkpt>
      <trkpt lat="46.5321483503476" lon="8.6765679553831">
      <ele>1830.6</ele></trkpt>
      <trkpt lat="46.532152124784815" lon="8.676604699040851">
      <ele>1830.3</ele></trkpt>
      <trkpt lat="46.53215850793086" lon="8.676661304107675">
      <ele>1830.0</ele></trkpt>
      <trkpt lat="46.53216922944586" lon="8.676710291046122">
      <ele>1829.7</ele></trkpt>
      <trkpt lat="46.53217928071901" lon="8.676743163152231">
      <ele>1829.4</ele></trkpt>
      <trkpt lat="46.532196270386244" lon="8.676784119852666">
      <ele>1829.1</ele></trkpt>
      <trkpt lat="46.53221696542347" lon="8.676817756828783">
      <ele>1828.8</ele></trkpt>
      <trkpt lat="46.53223913800996" lon="8.676845417992283">
      <ele>1828.4</ele></trkpt>
      <trkpt lat="46.532274266008855" lon="8.676874718166907">
      <ele>1828.1</ele></trkpt>
      <trkpt lat="46.53230906315881" lon="8.676892265300705">
      <ele>1827.8</ele></trkpt>
      <trkpt lat="46.532377024376814" lon="8.67692613600288">
      <ele>1827.5</ele></trkpt>
      <trkpt lat="46.532413529739344" lon="8.676947919897646">
      <ele>1827.2</ele></trkpt>
      <trkpt lat="46.53244994993572" lon="8.676977523545691">
      <ele>1826.9</ele></trkpt>
      <trkpt lat="46.532523069828784" lon="8.677068063192145">
      <ele>1826.6</ele></trkpt>
      <trkpt lat="46.532611149275226" lon="8.67720420681337">
      <ele>1826.3</ele></trkpt>
      <trkpt lat="46.53268604217697" lon="8.677308710237334">
      <ele>1826.0</ele></trkpt>
      <trkpt lat="46.53276728917476" lon="8.677422067506448">
      <ele>1825.7</ele></trkpt>
      <trkpt lat="46.53281756259551" lon="8.677480720430445">
      <ele>1826.1</ele></trkpt>
      <trkpt lat="46.532878932975215" lon="8.67752661722404">
      <ele>1826.6</ele></trkpt>
      <trkpt lat="46.5329341279408" lon="8.677549728872908">
      <ele>1827.0</ele></trkpt>
      <trkpt lat="46.533003621030716" lon="8.677561891376914">
      <ele>1827.4</ele></trkpt>
      <trkpt lat="46.53308230494506" lon="8.677560367548733">
      <ele>1827.8</ele></trkpt>
      <trkpt lat="46.53313528694505" lon="8.677551255128073">
      <ele>1828.3</ele></trkpt>
      <trkpt lat="46.53318776362694" lon="8.677529068756119">
      <ele>1828.7</ele></trkpt>
      <trkpt lat="46.533254651127315" lon="8.677487240437808">
      <ele>1829.1</ele></trkpt>
      <trkpt lat="46.53333385511493" lon="8.677439631918379">
      <ele>1829.6</ele></trkpt>
      <trkpt lat="46.53339802869438" lon="8.677409904199635">
      <ele>1830.0</ele></trkpt>
      <trkpt lat="46.533495676924844" lon="8.677384501190575">
      <ele>1830.4</ele></trkpt>
      <trkpt lat="46.533542147717796" lon="8.677376816964715">
      <ele>1830.9</ele></trkpt>
      <trkpt lat="46.5336429660255" lon="8.677406447848856">
      <ele>1831.3</ele></trkpt>
      <trkpt lat="46.53367376663188" lon="8.67741343609051">
      <ele>1831.7</ele></trkpt>
      <trkpt lat="46.5337194065073" lon="8.677417609037878">
      <ele>1832.2</ele></trkpt>
      <trkpt lat="46.5337550019978" lon="8.677414721091022">
      <ele>1832.6</ele></trkpt>
      <trkpt lat="46.53381191244704" lon="8.677389376661">
      <ele>1833.0</ele></trkpt>
      <trkpt lat="46.53385532330276" lon="8.677358665183057">
      <ele>1833.4</ele></trkpt>
      <trkpt lat="46.53388885186785" lon="8.677326658581515">
      <ele>1833.9</ele></trkpt>
      <trkpt lat="46.53397702081119" lon="8.677227447358195">
      <ele>1834.3</ele></trkpt>
      <trkpt lat="46.53408278587287" lon="8.677124231967824">
      <ele>1834.7</ele></trkpt>
      <trkpt lat="46.534115675660274" lon="8.677099654330402">
      <ele>1835.1</ele></trkpt>
      <trkpt lat="46.534179577018364" lon="8.677074260721461">
      <ele>1835.6</ele></trkpt>
      <trkpt lat="46.53419907805859" lon="8.677052309994743">
      <ele>1836.0</ele></trkpt>
      <trkpt lat="46.53420458258497" lon="8.677019401300635">
      <ele>1836.4</ele></trkpt>
      <trkpt lat="46.53419882635917" lon="8.676980420752233">
      <ele>1836.8</ele></trkpt>
      <trkpt lat="46.53418290929543" lon="8.676955808747907">
      <ele>1837.3</ele></trkpt>
      <trkpt lat="46.53415891496267" lon="8.67694755538475">
      <ele>1837.7</ele></trkpt>
      <trkpt lat="46.53413402921032" lon="8.676950936294846">
      <ele>1838.1</ele></trkpt>
      <trkpt lat="46.53409888349206" lon="8.676974484695448">
      <ele>1838.5</ele></trkpt>
      <trkpt lat="46.53403651982212" lon="8.67701399297515">
      <ele>1839.0</ele></trkpt>
      <trkpt lat="46.53396479629696" lon="8.677062060633132">
      <ele>1839.4</ele></trkpt>
      <trkpt lat="46.533904384925485" lon="8.67711230327619">
      <ele>1839.8</ele></trkpt>
      <trkpt lat="46.53388059034555" lon="8.677136098084295">
      <ele>1840.2</ele></trkpt>
      <trkpt lat="46.53385940000759" lon="8.677173549469648">
      <ele>1840.7</ele></trkpt>
      <trkpt lat="46.53382093232745" lon="8.677250979483953">
      <ele>1841.1</ele></trkpt>
      <trkpt lat="46.533803058015266" lon="8.677285469152487">
      <ele>1841.5</ele></trkpt>
      <trkpt lat="46.533789544854606" lon="8.677298691841058">
      <ele>1842.0</ele></trkpt>
      <trkpt lat="46.53377520592974" lon="8.677305129719606">
      <ele>1842.4</ele></trkpt>
      <trkpt lat="46.533760898047014" lon="8.677307892030063">
      <ele>1842.8</ele></trkpt>
      <trkpt lat="46.53374268349674" lon="8.677300109746705">
      <ele>1843.2</ele></trkpt>
      <trkpt lat="46.53373347385266" lon="8.677283316718308">
      <ele>1843.6</ele></trkpt>
      <trkpt lat="46.53372794873104" lon="8.67725616580596">
      <ele>1844.0</ele></trkpt>
      <trkpt lat="46.53373358124667" lon="8.67722803167864">
      <ele>1844.5</ele></trkpt>
      <trkpt lat="46.53374637334844" lon="8.677197584401185">
      <ele>1844.9</ele></trkpt>
      <trkpt lat="46.53378343539102" lon="8.677149258749587">
      <ele>1845.3</ele></trkpt>
      <trkpt lat="46.5338779496212" lon="8.677021707894284">
      <ele>1845.7</ele></trkpt>
      <trkpt lat="46.533988824002165" lon="8.676908636231326">
      <ele>1846.1</ele></trkpt>
      <trkpt lat="46.534054221147215" lon="8.676837583713592">
      <ele>1846.5</ele></trkpt>
      <trkpt lat="46.53410118314729" lon="8.676781479513714">
      <ele>1846.9</ele></trkpt>
      <trkpt lat="46.534123886110585" lon="8.676741429022288">
      <ele>1847.4</ele></trkpt>
      <trkpt lat="46.53414997065734" lon="8.6766750438158">
      <ele>1847.8</ele></trkpt>
      <trkpt lat="46.53419641147781" lon="8.676565986075767">
      <ele>1848.2</ele></trkpt>
      <trkpt lat="46.534237424715506" lon="8.676403432437205">
      <ele>1848.6</ele></trkpt>
      <trkpt lat="46.534253893629625" lon="8.676344297068297">
      <ele>1849.0</ele></trkpt>
      <trkpt lat="46.53426134115132" lon="8.676304784046067">
      <ele>1849.4</ele></trkpt>
      <trkpt lat="46.534269969879134" lon="8.67621377754487">
      <ele>1849.9</ele></trkpt>
      <trkpt lat="46.534279470638474" lon="8.676040152207612">
      <ele>1850.3</ele></trkpt>
      <trkpt lat="46.53429004459126" lon="8.675593370237047">
      <ele>1850.7</ele></trkpt>
      <trkpt lat="46.53430119017477" lon="8.675444616969092">
      <ele>1851.1</ele></trkpt>
      <trkpt lat="46.53430957959487" lon="8.675373068401775">
      <ele>1851.1</ele></trkpt>
      <trkpt lat="46.534325716346615" lon="8.675290654793805">
      <ele>1851.2</ele></trkpt>
      <trkpt lat="46.53436332319133" lon="8.67515906213492">
      <ele>1851.2</ele></trkpt>
      <trkpt lat="46.534497987048354" lon="8.674858606239074">
      <ele>1851.3</ele></trkpt>
      <trkpt lat="46.53460521089198" lon="8.674629263085142">
      <ele>1851.3</ele></trkpt>
      <trkpt lat="46.53468700106639" lon="8.674462787919799">
      <ele>1851.4</ele></trkpt>
      <trkpt lat="46.534729586749265" lon="8.674400310509872">
      <ele>1851.4</ele></trkpt>
      <trkpt lat="46.53478538558149" lon="8.674346386779423">
      <ele>1851.5</ele></trkpt>
      <trkpt lat="46.53483531101065" lon="8.674308885488017">
      <ele>1851.5</ele></trkpt>
      <trkpt lat="46.53490045480756" lon="8.674271757509567">
      <ele>1851.5</ele></trkpt>
      <trkpt lat="46.53503037103892" lon="8.674233330792086">
      <ele>1851.6</ele></trkpt>
      <trkpt lat="46.53518124758091" lon="8.674192605380597">
      <ele>1851.6</ele></trkpt>
      <trkpt lat="46.5353970459532" lon="8.674136830546953">
      <ele>1851.7</ele></trkpt>
      <trkpt lat="46.53545604685847" lon="8.674140927685624">
      <ele>1851.7</ele></trkpt>
      <trkpt lat="46.53550155897846" lon="8.674158523045836">
      <ele>1851.8</ele></trkpt>
      <trkpt lat="46.53555630848194" lon="8.674201164453642">
      <ele>1851.8</ele></trkpt>
      <trkpt lat="46.535675110664656" lon="8.674308744339537">
      <ele>1851.9</ele></trkpt>
      <trkpt lat="46.53573183598948" lon="8.67434590348563">
      <ele>1851.9</ele></trkpt>
      <trkpt lat="46.53581143717084" lon="8.67438083404059">
      <ele>1852.0</ele></trkpt>
      <trkpt lat="46.535935897785826" lon="8.67441807926351">
      <ele>1852.0</ele></trkpt>
      <trkpt lat="46.5360177801436" lon="8.67445006362233">
      <ele>1852.0</ele></trkpt>
      <trkpt lat="46.53611138795373" lon="8.674506629719868">
      <ele>1852.0</ele></trkpt>
      <trkpt lat="46.536175177133785" lon="8.674548617872667">
      <ele>1852.0</ele></trkpt>
      <trkpt lat="46.53620500834316" lon="8.674562036006346">
      <ele>1852.0</ele></trkpt>
      <trkpt lat="46.53627674128747" lon="8.67458335942209">
      <ele>1852.0</ele></trkpt>
      <trkpt lat="46.53634588006168" lon="8.674605797008205">
      <ele>1852.0</ele></trkpt>
      <trkpt lat="46.53641825716741" lon="8.67464566091859">
      <ele>1852.0</ele></trkpt>
      <trkpt lat="46.53647968418633" lon="8.674669069849857">
      <ele>1852.0</ele></trkpt>
      <trkpt lat="46.53658064529965" lon="8.67468065718663">
      <ele>1852.0</ele></trkpt>
      <trkpt lat="46.53663446824566" lon="8.674693475963982">
      <ele>1852.0</ele></trkpt>
      <trkpt lat="46.53670604114039" lon="8.674728693659846">
      <ele>1851.9</ele></trkpt>
      <trkpt lat="46.536820976538266" lon="8.67479385703118">
      <ele>1851.9</ele></trkpt>
      <trkpt lat="46.536952827045035" lon="8.674877932768958">
      <ele>1851.9</ele></trkpt>
      <trkpt lat="46.53706575504832" lon="8.67496967293322">
      <ele>1851.9</ele></trkpt>
      <trkpt lat="46.537164246758806" lon="8.675049506718967">
      <ele>1851.9</ele></trkpt>
      <trkpt lat="46.53726980612396" lon="8.675112306045024">
      <ele>1851.9</ele></trkpt>
      <trkpt lat="46.537421308666055" lon="8.675190274343016">
      <ele>1851.9</ele></trkpt>
      <trkpt lat="46.53747618682372" lon="8.675221878640539">
      <ele>1851.9</ele></trkpt>
      <trkpt lat="46.53752233426596" lon="8.675268732828712">
      <ele>1851.9</ele></trkpt>
      <trkpt lat="46.537557714574135" lon="8.67529886194855">
      <ele>1851.9</ele></trkpt>
      <trkpt lat="46.53762573280976" lon="8.67533663340046">
      <ele>1851.9</ele></trkpt>
      <trkpt lat="46.53774123690132" lon="8.675386701835167">
      <ele>1851.9</ele></trkpt>
      <trkpt lat="46.53780982017109" lon="8.67542794134682">
      <ele>1851.9</ele></trkpt>
      <trkpt lat="46.537858090493216" lon="8.675476474176437">
      <ele>1851.9</ele></trkpt>
      <trkpt lat="46.53791740465502" lon="8.675548544256891">
      <ele>1851.9</ele></trkpt>
      <trkpt lat="46.5380004678233" lon="8.67569195048195">
      <ele>1851.9</ele></trkpt>
      <trkpt lat="46.53810542667773" lon="8.675882688134383">
      <ele>1851.9</ele></trkpt>
      <trkpt lat="46.53823848887132" lon="8.67612074316636">
      <ele>1851.9</ele></trkpt>
      <trkpt lat="46.53834127961182" lon="8.67629900816818">
      <ele>1851.9</ele></trkpt>
      <trkpt lat="46.53846598512064" lon="8.676487279298607">
      <ele>1851.9</ele></trkpt>
      <trkpt lat="46.53856611673339" lon="8.676637036926117">
      <ele>1851.9</ele></trkpt>
      <trkpt lat="46.53861589489904" lon="8.676711472611728">
      <ele>1851.9</ele></trkpt>
      <trkpt lat="46.53866409896622" lon="8.676766042222583">
      <ele>1851.9</ele></trkpt>
      <trkpt lat="46.5387219036043" lon="8.67681307411066">
      <ele>1851.9</ele></trkpt>
      <trkpt lat="46.538766668236974" lon="8.676855492400396">
      <ele>1851.9</ele></trkpt>
      <trkpt lat="46.53893354492669" lon="8.677051614860513">
      <ele>1851.9</ele></trkpt>
      <trkpt lat="46.53904051516753" lon="8.67717394350541">
      <ele>1851.9</ele></trkpt>
      <trkpt lat="46.539205045253475" lon="8.677366572295135">
      <ele>1851.9</ele></trkpt>
      <trkpt lat="46.53927396798842" lon="8.677431095625193">
      <ele>1851.9</ele></trkpt>
      <trkpt lat="46.539347761366315" lon="8.677485391614823">
      <ele>1851.9</ele></trkpt>
      <trkpt lat="46.539423288243775" lon="8.677544903429444">
      <ele>1851.9</ele></trkpt>
      <trkpt lat="46.53948377861045" lon="8.67761872580128">
      <ele>1851.9</ele></trkpt>
      <trkpt lat="46.539554876108475" lon="8.67771483807885">
      <ele>1851.9</ele></trkpt>
      <trkpt lat="46.539586799131634" lon="8.677761657477754">
      <ele>1851.9</ele></trkpt>
      <trkpt lat="46.53966175502211" lon="8.677871078836382">
      <ele>1851.9</ele></trkpt>
      <trkpt lat="46.53974061097124" lon="8.678024657810454">
      <ele>1851.9</ele></trkpt>
      <trkpt lat="46.53980531143395" lon="8.678181029189846">
      <ele>1851.9</ele></trkpt>
      <trkpt lat="46.53987031847385" lon="8.678331540908582">
      <ele>1851.9</ele></trkpt>
      <trkpt lat="46.53993203195284" lon="8.67843506710921">
      <ele>1851.9</ele></trkpt>
      <trkpt lat="46.53996545861554" lon="8.678513108439404">
      <ele>1852.0</ele></trkpt>
      <trkpt lat="46.54000807950664" lon="8.678621712783364">
      <ele>1852.0</ele></trkpt>
      <trkpt lat="46.540047368050544" lon="8.678686081418812">
      <ele>1852.0</ele></trkpt>
      <trkpt lat="46.54012255254974" lon="8.678776109743433">
      <ele>1852.0</ele></trkpt>
      <trkpt lat="46.540144796660364" lon="8.678831822091015">
      <ele>1852.0</ele></trkpt>
      <trkpt lat="46.54018721109254" lon="8.678965103234756">
      <ele>1852.0</ele></trkpt>
      <trkpt lat="46.54022682796793" lon="8.679057915733559">
      <ele>1852.0</ele></trkpt>
      <trkpt lat="46.540270872834306" lon="8.679136553213846">
      <ele>1852.0</ele></trkpt>
      <trkpt lat="46.54037659010456" lon="8.67927704839989">
      <ele>1852.0</ele></trkpt>
      <trkpt lat="46.5404766793671" lon="8.679413868797424">
      <ele>1852.0</ele></trkpt>
      <trkpt lat="46.540509018722226" lon="8.679447205154915">
      <ele>1852.0</ele></trkpt>
      <trkpt lat="46.54054448729928" lon="8.679474094237522">
      <ele>1852.1</ele></trkpt>
      <trkpt lat="46.540597374211146" lon="8.679502569063269">
      <ele>1852.3</ele></trkpt>
      <trkpt lat="46.54070195361835" lon="8.67954942608011">
      <ele>1852.4</ele></trkpt>
      <trkpt lat="46.54079654559605" lon="8.679593081645322">
      <ele>1852.6</ele></trkpt>
      <trkpt lat="46.540844126575685" lon="8.679627954166529">
      <ele>1852.7</ele></trkpt>
      <trkpt lat="46.54087948256105" lon="8.679664332732415">
      <ele>1852.8</ele></trkpt>
      <trkpt lat="46.54095173287038" lon="8.679756056703958">
      <ele>1853.0</ele></trkpt>
      <trkpt lat="46.54101303383282" lon="8.679851102346447">
      <ele>1853.1</ele></trkpt>
      <trkpt lat="46.5410646626673" lon="8.679953618971268">
      <ele>1853.3</ele></trkpt>
      <trkpt lat="46.54116053451498" lon="8.680156110476629">
      <ele>1853.4</ele></trkpt>
      <trkpt lat="46.54122572935805" lon="8.680293307621035">
      <ele>1853.5</ele></trkpt>
      <trkpt lat="46.54127119492617" lon="8.680401603076167">
      <ele>1853.7</ele></trkpt>
      <trkpt lat="46.541330364643315" lon="8.680570658494998">
      <ele>1853.8</ele></trkpt>
      <trkpt lat="46.541395122890464" lon="8.680746961415615">
      <ele>1854.0</ele></trkpt>
      <trkpt lat="46.541441944050845" lon="8.680850542766752">
      <ele>1854.1</ele></trkpt>
      <trkpt lat="46.54149905723055" lon="8.680969784801057">
      <ele>1854.2</ele></trkpt>
      <trkpt lat="46.54156213922641" lon="8.681101002876654">
      <ele>1854.4</ele></trkpt>
      <trkpt lat="46.54158895410139" lon="8.681199392748605">
      <ele>1854.5</ele></trkpt>
      <trkpt lat="46.54163584591996" lon="8.681374687382922">
      <ele>1854.7</ele></trkpt>
      <trkpt lat="46.54167331980281" lon="8.681494652981472">
      <ele>1854.8</ele></trkpt>
      <trkpt lat="46.54171638039301" lon="8.681583350642049">
      <ele>1854.7</ele></trkpt>
      <trkpt lat="46.54175457131245" lon="8.681639340698547">
      <ele>1854.7</ele></trkpt>
      <trkpt lat="46.541791256923574" lon="8.681673365711701">
      <ele>1854.6</ele></trkpt>
      <trkpt lat="46.54183313185272" lon="8.681711669175899">
      <ele>1854.6</ele></trkpt>
      <trkpt lat="46.54186297851462" lon="8.681752408482955">
      <ele>1854.5</ele></trkpt>
      <trkpt lat="46.542031759402356" lon="8.681990858779335">
      <ele>1854.4</ele></trkpt>
      <trkpt lat="46.542159216708406" lon="8.682175933598973">
      <ele>1854.4</ele></trkpt>
      <trkpt lat="46.5423124481883" lon="8.682373453447923">
      <ele>1854.3</ele></trkpt>
      <trkpt lat="46.54241240746626" lon="8.682516892102733">
      <ele>1854.3</ele></trkpt>
      <trkpt lat="46.542454919486225" lon="8.682607965254503">
      <ele>1854.2</ele></trkpt>
      <trkpt lat="46.54248504301735" lon="8.682695741949424">
      <ele>1854.1</ele></trkpt>
      <trkpt lat="46.54251667676395" lon="8.682834612451037">
      <ele>1854.1</ele></trkpt>
      <trkpt lat="46.54259483627773" lon="8.683265821372721">
      <ele>1854.0</ele></trkpt>
      <trkpt lat="46.54261414670492" lon="8.68339538644463">
      <ele>1854.0</ele></trkpt>
      <trkpt lat="46.54261713228995" lon="8.683454689387359">
      <ele>1853.9</ele></trkpt>
      <trkpt lat="46.54259062803577" lon="8.683839291723821">
      <ele>1853.8</ele></trkpt>
      <trkpt lat="46.54259583311815" lon="8.683932506921622">
      <ele>1853.8</ele></trkpt>
      <trkpt lat="46.54261164483148" lon="8.684001936034413">
      <ele>1853.7</ele></trkpt>
      <trkpt lat="46.54265208693549" lon="8.68409296309349">
      <ele>1853.7</ele></trkpt>
      <trkpt lat="46.54274159290713" lon="8.684245161997717">
      <ele>1853.6</ele></trkpt>
      <trkpt lat="46.54275955696493" lon="8.684308630115417">
      <ele>1853.5</ele></trkpt>
      <trkpt lat="46.54275412788819" lon="8.68442563112001">
      <ele>1853.5</ele></trkpt>
      <trkpt lat="46.542752929753235" lon="8.684434808813853">
      <ele>1853.4</ele></trkpt>
      <trkpt lat="46.54274054645784" lon="8.684530422872557">
      <ele>1853.3</ele></trkpt>
      <trkpt lat="46.54271258839819" lon="8.684622875112517">
      <ele>1853.2</ele></trkpt>
      <trkpt lat="46.54267513019175" lon="8.684696398188896">
      <ele>1853.2</ele></trkpt>
      <trkpt lat="46.54262689878156" lon="8.684755513265705">
      <ele>1853.1</ele></trkpt>
      <trkpt lat="46.542600625515234" lon="8.684789434660306">
      <ele>1853.0</ele></trkpt>
      <trkpt lat="46.54257858438805" lon="8.684842724466865">
      <ele>1853.0</ele></trkpt>
      <trkpt lat="46.54256335444791" lon="8.684923864969264">
      <ele>1852.9</ele></trkpt>
      <trkpt lat="46.542556969062765" lon="8.685017243663363">
      <ele>1852.8</ele></trkpt>
      <trkpt lat="46.54255607741497" lon="8.685103525461605">
      <ele>1852.8</ele></trkpt>
      <trkpt lat="46.54256575457569" lon="8.685228592659545">
      <ele>1852.7</ele></trkpt>
      <trkpt lat="46.54258594102279" lon="8.685364215451282">
      <ele>1852.6</ele></trkpt>
      <trkpt lat="46.54260397695673" lon="8.68547030856964">
      <ele>1852.5</ele></trkpt>
      <trkpt lat="46.54261164230901" lon="8.685515429135572">
      <ele>1852.5</ele></trkpt>
      <trkpt lat="46.542628810234355" lon="8.685595646832018">
      <ele>1852.4</ele></trkpt>
      <trkpt lat="46.5426579636747" lon="8.685701944068109">
      <ele>1852.3</ele></trkpt>
      <trkpt lat="46.54270800904976" lon="8.685815476736824">
      <ele>1852.3</ele></trkpt>
      <trkpt lat="46.54278802075935" lon="8.685954590809164">
      <ele>1852.2</ele></trkpt>
      <trkpt lat="46.54286952917009" lon="8.68607124810966">
      <ele>1852.2</ele></trkpt>
      <trkpt lat="46.54290115822125" lon="8.68613471898022">
      <ele>1852.2</ele></trkpt>
      <trkpt lat="46.54291910323536" lon="8.68619818749736">
      <ele>1852.2</ele></trkpt>
      <trkpt lat="46.54295828886607" lon="8.686407683276355">
      <ele>1852.1</ele></trkpt>
      <trkpt lat="46.543011036610174" lon="8.686704499189204">
      <ele>1852.1</ele></trkpt>
      <trkpt lat="46.543034670254286" lon="8.686836552336578">
      <ele>1852.1</ele></trkpt>
      <trkpt lat="46.5430411485103" lon="8.686893876392384">
      <ele>1852.1</ele></trkpt>
      <trkpt lat="46.54304391258931" lon="8.68698712769755">
      <ele>1852.1</ele></trkpt>
      <trkpt lat="46.54305034684033" lon="8.687048453648764">
      <ele>1852.1</ele></trkpt>
      <trkpt lat="46.543063805111835" lon="8.687117373667142">
      <ele>1852.1</ele></trkpt>
      <trkpt lat="46.543087916027574" lon="8.68720427205598">
      <ele>1852.0</ele></trkpt>
      <trkpt lat="46.54311020604285" lon="8.68730541895399">
      <ele>1852.0</ele></trkpt>
      <trkpt lat="46.543117363678014" lon="8.68737704925554">
      <ele>1852.0</ele></trkpt>
      <trkpt lat="46.54312147666267" lon="8.687500633823127">
      <ele>1852.0</ele></trkpt>
      <trkpt lat="46.543134449908614" lon="8.687653016751677">
      <ele>1852.0</ele></trkpt>
      <trkpt lat="46.543147711738015" lon="8.687779107309758">
      <ele>1852.0</ele></trkpt>
      <trkpt lat="46.54316297065405" lon="8.68795270499203">
      <ele>1851.9</ele></trkpt>
      <trkpt lat="46.543172142482405" lon="8.688109563975289">
      <ele>1851.9</ele></trkpt>
      <trkpt lat="46.54317488513287" lon="8.688243978373778">
      <ele>1851.9</ele></trkpt>
      <trkpt lat="46.54317341999272" lon="8.688380590465409">
      <ele>1851.9</ele></trkpt>
      <trkpt lat="46.543176302183376" lon="8.688462983564254">
      <ele>1851.9</ele></trkpt>
      <trkpt lat="46.543186959349065" lon="8.688519830764296">
      <ele>1851.9</ele></trkpt>
      <trkpt lat="46.54320946528066" lon="8.688600408267321">
      <ele>1851.9</ele></trkpt>
      <trkpt lat="46.543270757095144" lon="8.688839676501054">
      <ele>1852.0</ele></trkpt>
      <trkpt lat="46.543321083526415" lon="8.689050111015929">
      <ele>1852.0</ele></trkpt>
      <trkpt lat="46.543339715525654" lon="8.689142595132413">
      <ele>1852.0</ele></trkpt>
      <trkpt lat="46.5433452520351" lon="8.68921018565246">
      <ele>1852.0</ele></trkpt>
      <trkpt lat="46.54334452822271" lon="8.689277644595727">
      <ele>1852.0</ele></trkpt>
      <trkpt lat="46.54333712684264" lon="8.689406635701348">
      <ele>1852.0</ele></trkpt>
      <trkpt lat="46.54333459586911" lon="8.689496062328148">
      <ele>1852.1</ele></trkpt>
      <trkpt lat="46.54334008469232" lon="8.689562243593004">
      <ele>1852.1</ele></trkpt>
      <trkpt lat="46.5434058212048" lon="8.689990196318933">
      <ele>1852.1</ele></trkpt>
      <trkpt lat="46.543436620205206" lon="8.690204118725221">
      <ele>1852.1</ele></trkpt>
      <trkpt lat="46.5434634136423" lon="8.690405926979864">
      <ele>1852.1</ele></trkpt>
      <trkpt lat="46.54348534626972" lon="8.690484523590932">
      <ele>1852.1</ele></trkpt>
      <trkpt lat="46.543559608344395" lon="8.69070246384328">
      <ele>1852.1</ele></trkpt>
      <trkpt lat="46.543581045185114" lon="8.690826072354524">
      <ele>1852.2</ele></trkpt>
      <trkpt lat="46.543602616004456" lon="8.690936684340372">
      <ele>1852.2</ele></trkpt>
      <trkpt lat="46.5436290917461" lon="8.691051217238648">
      <ele>1852.2</ele></trkpt>
      <trkpt lat="46.54366475193466" lon="8.691152780473512">
      <ele>1852.2</ele></trkpt>
      <trkpt lat="46.54373146979439" lon="8.691311429553323">
      <ele>1852.9</ele></trkpt>
      <trkpt lat="46.54381498455183" lon="8.69149864481894">
      <ele>1853.6</ele></trkpt>
      <trkpt lat="46.5438502220148" lon="8.691580562333401">
      <ele>1854.3</ele></trkpt>
      <trkpt lat="46.54387964356844" lon="8.691673454487237">
      <ele>1855.0</ele></trkpt>
      <trkpt lat="46.54393618294341" lon="8.691898459012812">
      <ele>1855.7</ele></trkpt>
      <trkpt lat="46.54399796481894" lon="8.69210651743849">
      <ele>1856.3</ele></trkpt>
      <trkpt lat="46.54405184657597" lon="8.692282800002312">
      <ele>1857.0</ele></trkpt>
      <trkpt lat="46.544083014436644" lon="8.692390245706678">
      <ele>1857.7</ele></trkpt>
      <trkpt lat="46.544103385257266" lon="8.692501848621228">
      <ele>1858.4</ele></trkpt>
      <trkpt lat="46.54411802784559" lon="8.692616461321569">
      <ele>1859.1</ele></trkpt>
      <trkpt lat="46.544136974484275" lon="8.692681782157978">
      <ele>1859.8</ele></trkpt>
      <trkpt lat="46.544162224856926" lon="8.692749817760113">
      <ele>1860.5</ele></trkpt>
      <trkpt lat="46.54423162842749" lon="8.69289315956718">
      <ele>1861.2</ele></trkpt>
      <trkpt lat="46.54428487369013" lon="8.693007950011186">
      <ele>1861.9</ele></trkpt>
      <trkpt lat="46.544330527382066" lon="8.693122577794341">
      <ele>1862.5</ele></trkpt>
      <trkpt lat="46.544367416260535" lon="8.693227588455876">
      <ele>1863.2</ele></trkpt>
      <trkpt lat="46.54439713859781" lon="8.693291464492441">
      <ele>1863.9</ele></trkpt>
      <trkpt lat="46.544430121638854" lon="8.693346015024702">
      <ele>1864.6</ele></trkpt>
      <trkpt lat="46.544484392778536" lon="8.69342241705159">
      <ele>1865.3</ele></trkpt>
      <trkpt lat="46.54457117778574" lon="8.69353798608173">
      <ele>1866.0</ele></trkpt>
      <trkpt lat="46.54463153555954" lon="8.69363758273622">
      <ele>1866.8</ele></trkpt>
      <trkpt lat="46.54467621457679" lon="8.693722264447182">
      <ele>1867.6</ele></trkpt>
      <trkpt lat="46.5447586672797" lon="8.693891233463699">
      <ele>1868.3</ele></trkpt>
      <trkpt lat="46.54481802857578" lon="8.694024839919486">
      <ele>1869.1</ele></trkpt>
      <trkpt lat="46.544894067501" lon="8.694221395385298">
      <ele>1869.9</ele></trkpt>
      <trkpt lat="46.54496510672282" lon="8.694398954693972">
      <ele>1870.7</ele></trkpt>
      <trkpt lat="46.54502393809055" lon="8.69454139050928">
      <ele>1871.5</ele></trkpt>
      <trkpt lat="46.54509854893823" lon="8.694710766690948">
      <ele>1872.2</ele></trkpt>
      <trkpt lat="46.54513064206088" lon="8.69479532748574">
      <ele>1873.0</ele></trkpt>
      <trkpt lat="46.545148688770226" lon="8.694852414739955">
      <ele>1873.8</ele></trkpt>
      <trkpt lat="46.545166034237944" lon="8.694933073724933">
      <ele>1874.6</ele></trkpt>
      <trkpt lat="46.54517733354743" lon="8.6950088722324">
      <ele>1875.4</ele></trkpt>
      <trkpt lat="46.54518144313543" lon="8.69510514500011">
      <ele>1876.1</ele></trkpt>
      <trkpt lat="46.545177341402145" lon="8.695197093738212">
      <ele>1876.9</ele></trkpt>
      <trkpt lat="46.545174644682255" lon="8.695317396293959">
      <ele>1877.7</ele></trkpt>
      <trkpt lat="46.545181725440216" lon="8.695457406464321">
      <ele>1878.5</ele></trkpt>
      <trkpt lat="46.54519543283361" lon="8.695627065304944">
      <ele>1879.3</ele></trkpt>
      <trkpt lat="46.545212410560076" lon="8.69577675887118">
      <ele>1880.0</ele></trkpt>
      <trkpt lat="46.5452366124126" lon="8.69597854261658">
      <ele>1880.8</ele></trkpt>
      <trkpt lat="46.545243578546426" lon="8.696091415707809">
      <ele>1881.6</ele></trkpt>
      <trkpt lat="46.5452497570066" lon="8.69619659041176">
      <ele>1882.3</ele></trkpt>
      <trkpt lat="46.54525506013712" lon="8.696264569890578">
      <ele>1882.9</ele></trkpt>
      <trkpt lat="46.54526495372633" lon="8.696312014894259">
      <ele>1883.6</ele></trkpt>
      <trkpt lat="46.545283983137416" lon="8.696359085414704">
      <ele>1884.3</ele></trkpt>
      <trkpt lat="46.54530527415856" lon="8.696395268572948">
      <ele>1884.9</ele></trkpt>
      <trkpt lat="46.545325316174655" lon="8.696434565202843">
      <ele>1885.6</ele></trkpt>
      <trkpt lat="46.54533735834445" lon="8.696486219755528">
      <ele>1886.3</ele></trkpt>
      <trkpt lat="46.54534661566093" lon="8.69655213978359">
      <ele>1887.0</ele></trkpt>
      <trkpt lat="46.54535493631915" lon="8.696660441804767">
      <ele>1887.6</ele></trkpt>
      <trkpt lat="46.5453713053883" lon="8.696752801329133">
      <ele>1888.3</ele></trkpt>
      <trkpt lat="46.54538757511356" lon="8.696815911479286">
      <ele>1889.0</ele></trkpt>
      <trkpt lat="46.545429376522264" lon="8.696971007570271">
      <ele>1889.6</ele></trkpt>
      <trkpt lat="46.54546219332425" lon="8.697110352171983">
      <ele>1890.3</ele></trkpt>
      <trkpt lat="46.54550536213828" lon="8.697297126930756">
      <ele>1891.0</ele></trkpt>
      <trkpt lat="46.54557513985806" lon="8.697521578583588">
      <ele>1891.7</ele></trkpt>
      <trkpt lat="46.54561263745839" lon="8.697671203467568">
      <ele>1892.3</ele></trkpt>
      <trkpt lat="46.54565152418247" lon="8.69784323640831">
      <ele>1893.0</ele></trkpt>
      <trkpt lat="46.54567754927441" lon="8.697938533640965">
      <ele>1893.7</ele></trkpt>
      <trkpt lat="46.54570167712288" lon="8.698001227528179">
      <ele>1894.3</ele></trkpt>
      <trkpt lat="46.54572907023612" lon="8.698046094382612">
      <ele>1895.0</ele></trkpt>
      <trkpt lat="46.54576766837364" lon="8.698101966437706">
      <ele>1895.7</ele></trkpt>
      <trkpt lat="46.54588764467812" lon="8.698249404112017">
      <ele>1896.4</ele></trkpt>
      <trkpt lat="46.54599907950721" lon="8.698381713505974">
      <ele>1897.1</ele></trkpt>
      <trkpt lat="46.54603788722645" lon="8.698420274572868">
      <ele>1897.8</ele></trkpt>
      <trkpt lat="46.54609222459201" lon="8.698474153389022">
      <ele>1898.5</ele></trkpt>
      <trkpt lat="46.546129877276876" lon="8.698536576017538">
      <ele>1899.3</ele></trkpt>
      <trkpt lat="46.5461556943633" lon="8.698603495694522">
      <ele>1900.0</ele></trkpt>
      <trkpt lat="46.54617108410179" lon="8.698667173632513">
      <ele>1900.7</ele></trkpt>
      <trkpt lat="46.54617727125363" lon="8.698734810018141">
      <ele>1901.4</ele></trkpt>
      <trkpt lat="46.54617651840586" lon="8.698798698999191">
      <ele>1902.1</ele></trkpt>
      <trkpt lat="46.54616694612663" lon="8.698870128104929">
      <ele>1902.8</ele></trkpt>
      <trkpt lat="46.54615149681207" lon="8.698996955488923">
      <ele>1903.5</ele></trkpt>
      <trkpt lat="46.546147692355476" lon="8.699060173567378">
      <ele>1904.2</ele></trkpt>
      <trkpt lat="46.54615134478294" lon="8.699157611355044">
      <ele>1904.9</ele></trkpt>
      <trkpt lat="46.546158250650244" lon="8.69927482757917">
      <ele>1905.7</ele></trkpt>
      <trkpt lat="46.546154389859765" lon="8.699380448724046">
      <ele>1906.4</ele></trkpt>
      <trkpt lat="46.54615029261481" lon="8.699505767000684">
      <ele>1907.1</ele></trkpt>
      <trkpt lat="46.546136871206734" lon="8.699645185396758">
      <ele>1907.8</ele></trkpt>
      <trkpt lat="46.54610444800891" lon="8.699860911333005">
      <ele>1908.5</ele></trkpt>
      <trkpt lat="46.54605591871068" lon="8.700127063417995">
      <ele>1909.2</ele></trkpt>
      <trkpt lat="46.54605291749399" lon="8.700211084934145">
      <ele>1909.4</ele></trkpt>
      <trkpt lat="46.54606791984646" lon="8.700352586742367">
      <ele>1909.5</ele></trkpt>
      <trkpt lat="46.546073081356155" lon="8.700437163647788">
      <ele>1909.7</ele></trkpt>
      <trkpt lat="46.54607097016377" lon="8.700563388587051">
      <ele>1909.8</ele></trkpt>
      <trkpt lat="46.546070715084575" lon="8.700714483931444">
      <ele>1910.0</ele></trkpt>
      <trkpt lat="46.546075760525035" lon="8.700774635259418">
      <ele>1910.1</ele></trkpt>
      <trkpt lat="46.54608462931716" lon="8.700812108842225">
      <ele>1910.2</ele></trkpt>
      <trkpt lat="46.546100593812234" lon="8.700853881405884">
      <ele>1910.4</ele></trkpt>
      <trkpt lat="46.54611819758598" lon="8.700876028692685">
      <ele>1910.5</ele></trkpt>
      <trkpt lat="46.546201575686304" lon="8.70095662716324">
      <ele>1910.7</ele></trkpt>
      <trkpt lat="46.546289959504705" lon="8.70103528238014">
      <ele>1910.9</ele></trkpt>
      <trkpt lat="46.54634132414195" lon="8.701104794363697">
      <ele>1911.0</ele></trkpt>
      <trkpt lat="46.54637349671743" lon="8.701165565700622">
      <ele>1911.2</ele></trkpt>
      <trkpt lat="46.546409499974374" lon="8.701267840057955">
      <ele>1911.3</ele></trkpt>
      <trkpt lat="46.5464655673982" lon="8.701427513319326">
      <ele>1911.5</ele></trkpt>
      <trkpt lat="46.54652454100357" lon="8.70158309509852">
      <ele>1911.6</ele></trkpt>
      <trkpt lat="46.54655918268085" lon="8.701679131416029">
      <ele>1911.8</ele></trkpt>
      <trkpt lat="46.546584762941855" lon="8.701754249541288">
      <ele>1911.9</ele></trkpt>
      <trkpt lat="46.54660127679625" lon="8.701810522584891">
      <ele>1912.0</ele></trkpt>
      <trkpt lat="46.54661060056013" lon="8.701871804589032">
      <ele>1912.2</ele></trkpt>
      <trkpt lat="46.546616880023784" lon="8.701949588895447">
      <ele>1912.4</ele></trkpt>
      <trkpt lat="46.54661784139632" lon="8.701991012055348">
      <ele>1912.6</ele></trkpt>
      <trkpt lat="46.546612640510034" lon="8.702073692110329">
      <ele>1912.8</ele></trkpt>
      <trkpt lat="46.54660516101741" lon="8.702168732657881">
      <ele>1913.0</ele></trkpt>
      <trkpt lat="46.546598093060695" lon="8.702290696509658">
      <ele>1913.2</ele></trkpt>
      <trkpt lat="46.54657231790147" lon="8.702296314680945">
      <ele>1913.4</ele></trkpt>
      <trkpt lat="46.54655064927991" lon="8.70231857594355">
      <ele>1913.6</ele></trkpt>
      <trkpt lat="46.54653333094689" lon="8.702334731909032">
      <ele>1913.8</ele></trkpt>
      <trkpt lat="46.546514387099364" lon="8.702368440300576">
      <ele>1914.0</ele></trkpt>
      <trkpt lat="46.54649761839" lon="8.702399096033371">
      <ele>1914.2</ele></trkpt>
      <trkpt lat="46.546464365748434" lon="8.702435586765219">
      <ele>1914.3</ele></trkpt>
      <trkpt lat="46.54643117060432" lon="8.702466902091935">
      <ele>1914.5</ele></trkpt>
      <trkpt lat="46.546408060391414" lon="8.702490159694705">
      <ele>1914.7</ele></trkpt>
      <trkpt lat="46.546394059886886" lon="8.702529160075894">
      <ele>1914.9</ele></trkpt>
      <trkpt lat="46.54637349029185" lon="8.702580433733084">
      <ele>1915.1</ele></trkpt>
      <trkpt lat="46.54636825449511" lon="8.702666215963067">
      <ele>1915.3</ele></trkpt>
      <trkpt lat="46.546350314981915" lon="8.702738257746054">
      <ele>1915.5</ele></trkpt>
      <trkpt lat="46.546334035778486" lon="8.702789618441713">
      <ele>1915.7</ele></trkpt>
      <trkpt lat="46.54633349516068" lon="8.702838256308311">
      <ele>1915.9</ele></trkpt>
      <trkpt lat="46.54633900847259" lon="8.702920155981289">
      <ele>1916.1</ele></trkpt>
      <trkpt lat="46.54633607409901" lon="8.702991504965013">
      <ele>1916.4</ele></trkpt>
      <trkpt lat="46.54633111407931" lon="8.703052453237227">
      <ele>1916.7</ele></trkpt>
      <trkpt lat="46.546327552101765" lon="8.703115507442352">
      <ele>1917.0</ele></trkpt>
      <trkpt lat="46.546312748787265" lon="8.703162768954487">
      <ele>1917.2</ele></trkpt>
      <trkpt lat="46.546277128192514" lon="8.703199399372263">
      <ele>1917.5</ele></trkpt>
      <trkpt lat="46.54625116905327" lon="8.703221559921982">
      <ele>1917.8</ele></trkpt>
      <trkpt lat="46.546201676412664" lon="8.70324111041728">
      <ele>1918.1</ele></trkpt>
      <trkpt lat="46.546189404942496" lon="8.703253237332563">
      <ele>1918.4</ele></trkpt>
      <trkpt lat="46.54617771734312" lon="8.703276774401859">
      <ele>1918.7</ele></trkpt>
      <trkpt lat="46.54615978035949" lon="8.703284635422232">
      <ele>1918.9</ele></trkpt>
      <trkpt lat="46.54613309904752" lon="8.703307822169851">
      <ele>1919.2</ele></trkpt>
      <trkpt lat="46.54610522647496" lon="8.703373411523634">
      <ele>1919.5</ele></trkpt>
      <trkpt lat="46.54608160970205" lon="8.703442203644709">
      <ele>1919.8</ele></trkpt>
      <trkpt lat="46.546072252981816" lon="8.703513402196954">
      <ele>1920.1</ele></trkpt>
      <trkpt lat="46.54607606255796" lon="8.703555921655258">
      <ele>1920.4</ele></trkpt>
      <trkpt lat="46.54607850546891" lon="8.703657412794474">
      <ele>1920.7</ele></trkpt>
      <trkpt lat="46.546076292792506" lon="8.703727735114333">
      <ele>1920.9</ele></trkpt>
      <trkpt lat="46.54606492181534" lon="8.70378750307978">
      <ele>1921.2</ele></trkpt>
      <trkpt lat="46.546066279699694" lon="8.703857921874093">
      <ele>1921.5</ele></trkpt>
      <trkpt lat="46.54607554739282" lon="8.703923335852465">
      <ele>1921.8</ele></trkpt>
      <trkpt lat="46.54609197953587" lon="8.703986857091811">
      <ele>1922.0</ele></trkpt>
      <trkpt lat="46.546110995564895" lon="8.704075278985625">
      <ele>1922.2</ele></trkpt>
      <trkpt lat="46.546132943406946" lon="8.70415651953165">
      <ele>1922.4</ele></trkpt>
      <trkpt lat="46.54615995214511" lon="8.704231671672149">
      <ele>1922.5</ele></trkpt>
      <trkpt lat="46.54619114744784" lon="8.70431624502136">
      <ele>1922.7</ele></trkpt>
      <trkpt lat="46.54622240042967" lon="8.704395630093757">
      <ele>1922.9</ele></trkpt>
      <trkpt lat="46.54623524991598" lon="8.704460111037015">
      <ele>1923.1</ele></trkpt>
      <trkpt lat="46.546240992471965" lon="8.704521309366744">
      <ele>1923.3</ele></trkpt>
      <trkpt lat="46.54625907335111" lon="8.704565192915464">
      <ele>1923.5</ele></trkpt>
      <trkpt lat="46.54627756512828" lon="8.704636012718348">
      <ele>1923.7</ele></trkpt>
      <trkpt lat="46.54627853451668" lon="8.704677435876151">
      <ele>1923.8</ele></trkpt>
      <trkpt lat="46.54626752806633" lon="8.704768259501797">
      <ele>1924.0</ele></trkpt>
      <trkpt lat="46.54626488061549" lon="8.70481373158149">
      <ele>1924.2</ele></trkpt>
      <trkpt lat="46.546269434661184" lon="8.7048531783419">
      <ele>1924.4</ele></trkpt>
      <trkpt lat="46.54627763770332" lon="8.704886490616115">
      <ele>1924.6</ele></trkpt>
      <trkpt lat="46.546299942164914" lon="8.704935649816568">
      <ele>1924.8</ele></trkpt>
      <trkpt lat="46.54633691763884" lon="8.705014139169997">
      <ele>1924.9</ele></trkpt>
      <trkpt lat="46.54637375472019" lon="8.705105052082562">
      <ele>1925.1</ele></trkpt>
      <trkpt lat="46.546400751217604" lon="8.705181247923353">
      <ele>1925.3</ele></trkpt>
      <trkpt lat="46.54641579623658" lon="8.705241621030812">
      <ele>1925.5</ele></trkpt>
      <trkpt lat="46.546428006411816" lon="8.7052988374606">
      <ele>1926.0</ele></trkpt>
      <trkpt lat="46.54643046331138" lon="8.705335118854272">
      <ele>1926.6</ele></trkpt>
      <trkpt lat="46.546429363505425" lon="8.705369243728846">
      <ele>1927.2</ele></trkpt>
      <trkpt lat="46.54642332437575" lon="8.705410646442116">
      <ele>1927.7</ele></trkpt>
      <trkpt lat="46.54641748167556" lon="8.705507106760589">
      <ele>1928.2</ele></trkpt>
      <trkpt lat="46.54641825141209" lon="8.705652033397001">
      <ele>1928.8</ele></trkpt>
      <trkpt lat="46.54643095007606" lon="8.705793783806687">
      <ele>1929.3</ele></trkpt>
      <trkpt lat="46.546450160208494" lon="8.705885653911844">
      <ele>1929.9</ele></trkpt>
      <trkpt lat="46.54645916645279" lon="8.705932442101382">
      <ele>1930.5</ele></trkpt>
      <trkpt lat="46.546472537363584" lon="8.706013835207177">
      <ele>1931.0</ele></trkpt>
      <trkpt lat="46.546493900138735" lon="8.706126462720807">
      <ele>1931.5</ele></trkpt>
      <trkpt lat="46.546499792401264" lon="8.706238728043504">
      <ele>1932.1</ele></trkpt>
      <trkpt lat="46.54650175880022" lon="8.706381948694052">
      <ele>1932.7</ele></trkpt>
      <trkpt lat="46.54650533397622" lon="8.706488983080822">
      <ele>1933.2</ele></trkpt>
      <trkpt lat="46.54652101112998" lon="8.70657732836485">
      <ele>1933.8</ele></trkpt>
      <trkpt lat="46.54653242530284" lon="8.706727668365229">
      <ele>1934.3</ele></trkpt>
      <trkpt lat="46.54653656295521" lon="8.706889925649726">
      <ele>1934.8</ele></trkpt>
      <trkpt lat="46.54655565677238" lon="8.706992147057576">
      <ele>1935.4</ele></trkpt>
      <trkpt lat="46.54656777174583" lon="8.70708040910536">
      <ele>1936.0</ele></trkpt>
      <trkpt lat="46.54656590232581" lon="8.70714073864143">
      <ele>1936.5</ele></trkpt>
      <trkpt lat="46.54656897294216" lon="8.7071856668222">
      <ele>1936.5</ele></trkpt>
      <trkpt lat="46.54659083476838" lon="8.707253450480241">
      <ele>1936.5</ele></trkpt>
      <trkpt lat="46.54663006043467" lon="8.707364776208031">
      <ele>1936.4</ele></trkpt>
      <trkpt lat="46.54667095434031" lon="8.707433006124631">
      <ele>1936.4</ele></trkpt>
      <trkpt lat="46.54670271678557" lon="8.707466532265697">
      <ele>1936.4</ele></trkpt>
      <trkpt lat="46.546723612998264" lon="8.707513599667656">
      <ele>1936.4</ele></trkpt>
      <trkpt lat="46.54675334166181" lon="8.70762296894887">
      <ele>1936.4</ele></trkpt>
      <trkpt lat="46.546776554589684" lon="8.707675267511782">
      <ele>1936.3</ele></trkpt>
      <trkpt lat="46.54679016424459" lon="8.707735960180571">
      <ele>1936.3</ele></trkpt>
      <trkpt lat="46.54683418603534" lon="8.70784394362503">
      <ele>1936.3</ele></trkpt>
      <trkpt lat="46.546859666868954" lon="8.707906649041337">
      <ele>1936.3</ele></trkpt>
      <trkpt lat="46.54687924091382" lon="8.707965760490403">
      <ele>1936.3</ele></trkpt>
      <trkpt lat="46.546902052310514" lon="8.708161225622504">
      <ele>1936.2</ele></trkpt>
      <trkpt lat="46.54692102943831" lon="8.708273798970795">
      <ele>1936.2</ele></trkpt>
      <trkpt lat="46.5469471095982" lon="8.708389981499206">
      <ele>1936.2</ele></trkpt>
      <trkpt lat="46.546967235191204" lon="8.708506037489567">
      <ele>1936.2</ele></trkpt>
      <trkpt lat="46.546989019228945" lon="8.708580718377007">
      <ele>1936.2</ele></trkpt>
      <trkpt lat="46.547004540743295" lon="8.708682857454445">
      <ele>1936.1</ele></trkpt>
      <trkpt lat="46.54702188488589" lon="8.7087281210129">
      <ele>1936.1</ele></trkpt>
      <trkpt lat="46.54705236345696" lon="8.7087702372703">
      <ele>1936.1</ele></trkpt>
      <trkpt lat="46.54708463869289" lon="8.70886415041717">
      <ele>1936.0</ele></trkpt>
      <trkpt lat="46.54710726293204" lon="8.708969911980716">
      <ele>1936.0</ele></trkpt>
      <trkpt lat="46.547131266985026" lon="8.709058454443332">
      <ele>1935.9</ele></trkpt>
      <trkpt lat="46.54716577142977" lon="8.709166216282258">
      <ele>1935.9</ele></trkpt>
      <trkpt lat="46.54718465129408" lon="8.709287407548654">
      <ele>1935.8</ele></trkpt>
      <trkpt lat="46.54720596323347" lon="8.709403492254667">
      <ele>1935.7</ele></trkpt>
      <trkpt lat="46.54720847419499" lon="8.709498428495884">
      <ele>1935.7</ele></trkpt>
      <trkpt lat="46.54720989425201" lon="8.70958470681186">
      <ele>1935.6</ele></trkpt>
      <trkpt lat="46.54719689606578" lon="8.709682734429231">
      <ele>1935.6</ele></trkpt>
      <trkpt lat="46.54718904134981" lon="8.709746379593133">
      <ele>1935.5</ele></trkpt>
      <trkpt lat="46.54715618088821" lon="8.709811158753297">
      <ele>1935.4</ele></trkpt>
      <trkpt lat="46.54711968152246" lon="8.70988275039782">
      <ele>1935.4</ele></trkpt>
      <trkpt lat="46.54709238071789" lon="8.70998216310461">
      <ele>1935.3</ele></trkpt>
      <trkpt lat="46.54705412581493" lon="8.710103746739355">
      <ele>1935.3</ele></trkpt>
      <trkpt lat="46.547033927902895" lon="8.710206768559653">
      <ele>1935.2</ele></trkpt>
      <trkpt lat="46.54699768983251" lon="8.71036118112667">
      <ele>1935.1</ele></trkpt>
      <trkpt lat="46.54696784061105" lon="8.710476050748737">
      <ele>1935.1</ele></trkpt>
      <trkpt lat="46.54695018012465" lon="8.710565335894888">
      <ele>1935.0</ele></trkpt>
      <trkpt lat="46.54693971886608" lon="8.710649626441615">
      <ele>1935.0</ele></trkpt>
      <trkpt lat="46.54693775117568" lon="8.7107185732437">
      <ele>1934.9</ele></trkpt>
      <trkpt lat="46.5469126788843" lon="8.71083183358122">
      <ele>1935.6</ele></trkpt>
      <trkpt lat="46.54688152598888" lon="8.710957038681151">
      <ele>1936.2</ele></trkpt>
      <trkpt lat="46.546870099778744" lon="8.711020599353468">
      <ele>1936.9</ele></trkpt>
      <trkpt lat="46.54686592063949" lon="8.71107569808984">
      <ele>1937.5</ele></trkpt>
      <trkpt lat="46.54687360305889" lon="8.711133670559377">
      <ele>1938.2</ele></trkpt>
      <trkpt lat="46.54684829365175" lon="8.711215016913618">
      <ele>1938.8</ele></trkpt>
      <trkpt lat="46.54681686622561" lon="8.711338989469873">
      <ele>1939.5</ele></trkpt>
      <trkpt lat="46.54679376702458" lon="8.711454355943763">
      <ele>1940.1</ele></trkpt>
      <trkpt lat="46.546734109639004" lon="8.711786311837258">
      <ele>1940.8</ele></trkpt>
      <trkpt lat="46.5466548310851" lon="8.712204884079588">
      <ele>1941.4</ele></trkpt>
      <trkpt lat="46.54657575264723" lon="8.712605452131433">
      <ele>1942.1</ele></trkpt>
      <trkpt lat="46.54653069195735" lon="8.712928725716186">
      <ele>1942.7</ele></trkpt>
      <trkpt lat="46.54652500226381" lon="8.712976434082098">
      <ele>1943.4</ele></trkpt>
      <trkpt lat="46.546511501732965" lon="8.71310377394796">
      <ele>1944.0</ele></trkpt>
      <trkpt lat="46.54650222600035" lon="8.71318807823888">
      <ele>1944.7</ele></trkpt>
      <trkpt lat="46.54649146945814" lon="8.713244755845146">
      <ele>1945.3</ele></trkpt>
      <trkpt lat="46.54647292883671" lon="8.71330641380761">
      <ele>1946.0</ele></trkpt>
      <trkpt lat="46.54643053504569" lon="8.713425301432428">
      <ele>1946.6</ele></trkpt>
      <trkpt lat="46.546380583829226" lon="8.713581108456903">
      <ele>1947.2</ele></trkpt>
      <trkpt lat="46.546368084925774" lon="8.713634289336422">
      <ele>1947.9</ele></trkpt>
      <trkpt lat="46.54636095695983" lon="8.7136858754829">
      <ele>1949.2</ele></trkpt>
      <trkpt lat="46.54635924765795" lon="8.713732412551371">
      <ele>1950.4</ele></trkpt>
      <trkpt lat="46.54636470897979" lon="8.71377652366128">
      <ele>1951.7</ele></trkpt>
      <trkpt lat="46.54637954508084" lon="8.713886418595669">
      <ele>1953.0</ele></trkpt>
      <trkpt lat="46.54640865912097" lon="8.71404925165755">
      <ele>1954.2</ele></trkpt>
      <trkpt lat="46.54642905275563" lon="8.7141946410731">
      <ele>1955.5</ele></trkpt>
      <trkpt lat="46.54644317952789" lon="8.714313999326327">
      <ele>1956.8</ele></trkpt>
      <trkpt lat="46.546449709616326" lon="8.714422420936051">
      <ele>1958.0</ele></trkpt>
      <trkpt lat="46.54644745296804" lon="8.714623581661066">
      <ele>1959.3</ele></trkpt>
      <trkpt lat="46.546424573935006" lon="8.714815245824575">
      <ele>1960.6</ele></trkpt>
      <trkpt lat="46.546380820928654" lon="8.71502143922309">
      <ele>1961.8</ele></trkpt>
      <trkpt lat="46.546341079204716" lon="8.715239736338148">
      <ele>1963.1</ele></trkpt>
      <trkpt lat="46.54633327104012" lon="8.715380705476242">
      <ele>1964.3</ele></trkpt>
      <trkpt lat="46.546333617460824" lon="8.715720068331075">
      <ele>1965.6</ele></trkpt>
      <trkpt lat="46.54634172284229" lon="8.716104666027494">
      <ele>1966.9</ele></trkpt>
      <trkpt lat="46.5463159215029" lon="8.716495361361506">
      <ele>1968.1</ele></trkpt>
      <trkpt lat="46.54631907478616" lon="8.71664469969509">
      <ele>1969.4</ele></trkpt>
      <trkpt lat="46.54635006423317" lon="8.7172070327145">
      <ele>1970.7</ele></trkpt>
      <trkpt lat="46.546391099272476" lon="8.71797982802007">
      <ele>1971.9</ele></trkpt>
      <trkpt lat="46.54639776194319" lon="8.718124138127312">
      <ele>1973.2</ele></trkpt>
      <trkpt lat="46.546407414252" lon="8.718187425738472">
      <ele>1974.0</ele></trkpt>
      <trkpt lat="46.54642534122403" lon="8.718250922022705">
      <ele>1974.8</ele></trkpt>
      <trkpt lat="46.54651429449476" lon="8.718448240943406">
      <ele>1975.6</ele></trkpt>
      <trkpt lat="46.54676345358065" lon="8.718955663984405">
      <ele>1976.3</ele></trkpt>
      <trkpt lat="46.54687077165696" lon="8.719177438908083">
      <ele>1977.1</ele></trkpt>
      <trkpt lat="46.54692735683251" lon="8.71930489769668">
      <ele>1977.9</ele></trkpt>
      <trkpt lat="46.54693724497144" lon="8.719347184742965">
      <ele>1978.7</ele></trkpt>
      <trkpt lat="46.546940841445895" lon="8.719395321210483">
      <ele>1979.5</ele></trkpt>
      <trkpt lat="46.546934085352014" lon="8.719443212723313">
      <ele>1980.3</ele></trkpt>
      <trkpt lat="46.54691898686207" lon="8.719496905089976">
      <ele>1981.0</ele></trkpt>
      <trkpt lat="46.54685144684927" lon="8.719606444268088">
      <ele>1981.8</ele></trkpt>
      <trkpt lat="46.546796125206086" lon="8.719734280154844">
      <ele>1982.6</ele></trkpt>
      <trkpt lat="46.546783009604816" lon="8.71979403053274">
      <ele>1983.4</ele></trkpt>
    </trkseg>
  </trk>
</gpx>