<?xml version='1.0' encoding='utf-8'?>
<gpx xmlns="http://www.topografix.com/GPX/1/1" xmlns:xsi="http://www.w3.org/2001/XMLSchema-instance" xsi:schemaLocation="http://www.topografix.com/GPX/1/1 http://www.topografix.com/GPX/1/1/gpx.xsd" version="1.1" creator="gpx.py -- https://github.com/tkrajina/gpxpy">
  <trk>
    <name>niederhorn</name>
    <trkseg>
      <trkpt lat="46.69078593333856" lon="7.765173273518313">
      <ele>1123.2</ele></trkpt>
      <trkpt lat="46.69077162557328" lon="7.765049230190631">
      <ele>1124.0</ele></trkpt>
      <trkpt lat="46.69077318071119" lon="7.764967874138296">
      <ele>1124.8</ele></trkpt>
      <trkpt lat="46.69077866805271" lon="7.764917550653814">
      <ele>1125.6</ele></trkpt>
      <trkpt lat="46.69084373649514" lon="7.764532490157273">
      <ele>1126.5</ele></trkpt>
      <trkpt lat="46.69086542984205" lon="7.764404781405901">
      <ele>1127.3</ele></trkpt>
      <trkpt lat="46.69087770281939" lon="7.764306076759289">
      <ele>1128.1</ele></trkpt>
      <trkpt lat="46.69088735735351" lon="7.764191838770608">
      <ele>1128.9</ele></trkpt>
      <trkpt lat="46.690904161481036" lon="7.763911082182165">
      <ele>1129.7</ele></trkpt>
      <trkpt lat="46.69091697504237" lon="7.763622549183874">
      <ele>1130.5</ele></trkpt>
      <trkpt lat="46.69092667293767" lon="7.763492846024131">
      <ele>1131.3</ele></trkpt>
      <trkpt lat="46.690936241894974" lon="7.763411537896129">
      <ele>1132.2</ele></trkpt>
      <trkpt lat="46.69095244185845" lon="7.763336087048947">
      <ele>1133.0</ele></trkpt>
      <trkpt lat="46.69098746509527" lon="7.763208457685508">
      <ele>1133.8</ele></trkpt>
      <trkpt lat="46.69107903055883" lon="7.762879727115248">
      <ele>1134.6</ele></trkpt>
      <trkpt lat="46.69109657598817" lon="7.7628023491938825">
      <ele>1135.4</ele></trkpt>
      <trkpt lat="46.69110882355508" lon="7.762715265455707">
      <ele>1136.2</ele></trkpt>
      <trkpt lat="46.69111581377366" lon="7.762601036865444">
      <ele>1137.1</ele></trkpt>
      <trkpt lat="46.69112290289828" lon="7.7624519302399255">
      <ele>1137.9</ele></trkpt>
      <trkpt lat="46.69113251359814" lon="7.762349312993578">
      <ele>1138.7</ele></trkpt>
      <trkpt lat="46.69115022703126" lon="7.762215761388256">
      <ele>1139.5</ele></trkpt>
      <trkpt lat="46.69117196167394" lon="7.762072572871475">
      <ele>1140.0</ele></trkpt>
      <trkpt lat="46.69124225608826" lon="7.761722389992231">
      <ele>1140.5</ele></trkpt>
      <trkpt lat="46.691271888334064" lon="7.761614113887243">
      <ele>1141.1</ele></trkpt>
      <trkpt lat="46.691335033468086" lon="7.7614343457617565">
      <ele>1141.6</ele></trkpt>
      <trkpt lat="46.69139275245485" lon="7.761293280108016">
      <ele>1142.1</ele></trkpt>
      <trkpt lat="46.691412910135476" lon="7.761233356224644">
      <ele>1142.6</ele></trkpt>
      <trkpt lat="46.691427775350505" lon="7.761161778779201">
      <ele>1143.1</ele></trkpt>
      <trkpt lat="46.691434660026616" lon="7.761084336150578">
      <ele>1143.7</ele></trkpt>
      <trkpt lat="46.69144151917646" lon="7.761012723914536">
      <ele>1144.2</ele></trkpt>
      <trkpt lat="46.691453666933725" lon="7.76096047821803">
      <ele>1144.7</ele></trkpt>
      <trkpt lat="46.69147775429357" lon="7.760929638925621">
      <ele>1145.2</ele></trkpt>
      <trkpt lat="46.69150846193779" lon="7.76090851315593">
      <ele>1145.7</ele></trkpt>
      <trkpt lat="46.6915337840797" lon="7.760908664274475">
      <ele>1146.3</ele></trkpt>
      <trkpt lat="46.691559089822086" lon="7.760914619726362">
      <ele>1146.8</ele></trkpt>
      <trkpt lat="46.69156670402694" lon="7.7608686480502165">
      <ele>1147.3</ele></trkpt>
      <trkpt lat="46.691606549741984" lon="7.760628223957942">
      <ele>1147.8</ele></trkpt>
      <trkpt lat="46.6916362957447" lon="7.760479263839558">
      <ele>1148.3</ele></trkpt>
      <trkpt lat="46.69169963375562" lon="7.760233645247258">
      <ele>1148.9</ele></trkpt>
      <trkpt lat="46.69174543865919" lon="7.760061523227571">
      <ele>1149.4</ele></trkpt>
      <trkpt lat="46.69177514032423" lon="7.759928040698422">
      <ele>1149.9</ele></trkpt>
      <trkpt lat="46.6917873712522" lon="7.759842889946613">
      <ele>1149.6</ele></trkpt>
      <trkpt lat="46.691810352509755" lon="7.759728741576246">
      <ele>1149.3</ele></trkpt>
      <trkpt lat="46.691849476596445" lon="7.7595585138974945">
      <ele>1149.0</ele></trkpt>
      <trkpt lat="46.6918953294814" lon="7.759368964645304">
      <ele>1148.8</ele></trkpt>
      <trkpt lat="46.69192101645514" lon="7.759239340254114">
      <ele>1148.5</ele></trkpt>
      <trkpt lat="46.69193190279332" lon="7.759161920432732">
      <ele>1148.2</ele></trkpt>
      <trkpt lat="46.691938815163375" lon="7.759070933232138">
      <ele>1147.9</ele></trkpt>
      <trkpt lat="46.69194609001786" lon="7.758854027720419">
      <ele>1147.6</ele></trkpt>
      <trkpt lat="46.69195201142398" lon="7.758644853429252">
      <ele>1147.3</ele></trkpt>
      <trkpt lat="46.69196191007195" lon="7.758441533267935">
      <ele>1147.1</ele></trkpt>
      <trkpt lat="46.69196859463982" lon="7.758174815428179">
      <ele>1146.8</ele></trkpt>
      <trkpt lat="46.69197822482687" lon="7.7580702872727905">
      <ele>1146.5</ele></trkpt>
      <trkpt lat="46.691987753800916" lon="7.75799866358735">
      <ele>1146.2</ele></trkpt>
      <trkpt lat="46.69200803262097" lon="7.75789805489903">
      <ele>1145.9</ele></trkpt>
      <trkpt lat="46.692040437741994" lon="7.757749094830875">
      <ele>1145.6</ele></trkpt>
      <trkpt lat="46.692067416286946" lon="7.757633033831731">
      <ele>1145.3</ele></trkpt>
      <trkpt lat="46.69209705550307" lon="7.757520871160583">
      <ele>1145.1</ele></trkpt>
      <trkpt lat="46.69213873966351" lon="7.757389405015406">
      <ele>1144.8</ele></trkpt>
      <trkpt lat="46.69219651316209" lon="7.757227023982328">
      <ele>1144.5</ele></trkpt>
      <trkpt lat="46.692240834431" lon="7.757101377425171">
      <ele>1144.2</ele></trkpt>
      <trkpt lat="46.692274400416544" lon="7.757016351099384">
      <ele>1144.3</ele></trkpt>
      <trkpt lat="46.69230656295947" lon="7.756950690909695">
      <ele>1144.5</ele></trkpt>
      <trkpt lat="46.69234140074197" lon="7.756886968173087">
      <ele>1144.6</ele></trkpt>
      <trkpt lat="46.692380237858345" lon="7.756821334080262">
      <ele>1144.7</ele></trkpt>
      <trkpt lat="46.692460536787976" lon="7.7567036511132255">
      <ele>1144.8</ele></trkpt>
      <trkpt lat="46.692535483333124" lon="7.756595610507073">
      <ele>1145.0</ele></trkpt>
      <trkpt lat="46.6926023662472" lon="7.756504961910571">
      <ele>1145.1</ele></trkpt>
      <trkpt lat="46.69265457749905" lon="7.756423927143351">
      <ele>1145.2</ele></trkpt>
      <trkpt lat="46.69269073731489" lon="7.756360211436483">
      <ele>1145.4</ele></trkpt>
      <trkpt lat="46.69272825893067" lon="7.7562887773215135">
      <ele>1145.5</ele></trkpt>
      <trkpt lat="46.69276713886873" lon="7.75620763761019">
      <ele>1145.6</ele></trkpt>
      <trkpt lat="46.69279666352112" lon="7.756136130123076">
      <ele>1145.8</ele></trkpt>
      <trkpt lat="46.69283692312996" lon="7.7560375846086975">
      <ele>1145.9</ele></trkpt>
      <trkpt lat="46.69292419028445" lon="7.755807600960092">
      <ele>1146.0</ele></trkpt>
      <trkpt lat="46.692976524918166" lon="7.755681998602021">
      <ele>1146.2</ele></trkpt>
      <trkpt lat="46.69304891725605" lon="7.755531321276083">
      <ele>1146.3</ele></trkpt>
      <trkpt lat="46.693099830520346" lon="7.755434785292779">
      <ele>1146.4</ele></trkpt>
      <trkpt lat="46.69312929014414" lon="7.7553865211034365">
      <ele>1146.5</ele></trkpt>
      <trkpt lat="46.6931748081254" lon="7.755315119556116">
      <ele>1146.7</ele></trkpt>
      <trkpt lat="46.69332671229026" lon="7.755105945923622">
      <ele>1146.8</ele></trkpt>
      <trkpt lat="46.6933425093916" lon="7.755086179901762">
      <ele>1147.2</ele></trkpt>
      <trkpt lat="46.693370128404176" lon="7.7550528213591825">
      <ele>1147.6</ele></trkpt>
      <trkpt lat="46.693403565702916" lon="7.755010397725879">
      <ele>1148.0</ele></trkpt>
      <trkpt lat="46.69343570922031" lon="7.754954422322173">
      <ele>1148.5</ele></trkpt>
      <trkpt lat="46.69347996004625" lon="7.754859767896089">
      <ele>1148.9</ele></trkpt>
      <trkpt lat="46.69352555824033" lon="7.75475930348907">
      <ele>1149.3</ele></trkpt>
      <trkpt lat="46.69354974941692" lon="7.754683893232813">
      <ele>1149.7</ele></trkpt>
      <trkpt lat="46.6935873827057" lon="7.75457175957835">
      <ele>1150.1</ele></trkpt>
      <trkpt lat="46.69364257698366" lon="7.75437451512342">
      <ele>1150.5</ele></trkpt>
      <trkpt lat="46.69368972580834" lon="7.754194637228437">
      <ele>1150.9</ele></trkpt>
      <trkpt lat="46.69383775589689" lon="7.753684115739405">
      <ele>1151.4</ele></trkpt>
      <trkpt lat="46.69390089217242" lon="7.753506264713804">
      <ele>1151.8</ele></trkpt>
      <trkpt lat="46.69398010916805" lon="7.753293665780325">
      <ele>1152.2</ele></trkpt>
      <trkpt lat="46.69407141652293" lon="7.753048177968258">
      <ele>1152.6</ele></trkpt>
      <trkpt lat="46.69410901081083" lon="7.75294961232657">
      <ele>1153.0</ele></trkpt>
      <trkpt lat="46.694149224986894" lon="7.752866554085561">
      <ele>1153.4</ele></trkpt>
      <trkpt lat="46.6942001663715" lon="7.752762248035257">
      <ele>1153.9</ele></trkpt>
      <trkpt lat="46.6942389974755" lon="7.752694660716088">
      <ele>1154.3</ele></trkpt>
      <trkpt lat="46.69428183676139" lon="7.752625187846959">
      <ele>1154.7</ele></trkpt>
      <trkpt lat="46.69435675809844" lon="7.752524890524681">
      <ele>1155.1</ele></trkpt>
      <trkpt lat="46.694410246259416" lon="7.752459336006713">
      <ele>1158.1</ele></trkpt>
      <trkpt lat="46.69446773202852" lon="7.7523957395008045">
      <ele>1161.2</ele></trkpt>
      <trkpt lat="46.69455728372529" lon="7.752307162147902">
      <ele>1164.2</ele></trkpt>
      <trkpt lat="46.694656922273836" lon="7.752224081773938">
      <ele>1167.2</ele></trkpt>
      <trkpt lat="46.69482124386843" lon="7.752073745726779">
      <ele>1170.3</ele></trkpt>
      <trkpt lat="46.6949244829692" lon="7.751983207168048">
      <ele>1173.3</ele></trkpt>
      <trkpt lat="46.69497074749022" lon="7.751943809537707">
      <ele>1176.3</ele></trkpt>
      <trkpt lat="46.69500637051552" lon="7.75192396091082">
      <ele>1179.4</ele></trkpt>
      <trkpt lat="46.69505591238437" lon="7.751909684038572">
      <ele>1182.4</ele></trkpt>
      <trkpt lat="46.69513119140489" lon="7.751931143609909">
      <ele>1185.4</ele></trkpt>
      <trkpt lat="46.69523101565402" lon="7.751980148610723">
      <ele>1188.5</ele></trkpt>
      <trkpt lat="46.69534742338282" lon="7.752056927601235">
      <ele>1191.5</ele></trkpt>
      <trkpt lat="46.69547818738775" lon="7.752137202582674">
      <ele>1194.6</ele></trkpt>
      <trkpt lat="46.69554049057476" lon="7.752192906551048">
      <ele>1197.6</ele></trkpt>
      <trkpt lat="46.69560730252507" lon="7.752270784219773">
      <ele>1200.6</ele></trkpt>
      <trkpt lat="46.69565738953958" lon="7.752333072188689">
      <ele>1203.7</ele></trkpt>
      <trkpt lat="46.69571971089679" lon="7.752382135059512">
      <ele>1206.7</ele></trkpt>
      <trkpt lat="46.696022986947916" lon="7.752606392563447">
      <ele>1209.7</ele></trkpt>
      <trkpt lat="46.69632626254975" lon="7.752830652586561">
      <ele>1212.8</ele></trkpt>
      <trkpt lat="46.69662498650384" lon="7.753044919501077">
      <ele>1215.8</ele></trkpt>
      <trkpt lat="46.69692371004725" lon="7.753259188786438">
      <ele>1212.2</ele></trkpt>
      <trkpt lat="46.69723436671316" lon="7.753487800745079">
      <ele>1208.5</ele></trkpt>
      <trkpt lat="46.69754502291206" lon="7.753716415334365">
      <ele>1204.9</ele></trkpt>
      <trkpt lat="46.69772994776011" lon="7.753819606527254">
      <ele>1201.2</ele></trkpt>
      <trkpt lat="46.69776961576887" lon="7.75383352712424">
      <ele>1197.6</ele></trkpt>
      <trkpt lat="46.697802624301374" lon="7.753828908377279">
      <ele>1193.9</ele></trkpt>
      <trkpt lat="46.69783831827237" lon="7.75380954412402">
      <ele>1190.3</ele></trkpt>
      <trkpt lat="46.69786982654398" lon="7.753784664096721">
      <ele>1186.6</ele></trkpt>
      <trkpt lat="46.697899271847916" lon="7.753747834915294">
      <ele>1183.0</ele></trkpt>
      <trkpt lat="46.69796143043181" lon="7.753630879388914">
      <ele>1179.3</ele></trkpt>
      <trkpt lat="46.69803198042807" lon="7.753498113033286">
      <ele>1175.7</ele></trkpt>
      <trkpt lat="46.69807017089326" lon="7.753460720068535">
      <ele>1172.1</ele></trkpt>
      <trkpt lat="46.698138807715075" lon="7.753427910702069">
      <ele>1168.4</ele></trkpt>
      <trkpt lat="46.698201318004735" lon="7.753408336303798">
      <ele>1164.8</ele></trkpt>
      <trkpt lat="46.69825007357214" lon="7.753401978606778">
      <ele>1161.1</ele></trkpt>
      <trkpt lat="46.69829267492244" lon="7.753422152748303">
      <ele>1157.5</ele></trkpt>
      <trkpt lat="46.698361073470174" lon="7.753475687027009">
      <ele>1153.8</ele></trkpt>
      <trkpt lat="46.698444689057034" lon="7.753533729436567">
      <ele>1150.2</ele></trkpt>
      <trkpt lat="46.69849794993169" lon="7.753553979000255">
      <ele>1146.5</ele></trkpt>
      <trkpt lat="46.69854818906376" lon="7.753560913978187">
      <ele>1142.9</ele></trkpt>
      <trkpt lat="46.69866548047398" lon="7.753561598085808">
      <ele>1142.0</ele></trkpt>
      <trkpt lat="46.6988010261607" lon="7.753571240299858">
      <ele>1141.2</ele></trkpt>
      <trkpt lat="46.69887869235532" lon="7.753578335311777">
      <ele>1140.3</ele></trkpt>
      <trkpt lat="46.69893499367512" lon="7.753598602818081">
      <ele>1139.5</ele></trkpt>
      <trkpt lat="46.698997357250256" lon="7.753632176693326">
      <ele>1138.6</ele></trkpt>
      <trkpt lat="46.699269559102035" lon="7.753799815993507">
      <ele>1137.7</ele></trkpt>
      <trkpt lat="46.69943683882548" lon="7.753898200758925">
      <ele>1136.9</ele></trkpt>
      <trkpt lat="46.69959503992506" lon="7.753981039252845">
      <ele>1136.0</ele></trkpt>
      <trkpt lat="46.69976848285121" lon="7.754052892728017">
      <ele>1135.2</ele></trkpt>
      <trkpt lat="46.69993881787392" lon="7.754149100430676">
      <ele>1134.3</ele></trkpt>
      <trkpt lat="46.700027030115564" lon="7.754200543377299">
      <ele>1133.4</ele></trkpt>
      <trkpt lat="46.700194330705074" lon="7.75429451149493">
      <ele>1132.6</ele></trkpt>
      <trkpt lat="46.70050761575587" lon="7.754477892288646">
      <ele>1131.7</ele></trkpt>
      <trkpt lat="46.7006413868709" lon="7.754576098411887">
      <ele>1130.9</ele></trkpt>
      <trkpt lat="46.700673264238425" lon="7.754616138292724">
      <ele>1130.0</ele></trkpt>
      <trkpt lat="46.70069444849432" lon="7.75466496757824">
      <ele>1129.1</ele></trkpt>
      <trkpt lat="46.700737962367576" lon="7.7549043557281765">
      <ele>1128.3</ele></trkpt>
      <trkpt lat="46.70075609379203" lon="7.754957586740675">
      <ele>1127.4</ele></trkpt>
      <trkpt lat="46.700898715205476" lon="7.755159899614613">
      <ele>1126.6</ele></trkpt>
      <trkpt lat="46.700948837040556" lon="7.755215554323066">
      <ele>1125.7</ele></trkpt>
      <trkpt lat="46.701122202076355" lon="7.755318427854931">
      <ele>1125.3</ele></trkpt>
      <trkpt lat="46.701298662836194" lon="7.755401380230385">
      <ele>1124.9</ele></trkpt>
      <trkpt lat="46.7013792738571" lon="7.755446126531685">
      <ele>1124.4</ele></trkpt>
      <trkpt lat="46.7014324823522" lon="7.755481873161786">
      <ele>1124.0</ele></trkpt>
      <trkpt lat="46.701467402675036" lon="7.755524154850123">
      <ele>1123.6</ele></trkpt>
      <trkpt lat="46.70148706303155" lon="7.755577395766805">
      <ele>1123.2</ele></trkpt>
      <trkpt lat="46.70150059079997" lon="7.755639478944985">
      <ele>1122.8</ele></trkpt>
      <trkpt lat="46.70151244736308" lon="7.755759097393546">
      <ele>1122.3</ele></trkpt>
      <trkpt lat="46.701524389930334" lon="7.755847740653814">
      <ele>1121.9</ele></trkpt>
      <trkpt lat="46.70155010305919" lon="7.7559143150542065">
      <ele>1121.5</ele></trkpt>
      <trkpt lat="46.70157893331776" lon="7.755956561322539">
      <ele>1121.1</ele></trkpt>
      <trkpt lat="46.7016290676148" lon="7.756001129542038">
      <ele>1120.7</ele></trkpt>
      <trkpt lat="46.70169748959559" lon="7.756045805355876">
      <ele>1120.2</ele></trkpt>
      <trkpt lat="46.70177958973442" lon="7.756101649743276">
      <ele>1119.8</ele></trkpt>
      <trkpt lat="46.70182213229262" lon="7.756139544327136">
      <ele>1119.4</ele></trkpt>
      <trkpt lat="46.70189500961557" lon="7.756228533542771">
      <ele>1119.0</ele></trkpt>
      <trkpt lat="46.70199063711934" lon="7.756346436180518">
      <ele>1118.6</ele></trkpt>
      <trkpt lat="46.702066505343275" lon="7.756453174051127">
      <ele>1118.1</ele></trkpt>
      <trkpt lat="46.70211662993298" lon="7.756504385481232">
      <ele>1117.7</ele></trkpt>
      <trkpt lat="46.70219114441799" lon="7.756551321066295">
      <ele>1117.3</ele></trkpt>
      <trkpt lat="46.702262627909434" lon="7.7565916095856">
      <ele>1116.8</ele></trkpt>
      <trkpt lat="46.70231127256064" lon="7.75662510819234">
      <ele>1116.3</ele></trkpt>
      <trkpt lat="46.70236138475177" lon="7.756680739513289">
      <ele>1115.8</ele></trkpt>
      <trkpt lat="46.70238711587667" lon="7.7567406860907955">
      <ele>1115.3</ele></trkpt>
      <trkpt lat="46.70239761495508" lon="7.756798307025196">
      <ele>1114.8</ele></trkpt>
      <trkpt lat="46.70242367817958" lon="7.757016484351309">
      <ele>1114.3</ele></trkpt>
      <trkpt lat="46.70244519439578" lon="7.757081375056227">
      <ele>1113.8</ele></trkpt>
      <trkpt lat="46.70249148983909" lon="7.757112088315129">
      <ele>1113.3</ele></trkpt>
      <trkpt lat="46.70260204166066" lon="7.757110216819926">
      <ele>1112.8</ele></trkpt>
      <trkpt lat="46.70268493376696" lon="7.75711741362943">
      <ele>1112.3</ele></trkpt>
      <trkpt lat="46.70293703455344" lon="7.757275326484743">
      <ele>1111.9</ele></trkpt>
      <trkpt lat="46.703054158913424" lon="7.757335800399147">
      <ele>1111.4</ele></trkpt>
      <trkpt lat="46.703153063600176" lon="7.757371806701075">
      <ele>1110.9</ele></trkpt>
      <trkpt lat="46.70322918735356" lon="7.757389973906521">
      <ele>1110.4</ele></trkpt>
      <trkpt lat="46.703312928011215" lon="7.757399320684652">
      <ele>1109.9</ele></trkpt>
      <trkpt lat="46.703422603043315" lon="7.757402178053076">
      <ele>1109.4</ele></trkpt>
      <trkpt lat="46.70353378309471" lon="7.757407267229017">
      <ele>1108.9</ele></trkpt>
      <trkpt lat="46.70366329413378" lon="7.75739696963364">
      <ele>1108.4</ele></trkpt>
      <trkpt lat="46.70392826727236" lon="7.7574228816594575">
      <ele>1107.9</ele></trkpt>
      <trkpt lat="46.70397700447749" lon="7.757423169436016">
      <ele>1107.4</ele></trkpt>
      <trkpt lat="46.70404863617312" lon="7.757410307115778">
      <ele>1107.2</ele></trkpt>
      <trkpt lat="46.70409439481151" lon="7.757388426422174">
      <ele>1107.1</ele></trkpt>
      <trkpt lat="46.70417072324699" lon="7.757326883304866">
      <ele>1107.0</ele></trkpt>
      <trkpt lat="46.70423644433973" lon="7.757249782221028">
      <ele>1106.8</ele></trkpt>
      <trkpt lat="46.70431137611954" lon="7.757143941658821">
      <ele>1106.7</ele></trkpt>
      <trkpt lat="46.70439707522304" lon="7.757002741016823">
      <ele>1106.5</ele></trkpt>
      <trkpt lat="46.70442306292741" lon="7.756967457883594">
      <ele>1106.4</ele></trkpt>
      <trkpt lat="46.704461217516275" lon="7.756943321959154">
      <ele>1106.2</ele></trkpt>
      <trkpt lat="46.704497799614074" lon="7.756934685071709">
      <ele>1106.1</ele></trkpt>
      <trkpt lat="46.704543440804265" lon="7.756954869186284">
      <ele>1105.9</ele></trkpt>
      <trkpt lat="46.704582915047794" lon="7.75699940407384">
      <ele>1105.8</ele></trkpt>
      <trkpt lat="46.704604141008396" lon="7.7570393724196895">
      <ele>1105.6</ele></trkpt>
      <trkpt lat="46.70464795621157" lon="7.757165855478872">
      <ele>1105.5</ele></trkpt>
      <trkpt lat="46.704696204935686" lon="7.7573410607616085">
      <ele>1105.3</ele></trkpt>
      <trkpt lat="46.704729502010316" lon="7.757423179901206">
      <ele>1105.2</ele></trkpt>
      <trkpt lat="46.70480085580401" lon="7.757503327106388">
      <ele>1105.0</ele></trkpt>
      <trkpt lat="46.704834310913384" lon="7.7575256497242675">
      <ele>1104.9</ele></trkpt>
      <trkpt lat="46.70491347847788" lon="7.757539402835358">
      <ele>1104.7</ele></trkpt>
      <trkpt lat="46.70494695543336" lon="7.7575506892687764">
      <ele>1104.6</ele></trkpt>
      <trkpt lat="46.704974295848636" lon="7.757581841577677">
      <ele>1104.4</ele></trkpt>
      <trkpt lat="46.70503188141757" lon="7.757686256073948">
      <ele>1104.5</ele></trkpt>
      <trkpt lat="46.70510001778305" lon="7.7578327996863505">
      <ele>1104.6</ele></trkpt>
      <trkpt lat="46.70513948493898" lon="7.757886175233763">
      <ele>1104.8</ele></trkpt>
      <trkpt lat="46.70518200211711" lon="7.757932926117743">
      <ele>1104.9</ele></trkpt>
      <trkpt lat="46.705255886195445" lon="7.757983118627272">
      <ele>1105.0</ele></trkpt>
      <trkpt lat="46.70534477328917" lon="7.7580113794112755">
      <ele>1105.1</ele></trkpt>
      <trkpt lat="46.70543004306434" lon="7.758020749642425">
      <ele>1105.2</ele></trkpt>
      <trkpt lat="46.70552439264187" lon="7.758022523912737">
      <ele>1105.4</ele></trkpt>
      <trkpt lat="46.705629696999026" lon="7.757983172185588">
      <ele>1105.5</ele></trkpt>
      <trkpt lat="46.70572269467527" lon="7.757950508052512">
      <ele>1105.6</ele></trkpt>
      <trkpt lat="46.70582176927509" lon="7.7579289424605316">
      <ele>1105.7</ele></trkpt>
      <trkpt lat="46.70591941540262" lon="7.757919581809854">
      <ele>1105.8</ele></trkpt>
      <trkpt lat="46.7060322148404" lon="7.757956732477748">
      <ele>1106.0</ele></trkpt>
      <trkpt lat="46.70616198323774" lon="7.758024831325956">
      <ele>1106.1</ele></trkpt>
      <trkpt lat="46.70640541465611" lon="7.758171801368756">
      <ele>1106.2</ele></trkpt>
      <trkpt lat="46.70659586589925" lon="7.758288474180942">
      <ele>1106.3</ele></trkpt>
      <trkpt lat="46.706658457222574" lon="7.758326950280245">
      <ele>1106.4</ele></trkpt>
      <trkpt lat="46.70676945724219" lon="7.758396260394274">
      <ele>1106.6</ele></trkpt>
      <trkpt lat="46.706851543838795" lon="7.758456520392566">
      <ele>1106.7</ele></trkpt>
      <trkpt lat="46.706929023407596" lon="7.758530065421628">
      <ele>1106.8</ele></trkpt>
      <trkpt lat="46.707003403863666" lon="7.758621285179221">
      <ele>1107.3</ele></trkpt>
      <trkpt lat="46.70713235936076" lon="7.758805844127155">
      <ele>1107.7</ele></trkpt>
      <trkpt lat="46.70720067454415" lon="7.758888175615041">
      <ele>1108.2</ele></trkpt>
      <trkpt lat="46.707272095064006" lon="7.758950596623368">
      <ele>1108.6</ele></trkpt>
      <trkpt lat="46.70737092738395" lon="7.759015390463192">
      <ele>1109.1</ele></trkpt>
      <trkpt lat="46.707760266459836" lon="7.759232516330085">
      <ele>1109.5</ele></trkpt>
      <trkpt lat="46.70788195044326" lon="7.7592930139062695">
      <ele>1110.0</ele></trkpt>
      <trkpt lat="46.70811167698511" lon="7.759396248648039">
      <ele>1110.4</ele></trkpt>
      <trkpt lat="46.70834901980439" lon="7.759497306428855">
      <ele>1110.9</ele></trkpt>
      <trkpt lat="46.70844790160359" lon="7.759544396421556">
      <ele>1111.3</ele></trkpt>
      <trkpt lat="46.708545191883445" lon="7.759613616749148">
      <ele>1111.8</ele></trkpt>
      <trkpt lat="46.70862270189564" lon="7.7596760764879775">
      <ele>1112.3</ele></trkpt>
      <trkpt lat="46.70869866043952" lon="7.759749616637659">
      <ele>1112.7</ele></trkpt>
      <trkpt lat="46.70878825318724" lon="7.759849797936088">
      <ele>1113.2</ele></trkpt>
      <trkpt lat="46.70886568828185" lon="7.7599388177112125">
      <ele>1113.6</ele></trkpt>
      <trkpt lat="46.70913439775411" lon="7.760276255130746">
      <ele>1114.1</ele></trkpt>
      <trkpt lat="46.709141944764575" lon="7.760285924989649">
      <ele>1114.5</ele></trkpt>
      <trkpt lat="46.70920420989858" lon="7.760350518679451">
      <ele>1115.0</ele></trkpt>
      <trkpt lat="46.70927566084017" lon="7.76040186762428">
      <ele>1115.4</ele></trkpt>
      <trkpt lat="46.70936838715353" lon="7.760468853279652">
      <ele>1115.9</ele></trkpt>
      <trkpt lat="46.709484888093634" lon="7.760536059396106">
      <ele>1116.1</ele></trkpt>
      <trkpt lat="46.70951911673083" lon="7.760551825596023">
      <ele>1116.4</ele></trkpt>
      <trkpt lat="46.70955130086739" lon="7.760565291078493">
      <ele>1116.6</ele></trkpt>
      <trkpt lat="46.70973806223072" lon="7.760643444060388">
      <ele>1116.8</ele></trkpt>
      <trkpt lat="46.70990900799282" lon="7.760715696816817">
      <ele>1117.1</ele></trkpt>
      <trkpt lat="46.71004537796145" lon="7.760774064608757">
      <ele>1117.3</ele></trkpt>
      <trkpt lat="46.710154881306615" lon="7.760834495525215">
      <ele>1117.5</ele></trkpt>
      <trkpt lat="46.71023851178106" lon="7.760885931799597">
      <ele>1117.8</ele></trkpt>
      <trkpt lat="46.71032212350363" lon="7.760943998458079">
      <ele>1118.0</ele></trkpt>
      <trkpt lat="46.71043762897536" lon="7.761035499052958">
      <ele>1118.2</ele></trkpt>
      <trkpt lat="46.71064736722644" lon="7.7612050481577874">
      <ele>1118.5</ele></trkpt>
      <trkpt lat="46.71090876383472" lon="7.761416978483093">
      <ele>1118.7</ele></trkpt>
      <trkpt lat="46.711042491209454" lon="7.761528520583217">
      <ele>1119.0</ele></trkpt>
      <trkpt lat="46.71113367785415" lon="7.761602131595428">
      <ele>1119.2</ele></trkpt>
      <trkpt lat="46.71122488947785" lon="7.761666902409219">
      <ele>1119.4</ele></trkpt>
      <trkpt lat="46.71129635236552" lon="7.761713821711642">
      <ele>1119.7</ele></trkpt>
      <trkpt lat="46.71145914587867" lon="7.761783454806816">
      <ele>1119.9</ele></trkpt>
      <trkpt lat="46.711574766123775" lon="7.761837373957811">
      <ele>1120.1</ele></trkpt>
      <trkpt lat="46.71167681097188" lon="7.761904368429902">
      <ele>1120.4</ele></trkpt>
      <trkpt lat="46.711797527227674" lon="7.7619947668133085">
      <ele>1120.6</ele></trkpt>
      <trkpt lat="46.71202595768516" lon="7.76220208751862">
      <ele>1120.8</ele></trkpt>
      <trkpt lat="46.71225405621955" lon="7.7623994425114295">
      <ele>1121.0</ele></trkpt>
      <trkpt lat="46.71245918229565" lon="7.762580052111992">
      <ele>1121.1</ele></trkpt>
      <trkpt lat="46.71266886787629" lon="7.762767334168089">
      <ele>1121.3</ele></trkpt>
      <trkpt lat="46.71285573720515" lon="7.7629367465563">
      <ele>1121.5</ele></trkpt>
      <trkpt lat="46.71305930437275" lon="7.763130651428075">
      <ele>1121.7</ele></trkpt>
      <trkpt lat="46.71319301389053" lon="7.76325104304036">
      <ele>1121.9</ele></trkpt>
      <trkpt lat="46.71324317043499" lon="7.763286786847049">
      <ele>1122.0</ele></trkpt>
      <trkpt lat="46.713290339683255" lon="7.7633069888005">
      <ele>1122.2</ele></trkpt>
      <trkpt lat="46.71333566012626" lon="7.763309877052961">
      <ele>1122.4</ele></trkpt>
      <trkpt lat="46.713386506422594" lon="7.7633023751174655">
      <ele>1122.6</ele></trkpt>
      <trkpt lat="46.713427134551544" lon="7.763285107581944">
      <ele>1122.8</ele></trkpt>
      <trkpt lat="46.713458232004946" lon="7.7632662133013275">
      <ele>1122.9</ele></trkpt>
      <trkpt lat="46.71348669696915" lon="7.7632430265460055">
      <ele>1123.1</ele></trkpt>
      <trkpt lat="46.713510937128014" lon="7.763221906899885">
      <ele>1123.3</ele></trkpt>
      <trkpt lat="46.713538294023316" lon="7.763192958954377">
      <ele>1123.5</ele></trkpt>
      <trkpt lat="46.713618425046995" lon="7.7630985832101125">
      <ele>1123.7</ele></trkpt>
      <trkpt lat="46.71371781171934" lon="7.762970724457983">
      <ele>1123.8</ele></trkpt>
      <trkpt lat="46.713753016106374" lon="7.7629089181186135">
      <ele>1124.0</ele></trkpt>
      <trkpt lat="46.71379600308919" lon="7.762789600273127">
      <ele>1124.2</ele></trkpt>
      <trkpt lat="46.713832921674644" lon="7.762665799140868">
      <ele>1124.8</ele></trkpt>
      <trkpt lat="46.71383981334245" lon="7.762611564983205">
      <ele>1125.4</ele></trkpt>
      <trkpt lat="46.71387716460903" lon="7.762639489316612">
      <ele>1126.0</ele></trkpt>
      <trkpt lat="46.713895304917436" lon="7.762688328520769">
      <ele>1126.6</ele></trkpt>
      <trkpt lat="46.71390573177527" lon="7.762770327645559">
      <ele>1127.2</ele></trkpt>
      <trkpt lat="46.71390993025622" lon="7.762901006646847">
      <ele>1127.9</ele></trkpt>
      <trkpt lat="46.71391095588487" lon="7.763078186676188">
      <ele>1128.5</ele></trkpt>
      <trkpt lat="46.713915245746676" lon="7.763173449798667">
      <ele>1129.1</ele></trkpt>
      <trkpt lat="46.71392264080194" lon="7.763255430816811">
      <ele>1129.7</ele></trkpt>
      <trkpt lat="46.713948173139734" lon="7.763384027988591">
      <ele>1130.3</ele></trkpt>
      <trkpt lat="46.71398281405812" lon="7.763517113706807">
      <ele>1130.9</ele></trkpt>
      <trkpt lat="46.71400987532088" lon="7.763645720353184">
      <ele>1131.5</ele></trkpt>
      <trkpt lat="46.71403236403422" lon="7.763772102401002">
      <ele>1132.1</ele></trkpt>
      <trkpt lat="46.71405339917025" lon="7.7638718872199455">
      <ele>1132.7</ele></trkpt>
      <trkpt lat="46.71409112589789" lon="7.763998348235361">
      <ele>1133.4</ele></trkpt>
      <trkpt lat="46.714106181016994" lon="7.76406265444518">
      <ele>1134.0</ele></trkpt>
      <trkpt lat="46.714115134519666" lon="7.764124713630636">
      <ele>1134.6</ele></trkpt>
      <trkpt lat="46.714120914815254" lon="7.764233273957422">
      <ele>1135.2</ele></trkpt>
      <trkpt lat="46.714128302763555" lon="7.76431747874182">
      <ele>1135.8</ele></trkpt>
      <trkpt lat="46.71414484992912" lon="7.764388451054448">
      <ele>1136.4</ele></trkpt>
      <trkpt lat="46.71423094370742" lon="7.7646414256043546">
      <ele>1137.2</ele></trkpt>
      <trkpt lat="46.7143215965184" lon="7.7649010985853595">
      <ele>1137.9</ele></trkpt>
      <trkpt lat="46.71441538062009" lon="7.765131979268713">
      <ele>1138.7</ele></trkpt>
      <trkpt lat="46.71457425387737" lon="7.765505013901623">
      <ele>1139.4</ele></trkpt>
      <trkpt lat="46.71460756778642" lon="7.765576075644581">
      <ele>1140.2</ele></trkpt>
      <trkpt lat="46.714654619700944" lon="7.7656339458837005">
      <ele>1141.0</ele></trkpt>
      <trkpt lat="46.714759436460085" lon="7.765734240289642">
      <ele>1141.7</ele></trkpt>
      <trkpt lat="46.71484909375981" lon="7.765810077599552">
      <ele>1142.5</ele></trkpt>
      <trkpt lat="46.71493115094863" lon="7.765879225101734">
      <ele>1143.2</ele></trkpt>
      <trkpt lat="46.71501468010588" lon="7.765968326799286">
      <ele>1144.0</ele></trkpt>
      <trkpt lat="46.71512100779628" lon="7.766068631690762">
      <ele>1144.8</ele></trkpt>
      <trkpt lat="46.715295784024846" lon="7.766209203409782">
      <ele>1145.5</ele></trkpt>
      <trkpt lat="46.71537784731421" lon="7.766276141809614">
      <ele>1146.3</ele></trkpt>
      <trkpt lat="46.71544319027397" lon="7.766329690808354">
      <ele>1147.0</ele></trkpt>
      <trkpt lat="46.71550245227387" lon="7.766383216092608">
      <ele>1147.8</ele></trkpt>
      <trkpt lat="46.715547996286666" lon="7.766436645107273">
      <ele>1148.6</ele></trkpt>
      <trkpt lat="46.71558591216716" lon="7.766490027879582">
      <ele>1149.3</ele></trkpt>
      <trkpt lat="46.715613192804625" lon="7.766541135789369">
      <ele>1150.1</ele></trkpt>
      <trkpt lat="46.715658622208984" lon="7.766634415709983">
      <ele>1150.8</ele></trkpt>
      <trkpt lat="46.71581751605103" lon="7.766998596003104">
      <ele>1151.6</ele></trkpt>
      <trkpt lat="46.71585694440046" lon="7.767060843077768">
      <ele>1152.3</ele></trkpt>
      <trkpt lat="46.7158963955695" lon="7.767112025597827">
      <ele>1153.0</ele></trkpt>
      <trkpt lat="46.715928313105465" lon="7.767136585914386">
      <ele>1153.7</ele></trkpt>
      <trkpt lat="46.716018024219736" lon="7.767190284830903">
      <ele>1154.4</ele></trkpt>
      <trkpt lat="46.716127494795295" lon="7.767264036613478">
      <ele>1155.0</ele></trkpt>
      <trkpt lat="46.71619588673011" lon="7.767317606120991">
      <ele>1155.7</ele></trkpt>
      <trkpt lat="46.71629154729534" lon="7.767420061254681">
      <ele>1156.4</ele></trkpt>
      <trkpt lat="46.71640844272163" lon="7.767558090408439">
      <ele>1157.1</ele></trkpt>
      <trkpt lat="46.71647824243634" lon="7.767653744558725">
      <ele>1157.8</ele></trkpt>
      <trkpt lat="46.71656470470363" lon="7.7677827214791115">
      <ele>1158.5</ele></trkpt>
      <trkpt lat="46.71668455445211" lon="7.767947346941485">
      <ele>1159.2</ele></trkpt>
      <trkpt lat="46.71674226091105" lon="7.768009720328262">
      <ele>1159.9</ele></trkpt>
      <trkpt lat="46.71680457278484" lon="7.7680566100704596">
      <ele>1160.6</ele></trkpt>
      <trkpt lat="46.716926250752266" lon="7.768123794978379">
      <ele>1161.3</ele></trkpt>
      <trkpt lat="46.71699620091144" lon="7.768164074328445">
      <ele>1162.0</ele></trkpt>
      <trkpt lat="46.71705395201105" lon="7.7682109497011265">
      <ele>1162.6</ele></trkpt>
      <trkpt lat="46.71710862172562" lon="7.768268858311408">
      <ele>1163.3</ele></trkpt>
      <trkpt lat="46.7171769300141" lon="7.7683512169935085">
      <ele>1164.0</ele></trkpt>
      <trkpt lat="46.71724521257775" lon="7.768442456551331">
      <ele>1164.7</ele></trkpt>
      <trkpt lat="46.71731802379006" lon="7.7685447760171815">
      <ele>1165.4</ele></trkpt>
      <trkpt lat="46.71738638951357" lon="7.768607202861304">
      <ele>1165.7</ele></trkpt>
      <trkpt lat="46.71742288278121" lon="7.768629582313348">
      <ele>1166.1</ele></trkpt>
      <trkpt lat="46.71750194901105" lon="7.768681009704551">
      <ele>1166.4</ele></trkpt>
      <trkpt lat="46.717550611860354" lon="7.768710094900639">
      <ele>1166.8</ele></trkpt>
      <trkpt lat="46.717599227305726" lon="7.768752455405153">
      <ele>1167.1</ele></trkpt>
      <trkpt lat="46.71764174254242" lon="7.768801449148567">
      <ele>1167.5</ele></trkpt>
      <trkpt lat="46.71767961502175" lon="7.7688725579474704">
      <ele>1167.8</ele></trkpt>
      <trkpt lat="46.71771442781613" lon="7.768950279369836">
      <ele>1168.2</ele></trkpt>
      <trkpt lat="46.71774464905916" lon="7.7690324067005525">
      <ele>1168.5</ele></trkpt>
      <trkpt lat="46.71776423629038" lon="7.769105627342136">
      <ele>1168.8</ele></trkpt>
      <trkpt lat="46.71781684249556" lon="7.769354000415037">
      <ele>1169.2</ele></trkpt>
      <trkpt lat="46.71784845139442" lon="7.769484870539669">
      <ele>1169.5</ele></trkpt>
      <trkpt lat="46.71789213074494" lon="7.769653457426941">
      <ele>1169.9</ele></trkpt>
      <trkpt lat="46.717911736891594" lon="7.769720021181657">
      <ele>1170.2</ele></trkpt>
      <trkpt lat="46.71796921099038" lon="7.7698621287648075">
      <ele>1170.6</ele></trkpt>
      <trkpt lat="46.717985821560234" lon="7.76991317515624">
      <ele>1170.9</ele></trkpt>
      <trkpt lat="46.717993283855805" lon="7.769964139263056">
      <ele>1171.3</ele></trkpt>
      <trkpt lat="46.718005054532625" lon="7.77010819015641">
      <ele>1171.6</ele></trkpt>
      <trkpt lat="46.71801079698337" lon="7.7702278239703055">
      <ele>1172.0</ele></trkpt>
      <trkpt lat="46.71802571341101" lon="7.770338646316707">
      <ele>1172.3</ele></trkpt>
      <trkpt lat="46.71804224650428" lon="7.770416269904312">
      <ele>1172.9</ele></trkpt>
      <trkpt lat="46.71806944299781" lon="7.7704895251619">
      <ele>1173.4</ele></trkpt>
      <trkpt lat="46.71810578134213" lon="7.7705650471449905">
      <ele>1174.0</ele></trkpt>
      <trkpt lat="46.718146702163125" lon="7.770636176549932">
      <ele>1174.6</ele></trkpt>
      <trkpt lat="46.71820893174902" lon="7.7707140684709755">
      <ele>1175.2</ele></trkpt>
      <trkpt lat="46.71830457495215" lon="7.770827624797418">
      <ele>1175.7</ele></trkpt>
      <trkpt lat="46.718337953914585" lon="7.770872117540588">
      <ele>1176.3</ele></trkpt>
      <trkpt lat="46.71838489735513" lon="7.770963230875144">
      <ele>1176.9</ele></trkpt>
      <trkpt lat="46.71841664248483" lon="7.771049790636845">
      <ele>1177.4</ele></trkpt>
      <trkpt lat="46.71844377661043" lon="7.771147400484399">
      <ele>1178.0</ele></trkpt>
      <trkpt lat="46.71846031559478" lon="7.771222814513995">
      <ele>1178.6</ele></trkpt>
      <trkpt lat="46.718476768058935" lon="7.77132480574312">
      <ele>1179.1</ele></trkpt>
      <trkpt lat="46.718494781993385" lon="7.7714157151834975">
      <ele>1179.7</ele></trkpt>
      <trkpt lat="46.7185219545278" lon="7.771500049820285">
      <ele>1180.3</ele></trkpt>
      <trkpt lat="46.71855375091575" lon="7.771568900672946">
      <ele>1180.8</ele></trkpt>
      <trkpt lat="46.71860378850638" lon="7.771644521665583">
      <ele>1181.4</ele></trkpt>
      <trkpt lat="46.718649342981934" lon="7.771693524281201">
      <ele>1182.0</ele></trkpt>
      <trkpt lat="46.71870710560225" lon="7.771735957873365">
      <ele>1182.6</ele></trkpt>
      <trkpt lat="46.718792299102624" lon="7.771774139946566">
      <ele>1183.1</ele></trkpt>
      <trkpt lat="46.71888506785428" lon="7.771821223837798">
      <ele>1183.7</ele></trkpt>
      <trkpt lat="46.71894894221785" lon="7.771859274551866">
      <ele>1184.8</ele></trkpt>
      <trkpt lat="46.718989959247686" lon="7.771897184223609">
      <ele>1186.0</ele></trkpt>
      <trkpt lat="46.7190263613712" lon="7.771950551824176">
      <ele>1187.1</ele></trkpt>
      <trkpt lat="46.719059668713584" lon="7.772019412920154">
      <ele>1188.2</ele></trkpt>
      <trkpt lat="46.71909443399482" lon="7.77211266370717">
      <ele>1189.3</ele></trkpt>
      <trkpt lat="46.719129225119296" lon="7.772197046718385">
      <ele>1190.5</ele></trkpt>
      <trkpt lat="46.71918524465744" lon="7.77231256005452">
      <ele>1191.6</ele></trkpt>
      <trkpt lat="46.71924128351186" lon="7.77242142923458">
      <ele>1192.7</ele></trkpt>
      <trkpt lat="46.719295827945494" lon="7.772521434392617">
      <ele>1193.8</ele></trkpt>
      <trkpt lat="46.719373151865334" lon="7.772648145761489">
      <ele>1195.0</ele></trkpt>
      <trkpt lat="46.71942626413808" lon="7.7727149198338985">
      <ele>1196.1</ele></trkpt>
      <trkpt lat="46.71950218574682" lon="7.77279513742565">
      <ele>1197.2</ele></trkpt>
      <trkpt lat="46.71955228594096" lon="7.772855248596256">
      <ele>1198.3</ele></trkpt>
      <trkpt lat="46.71960539809161" lon="7.7729220230940586">
      <ele>1199.5</ele></trkpt>
      <trkpt lat="46.71967666809728" lon="7.77303319862049">
      <ele>1200.6</ele></trkpt>
      <trkpt lat="46.719753975894555" lon="7.773162148179946">
      <ele>1201.7</ele></trkpt>
      <trkpt lat="46.71981912074098" lon="7.773282167604303">
      <ele>1202.8</ele></trkpt>
      <trkpt lat="46.71990088104411" lon="7.773450986905827">
      <ele>1204.0</ele></trkpt>
      <trkpt lat="46.71993717190076" lon="7.773542025954693">
      <ele>1205.1</ele></trkpt>
      <trkpt lat="46.71995828545257" lon="7.773615260698299">
      <ele>1206.2</ele></trkpt>
      <trkpt lat="46.71997174091373" lon="7.773701711012724">
      <ele>1207.2</ele></trkpt>
      <trkpt lat="46.71997454321127" lon="7.773785897789334">
      <ele>1208.2</ele></trkpt>
      <trkpt lat="46.71996816458025" lon="7.773881106254241">
      <ele>1209.2</ele></trkpt>
      <trkpt lat="46.719949608634394" lon="7.773978436466038">
      <ele>1210.3</ele></trkpt>
      <trkpt lat="46.71992188875103" lon="7.774077933244657">
      <ele>1211.3</ele></trkpt>
      <trkpt lat="46.719886571707406" lon="7.774172948600478">
      <ele>1212.3</ele></trkpt>
      <trkpt lat="46.71985284888557" lon="7.77424584254595">
      <ele>1213.3</ele></trkpt>
      <trkpt lat="46.719829909401966" lon="7.774276699268871">
      <ele>1214.3</ele></trkpt>
      <trkpt lat="46.719788589446985" lon="7.774345111736297">
      <ele>1215.3</ele></trkpt>
      <trkpt lat="46.7197640099704" lon="7.774413602085387">
      <ele>1216.3</ele></trkpt>
      <trkpt lat="46.71973785149106" lon="7.774502042440711">
      <ele>1217.4</ele></trkpt>
      <trkpt lat="46.719705661771854" lon="7.774570498367426">
      <ele>1218.4</ele></trkpt>
      <trkpt lat="46.71965679182476" lon="7.774612272100073">
      <ele>1219.4</ele></trkpt>
      <trkpt lat="46.719585078438776" lon="7.774658350688051">
      <ele>1220.4</ele></trkpt>
      <trkpt lat="46.719548375176046" lon="7.774704634066875">
      <ele>1221.4</ele></trkpt>
      <trkpt lat="46.71953145372817" lon="7.774759882536413">
      <ele>1222.4</ele></trkpt>
      <trkpt lat="46.719532826339616" lon="7.774813060586912">
      <ele>1223.5</ele></trkpt>
      <trkpt lat="46.71955400846259" lon="7.774859691329851">
      <ele>1224.5</ele></trkpt>
      <trkpt lat="46.71958742492682" lon="7.774890924880588">
      <ele>1225.5</ele></trkpt>
      <trkpt lat="46.71964830755755" lon="7.774909027387157">
      <ele>1226.5</ele></trkpt>
      <trkpt lat="46.71976089187732" lon="7.774956240897536">
      <ele>1227.6</ele></trkpt>
      <trkpt lat="46.71982471458584" lon="7.775005361218722">
      <ele>1228.7</ele></trkpt>
      <trkpt lat="46.71987484627196" lon="7.7750543963187475">
      <ele>1229.8</ele></trkpt>
      <trkpt lat="46.719905167584756" lon="7.775101097505793">
      <ele>1231.0</ele></trkpt>
      <trkpt lat="46.71993088898645" lon="7.775161072349598">
      <ele>1232.1</ele></trkpt>
      <trkpt lat="46.71996104699702" lon="7.775263126901284">
      <ele>1233.2</ele></trkpt>
      <trkpt lat="46.720037746760056" lon="7.775600270140561">
      <ele>1234.3</ele></trkpt>
      <trkpt lat="46.72008595400321" lon="7.77577997588328">
      <ele>1235.4</ele></trkpt>
      <trkpt lat="46.72010549356517" lon="7.775870912155666">
      <ele>1236.5</ele></trkpt>
      <trkpt lat="46.72015375277907" lon="7.7760328953206725">
      <ele>1237.7</ele></trkpt>
      <trkpt lat="46.72021871365114" lon="7.7762171407459455">
      <ele>1238.8</ele></trkpt>
      <trkpt lat="46.720247533921274" lon="7.776257188855567">
      <ele>1239.9</ele></trkpt>
      <trkpt lat="46.720285535276815" lon="7.776286215676342">
      <ele>1241.0</ele></trkpt>
      <trkpt lat="46.72036914316505" lon="7.776339895975817">
      <ele>1242.1</ele></trkpt>
      <trkpt lat="46.72051967574965" lon="7.776433863304701">
      <ele>1243.2</ele></trkpt>
      <trkpt lat="46.720566794264826" lon="7.7764673816105505">
      <ele>1244.3</ele></trkpt>
      <trkpt lat="46.72060018410933" lon="7.776507458718634">
      <ele>1245.5</ele></trkpt>
      <trkpt lat="46.72062290784581" lon="7.776549679633389">
      <ele>1246.6</ele></trkpt>
      <trkpt lat="46.72063644871295" lon="7.776609579695438">
      <ele>1247.7</ele></trkpt>
      <trkpt lat="46.720649908413996" lon="7.776693834426467">
      <ele>1248.8</ele></trkpt>
      <trkpt lat="46.720666513515596" lon="7.7767426618229285">
      <ele>1249.1</ele></trkpt>
      <trkpt lat="46.72071800719773" lon="7.77684485235531">
      <ele>1249.3</ele></trkpt>
      <trkpt lat="46.720795258136704" lon="7.776991533117287">
      <ele>1249.6</ele></trkpt>
      <trkpt lat="46.720907333314976" lon="7.777207090488535">
      <ele>1249.9</ele></trkpt>
      <trkpt lat="46.720951292904594" lon="7.777280445183355">
      <ele>1250.1</ele></trkpt>
      <trkpt lat="46.7209937781861" lon="7.777338303807269">
      <ele>1250.4</ele></trkpt>
      <trkpt lat="46.72104844976989" lon="7.777394028457792">
      <ele>1250.7</ele></trkpt>
      <trkpt lat="46.72109099833784" lon="7.777427519245543">
      <ele>1250.9</ele></trkpt>
      <trkpt lat="46.72113965237777" lon="7.777458824777954">
      <ele>1251.2</ele></trkpt>
      <trkpt lat="46.72119287363931" lon="7.777487948482281">
      <ele>1251.4</ele></trkpt>
      <trkpt lat="46.72124306753685" lon="7.777512645193129">
      <ele>1251.7</ele></trkpt>
      <trkpt lat="46.72127953517956" lon="7.77754609801067">
      <ele>1252.0</ele></trkpt>
      <trkpt lat="46.721317465614696" lon="7.777592836526744">
      <ele>1252.2</ele></trkpt>
      <trkpt lat="46.721361411743516" lon="7.777670639303253">
      <ele>1252.5</ele></trkpt>
      <trkpt lat="46.72142358384431" lon="7.777766267435019">
      <ele>1252.8</ele></trkpt>
      <trkpt lat="46.721476653574975" lon="7.777846351499284">
      <ele>1253.0</ele></trkpt>
      <trkpt lat="46.72152371487873" lon="7.777902003165443">
      <ele>1253.3</ele></trkpt>
      <trkpt lat="46.72158298221328" lon="7.777948889367794">
      <ele>1253.6</ele></trkpt>
      <trkpt lat="46.721649839877024" lon="7.778002468214306">
      <ele>1253.8</ele></trkpt>
      <trkpt lat="46.72179111315954" lon="7.7781362531733595">
      <ele>1254.1</ele></trkpt>
      <trkpt lat="46.721841225460906" lon="7.778185305935186">
      <ele>1254.8</ele></trkpt>
      <trkpt lat="46.7218807135777" lon="7.778225423427116">
      <ele>1255.6</ele></trkpt>
      <trkpt lat="46.72192926610794" lon="7.778287743155681">
      <ele>1256.3</ele></trkpt>
      <trkpt lat="46.72195352497985" lon="7.778327764935485">
      <ele>1257.1</ele></trkpt>
      <trkpt lat="46.7219838143816" lon="7.7783877592796795">
      <ele>1257.8</ele></trkpt>
      <trkpt lat="46.7220185876526" lon="7.7784765850373345">
      <ele>1258.6</ele></trkpt>
      <trkpt lat="46.722044908907975" lon="7.778542963962541">
      <ele>1259.3</ele></trkpt>
      <trkpt lat="46.7220728702371" lon="7.778635540338367">
      <ele>1260.1</ele></trkpt>
      <trkpt lat="46.72211795221339" lon="7.7788692451105685">
      <ele>1260.8</ele></trkpt>
      <trkpt lat="46.72214495830537" lon="7.779004536555842">
      <ele>1261.5</ele></trkpt>
      <trkpt lat="46.72216907154998" lon="7.779093295733585">
      <ele>1262.3</ele></trkpt>
      <trkpt lat="46.722206845099834" lon="7.779195417872343">
      <ele>1263.0</ele></trkpt>
      <trkpt lat="46.722327786655484" lon="7.779504056968332">
      <ele>1263.8</ele></trkpt>
      <trkpt lat="46.72240188123262" lon="7.779688371747211">
      <ele>1264.5</ele></trkpt>
      <trkpt lat="46.72249264550733" lon="7.779899359027043">
      <ele>1265.3</ele></trkpt>
      <trkpt lat="46.72249264550733" lon="7.779899359027043">
      <ele>1266.0</ele></trkpt>
      <trkpt lat="46.72222452083683" lon="7.780057601337244">
      <ele>1266.8</ele></trkpt>
      <trkpt lat="46.722089640788596" lon="7.780272707647926">
      <ele>1267.5</ele></trkpt>
      <trkpt lat="46.722083173657836" lon="7.780384252109664">
      <ele>1268.3</ele></trkpt>
      <trkpt lat="46.72208453972465" lon="7.7805228350565505">
      <ele>1269.0</ele></trkpt>
      <trkpt lat="46.722062551131515" lon="7.780692100618093">
      <ele>1274.2</ele></trkpt>
      <trkpt lat="46.721987925631936" lon="7.780820561432431">
      <ele>1279.5</ele></trkpt>
      <trkpt lat="46.72194383534869" lon="7.780908561627246">
      <ele>1284.7</ele></trkpt>
      <trkpt lat="46.72191296770882" lon="7.781056789279698">
      <ele>1289.9</ele></trkpt>
      <trkpt lat="46.7218902348112" lon="7.781177063251672">
      <ele>1295.2</ele></trkpt>
      <trkpt lat="46.721897425217406" lon="7.78136784736998">
      <ele>1300.4</ele></trkpt>
      <trkpt lat="46.721950918268064" lon="7.781527768182556">
      <ele>1305.6</ele></trkpt>
      <trkpt lat="46.72197962014956" lon="7.7818549611931065">
      <ele>1310.9</ele></trkpt>
      <trkpt lat="46.72208808083523" lon="7.782282073699394">
      <ele>1316.1</ele></trkpt>
      <trkpt lat="46.722078995950135" lon="7.782610335173747">
      <ele>1321.3</ele></trkpt>
      <trkpt lat="46.72201526310584" lon="7.7828636894362155">
      <ele>1326.6</ele></trkpt>
      <trkpt lat="46.7218885187621" lon="7.7828327961254535">
      <ele>1331.8</ele></trkpt>
      <trkpt lat="46.721787770070776" lon="7.78313038628901">
      <ele>1337.1</ele></trkpt>
      <trkpt lat="46.721662947251396" lon="7.7830589556585785">
      <ele>1342.3</ele></trkpt>
      <trkpt lat="46.72163268919749" lon="7.783376745711466">
      <ele>1347.5</ele></trkpt>
      <trkpt lat="46.72150086437583" lon="7.7835298327891405">
      <ele>1352.8</ele></trkpt>
      <trkpt lat="46.72143774845135" lon="7.7835903574789995">
      <ele>1358.0</ele></trkpt>
      <trkpt lat="46.72139431453971" lon="7.783543827983168">
      <ele>1363.2</ele></trkpt>
      <trkpt lat="46.72141431702784" lon="7.783744411266879">
      <ele>1368.5</ele></trkpt>
      <trkpt lat="46.721476175539706" lon="7.78413819701155">
      <ele>1373.7</ele></trkpt>
      <trkpt lat="46.72132783070671" lon="7.784111086830311">
      <ele>1377.8</ele></trkpt>
      <trkpt lat="46.72140330123941" lon="7.784438577138047">
      <ele>1381.8</ele></trkpt>
      <trkpt lat="46.721473663141595" lon="7.784670549371386">
      <ele>1385.9</ele></trkpt>
      <trkpt lat="46.72132565471711" lon="7.784829179719462">
      <ele>1389.9</ele></trkpt>
      <trkpt lat="46.7213871593831" lon="7.785015314283336">
      <ele>1394.0</ele></trkpt>
      <trkpt lat="46.72134506692364" lon="7.785090124919719">
      <ele>1398.1</ele></trkpt>
      <trkpt lat="46.72130914926427" lon="7.78508958043021">
      <ele>1402.1</ele></trkpt>
      <trkpt lat="46.72127621999564" lon="7.785079532696352">
      <ele>1406.2</ele></trkpt>
      <trkpt lat="46.72125022750266" lon="7.785092799269151">
      <ele>1410.2</ele></trkpt>
      <trkpt lat="46.72123678659186" lon="7.785087376247001">
      <ele>1414.3</ele></trkpt>
      <trkpt lat="46.72095515343372" lon="7.784819040112645">
      <ele>1418.4</ele></trkpt>
      <trkpt lat="46.72067351963676" lon="7.784550706778786">
      <ele>1422.4</ele></trkpt>
      <trkpt lat="46.720467847777094" lon="7.7843063087317494">
      <ele>1426.5</ele></trkpt>
      <trkpt lat="46.72041675033779" lon="7.784247762173667">
      <ele>1430.5</ele></trkpt>
      <trkpt lat="46.72023521409491" lon="7.783866220075607">
      <ele>1434.6</ele></trkpt>
      <trkpt lat="46.72017460864358" lon="7.783783703158747">
      <ele>1438.7</ele></trkpt>
      <trkpt lat="46.72000792596918" lon="7.783570715898481">
      <ele>1442.7</ele></trkpt>
      <trkpt lat="46.71987739300722" lon="7.783537391159783">
      <ele>1446.8</ele></trkpt>
      <trkpt lat="46.71978657795361" lon="7.7835032478141715">
      <ele>1450.8</ele></trkpt>
      <trkpt lat="46.71969237249837" lon="7.783519401195087">
      <ele>1454.9</ele></trkpt>
      <trkpt lat="46.719511162133344" lon="7.783535469415199">
      <ele>1458.6</ele></trkpt>
      <trkpt lat="46.71931391981622" lon="7.783599764869081">
      <ele>1462.3</ele></trkpt>
      <trkpt lat="46.719216538294795" lon="7.783663730315412">
      <ele>1466.0</ele></trkpt>
      <trkpt lat="46.719178460621066" lon="7.7836337827929185">
      <ele>1469.7</ele></trkpt>
      <trkpt lat="46.719093225748196" lon="7.783634388990639">
      <ele>1473.4</ele></trkpt>
      <trkpt lat="46.718952991311895" lon="7.783635206057705">
      <ele>1477.0</ele></trkpt>
      <trkpt lat="46.71889163344571" lon="7.783643825759295">
      <ele>1480.7</ele></trkpt>
      <trkpt lat="46.718850090822194" lon="7.783786978788637">
      <ele>1484.4</ele></trkpt>
      <trkpt lat="46.71879410250106" lon="7.7839980533948285">
      <ele>1488.1</ele></trkpt>
      <trkpt lat="46.71876805077025" lon="7.784036877134077">
      <ele>1491.8</ele></trkpt>
      <trkpt lat="46.718796711775795" lon="7.78407811758966">
      <ele>1495.5</ele></trkpt>
      <trkpt lat="46.7188253252662" lon="7.784093446971277">
      <ele>1499.2</ele></trkpt>
      <trkpt lat="46.718875266285195" lon="7.784123954508317">
      <ele>1502.9</ele></trkpt>
      <trkpt lat="46.71888030112229" lon="7.784154553941655">
      <ele>1506.6</ele></trkpt>
      <trkpt lat="46.71882570958927" lon="7.784168552860635">
      <ele>1510.2</ele></trkpt>
      <trkpt lat="46.71888478353268" lon="7.784251725405841">
      <ele>1513.9</ele></trkpt>
      <trkpt lat="46.71885017479927" lon="7.784258579894143">
      <ele>1517.6</ele></trkpt>
      <trkpt lat="46.71882881202105" lon="7.784278808135214">
      <ele>1521.3</ele></trkpt>
      <trkpt lat="46.71887315676603" lon="7.78434527527172">
      <ele>1525.0</ele></trkpt>
      <trkpt lat="46.71884984684296" lon="7.784357944045285">
      <ele>1528.7</ele></trkpt>
      <trkpt lat="46.718864150641835" lon="7.784396267551227">
      <ele>1530.8</ele></trkpt>
      <trkpt lat="46.718915483048846" lon="7.784439589317395">
      <ele>1532.8</ele></trkpt>
      <trkpt lat="46.71892052675706" lon="7.78447020194002">
      <ele>1534.9</ele></trkpt>
      <trkpt lat="46.718888219709214" lon="7.784533836848827">
      <ele>1536.9</ele></trkpt>
      <trkpt lat="46.71888457045025" lon="7.7845773818707515">
      <ele>1539.0</ele></trkpt>
      <trkpt lat="46.7188561814223" lon="7.784594857470042">
      <ele>1541.0</ele></trkpt>
      <trkpt lat="46.718804766318975" lon="7.784561030905918">
      <ele>1543.1</ele></trkpt>
      <trkpt lat="46.71879218519885" lon="7.784497487781405">
      <ele>1545.1</ele></trkpt>
      <trkpt lat="46.7187001899391" lon="7.78443136931855">
      <ele>1547.2</ele></trkpt>
      <trkpt lat="46.7186590926618" lon="7.784430216606552">
      <ele>1549.2</ele></trkpt>
      <trkpt lat="46.71863711528465" lon="7.784403890409024">
      <ele>1551.3</ele></trkpt>
      <trkpt lat="46.718644460801656" lon="7.784491257009486">
      <ele>1553.4</ele></trkpt>
      <trkpt lat="46.71862235033792" lon="7.784571175652295">
      <ele>1555.4</ele></trkpt>
      <trkpt lat="46.71856632586974" lon="7.784485119029077">
      <ele>1557.5</ele></trkpt>
      <trkpt lat="46.71855318319487" lon="7.784488134679817">
      <ele>1559.5</ele></trkpt>
      <trkpt lat="46.718551058590926" lon="7.784622226179533">
      <ele>1561.6</ele></trkpt>
      <trkpt lat="46.71854089139441" lon="7.784631852985616">
      <ele>1563.6</ele></trkpt>
      <trkpt lat="46.71847625678615" lon="7.784549233496136">
      <ele>1565.7</ele></trkpt>
      <trkpt lat="46.718482786685016" lon="7.78464448161559">
      <ele>1567.7</ele></trkpt>
      <trkpt lat="46.71842715828409" lon="7.784510870369429">
      <ele>1569.8</ele></trkpt>
      <trkpt lat="46.71840291767036" lon="7.784453661984693">
      <ele>1573.6</ele></trkpt>
      <trkpt lat="46.7183931789485" lon="7.784502974924035">
      <ele>1577.5</ele></trkpt>
      <trkpt lat="46.71833656937158" lon="7.784396249307122">
      <ele>1581.3</ele></trkpt>
      <trkpt lat="46.718288114763844" lon="7.784430377319341">
      <ele>1585.2</ele></trkpt>
      <trkpt lat="46.71823410824107" lon="7.784465045196711">
      <ele>1589.0</ele></trkpt>
      <trkpt lat="46.71827851768153" lon="7.784522003349788">
      <ele>1592.9</ele></trkpt>
      <trkpt lat="46.71828681468494" lon="7.784556599567643">
      <ele>1596.7</ele></trkpt>
      <trkpt lat="46.71822600333204" lon="7.784559989811013">
      <ele>1600.6</ele></trkpt>
      <trkpt lat="46.718237833800885" lon="7.784621879452132">
      <ele>1604.4</ele></trkpt>
      <trkpt lat="46.7181635912225" lon="7.784655214062165">
      <ele>1608.2</ele></trkpt>
      <trkpt lat="46.7181356119518" lon="7.784662149939631">
      <ele>1612.1</ele></trkpt>
      <trkpt lat="46.71811320319994" lon="7.7847187712725985">
      <ele>1615.9</ele></trkpt>
      <trkpt lat="46.71808440295768" lon="7.784845117541122">
      <ele>1619.8</ele></trkpt>
      <trkpt lat="46.71806092741566" lon="7.784876776255165">
      <ele>1623.6</ele></trkpt>
      <trkpt lat="46.718031211751814" lon="7.784871929341104">
      <ele>1627.5</ele></trkpt>
      <trkpt lat="46.71799298388426" lon="7.78479966859736">
      <ele>1631.3</ele></trkpt>
      <trkpt lat="46.717997855736314" lon="7.784910613694848">
      <ele>1635.2</ele></trkpt>
      <trkpt lat="46.71797418794873" lon="7.7849967208801365">
      <ele>1639.0</ele></trkpt>
      <trkpt lat="46.71792475203366" lon="7.7850577200893225">
      <ele>1642.9</ele></trkpt>
      <trkpt lat="46.717899843951884" lon="7.784989337864663">
      <ele>1646.7</ele></trkpt>
      <trkpt lat="46.717883945009625" lon="7.784931293939915">
      <ele>1648.6</ele></trkpt>
      <trkpt lat="46.7178620799763" lon="7.784921344083794">
      <ele>1650.5</ele></trkpt>
      <trkpt lat="46.717850595129" lon="7.78490866183214">
      <ele>1652.4</ele></trkpt>
      <trkpt lat="46.71782475939456" lon="7.784831719878877">
      <ele>1654.3</ele></trkpt>
      <trkpt lat="46.71781118219057" lon="7.784856392133692">
      <ele>1656.2</ele></trkpt>
      <trkpt lat="46.717764465282" lon="7.784803971032556">
      <ele>1658.1</ele></trkpt>
      <trkpt lat="46.71776195652977" lon="7.784862943066067">
      <ele>1660.0</ele></trkpt>
      <trkpt lat="46.71772711440246" lon="7.784837005471941">
      <ele>1661.9</ele></trkpt>
      <trkpt lat="46.717731087980575" lon="7.784965300625698">
      <ele>1663.8</ele></trkpt>
      <trkpt lat="46.717718131228196" lon="7.784975223227003">
      <ele>1665.7</ele></trkpt>
      <trkpt lat="46.717646163583375" lon="7.784866542658089">
      <ele>1667.5</ele></trkpt>
      <trkpt lat="46.717607929577234" lon="7.784855611556425">
      <ele>1669.4</ele></trkpt>
      <trkpt lat="46.71752516418342" lon="7.784919888839841">
      <ele>1671.3</ele></trkpt>
      <trkpt lat="46.71744208035152" lon="7.784934946367575">
      <ele>1673.2</ele></trkpt>
      <trkpt lat="46.71737118458483" lon="7.784938454541126">
      <ele>1675.1</ele></trkpt>
      <trkpt lat="46.717316486978376" lon="7.78487472132419">
      <ele>1677.0</ele></trkpt>
      <trkpt lat="46.71729991403849" lon="7.784866845912035">
      <ele>1678.9</ele></trkpt>
      <trkpt lat="46.717309309320314" lon="7.784978210995536">
      <ele>1680.8</ele></trkpt>
      <trkpt lat="46.71729941989341" lon="7.784985223436787">
      <ele>1682.7</ele></trkpt>
      <trkpt lat="46.71727228971237" lon="7.784973212592517">
      <ele>1684.6</ele></trkpt>
      <trkpt lat="46.71725547445794" lon="7.784932545837098">
      <ele>1686.4</ele></trkpt>
      <trkpt lat="46.717247097584796" lon="7.784968774020488">
      <ele>1688.1</ele></trkpt>
      <trkpt lat="46.717215777587995" lon="7.784944206368542">
      <ele>1689.9</ele></trkpt>
      <trkpt lat="46.717207439014516" lon="7.785006344807592">
      <ele>1691.7</ele></trkpt>
      <trkpt lat="46.71715129648367" lon="7.784965229561733">
      <ele>1693.5</ele></trkpt>
      <trkpt lat="46.717153671817044" lon="7.785012487087148">
      <ele>1695.2</ele></trkpt>
      <trkpt lat="46.71714655380441" lon="7.785019242622787">
      <ele>1697.0</ele></trkpt>
      <trkpt lat="46.717098938687194" lon="7.784984185501096">
      <ele>1698.8</ele></trkpt>
      <trkpt lat="46.71707097510344" lon="7.784980016897945">
      <ele>1700.6</ele></trkpt>
      <trkpt lat="46.717060021687615" lon="7.785023421995754">
      <ele>1702.3</ele></trkpt>
      <trkpt lat="46.717081759330526" lon="7.785078298123663">
      <ele>1704.1</ele></trkpt>
      <trkpt lat="46.71708108531684" lon="7.78512845268953">
      <ele>1705.9</ele></trkpt>
      <trkpt lat="46.71704589159859" lon="7.785114637443119">
      <ele>1707.7</ele></trkpt>
      <trkpt lat="46.717044978024795" lon="7.785193316244507">
      <ele>1709.4</ele></trkpt>
      <trkpt lat="46.717052450322086" lon="7.785235780179949">
      <ele>1711.2</ele></trkpt>
      <trkpt lat="46.71707609665415" lon="7.785272318470054">
      <ele>1713.0</ele></trkpt>
      <trkpt lat="46.717051850098755" lon="7.785276426587258">
      <ele>1714.8</ele></trkpt>
      <trkpt lat="46.717012153153135" lon="7.785288099900736">
      <ele>1716.5</ele></trkpt>
      <trkpt lat="46.71698251140279" lon="7.785273731658312">
      <ele>1718.3</ele></trkpt>
      <trkpt lat="46.71694059861576" lon="7.785280446787378">
      <ele>1720.1</ele></trkpt>
      <trkpt lat="46.71689438395075" lon="7.785258203095056">
      <ele>1722.1</ele></trkpt>
      <trkpt lat="46.716831676509315" lon="7.785157260733702">
      <ele>1724.1</ele></trkpt>
      <trkpt lat="46.71683742971683" lon="7.785102273547232">
      <ele>1726.1</ele></trkpt>
      <trkpt lat="46.716820383290184" lon="7.785025167003948">
      <ele>1728.1</ele></trkpt>
      <trkpt lat="46.716766165447524" lon="7.784963425460585">
      <ele>1730.1</ele></trkpt>
      <trkpt lat="46.71674042669032" lon="7.785050171324717">
      <ele>1732.1</ele></trkpt>
      <trkpt lat="46.716649120893784" lon="7.7848429088098605">
      <ele>1734.1</ele></trkpt>
      <trkpt lat="46.71663140970982" lon="7.784809927348878">
      <ele>1736.1</ele></trkpt>
      <trkpt lat="46.71660419620012" lon="7.784766068535508">
      <ele>1738.1</ele></trkpt>
      <trkpt lat="46.716598481211264" lon="7.784838163259208">
      <ele>1740.2</ele></trkpt>
      <trkpt lat="46.71658426572064" lon="7.784883456631686">
      <ele>1742.2</ele></trkpt>
      <trkpt lat="46.71658226255707" lon="7.784953665580821">
      <ele>1744.2</ele></trkpt>
      <trkpt lat="46.716573279810035" lon="7.785020573033587">
      <ele>1746.2</ele></trkpt>
      <trkpt lat="46.71656025282067" lon="7.785018069798377">
      <ele>1748.2</ele></trkpt>
      <trkpt lat="46.716545643493276" lon="7.784973781726709">
      <ele>1750.2</ele></trkpt>
      <trkpt lat="46.71651754141611" lon="7.784944108028217">
      <ele>1752.2</ele></trkpt>
      <trkpt lat="46.7164959221174" lon="7.784906536936564">
      <ele>1754.2</ele></trkpt>
      <trkpt lat="46.71646712697403" lon="7.784859202079534">
      <ele>1756.2</ele></trkpt>
      <trkpt lat="46.7164172085697" lon="7.784747160378558">
      <ele>1758.2</ele></trkpt>
      <trkpt lat="46.71643552305018" lon="7.784904488418841">
      <ele>1760.2</ele></trkpt>
      <trkpt lat="46.71643255733575" lon="7.784980628901944">
      <ele>1761.1</ele></trkpt>
      <trkpt lat="46.716421216320235" lon="7.784979836781663">
      <ele>1762.0</ele></trkpt>
      <trkpt lat="46.716414062583134" lon="7.78499836317267">
      <ele>1762.9</ele></trkpt>
      <trkpt lat="46.71641290450798" lon="7.785036115044623">
      <ele>1763.8</ele></trkpt>
      <trkpt lat="46.71639569016686" lon="7.785014319462097">
      <ele>1764.7</ele></trkpt>
      <trkpt lat="46.716384139824044" lon="7.7849787618166095">
      <ele>1765.6</ele></trkpt>
      <trkpt lat="46.716370502699434" lon="7.7849668508343575">
      <ele>1766.5</ele></trkpt>
      <trkpt lat="46.71636154004919" lon="7.784947109330744">
      <ele>1767.4</ele></trkpt>
      <trkpt lat="46.71634738327102" lon="7.784857426914332">
      <ele>1768.3</ele></trkpt>
      <trkpt lat="46.71634550027939" lon="7.784810944924441">
      <ele>1769.2</ele></trkpt>
      <trkpt lat="46.71633565875304" lon="7.784843684091031">
      <ele>1770.0</ele></trkpt>
      <trkpt lat="46.7163282251554" lon="7.784809173090846">
      <ele>1770.9</ele></trkpt>
      <trkpt lat="46.71631354257337" lon="7.784794940466374">
      <ele>1771.8</ele></trkpt>
      <trkpt lat="46.71630456666837" lon="7.784746935093182">
      <ele>1772.7</ele></trkpt>
      <trkpt lat="46.71628887317757" lon="7.784748652450361">
      <ele>1773.6</ele></trkpt>
      <trkpt lat="46.71628864728465" lon="7.784790503960092">
      <ele>1774.5</ele></trkpt>
      <trkpt lat="46.716277594425634" lon="7.784804440736563">
      <ele>1775.4</ele></trkpt>
      <trkpt lat="46.716263421089536" lon="7.784791362348368">
      <ele>1776.3</ele></trkpt>
      <trkpt lat="46.71625375286919" lon="7.7847640043867665">
      <ele>1777.2</ele></trkpt>
      <trkpt lat="46.71625522944435" lon="7.784730950038892">
      <ele>1778.1</ele></trkpt>
      <trkpt lat="46.71624746483121" lon="7.784701760152692">
      <ele>1779.4</ele></trkpt>
      <trkpt lat="46.71623193721527" lon="7.784719971248691">
      <ele>1780.6</ele></trkpt>
      <trkpt lat="46.7162251761084" lon="7.784751422212145">
      <ele>1781.9</ele></trkpt>
      <trkpt lat="46.71621985211297" lon="7.784759863286133">
      <ele>1783.1</ele></trkpt>
      <trkpt lat="46.71620397132391" lon="7.784755118395586">
      <ele>1784.4</ele></trkpt>
      <trkpt lat="46.716163835099195" lon="7.784706991816141">
      <ele>1785.6</ele></trkpt>
      <trkpt lat="46.716148934083535" lon="7.784657993839215">
      <ele>1786.9</ele></trkpt>
      <trkpt lat="46.716139083565835" lon="7.784690745935529">
      <ele>1788.1</ele></trkpt>
      <trkpt lat="46.71613942431107" lon="7.784723733391514">
      <ele>1789.4</ele></trkpt>
      <trkpt lat="46.71614673555986" lon="7.784760035299545">
      <ele>1790.7</ele></trkpt>
      <trkpt lat="46.71613761675387" lon="7.784762108704458">
      <ele>1791.9</ele></trkpt>
      <trkpt lat="46.716122201638235" lon="7.784740259462625">
      <ele>1793.2</ele></trkpt>
      <trkpt lat="46.71611051571276" lon="7.784678190041557">
      <ele>1794.4</ele></trkpt>
      <trkpt lat="46.716107350041256" lon="7.784556286495197">
      <ele>1795.7</ele></trkpt>
      <trkpt lat="46.71611364381996" lon="7.784465310021492">
      <ele>1796.9</ele></trkpt>
      <trkpt lat="46.71610895874199" lon="7.784396497513297">
      <ele>1798.2</ele></trkpt>
      <trkpt lat="46.71609560709416" lon="7.784284390330953">
      <ele>1799.4</ele></trkpt>
      <trkpt lat="46.71608558438073" lon="7.784169087081224">
      <ele>1800.7</ele></trkpt>
      <trkpt lat="46.71607123369272" lon="7.784080855858922">
      <ele>1801.9</ele></trkpt>
      <trkpt lat="46.716054150104924" lon="7.784048493731362">
      <ele>1803.2</ele></trkpt>
      <trkpt lat="46.716050088244394" lon="7.78406792927711">
      <ele>1804.8</ele></trkpt>
      <trkpt lat="46.71605357630751" lon="7.784139977608417">
      <ele>1806.4</ele></trkpt>
      <trkpt lat="46.71604854758227" lon="7.784211343630637">
      <ele>1808.0</ele></trkpt>
      <trkpt lat="46.71602926513642" lon="7.784192177174707">
      <ele>1809.6</ele></trkpt>
      <trkpt lat="46.71603139799263" lon="7.784132459096998">
      <ele>1811.2</ele></trkpt>
      <trkpt lat="46.716017424283315" lon="7.784068269556673">
      <ele>1812.7</ele></trkpt>
      <trkpt lat="46.715990175010155" lon="7.784021272434775">
      <ele>1814.3</ele></trkpt>
      <trkpt lat="46.71599807688219" lon="7.784082441063695">
      <ele>1815.9</ele></trkpt>
      <trkpt lat="46.71598681133618" lon="7.7841220898147405">
      <ele>1817.5</ele></trkpt>
      <trkpt lat="46.71596678185105" lon="7.784070365072799">
      <ele>1819.1</ele></trkpt>
      <trkpt lat="46.715927388966364" lon="7.784017287045988">
      <ele>1820.7</ele></trkpt>
      <trkpt lat="46.71591661309328" lon="7.784121025790346">
      <ele>1822.3</ele></trkpt>
      <trkpt lat="46.71593579371882" lon="7.784230266350751">
      <ele>1823.9</ele></trkpt>
      <trkpt lat="46.7159274740176" lon="7.784271451048479">
      <ele>1825.5</ele></trkpt>
      <trkpt lat="46.71591292850571" lon="7.784247580362016">
      <ele>1827.0</ele></trkpt>
      <trkpt lat="46.715892572267805" lon="7.784217630008906">
      <ele>1828.6</ele></trkpt>
      <trkpt lat="46.71588018962282" lon="7.784162749929513">
      <ele>1830.2</ele></trkpt>
      <trkpt lat="46.7158814718257" lon="7.784119558364485">
      <ele>1831.8</ele></trkpt>
      <trkpt lat="46.715849628519464" lon="7.784065730884287">
      <ele>1833.4</ele></trkpt>
      <trkpt lat="46.71582199678359" lon="7.78399054635581">
      <ele>1835.0</ele></trkpt>
      <trkpt lat="46.71576320267497" lon="7.783915908064112">
      <ele>1837.1</ele></trkpt>
      <trkpt lat="46.71575907664231" lon="7.7839357485509275">
      <ele>1839.2</ele></trkpt>
      <trkpt lat="46.715768771049" lon="7.783993161644525">
      <ele>1841.2</ele></trkpt>
      <trkpt lat="46.715772216970066" lon="7.784043485233115">
      <ele>1843.3</ele></trkpt>
      <trkpt lat="46.71573943151699" lon="7.783997773885669">
      <ele>1845.4</ele></trkpt>
      <trkpt lat="46.71575174084459" lon="7.784091759281681">
      <ele>1847.5</ele></trkpt>
      <trkpt lat="46.71572136498694" lon="7.784058344439531">
      <ele>1849.6</ele></trkpt>
      <trkpt lat="46.71572113701242" lon="7.784133651352698">
      <ele>1851.6</ele></trkpt>
      <trkpt lat="46.71566958073133" lon="7.784060236462917">
      <ele>1853.7</ele></trkpt>
      <trkpt lat="46.71561196342713" lon="7.783971284456056">
      <ele>1855.8</ele></trkpt>
      <trkpt lat="46.71558020364954" lon="7.7838957730886085">
      <ele>1857.9</ele></trkpt>
      <trkpt lat="46.71556784732998" lon="7.7839510700058225">
      <ele>1860.0</ele></trkpt>
      <trkpt lat="46.715555245314526" lon="7.784090501704313">
      <ele>1862.0</ele></trkpt>
      <trkpt lat="46.71555341436168" lon="7.784190150981938">
      <ele>1864.1</ele></trkpt>
      <trkpt lat="46.715495730124545" lon="7.7841233411034825">
      <ele>1866.2</ele></trkpt>
      <trkpt lat="46.715429069700576" lon="7.784005531841946">
      <ele>1868.3</ele></trkpt>
      <trkpt lat="46.71537155954769" lon="7.783881150434329">
      <ele>1870.4</ele></trkpt>
      <trkpt lat="46.71532304127766" lon="7.78380553229105">
      <ele>1872.4</ele></trkpt>
      <trkpt lat="46.715310437092946" lon="7.783942766135717">
      <ele>1874.5</ele></trkpt>
      <trkpt lat="46.715299502736826" lon="7.784033502358251">
      <ele>1876.6</ele></trkpt>
      <trkpt lat="46.71529440566637" lon="7.784210648355257">
      <ele>1878.2</ele></trkpt>
      <trkpt lat="46.715309109337" lon="7.784381277117469">
      <ele>1879.9</ele></trkpt>
      <trkpt lat="46.71532721584344" lon="7.784441176365267">
      <ele>1881.5</ele></trkpt>
      <trkpt lat="46.7153727178267" lon="7.784505697993716">
      <ele>1883.1</ele></trkpt>
      <trkpt lat="46.7154031493771" lon="7.784514760439316">
      <ele>1884.8</ele></trkpt>
      <trkpt lat="46.71543822673646" lon="7.784501697105232">
      <ele>1886.4</ele></trkpt>
      <trkpt lat="46.71544576973408" lon="7.784523887922455">
      <ele>1888.0</ele></trkpt>
      <trkpt lat="46.715431819099734" lon="7.7846035140664736">
      <ele>1889.7</ele></trkpt>
      <trkpt lat="46.715401367334884" lon="7.784601121641957">
      <ele>1891.3</ele></trkpt>
      <trkpt lat="46.7153997307376" lon="7.78463652863458">
      <ele>1892.9</ele></trkpt>
      <trkpt lat="46.71536616913728" lon="7.784654035310347">
      <ele>1894.6</ele></trkpt>
      <trkpt lat="46.715369090955306" lon="7.784696141704283">
      <ele>1896.2</ele></trkpt>
      <trkpt lat="46.71533101787458" lon="7.784691463891004">
      <ele>1897.9</ele></trkpt>
      <trkpt lat="46.71527012787192" lon="7.78468221916933">
      <ele>1899.5</ele></trkpt>
      <trkpt lat="46.71532769973642" lon="7.784780038521506">
      <ele>1901.1</ele></trkpt>
      <trkpt lat="46.7153246145308" lon="7.784797740532336">
      <ele>1902.8</ele></trkpt>
      <trkpt lat="46.71526530741877" lon="7.784761916639287">
      <ele>1904.4</ele></trkpt>
      <trkpt lat="46.715225700669954" lon="7.784761662664678">
      <ele>1906.0</ele></trkpt>
      <trkpt lat="46.71517550382029" lon="7.784741408722297">
      <ele>1907.7</ele></trkpt>
      <trkpt lat="46.71513894651194" lon="7.784741174316212">
      <ele>1909.3</ele></trkpt>
      <trkpt lat="46.715119026724246" lon="7.784780910669192">
      <ele>1910.3</ele></trkpt>
      <trkpt lat="46.71510510044402" lon="7.784849484867651">
      <ele>1911.3</ele></trkpt>
      <trkpt lat="46.715126435284404" lon="7.784847398319185">
      <ele>1912.3</ele></trkpt>
      <trkpt lat="46.71516452851639" lon="7.784845432335223">
      <ele>1913.3</ele></trkpt>
      <trkpt lat="46.71518723572746" lon="7.784892086129166">
      <ele>1914.3</ele></trkpt>
      <trkpt lat="46.71514003673997" lon="7.784882929028614">
      <ele>1915.4</ele></trkpt>
      <trkpt lat="46.71509888735996" lon="7.784887085691675">
      <ele>1916.4</ele></trkpt>
      <trkpt lat="46.715066982598294" lon="7.78486252839294">
      <ele>1917.4</ele></trkpt>
      <trkpt lat="46.715075958402686" lon="7.784913514640642">
      <ele>1918.4</ele></trkpt>
      <trkpt lat="46.71509565429931" lon="7.7849535050557535">
      <ele>1919.4</ele></trkpt>
      <trkpt lat="46.715122888511175" lon="7.785011265600622">
      <ele>1920.4</ele></trkpt>
      <trkpt lat="46.715113554251126" lon="7.785075422438258">
      <ele>1921.4</ele></trkpt>
      <trkpt lat="46.71508592333156" lon="7.785148342277482">
      <ele>1922.4</ele></trkpt>
      <trkpt lat="46.71506600115862" lon="7.785185855038623">
      <ele>1923.4</ele></trkpt>
      <trkpt lat="46.7150213849275" lon="7.785161556020295">
      <ele>1924.5</ele></trkpt>
      <trkpt lat="46.714896916689234" lon="7.785358807907061">
      <ele>1925.5</ele></trkpt>
      <trkpt lat="46.71483027986504" lon="7.785227723693219">
      <ele>1926.5</ele></trkpt>
      <trkpt lat="46.71478167393945" lon="7.7851427532699615">
      <ele>1927.5</ele></trkpt>
      <trkpt lat="46.71473441835458" lon="7.785039651546863">
      <ele>1928.5</ele></trkpt>
      <trkpt lat="46.71468011480393" lon="7.784943907309562">
      <ele>1929.5</ele></trkpt>
      <trkpt lat="46.71464767096025" lon="7.784874670034382">
      <ele>1930.3</ele></trkpt>
      <trkpt lat="46.71460181759152" lon="7.784730327762434">
      <ele>1931.2</ele></trkpt>
      <trkpt lat="46.714561604201066" lon="7.78458303995611">
      <ele>1932.0</ele></trkpt>
      <trkpt lat="46.71452636334752" lon="7.784483848162498">
      <ele>1932.9</ele></trkpt>
      <trkpt lat="46.71447657579255" lon="7.78432849532126">
      <ele>1933.7</ele></trkpt>
      <trkpt lat="46.71444184055913" lon="7.784228613922851">
      <ele>1934.5</ele></trkpt>
      <trkpt lat="46.71437383198886" lon="7.784051015990531">
      <ele>1935.4</ele></trkpt>
      <trkpt lat="46.71430568243149" lon="7.783919924994728">
      <ele>1936.2</ele></trkpt>
      <trkpt lat="46.7141935729551" lon="7.783719890899395">
      <ele>1937.1</ele></trkpt>
      <trkpt lat="46.71410417969378" lon="7.783557642755465">
      <ele>1937.9</ele></trkpt>
      <trkpt lat="46.71407849172408" lon="7.783491039764385">
      <ele>1938.7</ele></trkpt>
      <trkpt lat="46.71399656563848" lon="7.7833820041048005">
      <ele>1939.6</ele></trkpt>
      <trkpt lat="46.71394506446479" lon="7.783284227424428">
      <ele>1940.4</ele></trkpt>
      <trkpt lat="46.713896741997615" lon="7.783146608048394">
      <ele>1941.3</ele></trkpt>
      <trkpt lat="46.71388175783314" lon="7.783062352492248">
      <ele>1942.1</ele></trkpt>
      <trkpt lat="46.71383790449402" lon="7.782957994335326">
      <ele>1942.9</ele></trkpt>
      <trkpt lat="46.71380001170013" lon="7.782893537458774">
      <ele>1943.8</ele></trkpt>
      <trkpt lat="46.71375904737901" lon="7.782842335699219">
      <ele>1944.6</ele></trkpt>
      <trkpt lat="46.71369215623699" lon="7.782797612552376">
      <ele>1945.5</ele></trkpt>
      <trkpt lat="46.71363741144758" lon="7.782764044358901">
      <ele>1946.3</ele></trkpt>
      <trkpt lat="46.713590403908206" lon="7.782697306434226">
      <ele>1946.3</ele></trkpt>
      <trkpt lat="46.71355712509446" lon="7.782615145149559">
      <ele>1946.2</ele></trkpt>
      <trkpt lat="46.713522426330506" lon="7.782508636059614">
      <ele>1946.2</ele></trkpt>
      <trkpt lat="46.71346339435157" lon="7.782384237881232">
      <ele>1946.2</ele></trkpt>
      <trkpt lat="46.71334969294837" lon="7.782204131365621">
      <ele>1946.1</ele></trkpt>
      <trkpt lat="46.71331341328849" lon="7.782108677156986">
      <ele>1946.1</ele></trkpt>
      <trkpt lat="46.71322257311198" lon="7.781924283569828">
      <ele>1946.1</ele></trkpt>
      <trkpt lat="46.71316951949482" lon="7.781839787364321">
      <ele>1946.0</ele></trkpt>
      <trkpt lat="46.713137622746856" lon="7.7818063657232965">
      <ele>1946.0</ele></trkpt>
      <trkpt lat="46.7131011077328" lon="7.781795056283967">
      <ele>1945.9</ele></trkpt>
      <trkpt lat="46.713081472964724" lon="7.781737360916933">
      <ele>1945.9</ele></trkpt>
      <trkpt lat="46.713055697394694" lon="7.781699544762794">
      <ele>1945.9</ele></trkpt>
      <trkpt lat="46.71300097889422" lon="7.781657124272333">
      <ele>1945.8</ele></trkpt>
      <trkpt lat="46.71297219379239" lon="7.781606001595323">
      <ele>1945.8</ele></trkpt>
      <trkpt lat="46.7129324978909" lon="7.781470768928894">
      <ele>1945.8</ele></trkpt>
      <trkpt lat="46.712899515114735" lon="7.781346656338938">
      <ele>1945.7</ele></trkpt>
      <trkpt lat="46.71284749085867" lon="7.781173837492316">
      <ele>1945.7</ele></trkpt>
      <trkpt lat="46.71276761711911" lon="7.780925695046944">
      <ele>1945.7</ele></trkpt>
      <trkpt lat="46.71272645771001" lon="7.780756267750544">
      <ele>1945.6</ele></trkpt>
      <trkpt lat="46.712678076746904" lon="7.780634151026638">
      <ele>1945.6</ele></trkpt>
      <trkpt lat="46.71264335814013" lon="7.780527644830727">
      <ele>1945.2</ele></trkpt>
      <trkpt lat="46.71260243917754" lon="7.780460948646369">
      <ele>1944.9</ele></trkpt>
      <trkpt lat="46.71253902526152" lon="7.7802700770862385">
      <ele>1944.5</ele></trkpt>
      <trkpt lat="46.71251196095611" lon="7.780154752856169">
      <ele>1944.2</ele></trkpt>
      <trkpt lat="46.71249851706484" lon="7.780066076563283">
      <ele>1943.8</ele></trkpt>
      <trkpt lat="46.71247738772374" lon="7.779999506056053">
      <ele>1943.5</ele></trkpt>
      <trkpt lat="46.71243953960492" lon="7.779919555609867">
      <ele>1943.1</ele></trkpt>
      <trkpt lat="46.71239570989634" lon="7.7798063360085665">
      <ele>1942.8</ele></trkpt>
      <trkpt lat="46.71231852867895" lon="7.779637533265141">
      <ele>1942.4</ele></trkpt>
      <trkpt lat="46.712211084788954" lon="7.779399893203813">
      <ele>1942.0</ele></trkpt>
      <trkpt lat="46.71219456675336" lon="7.779322288385122">
      <ele>1941.7</ele></trkpt>
      <trkpt lat="46.71216581127141" lon="7.779257880615264">
      <ele>1941.3</ele></trkpt>
      <trkpt lat="46.712109626922754" lon="7.779199943509634">
      <ele>1941.0</ele></trkpt>
      <trkpt lat="46.712032385310835" lon="7.7790510861241025">
      <ele>1940.6</ele></trkpt>
      <trkpt lat="46.71194913044829" lon="7.778873406597337">
      <ele>1940.3</ele></trkpt>
      <trkpt lat="46.71191418579098" lon="7.778842178440958">
      <ele>1939.9</ele></trkpt>
      <trkpt lat="46.71183084305626" lon="7.778699914202987">
      <ele>1939.6</ele></trkpt>
      <trkpt lat="46.71172168986912" lon="7.778522072818674">
      <ele>1939.2</ele></trkpt>
      <trkpt lat="46.71164896014894" lon="7.77839537371632">
      <ele>1938.9</ele></trkpt>
      <trkpt lat="46.7115808568176" lon="7.778246576250385">
      <ele>1938.5</ele></trkpt>
      <trkpt lat="46.71151437648316" lon="7.778060151206367">
      <ele>1939.6</ele></trkpt>
      <trkpt lat="46.71148128353944" lon="7.777920415225761">
      <ele>1940.8</ele></trkpt>
      <trkpt lat="46.71146635057413" lon="7.777820667953687">
      <ele>1941.9</ele></trkpt>
      <trkpt lat="46.71141638040959" lon="7.777720700650742">
      <ele>1943.1</ele></trkpt>
      <trkpt lat="46.71138000069604" lon="7.777660693256416">
      <ele>1944.2</ele></trkpt>
      <trkpt lat="46.71134069655235" lon="7.777558569995676">
      <ele>1945.3</ele></trkpt>
      <trkpt lat="46.711293815092105" lon="7.777445322399093">
      <ele>1946.5</ele></trkpt>
      <trkpt lat="46.711304566674215" lon="7.777414395407754">
      <ele>1947.6</ele></trkpt>
      <trkpt lat="46.71131985750392" lon="7.777396770896881">
      <ele>1948.8</ele></trkpt>
      <trkpt lat="46.711324556227396" lon="7.777350295580046">
      <ele>1949.9</ele></trkpt>
      <trkpt lat="46.71134595661855" lon="7.777326078909656">
      <ele>1951.0</ele></trkpt>
      <trkpt lat="46.71139501162834" lon="7.777222300016218">
      <ele>1952.2</ele></trkpt>
      <trkpt lat="46.71143177922702" lon="7.777151661670753">
      <ele>1953.3</ele></trkpt>
      <trkpt lat="46.71145940496866" lon="7.777078768830167">
      <ele>1954.5</ele></trkpt>
      <trkpt lat="46.711508249600925" lon="7.777045857238436">
      <ele>1955.6</ele></trkpt>
      <trkpt lat="46.711550903422186" lon="7.777043901393861">
      <ele>1956.7</ele></trkpt>
      <trkpt lat="46.71157538603854" lon="7.777008626839096">
      <ele>1957.9</ele></trkpt>
      <trkpt lat="46.71159532522807" lon="7.776964470032856">
      <ele>1959.0</ele></trkpt>
      <trkpt lat="46.71160307984822" lon="7.776915777270239">
      <ele>1960.2</ele></trkpt>
      <trkpt lat="46.71159867424123" lon="7.776860403958074">
      <ele>1961.3</ele></trkpt>
      <trkpt lat="46.71159500119342" lon="7.776853172402184">
      <ele>1960.6</ele></trkpt>
      <trkpt lat="46.71154112349683" lon="7.776747102681952">
      <ele>1960.0</ele></trkpt>
      <trkpt lat="46.711527607228255" lon="7.776685002668502">
      <ele>1959.3</ele></trkpt>
      <trkpt lat="46.71150944419342" lon="7.7766428173676285">
      <ele>1958.6</ele></trkpt>
      <trkpt lat="46.71145185633713" lon="7.776545013557642">
      <ele>1958.0</ele></trkpt>
      <trkpt lat="46.71141858858683" lon="7.776460662337097">
      <ele>1957.3</ele></trkpt>
      <trkpt lat="46.711383962568256" lon="7.776321558821936">
      <ele>1956.6</ele></trkpt>
      <trkpt lat="46.71135438427596" lon="7.776188071290715">
      <ele>1955.9</ele></trkpt>
      <trkpt lat="46.711345021757424" lon="7.776099240331504">
      <ele>1955.3</ele></trkpt>
      <trkpt lat="46.711319490714004" lon="7.775975050499113">
      <ele>1954.6</ele></trkpt>
      <trkpt lat="46.711289228644254" lon="7.775908426001653">
      <ele>1953.9</ele></trkpt>
      <trkpt lat="46.711254512229765" lon="7.775799689319247">
      <ele>1953.3</ele></trkpt>
      <trkpt lat="46.7112122026749" lon="7.775682077842914">
      <ele>1952.6</ele></trkpt>
      <trkpt lat="46.711089589130516" lon="7.775424425387559">
      <ele>1951.9</ele></trkpt>
      <trkpt lat="46.71106228224395" lon="7.775386604103774">
      <ele>1951.2</ele></trkpt>
      <trkpt lat="46.71106327543446" lon="7.775568195228099">
      <ele>1950.6</ele></trkpt>
      <trkpt lat="46.711058337043475" lon="7.7756899708062015">
      <ele>1949.9</ele></trkpt>
      <trkpt lat="46.71104901455005" lon="7.775751914321431">
      <ele>1949.2</ele></trkpt>
      <trkpt lat="46.71102638861639" lon="7.775676484313087">
      <ele>1948.6</ele></trkpt>
      <trkpt lat="46.71099309001995" lon="7.77560540803027">
      <ele>1947.9</ele></trkpt>
      <trkpt lat="46.71092331249244" lon="7.775507530199089">
      <ele>1947.1</ele></trkpt>
      <trkpt lat="46.710861057568714" lon="7.775436273494677">
      <ele>1946.3</ele></trkpt>
      <trkpt lat="46.71087096882482" lon="7.7755100414187694">
      <ele>1945.5</ele></trkpt>
      <trkpt lat="46.71087085978806" lon="7.775546972247962">
      <ele>1944.7</ele></trkpt>
      <trkpt lat="46.71086667920462" lon="7.775597962377351">
      <ele>1943.8</ele></trkpt>
      <trkpt lat="46.710839836715" lon="7.775524742665166">
      <ele>1943.0</ele></trkpt>
      <trkpt lat="46.71078888449122" lon="7.775369754607088">
      <ele>1942.2</ele></trkpt>
      <trkpt lat="46.71073864247003" lon="7.77521789684079">
      <ele>1941.4</ele></trkpt>
      <trkpt lat="46.710730170906714" lon="7.775183580457213">
      <ele>1940.6</ele></trkpt>
      <trkpt lat="46.71071400835932" lon="7.775097323859593">
      <ele>1939.8</ele></trkpt>
      <trkpt lat="46.710704980840944" lon="7.77506849667563">
      <ele>1939.0</ele></trkpt>
      <trkpt lat="46.71069349375337" lon="7.775031794484164">
      <ele>1938.2</ele></trkpt>
      <trkpt lat="46.71067435447472" lon="7.7749818492469736">
      <ele>1937.3</ele></trkpt>
      <trkpt lat="46.71061746916376" lon="7.774901577182307">
      <ele>1936.5</ele></trkpt>
      <trkpt lat="46.71053782726752" lon="7.774789999528967">
      <ele>1935.7</ele></trkpt>
      <trkpt lat="46.71052074910776" lon="7.7747701720931355">
      <ele>1934.9</ele></trkpt>
      <trkpt lat="46.71048682916901" lon="7.77475409770947">
      <ele>1934.1</ele></trkpt>
    </trkseg>
  </trk>
</gpx>