<?xml version="1.0" encoding="UTF-8"?>
<gpx version="1.1" creator="hike-planner" xmlns="http://www.topografix.com/GPX/1/1">
  <metadata><name>Ospizio San Gottardo -> Sassal Mason</name>
    <desc>Routed from OSM (ODbL); elevations from SwissTopo / Open-Elevation</desc>
  </metadata>
  <wpt lat="46.408774" lon="10.019757">
    <ele>2253.5</ele>
    <name>Ospizio San Gottardo</name>
  </wpt>
  <wpt lat="46.378798" lon="9.960115">
    <ele>3897.7</ele>
    <name>Piz Palü</name>
  </wpt>
  <wpt lat="46.393846" lon="9.983414">
    <ele>3418.9</ele>
    <name>Sassal Mason</name>
  </wpt>
  <trk>
    <name>Ospizio San Gottardo -> Sassal Mason</name>
    <trkseg>
      <trkpt lat="46.408774" lon="10.019757">
        <ele>2253.5</ele>
      </trkpt>
      <trkpt lat="46.408979" lon="10.019601">
        <ele>2253.5</ele>
      </trkpt>
      <trkpt lat="46.409187" lon="10.019460">
        <ele>2256.1</ele>
      </trkpt>
      <trkpt lat="46.409700" lon="10.019288">
        <ele>2262.6</ele>
      </trkpt>
      <trkpt lat="46.409823" lon="10.019282">
        <ele>2264.2</ele>
      </trkpt>
      <trkpt lat="46.409989" lon="10.019339">
        <ele>2266.3</ele>
      </trkpt>
      <trkpt lat="46.410213" lon="10.019294">
        <ele>2264.0</ele>
      </trkpt>
      <trkpt lat="46.410293" lon="10.019275">
        <ele>2262.5</ele>
      </trkpt>
      <trkpt lat="46.410696" lon="10.019275">
        <ele>2261.8</ele>
      </trkpt>
      <trkpt lat="46.411097" lon="10.018802">
        <ele>2262.5</ele>
      </trkpt>
      <trkpt lat="46.411236" lon="10.018842">
        <ele>2262.1</ele>
      </trkpt>
      <trkpt lat="46.411415" lon="10.018851">
        <ele>2263.4</ele>
      </trkpt>
      <trkpt lat="46.411571" lon="10.019107">
        <ele>2264.7</ele>
      </trkpt>
      <trkpt lat="46.411790" lon="10.019139">
        <ele>2266.0</ele>
      </trkpt>
      <trkpt lat="46.411935" lon="10.019324">
        <ele>2265.7</ele>
      </trkpt>
      <trkpt lat="46.412064" lon="10.019149">
        <ele>2264.3</ele>
      </trkpt>
      <trkpt lat="46.412135" lon="10.019194">
        <ele>2264.4</ele>
      </trkpt>
      <trkpt lat="46.412352" lon="10.019238">
        <ele>2260.7</ele>
      </trkpt>
      <trkpt lat="46.412709" lon="10.019485">
        <ele>2258.0</ele>
      </trkpt>
      <trkpt lat="46.412791" lon="10.019458">
        <ele>2258.0</ele>
      </trkpt>
      <trkpt lat="46.413629" lon="10.019515">
        <ele>2250.6</ele>
      </trkpt>
      <trkpt lat="46.413710" lon="10.019397">
        <ele>2249.3</ele>
      </trkpt>
      <trkpt lat="46.413746" lon="10.019307">
        <ele>2248.2</ele>
      </trkpt>
      <trkpt lat="46.414005" lon="10.019137">
        <ele>2249.1</ele>
      </trkpt>
      <trkpt lat="46.414424" lon="10.019034">
        <ele>2246.5</ele>
      </trkpt>
      <trkpt lat="46.414525" lon="10.019040">
        <ele>2245.9</ele>
      </trkpt>
      <trkpt lat="46.414792" lon="10.018964">
        <ele>2242.4</ele>
      </trkpt>
      <trkpt lat="46.414917" lon="10.018814">
        <ele>2242.3</ele>
      </trkpt>
      <trkpt lat="46.415000" lon="10.018775">
        <ele>2243.5</ele>
      </trkpt>
      <trkpt lat="46.415294" lon="10.018925">
        <ele>2244.8</ele>
      </trkpt>
      <trkpt lat="46.415374" lon="10.018840">
        <ele>2243.9</ele>
      </trkpt>
      <trkpt lat="46.415312" lon="10.018755">
        <ele>2242.9</ele>
      </trkpt>
      <trkpt lat="46.415263" lon="10.018285">
        <ele>2246.3</ele>
      </trkpt>
      <trkpt lat="46.415140" lon="10.017955">
        <ele>2248.1</ele>
      </trkpt>
      <trkpt lat="46.415072" lon="10.017771">
        <ele>2249.5</ele>
      </trkpt>
      <trkpt lat="46.414946" lon="10.017171">
        <ele>2251.5</ele>
      </trkpt>
      <trkpt lat="46.414741" lon="10.016365">
        <ele>2250.1</ele>
      </trkpt>
      <trkpt lat="46.414693" lon="10.016241">
        <ele>2249.3</ele>
      </trkpt>
      <trkpt lat="46.414485" lon="10.015865">
        <ele>2250.0</ele>
      </trkpt>
      <trkpt lat="46.414392" lon="10.015741">
        <ele>2249.4</ele>
      </trkpt>
      <trkpt lat="46.414362" lon="10.015523">
        <ele>2249.2</ele>
      </trkpt>
      <trkpt lat="46.414378" lon="10.015392">
        <ele>2249.3</ele>
      </trkpt>
      <trkpt lat="46.414448" lon="10.014941">
        <ele>2254.1</ele>
      </trkpt>
      <trkpt lat="46.414532" lon="10.014684">
        <ele>2254.8</ele>
      </trkpt>
      <trkpt lat="46.414577" lon="10.014625">
        <ele>2254.7</ele>
      </trkpt>
      <trkpt lat="46.414799" lon="10.014691">
        <ele>2253.4</ele>
      </trkpt>
      <trkpt lat="46.414819" lon="10.014626">
        <ele>2253.2</ele>
      </trkpt>
      <trkpt lat="46.414864" lon="10.014610">
        <ele>2252.3</ele>
      </trkpt>
      <trkpt lat="46.415022" lon="10.014075">
        <ele>2255.2</ele>
      </trkpt>
      <trkpt lat="46.415244" lon="10.013299">
        <ele>2251.4</ele>
      </trkpt>
      <trkpt lat="46.415387" lon="10.012951">
        <ele>2249.7</ele>
      </trkpt>
      <trkpt lat="46.415485" lon="10.012901">
        <ele>2249.6</ele>
      </trkpt>
      <trkpt lat="46.415511" lon="10.012821">
        <ele>2249.3</ele>
      </trkpt>
      <trkpt lat="46.415498" lon="10.012789">
        <ele>2248.9</ele>
      </trkpt>
      <trkpt lat="46.415418" lon="10.012758">
        <ele>2248.4</ele>
      </trkpt>
      <trkpt lat="46.415472" lon="10.012667">
        <ele>2247.5</ele>
      </trkpt>
      <trkpt lat="46.415497" lon="10.012586">
        <ele>2246.3</ele>
      </trkpt>
      <trkpt lat="46.415472" lon="10.012391">
        <ele>2245.7</ele>
      </trkpt>
      <trkpt lat="46.415357" lon="10.012264">
        <ele>2244.0</ele>
      </trkpt>
      <trkpt lat="46.415323" lon="10.012223">
        <ele>2243.3</ele>
      </trkpt>
      <trkpt lat="46.415309" lon="10.012041">
        <ele>2241.3</ele>
      </trkpt>
      <trkpt lat="46.415444" lon="10.011603">
        <ele>2239.2</ele>
      </trkpt>
      <trkpt lat="46.415463" lon="10.011373">
        <ele>2237.8</ele>
      </trkpt>
      <trkpt lat="46.415403" lon="10.010862">
        <ele>2235.4</ele>
      </trkpt>
      <trkpt lat="46.415446" lon="10.010551">
        <ele>2234.2</ele>
      </trkpt>
      <trkpt lat="46.415370" lon="10.010290">
        <ele>2232.9</ele>
      </trkpt>
      <trkpt lat="46.415296" lon="10.009940">
        <ele>2231.7</ele>
      </trkpt>
      <trkpt lat="46.415036" lon="10.009686">
        <ele>2229.3</ele>
      </trkpt>
      <trkpt lat="46.414923" lon="10.009563">
        <ele>2229.1</ele>
      </trkpt>
      <trkpt lat="46.414570" lon="10.008915">
        <ele>2229.3</ele>
      </trkpt>
      <trkpt lat="46.414150" lon="10.008497">
        <ele>2229.8</ele>
      </trkpt>
      <trkpt lat="46.413848" lon="10.008150">
        <ele>2230.7</ele>
      </trkpt>
      <trkpt lat="46.413379" lon="10.007670">
        <ele>2233.7</ele>
      </trkpt>
      <trkpt lat="46.413470" lon="10.007541">
        <ele>2231.7</ele>
      </trkpt>
      <trkpt lat="46.413683" lon="10.007427">
        <ele>2231.2</ele>
      </trkpt>
      <trkpt lat="46.414166" lon="10.007008">
        <ele>2228.8</ele>
      </trkpt>
      <trkpt lat="46.414159" lon="10.006828">
        <ele>2226.4</ele>
      </trkpt>
      <trkpt lat="46.414194" lon="10.006658">
        <ele>2225.6</ele>
      </trkpt>
      <trkpt lat="46.414644" lon="10.005687">
        <ele>2223.9</ele>
      </trkpt>
      <trkpt lat="46.415204" lon="10.004822">
        <ele>2224.7</ele>
      </trkpt>
      <trkpt lat="46.415767" lon="10.004083">
        <ele>2226.6</ele>
      </trkpt>
      <trkpt lat="46.415979" lon="10.003735">
        <ele>2227.1</ele>
      </trkpt>
      <trkpt lat="46.416344" lon="10.003426">
        <ele>2228.0</ele>
      </trkpt>
      <trkpt lat="46.416853" lon="10.003148">
        <ele>2229.4</ele>
      </trkpt>
      <trkpt lat="46.417056" lon="10.003133">
        <ele>2229.3</ele>
      </trkpt>
      <trkpt lat="46.417279" lon="10.002965">
        <ele>2227.6</ele>
      </trkpt>
      <trkpt lat="46.417564" lon="10.002375">
        <ele>2223.0</ele>
      </trkpt>
      <trkpt lat="46.417656" lon="10.002258">
        <ele>2222.8</ele>
      </trkpt>
      <trkpt lat="46.418012" lon="10.002104">
        <ele>2223.6</ele>
      </trkpt>
      <trkpt lat="46.418490" lon="10.002059">
        <ele>2224.6</ele>
      </trkpt>
      <trkpt lat="46.418683" lon="10.002085">
        <ele>2224.7</ele>
      </trkpt>
      <trkpt lat="46.418669" lon="10.001724">
        <ele>2227.4</ele>
      </trkpt>
      <trkpt lat="46.418296" lon="10.001085">
        <ele>2236.5</ele>
      </trkpt>
      <trkpt lat="46.418112" lon="10.000751">
        <ele>2240.4</ele>
      </trkpt>
      <trkpt lat="46.417889" lon="9.999826">
        <ele>2246.7</ele>
      </trkpt>
      <trkpt lat="46.417784" lon="9.998814">
        <ele>2253.1</ele>
      </trkpt>
      <trkpt lat="46.417947" lon="9.998407">
        <ele>2260.8</ele>
      </trkpt>
      <trkpt lat="46.417723" lon="9.998265">
        <ele>2266.6</ele>
      </trkpt>
      <trkpt lat="46.417591" lon="9.997830">
        <ele>2273.9</ele>
      </trkpt>
      <trkpt lat="46.417564" lon="9.997567">
        <ele>2274.6</ele>
      </trkpt>
      <trkpt lat="46.417691" lon="9.996823">
        <ele>2276.4</ele>
      </trkpt>
      <trkpt lat="46.418144" lon="9.995823">
        <ele>2285.0</ele>
      </trkpt>
      <trkpt lat="46.418222" lon="9.995350">
        <ele>2292.1</ele>
      </trkpt>
      <trkpt lat="46.417837" lon="9.994366">
        <ele>2303.1</ele>
      </trkpt>
      <trkpt lat="46.417733" lon="9.993857">
        <ele>2306.9</ele>
      </trkpt>
      <trkpt lat="46.417708" lon="9.993703">
        <ele>2307.3</ele>
      </trkpt>
      <trkpt lat="46.416983" lon="9.992765">
        <ele>2320.4</ele>
      </trkpt>
      <trkpt lat="46.416706" lon="9.992490">
        <ele>2325.2</ele>
      </trkpt>
      <trkpt lat="46.416410" lon="9.992163">
        <ele>2329.6</ele>
      </trkpt>
      <trkpt lat="46.415777" lon="9.991400">
        <ele>2341.6</ele>
      </trkpt>
      <trkpt lat="46.415157" lon="9.990080">
        <ele>2339.3</ele>
      </trkpt>
      <trkpt lat="46.414828" lon="9.989707">
        <ele>2342.8</ele>
      </trkpt>
      <trkpt lat="46.414281" lon="9.988717">
        <ele>2342.4</ele>
      </trkpt>
      <trkpt lat="46.413782" lon="9.988036">
        <ele>2345.0</ele>
      </trkpt>
      <trkpt lat="46.413575" lon="9.987963">
        <ele>2346.3</ele>
      </trkpt>
      <trkpt lat="46.412726" lon="9.987077">
        <ele>2344.4</ele>
      </trkpt>
      <trkpt lat="46.412776" lon="9.986220">
        <ele>2345.3</ele>
      </trkpt>
      <trkpt lat="46.412695" lon="9.985774">
        <ele>2344.8</ele>
      </trkpt>
      <trkpt lat="46.412635" lon="9.985244">
        <ele>2343.9</ele>
      </trkpt>
      <trkpt lat="46.412602" lon="9.984849">
        <ele>2348.7</ele>
      </trkpt>
      <trkpt lat="46.413115" lon="9.984512">
        <ele>2360.3</ele>
      </trkpt>
      <trkpt lat="46.413305" lon="9.984266">
        <ele>2365.1</ele>
      </trkpt>
      <trkpt lat="46.413733" lon="9.984459">
        <ele>2373.8</ele>
      </trkpt>
      <trkpt lat="46.413737" lon="9.984113">
        <ele>2381.9</ele>
      </trkpt>
      <trkpt lat="46.413697" lon="9.983743">
        <ele>2386.7</ele>
      </trkpt>
      <trkpt lat="46.413319" lon="9.983160">
        <ele>2402.3</ele>
      </trkpt>
      <trkpt lat="46.413660" lon="9.982902">
        <ele>2420.3</ele>
      </trkpt>
      <trkpt lat="46.413841" lon="9.983005">
        <ele>2424.0</ele>
      </trkpt>
      <trkpt lat="46.414414" lon="9.982973">
        <ele>2436.2</ele>
      </trkpt>
      <trkpt lat="46.414765" lon="9.982837">
        <ele>2446.2</ele>
      </trkpt>
      <trkpt lat="46.414753" lon="9.982774">
        <ele>2446.9</ele>
      </trkpt>
      <trkpt lat="46.414730" lon="9.982508">
        <ele>2453.3</ele>
      </trkpt>
      <trkpt lat="46.414820" lon="9.982189">
        <ele>2466.5</ele>
      </trkpt>
      <trkpt lat="46.414869" lon="9.982114">
        <ele>2468.5</ele>
      </trkpt>
      <trkpt lat="46.415434" lon="9.981929">
        <ele>2487.7</ele>
      </trkpt>
      <trkpt lat="46.416085" lon="9.981656">
        <ele>2501.4</ele>
      </trkpt>
      <trkpt lat="46.416370" lon="9.981488">
        <ele>2506.5</ele>
      </trkpt>
      <trkpt lat="46.417034" lon="9.981288">
        <ele>2517.3</ele>
      </trkpt>
      <trkpt lat="46.417128" lon="9.981253">
        <ele>2516.3</ele>
      </trkpt>
      <trkpt lat="46.417195" lon="9.981258">
        <ele>2516.9</ele>
      </trkpt>
      <trkpt lat="46.417785" lon="9.981030">
        <ele>2525.6</ele>
      </trkpt>
      <trkpt lat="46.418247" lon="9.980869">
        <ele>2530.1</ele>
      </trkpt>
      <trkpt lat="46.418333" lon="9.980761">
        <ele>2532.2</ele>
      </trkpt>
      <trkpt lat="46.418824" lon="9.980495">
        <ele>2541.6</ele>
      </trkpt>
      <trkpt lat="46.419565" lon="9.980334">
        <ele>2548.4</ele>
      </trkpt>
      <trkpt lat="46.419640" lon="9.980265">
        <ele>2548.7</ele>
      </trkpt>
      <trkpt lat="46.419684" lon="9.979996">
        <ele>2553.5</ele>
      </trkpt>
      <trkpt lat="46.419709" lon="9.979667">
        <ele>2563.9</ele>
      </trkpt>
      <trkpt lat="46.419775" lon="9.979398">
        <ele>2573.1</ele>
      </trkpt>
      <trkpt lat="46.420035" lon="9.979142">
        <ele>2582.3</ele>
      </trkpt>
      <trkpt lat="46.420312" lon="9.978721">
        <ele>2595.3</ele>
      </trkpt>
      <trkpt lat="46.420505" lon="9.978261">
        <ele>2604.4</ele>
      </trkpt>
      <trkpt lat="46.420849" lon="9.977632">
        <ele>2611.6</ele>
      </trkpt>
      <trkpt lat="46.420729" lon="9.977227">
        <ele>2611.6</ele>
      </trkpt>
      <trkpt lat="46.420676" lon="9.977142">
        <ele>2610.8</ele>
      </trkpt>
      <trkpt lat="46.420643" lon="9.977371">
        <ele>2616.3</ele>
      </trkpt>
      <trkpt lat="46.420346" lon="9.977546">
        <ele>2623.8</ele>
      </trkpt>
      <trkpt lat="46.420165" lon="9.977409">
        <ele>2628.8</ele>
      </trkpt>
      <trkpt lat="46.420104" lon="9.977709">
        <ele>2637.4</ele>
      </trkpt>
      <trkpt lat="46.419712" lon="9.977784">
        <ele>2651.1</ele>
      </trkpt>
      <trkpt lat="46.419590" lon="9.977523">
        <ele>2659.3</ele>
      </trkpt>
      <trkpt lat="46.419381" lon="9.977794">
        <ele>2669.2</ele>
      </trkpt>
      <trkpt lat="46.418814" lon="9.977596">
        <ele>2684.7</ele>
      </trkpt>
      <trkpt lat="46.418941" lon="9.977305">
        <ele>2699.3</ele>
      </trkpt>
      <trkpt lat="46.419010" lon="9.976945">
        <ele>2710.3</ele>
      </trkpt>
      <trkpt lat="46.418927" lon="9.976947">
        <ele>2715.3</ele>
      </trkpt>
      <trkpt lat="46.418541" lon="9.976412">
        <ele>2731.7</ele>
      </trkpt>
      <trkpt lat="46.418399" lon="9.976493">
        <ele>2731.6</ele>
      </trkpt>
      <trkpt lat="46.418406" lon="9.976278">
        <ele>2743.0</ele>
      </trkpt>
      <trkpt lat="46.418394" lon="9.975962">
        <ele>2750.8</ele>
      </trkpt>
      <trkpt lat="46.418369" lon="9.975534">
        <ele>2759.9</ele>
      </trkpt>
      <trkpt lat="46.418212" lon="9.974957">
        <ele>2764.6</ele>
      </trkpt>
      <trkpt lat="46.417723" lon="9.974190">
        <ele>2753.4</ele>
      </trkpt>
      <trkpt lat="46.417636" lon="9.973726">
        <ele>2755.7</ele>
      </trkpt>
      <trkpt lat="46.417650" lon="9.973429">
        <ele>2759.2</ele>
      </trkpt>
      <trkpt lat="46.417572" lon="9.973197">
        <ele>2766.7</ele>
      </trkpt>
      <trkpt lat="46.417415" lon="9.973082">
        <ele>2773.1</ele>
      </trkpt>
      <trkpt lat="46.417230" lon="9.972695">
        <ele>2784.4</ele>
      </trkpt>
      <trkpt lat="46.417066" lon="9.972570">
        <ele>2795.3</ele>
      </trkpt>
      <trkpt lat="46.416915" lon="9.972497">
        <ele>2797.9</ele>
      </trkpt>
      <trkpt lat="46.416819" lon="9.971708">
        <ele>2798.7</ele>
      </trkpt>
      <trkpt lat="46.417194" lon="9.971571">
        <ele>2789.5</ele>
      </trkpt>
      <trkpt lat="46.417072" lon="9.971424">
        <ele>2787.0</ele>
      </trkpt>
      <trkpt lat="46.416868" lon="9.970733">
        <ele>2789.4</ele>
      </trkpt>
      <trkpt lat="46.416698" lon="9.969986">
        <ele>2801.0</ele>
      </trkpt>
      <trkpt lat="46.416675" lon="9.969540">
        <ele>2817.1</ele>
      </trkpt>
      <trkpt lat="46.416503" lon="9.969687">
        <ele>2823.6</ele>
      </trkpt>
      <trkpt lat="46.416461" lon="9.969202">
        <ele>2849.0</ele>
      </trkpt>
      <trkpt lat="46.416264" lon="9.969238">
        <ele>2855.2</ele>
      </trkpt>
      <trkpt lat="46.416105" lon="9.969539">
        <ele>2859.6</ele>
      </trkpt>
      <trkpt lat="46.415972" lon="9.969992">
        <ele>2861.9</ele>
      </trkpt>
      <trkpt lat="46.415791" lon="9.970070">
        <ele>2862.9</ele>
      </trkpt>
      <trkpt lat="46.415511" lon="9.970028">
        <ele>2863.6</ele>
      </trkpt>
      <trkpt lat="46.415258" lon="9.970475">
        <ele>2863.5</ele>
      </trkpt>
      <trkpt lat="46.415214" lon="9.970997">
        <ele>2871.3</ele>
      </trkpt>
      <trkpt lat="46.415090" lon="9.971192">
        <ele>2874.0</ele>
      </trkpt>
      <trkpt lat="46.414889" lon="9.971205">
        <ele>2879.9</ele>
      </trkpt>
      <trkpt lat="46.414839" lon="9.971205">
        <ele>2881.1</ele>
      </trkpt>
      <trkpt lat="46.414728" lon="9.971448">
        <ele>2888.9</ele>
      </trkpt>
      <trkpt lat="46.414577" lon="9.971525">
        <ele>2898.2</ele>
      </trkpt>
      <trkpt lat="46.414455" lon="9.971525">
        <ele>2905.4</ele>
      </trkpt>
      <trkpt lat="46.414340" lon="9.971450">
        <ele>2909.6</ele>
      </trkpt>
      <trkpt lat="46.414148" lon="9.971187">
        <ele>2913.2</ele>
      </trkpt>
      <trkpt lat="46.413924" lon="9.971071">
        <ele>2920.4</ele>
      </trkpt>
      <trkpt lat="46.413864" lon="9.970946">
        <ele>2920.9</ele>
      </trkpt>
      <trkpt lat="46.413755" lon="9.970823">
        <ele>2922.0</ele>
      </trkpt>
      <trkpt lat="46.413340" lon="9.970268">
        <ele>2923.7</ele>
      </trkpt>
      <trkpt lat="46.412920" lon="9.969728">
        <ele>2925.3</ele>
      </trkpt>
      <trkpt lat="46.412720" lon="9.969600">
        <ele>2929.1</ele>
      </trkpt>
      <trkpt lat="46.412636" lon="9.970262">
        <ele>2946.7</ele>
      </trkpt>
      <trkpt lat="46.412605" lon="9.970294">
        <ele>2948.1</ele>
      </trkpt>
      <trkpt lat="46.411500" lon="9.970396">
        <ele>2975.8</ele>
      </trkpt>
      <trkpt lat="46.411064" lon="9.970548">
        <ele>2983.7</ele>
      </trkpt>
      <trkpt lat="46.410961" lon="9.970548">
        <ele>2982.5</ele>
      </trkpt>
      <trkpt lat="46.410871" lon="9.970706">
        <ele>2989.1</ele>
      </trkpt>
      <trkpt lat="46.410975" lon="9.970769">
        <ele>2994.2</ele>
      </trkpt>
      <trkpt lat="46.410919" lon="9.970908">
        <ele>2998.2</ele>
      </trkpt>
      <trkpt lat="46.410838" lon="9.970893">
        <ele>3000.1</ele>
      </trkpt>
      <trkpt lat="46.410650" lon="9.970818">
        <ele>2999.7</ele>
      </trkpt>
      <trkpt lat="46.410553" lon="9.970909">
        <ele>3003.8</ele>
      </trkpt>
      <trkpt lat="46.410407" lon="9.970966">
        <ele>3002.1</ele>
      </trkpt>
      <trkpt lat="46.410299" lon="9.970815">
        <ele>3001.5</ele>
      </trkpt>
      <trkpt lat="46.410215" lon="9.970703">
        <ele>3002.3</ele>
      </trkpt>
      <trkpt lat="46.410155" lon="9.970905">
        <ele>3002.5</ele>
      </trkpt>
      <trkpt lat="46.409982" lon="9.971166">
        <ele>2994.8</ele>
      </trkpt>
      <trkpt lat="46.409875" lon="9.971295">
        <ele>2993.5</ele>
      </trkpt>
      <trkpt lat="46.409716" lon="9.971455">
        <ele>2992.0</ele>
      </trkpt>
      <trkpt lat="46.409092" lon="9.971961">
        <ele>2997.2</ele>
      </trkpt>
      <trkpt lat="46.408881" lon="9.972147">
        <ele>3002.2</ele>
      </trkpt>
      <trkpt lat="46.408746" lon="9.972124">
        <ele>3005.0</ele>
      </trkpt>
      <trkpt lat="46.408548" lon="9.972017">
        <ele>3008.1</ele>
      </trkpt>
      <trkpt lat="46.408360" lon="9.972147">
        <ele>3010.9</ele>
      </trkpt>
      <trkpt lat="46.407847" lon="9.972094">
        <ele>3017.3</ele>
      </trkpt>
      <trkpt lat="46.407623" lon="9.971978">
        <ele>3017.9</ele>
      </trkpt>
      <trkpt lat="46.407563" lon="9.971942">
        <ele>3020.1</ele>
      </trkpt>
      <trkpt lat="46.407068" lon="9.972220">
        <ele>3030.8</ele>
      </trkpt>
      <trkpt lat="46.406966" lon="9.972329">
        <ele>3033.6</ele>
      </trkpt>
      <trkpt lat="46.406929" lon="9.972331">
        <ele>3034.2</ele>
      </trkpt>
      <trkpt lat="46.406718" lon="9.972286">
        <ele>3039.5</ele>
      </trkpt>
      <trkpt lat="46.406598" lon="9.972453">
        <ele>3045.4</ele>
      </trkpt>
      <trkpt lat="46.406473" lon="9.972574">
        <ele>3045.7</ele>
      </trkpt>
      <trkpt lat="46.406365" lon="9.972535">
        <ele>3047.5</ele>
      </trkpt>
      <trkpt lat="46.406233" lon="9.972536">
        <ele>3049.3</ele>
      </trkpt>
      <trkpt lat="46.406014" lon="9.972428">
        <ele>3040.9</ele>
      </trkpt>
      <trkpt lat="46.405864" lon="9.972425">
        <ele>3038.1</ele>
      </trkpt>
      <trkpt lat="46.405665" lon="9.972418">
        <ele>3033.7</ele>
      </trkpt>
      <trkpt lat="46.405554" lon="9.972212">
        <ele>3028.2</ele>
      </trkpt>
      <trkpt lat="46.405367" lon="9.972138">
        <ele>3026.1</ele>
      </trkpt>
      <trkpt lat="46.404766" lon="9.972048">
        <ele>3016.5</ele>
      </trkpt>
      <trkpt lat="46.404323" lon="9.972311">
        <ele>2997.3</ele>
      </trkpt>
      <trkpt lat="46.404126" lon="9.972385">
        <ele>3000.7</ele>
      </trkpt>
      <trkpt lat="46.403527" lon="9.973222">
        <ele>3017.4</ele>
      </trkpt>
      <trkpt lat="46.403052" lon="9.974062">
        <ele>3032.5</ele>
      </trkpt>
      <trkpt lat="46.402625" lon="9.975048">
        <ele>3035.0</ele>
      </trkpt>
      <trkpt lat="46.401083" lon="9.976636">
        <ele>3002.7</ele>
      </trkpt>
      <trkpt lat="46.400564" lon="9.975743">
        <ele>2989.3</ele>
      </trkpt>
      <trkpt lat="46.399881" lon="9.975127">
        <ele>2990.6</ele>
      </trkpt>
      <trkpt lat="46.398419" lon="9.973694">
        <ele>3000.3</ele>
      </trkpt>
      <trkpt lat="46.397063" lon="9.972608">
        <ele>2999.6</ele>
      </trkpt>
      <trkpt lat="46.396541" lon="9.972542">
        <ele>2999.2</ele>
      </trkpt>
      <trkpt lat="46.394670" lon="9.972935">
        <ele>2995.7</ele>
      </trkpt>
      <trkpt lat="46.393623" lon="9.972178">
        <ele>3008.2</ele>
      </trkpt>
      <trkpt lat="46.393199" lon="9.972089">
        <ele>3017.6</ele>
      </trkpt>
      <trkpt lat="46.392228" lon="9.972012">
        <ele>3052.7</ele>
      </trkpt>
      <trkpt lat="46.391674" lon="9.971095">
        <ele>3078.2</ele>
      </trkpt>
      <trkpt lat="46.391374" lon="9.970879">
        <ele>3088.3</ele>
      </trkpt>
      <trkpt lat="46.390923" lon="9.971060">
        <ele>3109.9</ele>
      </trkpt>
      <trkpt lat="46.390728" lon="9.971833">
        <ele>3132.3</ele>
      </trkpt>
      <trkpt lat="46.390668" lon="9.972465">
        <ele>3142.0</ele>
      </trkpt>
      <trkpt lat="46.390262" lon="9.972165">
        <ele>3157.6</ele>
      </trkpt>
      <trkpt lat="46.389895" lon="9.971987">
        <ele>3181.8</ele>
      </trkpt>
      <trkpt lat="46.389755" lon="9.971744">
        <ele>3198.1</ele>
      </trkpt>
      <trkpt lat="46.389492" lon="9.971493">
        <ele>3216.9</ele>
      </trkpt>
      <trkpt lat="46.389216" lon="9.970771">
        <ele>3215.8</ele>
      </trkpt>
      <trkpt lat="46.389183" lon="9.970311">
        <ele>3224.2</ele>
      </trkpt>
      <trkpt lat="46.388624" lon="9.969929">
        <ele>3235.3</ele>
      </trkpt>
      <trkpt lat="46.387649" lon="9.970737">
        <ele>3262.1</ele>
      </trkpt>
      <trkpt lat="46.387061" lon="9.971107">
        <ele>3282.8</ele>
      </trkpt>
      <trkpt lat="46.386472" lon="9.972641">
        <ele>3326.4</ele>
      </trkpt>
      <trkpt lat="46.385660" lon="9.972285">
        <ele>3358.2</ele>
      </trkpt>
      <trkpt lat="46.384645" lon="9.970668">
        <ele>3389.7</ele>
      </trkpt>
      <trkpt lat="46.384381" lon="9.970334">
        <ele>3394.5</ele>
      </trkpt>
      <trkpt lat="46.383509" lon="9.970247">
        <ele>3417.8</ele>
      </trkpt>
      <trkpt lat="46.382908" lon="9.970253">
        <ele>3453.8</ele>
      </trkpt>
      <trkpt lat="46.382596" lon="9.970196">
        <ele>3470.1</ele>
      </trkpt>
      <trkpt lat="46.382073" lon="9.970040">
        <ele>3499.7</ele>
      </trkpt>
      <trkpt lat="46.381746" lon="9.970036">
        <ele>3522.0</ele>
      </trkpt>
      <trkpt lat="46.381451" lon="9.970304">
        <ele>3538.3</ele>
      </trkpt>
      <trkpt lat="46.380964" lon="9.970228">
        <ele>3580.7</ele>
      </trkpt>
      <trkpt lat="46.380665" lon="9.969894">
        <ele>3604.0</ele>
      </trkpt>
      <trkpt lat="46.380792" lon="9.969525">
        <ele>3601.6</ele>
      </trkpt>
      <trkpt lat="46.381146" lon="9.968635">
        <ele>3609.2</ele>
      </trkpt>
      <trkpt lat="46.380977" lon="9.968665">
        <ele>3615.8</ele>
      </trkpt>
      <trkpt lat="46.380923" lon="9.968737">
        <ele>3616.2</ele>
      </trkpt>
      <trkpt lat="46.380725" lon="9.968624">
        <ele>3626.7</ele>
      </trkpt>
      <trkpt lat="46.379991" lon="9.968881">
        <ele>3661.5</ele>
      </trkpt>
      <trkpt lat="46.379821" lon="9.968938">
        <ele>3665.1</ele>
      </trkpt>
      <trkpt lat="46.379556" lon="9.968782">
        <ele>3681.9</ele>
      </trkpt>
      <trkpt lat="46.379440" lon="9.968641">
        <ele>3690.7</ele>
      </trkpt>
      <trkpt lat="46.379368" lon="9.968603">
        <ele>3694.7</ele>
      </trkpt>
      <trkpt lat="46.379272" lon="9.968490">
        <ele>3699.4</ele>
      </trkpt>
      <trkpt lat="46.379197" lon="9.968542">
        <ele>3701.8</ele>
      </trkpt>
      <trkpt lat="46.379089" lon="9.968675">
        <ele>3705.6</ele>
      </trkpt>
      <trkpt lat="46.378960" lon="9.969101">
        <ele>3715.8</ele>
      </trkpt>
      <trkpt lat="46.378909" lon="9.969453">
        <ele>3721.2</ele>
      </trkpt>
      <trkpt lat="46.378887" lon="9.969478">
        <ele>3722.8</ele>
      </trkpt>
      <trkpt lat="46.378725" lon="9.969081">
        <ele>3729.3</ele>
      </trkpt>
      <trkpt lat="46.378464" lon="9.968322">
        <ele>3749.7</ele>
      </trkpt>
      <trkpt lat="46.378282" lon="9.967834">
        <ele>3775.6</ele>
      </trkpt>
      <trkpt lat="46.378185" lon="9.967446">
        <ele>3797.9</ele>
      </trkpt>
      <trkpt lat="46.378149" lon="9.967121">
        <ele>3816.7</ele>
      </trkpt>
      <trkpt lat="46.378025" lon="9.967055">
        <ele>3827.4</ele>
      </trkpt>
      <trkpt lat="46.378295" lon="9.966077">
        <ele>3857.0</ele>
      </trkpt>
      <trkpt lat="46.378810" lon="9.965236">
        <ele>3868.4</ele>
      </trkpt>
      <trkpt lat="46.378955" lon="9.964665">
        <ele>3883.8</ele>
      </trkpt>
      <trkpt lat="46.379024" lon="9.964450">
        <ele>3878.6</ele>
      </trkpt>
      <trkpt lat="46.378901" lon="9.963888">
        <ele>3863.1</ele>
      </trkpt>
      <trkpt lat="46.378552" lon="9.962703">
        <ele>3847.0</ele>
      </trkpt>
      <trkpt lat="46.378577" lon="9.961337">
        <ele>3878.5</ele>
      </trkpt>
      <trkpt lat="46.378798" lon="9.960115">
        <ele>3897.7</ele>
      </trkpt>
      <trkpt lat="46.378577" lon="9.961337">
        <ele>3878.5</ele>
      </trkpt>
      <trkpt lat="46.378523" lon="9.962154">
        <ele>3859.8</ele>
      </trkpt>
      <trkpt lat="46.378901" lon="9.963888">
        <ele>3863.1</ele>
      </trkpt>
      <trkpt lat="46.379024" lon="9.964450">
        <ele>3878.6</ele>
      </trkpt>
      <trkpt lat="46.378972" lon="9.964587">
        <ele>3880.8</ele>
      </trkpt>
      <trkpt lat="46.378810" lon="9.965236">
        <ele>3868.4</ele>
      </trkpt>
      <trkpt lat="46.378295" lon="9.966077">
        <ele>3857.0</ele>
      </trkpt>
      <trkpt lat="46.378104" lon="9.966563">
        <ele>3849.2</ele>
      </trkpt>
      <trkpt lat="46.378149" lon="9.967121">
        <ele>3816.7</ele>
      </trkpt>
      <trkpt lat="46.378185" lon="9.967446">
        <ele>3797.9</ele>
      </trkpt>
      <trkpt lat="46.378157" lon="9.967654">
        <ele>3787.5</ele>
      </trkpt>
      <trkpt lat="46.378464" lon="9.968322">
        <ele>3749.7</ele>
      </trkpt>
      <trkpt lat="46.378725" lon="9.969081">
        <ele>3729.3</ele>
      </trkpt>
      <trkpt lat="46.378860" lon="9.969484">
        <ele>3725.5</ele>
      </trkpt>
      <trkpt lat="46.378909" lon="9.969453">
        <ele>3721.2</ele>
      </trkpt>
      <trkpt lat="46.378960" lon="9.969101">
        <ele>3715.8</ele>
      </trkpt>
      <trkpt lat="46.379008" lon="9.968878">
        <ele>3710.6</ele>
      </trkpt>
      <trkpt lat="46.379197" lon="9.968542">
        <ele>3701.8</ele>
      </trkpt>
      <trkpt lat="46.379272" lon="9.968490">
        <ele>3699.4</ele>
      </trkpt>
      <trkpt lat="46.379314" lon="9.968579">
        <ele>3697.5</ele>
      </trkpt>
      <trkpt lat="46.379440" lon="9.968641">
        <ele>3690.7</ele>
      </trkpt>
      <trkpt lat="46.379556" lon="9.968782">
        <ele>3681.9</ele>
      </trkpt>
      <trkpt lat="46.379699" lon="9.969095">
        <ele>3660.2</ele>
      </trkpt>
      <trkpt lat="46.379991" lon="9.968881">
        <ele>3661.5</ele>
      </trkpt>
      <trkpt lat="46.380725" lon="9.968624">
        <ele>3626.7</ele>
      </trkpt>
      <trkpt lat="46.380808" lon="9.968740">
        <ele>3620.8</ele>
      </trkpt>
      <trkpt lat="46.380977" lon="9.968665">
        <ele>3615.8</ele>
      </trkpt>
      <trkpt lat="46.381146" lon="9.968635">
        <ele>3609.2</ele>
      </trkpt>
      <trkpt lat="46.381059" lon="9.968896">
        <ele>3606.6</ele>
      </trkpt>
      <trkpt lat="46.380665" lon="9.969894">
        <ele>3604.0</ele>
      </trkpt>
      <trkpt lat="46.380964" lon="9.970228">
        <ele>3580.7</ele>
      </trkpt>
      <trkpt lat="46.381318" lon="9.969973">
        <ele>3553.3</ele>
      </trkpt>
      <trkpt lat="46.381746" lon="9.970036">
        <ele>3522.0</ele>
      </trkpt>
      <trkpt lat="46.382073" lon="9.970040">
        <ele>3499.7</ele>
      </trkpt>
      <trkpt lat="46.382248" lon="9.970111">
        <ele>3488.9</ele>
      </trkpt>
      <trkpt lat="46.382908" lon="9.970253">
        <ele>3453.8</ele>
      </trkpt>
      <trkpt lat="46.383509" lon="9.970247">
        <ele>3417.8</ele>
      </trkpt>
      <trkpt lat="46.383906" lon="9.970340">
        <ele>3402.4</ele>
      </trkpt>
      <trkpt lat="46.384645" lon="9.970668">
        <ele>3389.7</ele>
      </trkpt>
      <trkpt lat="46.385660" lon="9.972285">
        <ele>3358.2</ele>
      </trkpt>
      <trkpt lat="46.386472" lon="9.972641">
        <ele>3326.4</ele>
      </trkpt>
      <trkpt lat="46.386899" lon="9.971926">
        <ele>3304.5</ele>
      </trkpt>
      <trkpt lat="46.387649" lon="9.970737">
        <ele>3262.1</ele>
      </trkpt>
      <trkpt lat="46.388624" lon="9.969929">
        <ele>3235.3</ele>
      </trkpt>
      <trkpt lat="46.388992" lon="9.969979">
        <ele>3222.9</ele>
      </trkpt>
      <trkpt lat="46.389216" lon="9.970771">
        <ele>3215.8</ele>
      </trkpt>
      <trkpt lat="46.389492" lon="9.971493">
        <ele>3216.9</ele>
      </trkpt>
      <trkpt lat="46.389630" lon="9.971862">
        <ele>3202.9</ele>
      </trkpt>
      <trkpt lat="46.389895" lon="9.971987">
        <ele>3181.8</ele>
      </trkpt>
      <trkpt lat="46.390262" lon="9.972165">
        <ele>3157.6</ele>
      </trkpt>
      <trkpt lat="46.390415" lon="9.972340">
        <ele>3152.0</ele>
      </trkpt>
      <trkpt lat="46.390728" lon="9.971833">
        <ele>3132.3</ele>
      </trkpt>
      <trkpt lat="46.390923" lon="9.971060">
        <ele>3109.9</ele>
      </trkpt>
      <trkpt lat="46.391063" lon="9.970888">
        <ele>3100.8</ele>
      </trkpt>
      <trkpt lat="46.391674" lon="9.971095">
        <ele>3078.2</ele>
      </trkpt>
      <trkpt lat="46.392228" lon="9.972012">
        <ele>3052.7</ele>
      </trkpt>
      <trkpt lat="46.392740" lon="9.972057">
        <ele>3033.0</ele>
      </trkpt>
      <trkpt lat="46.393623" lon="9.972178">
        <ele>3008.2</ele>
      </trkpt>
      <trkpt lat="46.394670" lon="9.972935">
        <ele>2995.7</ele>
      </trkpt>
      <trkpt lat="46.395318" lon="9.972737">
        <ele>2992.2</ele>
      </trkpt>
      <trkpt lat="46.397063" lon="9.972608">
        <ele>2999.6</ele>
      </trkpt>
      <trkpt lat="46.398419" lon="9.973694">
        <ele>3000.3</ele>
      </trkpt>
      <trkpt lat="46.398741" lon="9.974418">
        <ele>3001.1</ele>
      </trkpt>
      <trkpt lat="46.400564" lon="9.975743">
        <ele>2989.3</ele>
      </trkpt>
      <trkpt lat="46.401083" lon="9.976636">
        <ele>3002.7</ele>
      </trkpt>
      <trkpt lat="46.400536" lon="9.977078">
        <ele>3008.7</ele>
      </trkpt>
      <trkpt lat="46.399597" lon="9.978350">
        <ele>3034.2</ele>
      </trkpt>
      <trkpt lat="46.399606" lon="9.979208">
        <ele>3093.2</ele>
      </trkpt>
      <trkpt lat="46.399334" lon="9.979552">
        <ele>3110.0</ele>
      </trkpt>
      <trkpt lat="46.399044" lon="9.980646">
        <ele>3157.2</ele>
      </trkpt>
      <trkpt lat="46.398893" lon="9.981622">
        <ele>3213.8</ele>
      </trkpt>
      <trkpt lat="46.398661" lon="9.982076">
        <ele>3228.7</ele>
      </trkpt>
      <trkpt lat="46.398429" lon="9.983338">
        <ele>3277.7</ele>
      </trkpt>
      <trkpt lat="46.397816" lon="9.983859">
        <ele>3346.7</ele>
      </trkpt>
      <trkpt lat="46.397271" lon="9.983667">
        <ele>3374.1</ele>
      </trkpt>
      <trkpt lat="46.396673" lon="9.983622">
        <ele>3377.8</ele>
      </trkpt>
      <trkpt lat="46.396162" lon="9.983383">
        <ele>3387.1</ele>
      </trkpt>
      <trkpt lat="46.395442" lon="9.983390">
        <ele>3390.9</ele>
      </trkpt>
      <trkpt lat="46.394449" lon="9.983491">
        <ele>3403.4</ele>
      </trkpt>
      <trkpt lat="46.393846" lon="9.983414">
        <ele>3418.9</ele>
      </trkpt>
    </trkseg>
  </trk>
</gpx>
