<?xml version='1.0' encoding='utf-8'?>
<gpx xmlns="http://www.topografix.com/GPX/1/1" xmlns:xsi="http://www.w3.org/2001/XMLSchema-instance" xsi:schemaLocation="http://www.topografix.com/GPX/1/1 http://www.topografix.com/GPX/1/1/gpx.xsd" version="1.1" creator="gpx.py -- https://github.com/tkrajina/gpxpy">
  <trk>
    <name>pizzo-alzasca</name>
    <trkseg>
      <trkpt lat="46.271183581169446" lon="8.589169325606452">
      <ele>1733.6</ele></trkpt>
    <trkpt lat="46.27113534994108" lon="8.589073821515088">
      <ele>1734.7</ele></trkpt>
      <trkpt lat="46.271133474497354" lon="8.589030866278609">
      <ele>1735.8</ele></trkpt>
      <trkpt lat="46.27115144803068" lon="8.588971724845008">
      <ele>1736.9</ele></trkpt>
      <trkpt lat="46.27117553145084" lon="8.588938127185099">
      <ele>1738.2</ele></trkpt>
      <trkpt lat="46.271178195055434" lon="8.588918593831316">
      <ele>1739.5</ele></trkpt>
      <trkpt lat="46.27117045475074" lon="8.588897672965238">
      <ele>1740.7</ele></trkpt>
      <trkpt lat="46.27118399913772" lon="8.588868899104472">
      <ele>1742.0</ele></trkpt>
      <trkpt lat="46.27118426280114" lon="8.588842958107776">
      <ele>1743.3</ele></trkpt>
      <trkpt lat="46.27117395343871" lon="8.588813680049327">
      <ele>1744.6</ele></trkpt>
      <trkpt lat="46.2711824333988" lon="8.588760941256522">
      <ele>1745.8</ele></trkpt>
      <trkpt lat="46.27115037111983" lon="8.588721849742335">
      <ele>1747.1</ele></trkpt>
      <trkpt lat="46.271130094396185" lon="8.588711963689684">
      <ele>1748.4</ele></trkpt>
      <trkpt lat="46.271135236623316" lon="8.588691976767336">
      <ele>1749.7</ele></trkpt>
      <trkpt lat="46.271094981040996" lon="8.588675648906989">
      <ele>1750.9</ele></trkpt>
      <trkpt lat="46.27106566052253" lon="8.588651820104023">
      <ele>1752.2</ele></trkpt>
      <trkpt lat="46.27099000896747" lon="8.588626986281493">
      <ele>1753.5</ele></trkpt>
      <trkpt lat="46.27094961208178" lon="8.58862456282788">
      <ele>1754.8</ele></trkpt>
      <trkpt lat="46.27087866059891" lon="8.588621480708877">
      <ele>1756.0</ele></trkpt>
      <trkpt lat="46.27075064949061" lon="8.58860634721165">
      <ele>1757.3</ele></trkpt>
      <trkpt lat="46.270698449488734" lon="8.588602117579212">
      <ele>1758.6</ele></trkpt>
      <trkpt lat="46.27066525886892" lon="8.588570475204873">
      <ele>1759.9</ele></trkpt>
      <trkpt lat="46.27065096100408" lon="8.588523781060346">
      <ele>1761.1</ele></trkpt>
      <trkpt lat="46.27061625404972" lon="8.588354487563137">
      <ele>1762.4</ele></trkpt>
      <trkpt lat="46.27062245529494" lon="8.588326778200603">
      <ele>1763.8</ele></trkpt>
      <trkpt lat="46.270607349659336" lon="8.58826305929946">
      <ele>1765.2</ele></trkpt>
      <trkpt lat="46.27061264886562" lon="8.588227611853169">
      <ele>1766.6</ele></trkpt>
      <trkpt lat="46.270622125592595" lon="8.58817060046208">
      <ele>1768.0</ele></trkpt>
      <trkpt lat="46.27063289665261" lon="8.588082701371595">
      <ele>1769.4</ele></trkpt>
      <trkpt lat="46.270602149113536" lon="8.588006262798451">
      <ele>1770.8</ele></trkpt>
      <trkpt lat="46.270597818983525" lon="8.587948959780697">
      <ele>1772.2</ele></trkpt>
      <trkpt lat="46.27055647733968" lon="8.587849101639899">
      <ele>1773.6</ele></trkpt>
      <trkpt lat="46.270565897729085" lon="8.587796733438191">
      <ele>1775.0</ele></trkpt>
      <trkpt lat="46.27056350596981" lon="8.587742559014373">
      <ele>1776.4</ele></trkpt>
      <trkpt lat="46.27053031510982" lon="8.587710917242836">
      <ele>1777.8</ele></trkpt>
      <trkpt lat="46.27048715629871" lon="8.587689884615235">
      <ele>1779.2</ele></trkpt>
      <trkpt lat="46.27048148639284" lon="8.587572241449887">
      <ele>1780.6</ele></trkpt>
      <trkpt lat="46.27047258149723" lon="8.587518020428224">
      <ele>1782.0</ele></trkpt>
      <trkpt lat="46.270446867893256" lon="8.58749246541315">
      <ele>1783.4</ele></trkpt>
      <trkpt lat="46.270438076116406" lon="8.587465204937295">
      <ele>1784.8</ele></trkpt>
      <trkpt lat="46.270399703797466" lon="8.58741754901265">
      <ele>1786.2</ele></trkpt>
      <trkpt lat="46.27035476939611" lon="8.587379108228104">
      <ele>1787.6</ele></trkpt>
      <trkpt lat="46.27031919154474" lon="8.58737521771532">
      <ele>1789.0</ele></trkpt>
      <trkpt lat="46.270281479195425" lon="8.58739105310279">
      <ele>1790.4</ele></trkpt>
      <trkpt lat="46.27024411860046" lon="8.587436046353805">
      <ele>1790.3</ele></trkpt>
      <trkpt lat="46.270210428153135" lon="8.587526276210308">
      <ele>1790.2</ele></trkpt>
      <trkpt lat="46.27018838831196" lon="8.587555350525133">
      <ele>1790.2</ele></trkpt>
      <trkpt lat="46.27012763535673" lon="8.587619075725176">
      <ele>1790.1</ele></trkpt>
      <trkpt lat="46.270067117930374" lon="8.587658714866583">
      <ele>1790.0</ele></trkpt>
      <trkpt lat="46.27000278830696" lon="8.587673313372061">
      <ele>1789.9</ele></trkpt>
      <trkpt lat="46.26994282308985" lon="8.587712613752196">
      <ele>1789.8</ele></trkpt>
      <trkpt lat="46.269911866150565" lon="8.587763981729">
      <ele>1789.8</ele></trkpt>
      <trkpt lat="46.26987888727336" lon="8.58778234263031">
      <ele>1789.7</ele></trkpt>
      <trkpt lat="46.26982019824899" lon="8.587807594092913">
      <ele>1789.6</ele></trkpt>
      <trkpt lat="46.26977284230329" lon="8.587866762595965">
      <ele>1789.5</ele></trkpt>
      <trkpt lat="46.269708727668146" lon="8.58793282893409">
      <ele>1789.4</ele></trkpt>
      <trkpt lat="46.269646408374044" lon="8.587986881196809">
      <ele>1789.4</ele></trkpt>
      <trkpt lat="46.26962161087765" lon="8.588037665325574">
      <ele>1789.3</ele></trkpt>
      <trkpt lat="46.269569936432305" lon="8.588025092882033">
      <ele>1789.2</ele></trkpt>
      <trkpt lat="46.269512620593616" lon="8.588008146205915">
      <ele>1789.1</ele></trkpt>
      <trkpt lat="46.26947750157937" lon="8.588009570939148">
      <ele>1789.0</ele></trkpt>
      <trkpt lat="46.26945897588236" lon="8.588048720976161">
      <ele>1789.0</ele></trkpt>
      <trkpt lat="46.26939243942125" lon="8.58809723518333">
      <ele>1788.9</ele></trkpt>
      <trkpt lat="46.2693729808407" lon="8.588164451647708">
      <ele>1788.8</ele></trkpt>
      <trkpt lat="46.26933123461351" lon="8.58819478247847">
      <ele>1789.8</ele></trkpt>
      <trkpt lat="46.269287939645004" lon="8.588250040273671">
      <ele>1790.7</ele></trkpt>
      <trkpt lat="46.26923529327909" lon="8.588356161438655">
      <ele>1791.7</ele></trkpt>
      <trkpt lat="46.269227893631175" lon="8.588425669135267">
      <ele>1792.6</ele></trkpt>
      <trkpt lat="46.26919388982318" lon="8.588522752704614">
      <ele>1793.6</ele></trkpt>
      <trkpt lat="46.269141484128056" lon="8.588583032648163">
      <ele>1794.5</ele></trkpt>
      <trkpt lat="46.269078881541176" lon="8.588573744499872">
      <ele>1795.5</ele></trkpt>
      <trkpt lat="46.26906210949468" lon="8.588537689006106">
      <ele>1796.4</ele></trkpt>
      <trkpt lat="46.26908399729994" lon="8.58844745877354">
      <ele>1797.4</ele></trkpt>
      <trkpt lat="46.26910041240297" lon="8.588417708735811">
      <ele>1798.3</ele></trkpt>
      <trkpt lat="46.26911327891327" lon="8.588361782454145">
      <ele>1799.3</ele></trkpt>
      <trkpt lat="46.26910984785191" lon="8.588316953844013">
      <ele>1800.3</ele></trkpt>
      <trkpt lat="46.26908899460767" lon="8.588265517280897">
      <ele>1801.2</ele></trkpt>
      <trkpt lat="46.26904307187222" lon="8.58819686819702">
      <ele>1802.2</ele></trkpt>
      <trkpt lat="46.269022993061014" lon="8.58813295532719">
      <ele>1803.1</ele></trkpt>
      <trkpt lat="46.269030370414924" lon="8.588108138576048">
      <ele>1804.1</ele></trkpt>
      <trkpt lat="46.26900815861494" lon="8.588062900402273">
      <ele>1805.0</ele></trkpt>
      <trkpt lat="46.26901946391779" lon="8.588034002352947">
      <ele>1806.0</ele></trkpt>
      <trkpt lat="46.26902448485211" lon="8.587985201064996">
      <ele>1806.9</ele></trkpt>
      <trkpt lat="46.269012550106694" lon="8.587948521478587">
      <ele>1807.9</ele></trkpt>
      <trkpt lat="46.269025416385034" lon="8.587892595175958">
      <ele>1808.9</ele></trkpt>
      <trkpt lat="46.26902576504594" lon="8.587858263622543">
      <ele>1809.9</ele></trkpt>
      <trkpt lat="46.2690479544152" lon="8.587841050322094">
      <ele>1810.8</ele></trkpt>
      <trkpt lat="46.26907566432956" lon="8.587789614637957">
      <ele>1811.8</ele></trkpt>
      <trkpt lat="46.269077945261145" lon="8.587756361676723">
      <ele>1812.8</ele></trkpt>
      <trkpt lat="46.26906318612502" lon="8.587743544268191">
      <ele>1813.8</ele></trkpt>
      <trkpt lat="46.26903127951779" lon="8.587697063693614">
      <ele>1814.7</ele></trkpt>
      <trkpt lat="46.2690136852584" lon="8.587643607642635">
      <ele>1815.7</ele></trkpt>
      <trkpt lat="46.26900016680449" lon="8.587571505011317">
      <ele>1816.7</ele></trkpt>
      <trkpt lat="46.26896678528935" lon="8.58754268829042">
      <ele>1817.7</ele></trkpt>
      <trkpt lat="46.26893672636786" lon="8.58750561324672">
      <ele>1818.6</ele></trkpt>
      <trkpt lat="46.26890258840621" lon="8.587423696189212">
      <ele>1819.6</ele></trkpt>
      <trkpt lat="46.26890155544422" lon="8.58733313765144">
      <ele>1820.6</ele></trkpt>
      <trkpt lat="46.26889734958094" lon="8.58730078567964">
      <ele>1821.6</ele></trkpt>
      <trkpt lat="46.26887950171066" lon="8.58727229704771">
      <ele>1822.5</ele></trkpt>
      <trkpt lat="46.268847128657285" lon="8.587272638598659">
      <ele>1823.5</ele></trkpt>
      <trkpt lat="46.268770642668876" lon="8.587280351595057">
      <ele>1824.5</ele></trkpt>
      <trkpt lat="46.26874603197511" lon="8.58728085698069">
      <ele>1825.5</ele></trkpt>
      <trkpt lat="46.26870991209354" lon="8.58726655110933">
      <ele>1826.4</ele></trkpt>
      <trkpt lat="46.26863823903358" lon="8.587291126375671">
      <ele>1827.4</ele></trkpt>
      <trkpt lat="46.26858769072382" lon="8.587379428115915">
      <ele>1828.6</ele></trkpt>
      <trkpt lat="46.268546997139794" lon="8.587433702899647">
      <ele>1829.7</ele></trkpt>
      <trkpt lat="46.2684852833527" lon="8.587464468501002">
      <ele>1830.9</ele></trkpt>
      <trkpt lat="46.26842737800336" lon="8.587641152676305">
      <ele>1832.1</ele></trkpt>
      <trkpt lat="46.26841316556285" lon="8.58767018369882">
      <ele>1833.2</ele></trkpt>
      <trkpt lat="46.26838757662962" lon="8.58763944316564">
      <ele>1834.4</ele></trkpt>
      <trkpt lat="46.26837178783248" lon="8.58759955631788">
      <ele>1835.6</ele></trkpt>
      <trkpt lat="46.268337894518595" lon="8.587558236490828">
      <ele>1836.8</ele></trkpt>
      <trkpt lat="46.26831523873712" lon="8.587556707403325">
      <ele>1837.9</ele></trkpt>
      <trkpt lat="46.26824345178933" lon="8.587484387502428">
      <ele>1839.1</ele></trkpt>
      <trkpt lat="46.26821542022011" lon="8.587439027389475">
      <ele>1840.3</ele></trkpt>
      <trkpt lat="46.26821307097926" lon="8.587350517822712">
      <ele>1841.4</ele></trkpt>
      <trkpt lat="46.268166119731035" lon="8.587319326650153">
      <ele>1842.6</ele></trkpt>
      <trkpt lat="46.268100157205886" lon="8.58737514327733">
      <ele>1843.8</ele></trkpt>
      <trkpt lat="46.26803080885663" lon="8.587445443475058">
      <ele>1845.0</ele></trkpt>
      <trkpt lat="46.267950965441294" lon="8.58750649306571">
      <ele>1846.1</ele></trkpt>
      <trkpt lat="46.26790304401911" lon="8.587530103209538">
      <ele>1847.3</ele></trkpt>
      <trkpt lat="46.267861287561885" lon="8.587561458315845">
      <ele>1848.5</ele></trkpt>
      <trkpt lat="46.26786510813736" lon="8.587503266548655">
      <ele>1849.6</ele></trkpt>
      <trkpt lat="46.26783241813492" lon="8.587534826030684">
      <ele>1850.8</ele></trkpt>
      <trkpt lat="46.26783540107747" lon="8.58749533590323">
      <ele>1851.0</ele></trkpt>
      <trkpt lat="46.267864138219494" lon="8.58739055405344">
      <ele>1851.2</ele></trkpt>
      <trkpt lat="46.26777462491663" lon="8.587422224326696">
      <ele>1851.4</ele></trkpt>
      <trkpt lat="46.267694902661255" lon="8.58749438063867">
      <ele>1851.5</ele></trkpt>
      <trkpt lat="46.26761194216466" lon="8.587566481347514">
      <ele>1851.7</ele></trkpt>
      <trkpt lat="46.2675946379708" lon="8.587612933510336">
      <ele>1851.9</ele></trkpt>
      <trkpt lat="46.26756029344934" lon="8.587679846594153">
      <ele>1852.1</ele></trkpt>
      <trkpt lat="46.26750011698623" lon="8.58773994848033">
      <ele>1852.3</ele></trkpt>
      <trkpt lat="46.2674618552343" lon="8.58780987905479">
      <ele>1852.5</ele></trkpt>
      <trkpt lat="46.26743564733048" lon="8.587968535770296">
      <ele>1852.7</ele></trkpt>
      <trkpt lat="46.267410582158014" lon="8.58801378595586">
      <ele>1852.8</ele></trkpt>
      <trkpt lat="46.267334192576946" lon="8.588076658241151">
      <ele>1853.0</ele></trkpt>
      <trkpt lat="46.26730186466303" lon="8.588136322848008">
      <ele>1853.2</ele></trkpt>
      <trkpt lat="46.267215949802655" lon="8.588171531194625">
      <ele>1853.4</ele></trkpt>
      <trkpt lat="46.267192343215314" lon="8.588212232683237">
      <ele>1853.6</ele></trkpt>
      <trkpt lat="46.26717469850075" lon="8.588270922971525">
      <ele>1853.8</ele></trkpt>
      <trkpt lat="46.267146023953416" lon="8.588311906494276">
      <ele>1853.9</ele></trkpt>
      <trkpt lat="46.267138045674365" lon="8.58841711209664">
      <ele>1854.1</ele></trkpt>
      <trkpt lat="46.26709584986965" lon="8.588418192407467">
      <ele>1854.3</ele></trkpt>
      <trkpt lat="46.26702843961979" lon="8.588442894414532">
      <ele>1854.5</ele></trkpt>
      <trkpt lat="46.26698242383426" lon="8.58843919802993">
      <ele>1854.5</ele></trkpt>
      <trkpt lat="46.266965257924774" lon="8.588479088334083">
      <ele>1854.4</ele></trkpt>
      <trkpt lat="46.26693712126618" lon="8.58852025159554">
      <ele>1854.4</ele></trkpt>
      <trkpt lat="46.266790775563145" lon="8.588540496511218">
      <ele>1854.4</ele></trkpt>
      <trkpt lat="46.2667786173797" lon="8.588526709576993">
      <ele>1854.3</ele></trkpt>
      <trkpt lat="46.26674158304355" lon="8.588474920287872">
      <ele>1854.3</ele></trkpt>
      <trkpt lat="46.26674132670272" lon="8.588436400337528">
      <ele>1854.3</ele></trkpt>
      <trkpt lat="46.26672362710845" lon="8.588393347786388">
      <ele>1854.2</ele></trkpt>
      <trkpt lat="46.26673324486823" lon="8.588338406060267">
      <ele>1854.2</ele></trkpt>
      <trkpt lat="46.26670138080588" lon="8.588287763941718">
      <ele>1854.2</ele></trkpt>
      <trkpt lat="46.26670127223745" lon="8.58823469231895">
      <ele>1854.1</ele></trkpt>
      <trkpt lat="46.26670992249443" lon="8.588147455278468">
      <ele>1854.1</ele></trkpt>
      <trkpt lat="46.26670749585945" lon="8.588106476682496">
      <ele>1854.0</ele></trkpt>
      <trkpt lat="46.266702960748475" lon="8.588084418935724">
      <ele>1854.0</ele></trkpt>
      <trkpt lat="46.266697100090184" lon="8.588052033259348">
      <ele>1854.0</ele></trkpt>
      <trkpt lat="46.26670076472587" lon="8.588019848761977">
      <ele>1853.9</ele></trkpt>
      <trkpt lat="46.26670788988379" lon="8.587974687295109">
      <ele>1853.9</ele></trkpt>
      <trkpt lat="46.266700164223515" lon="8.587938137078645">
      <ele>1853.9</ele></trkpt>
      <trkpt lat="46.266681876531976" lon="8.587908680154165">
      <ele>1853.8</ele></trkpt>
      <trkpt lat="46.26663717339931" lon="8.587870518890432">
      <ele>1853.8</ele></trkpt>
      <trkpt lat="46.266602899580946" lon="8.587812639661916">
      <ele>1853.9</ele></trkpt>
      <trkpt lat="46.26657333117717" lon="8.587814090847843">
      <ele>1854.0</ele></trkpt>
      <trkpt lat="46.26654393166102" lon="8.587821058773216">
      <ele>1854.2</ele></trkpt>
      <trkpt lat="46.26652806770383" lon="8.5878124994322">
      <ele>1854.3</ele></trkpt>
      <trkpt lat="46.26652527587315" lon="8.587789752152457">
      <ele>1854.4</ele></trkpt>
      <trkpt lat="46.266533011225256" lon="8.587750051999743">
      <ele>1854.5</ele></trkpt>
      <trkpt lat="46.266550565328636" lon="8.587715319938212">
      <ele>1854.6</ele></trkpt>
      <trkpt lat="46.26656232999286" lon="8.58768193147569">
      <ele>1854.8</ele></trkpt>
      <trkpt lat="46.26657518539266" lon="8.587634153932253">
      <ele>1854.9</ele></trkpt>
      <trkpt lat="46.26658369866505" lon="8.587593146982563">
      <ele>1855.0</ele></trkpt>
      <trkpt lat="46.26659130721499" lon="8.587547321211638">
      <ele>1855.1</ele></trkpt>
      <trkpt lat="46.26658965818493" lon="8.587521886858417">
      <ele>1855.2</ele></trkpt>
      <trkpt lat="46.266582450834115" lon="8.587481235547612">
      <ele>1855.4</ele></trkpt>
      <trkpt lat="46.26658514805213" lon="8.58745039274087">
      <ele>1855.5</ele></trkpt>
      <trkpt lat="46.26659167776835" lon="8.587416893698883">
      <ele>1855.6</ele></trkpt>
      <trkpt lat="46.266588226181824" lon="8.58737671084303">
      <ele>1855.7</ele></trkpt>
      <trkpt lat="46.266578239440676" lon="8.587336000888627">
      <ele>1855.8</ele></trkpt>
      <trkpt lat="46.266577961384314" lon="8.587299582102311">
      <ele>1856.0</ele></trkpt>
      <trkpt lat="46.26656688532539" lon="8.587242102095011">
      <ele>1856.1</ele></trkpt>
      <trkpt lat="46.266565386127645" lon="8.587198354208393">
      <ele>1856.2</ele></trkpt>
      <trkpt lat="46.26659640765778" lon="8.587139713039244">
      <ele>1856.3</ele></trkpt>
      <trkpt lat="46.26666712856091" lon="8.587125625885431">
      <ele>1856.3</ele></trkpt>
      <trkpt lat="46.266733801883525" lon="8.587063585788785">
      <ele>1856.4</ele></trkpt>
      <trkpt lat="46.26678018652126" lon="8.587022962663875">
      <ele>1856.5</ele></trkpt>
      <trkpt lat="46.26683702951122" lon="8.586972156409399">
      <ele>1856.5</ele></trkpt>
      <trkpt lat="46.26689825796951" lon="8.586936010427216">
      <ele>1856.6</ele></trkpt>
      <trkpt lat="46.2669432840331" lon="8.586901598068398">
      <ele>1856.7</ele></trkpt>
      <trkpt lat="46.26702247651693" lon="8.586882500343567">
      <ele>1856.8</ele></trkpt>
      <trkpt lat="46.26705591949309" lon="8.586840553047983">
      <ele>1856.8</ele></trkpt>
      <trkpt lat="46.267082089396304" lon="8.586814057936985">
      <ele>1856.9</ele></trkpt>
      <trkpt lat="46.26709603913255" lon="8.586778976768692">
      <ele>1857.0</ele></trkpt>
      <trkpt lat="46.26709658799624" lon="8.586724880862942">
      <ele>1857.0</ele></trkpt>
      <trkpt lat="46.26710422000144" lon="8.586674047729936">
      <ele>1857.1</ele></trkpt>
      <trkpt lat="46.2670954911861" lon="8.586640563687759">
      <ele>1857.2</ele></trkpt>
      <trkpt lat="46.2671122677464" lon="8.586506848772828">
      <ele>1857.2</ele></trkpt>
      <trkpt lat="46.267104327347504" lon="8.58635660468084">
      <ele>1857.3</ele></trkpt>
      <trkpt lat="46.26712488721277" lon="8.586219726363824">
      <ele>1857.4</ele></trkpt>
      <trkpt lat="46.267131471478706" lon="8.58607967342739">
      <ele>1857.5</ele></trkpt>
      <trkpt lat="46.2671558681601" lon="8.586000901007527">
      <ele>1857.5</ele></trkpt>
      <trkpt lat="46.26719634261527" lon="8.585901620930237">
      <ele>1857.6</ele></trkpt>
      <trkpt lat="46.267265711011454" lon="8.58573162782505">
      <ele>1859.3</ele></trkpt>
      <trkpt lat="46.267304553354805" lon="8.585721445986342">
      <ele>1861.0</ele></trkpt>
      <trkpt lat="46.26738910843156" lon="8.585700487650232">
      <ele>1862.8</ele></trkpt>
      <trkpt lat="46.267421546949144" lon="8.585672385658148">
      <ele>1864.5</ele></trkpt>
      <trkpt lat="46.267477408068395" lon="8.58557016008968">
      <ele>1866.2</ele></trkpt>
      <trkpt lat="46.26748907062806" lon="8.58556364726015">
      <ele>1867.9</ele></trkpt>
      <trkpt lat="46.267510010266044" lon="8.585526792908404">
      <ele>1869.6</ele></trkpt>
      <trkpt lat="46.267546024675305" lon="8.585509805629227">
      <ele>1871.4</ele></trkpt>
      <trkpt lat="46.26762544924797" lon="8.585423396632265">
      <ele>1873.1</ele></trkpt>
      <trkpt lat="46.26765454386077" lon="8.585361275029229">
      <ele>1874.8</ele></trkpt>
      <trkpt lat="46.2676933781867" lon="8.585319919901671">
      <ele>1876.5</ele></trkpt>
      <trkpt lat="46.2677136124224" lon="8.585290522587242">
      <ele>1878.2</ele></trkpt>
      <trkpt lat="46.267729703226365" lon="8.585251853454743">
      <ele>1880.0</ele></trkpt>
      <trkpt lat="46.26782970078143" lon="8.585143434835595">
      <ele>1881.7</ele></trkpt>
      <trkpt lat="46.26788169098714" lon="8.584977457450963">
      <ele>1883.4</ele></trkpt>
      <trkpt lat="46.26798131838409" lon="8.584906442958065">
      <ele>1885.1</ele></trkpt>
      <trkpt lat="46.268058305464145" lon="8.584747983519584">
      <ele>1886.8</ele></trkpt>
      <trkpt lat="46.26810735292926" lon="8.584689524391715">
      <ele>1888.6</ele></trkpt>
      <trkpt lat="46.26816551113461" lon="8.584672198398039">
      <ele>1890.3</ele></trkpt>
      <trkpt lat="46.26820614766004" lon="8.58461543002144">
      <ele>1892.0</ele></trkpt>
      <trkpt lat="46.26825670934452" lon="8.58456823675274">
      <ele>1892.6</ele></trkpt>
      <trkpt lat="46.268326888599375" lon="8.584560516945196">
      <ele>1893.1</ele></trkpt>
      <trkpt lat="46.26836140616264" lon="8.584535856393764">
      <ele>1893.7</ele></trkpt>
      <trkpt lat="46.268368448928925" lon="8.584517350085186">
      <ele>1894.2</ele></trkpt>
      <trkpt lat="46.26842138904108" lon="8.584461826353836">
      <ele>1894.8</ele></trkpt>
      <trkpt lat="46.268455327410415" lon="8.584412622270921">
      <ele>1895.3</ele></trkpt>
      <trkpt lat="46.2685523400952" lon="8.584359907250922">
      <ele>1895.9</ele></trkpt>
      <trkpt lat="46.26864432777637" lon="8.584262356494213">
      <ele>1896.4</ele></trkpt>
      <trkpt lat="46.26873355165365" lon="8.584159648965153">
      <ele>1897.0</ele></trkpt>
      <trkpt lat="46.268840101599245" lon="8.584005505726038">
      <ele>1897.5</ele></trkpt>
      <trkpt lat="46.26897272561316" lon="8.583915139755323">
      <ele>1898.1</ele></trkpt>
      <trkpt lat="46.26904696434827" lon="8.583818316686973">
      <ele>1898.7</ele></trkpt>
      <trkpt lat="46.26912350219242" lon="8.583680093696081">
      <ele>1899.2</ele></trkpt>
      <trkpt lat="46.2692784922777" lon="8.583524723221043">
      <ele>1899.8</ele></trkpt>
      <trkpt lat="46.26936719166755" lon="8.583507584085858">
      <ele>1900.3</ele></trkpt>
      <trkpt lat="46.2694264683906" lon="8.583482833545242">
      <ele>1900.9</ele></trkpt>
      <trkpt lat="46.269566637247245" lon="8.58348078778575">
      <ele>1901.4</ele></trkpt>
      <trkpt lat="46.26966312885075" lon="8.583426178003903">
      <ele>1902.0</ele></trkpt>
      <trkpt lat="46.26970944170639" lon="8.583372951402511">
      <ele>1902.5</ele></trkpt>
      <trkpt lat="46.26976434940092" lon="8.58334342542843">
      <ele>1903.1</ele></trkpt>
      <trkpt lat="46.2698014377614" lon="8.583249580941754">
      <ele>1903.2</ele></trkpt>
      <trkpt lat="46.26983363708106" lon="8.583193475598748">
      <ele>1903.3</ele></trkpt>
      <trkpt lat="46.269835709174366" lon="8.583145156021173">
      <ele>1903.4</ele></trkpt>
      <trkpt lat="46.269862125889794" lon="8.583035454445927">
      <ele>1903.5</ele></trkpt>
      <trkpt lat="46.269902445693916" lon="8.58295832185045">
      <ele>1903.5</ele></trkpt>
      <trkpt lat="46.269915752833306" lon="8.5828941389912">
      <ele>1903.6</ele></trkpt>
      <trkpt lat="46.26994087525616" lon="8.582859925609887">
      <ele>1903.7</ele></trkpt>
      <trkpt lat="46.2700086338614" lon="8.582831784871585">
      <ele>1903.8</ele></trkpt>
      <trkpt lat="46.270054025474884" lon="8.582826045194366">
      <ele>1903.9</ele></trkpt>
      <trkpt lat="46.270072730364205" lon="8.582801024357764">
      <ele>1904.0</ele></trkpt>
      <trkpt lat="46.27009831485921" lon="8.58277360543547">
      <ele>1904.1</ele></trkpt>
      <trkpt lat="46.27015247581733" lon="8.58278588798143">
      <ele>1904.2</ele></trkpt>
      <trkpt lat="46.27020747675263" lon="8.582768479955524">
      <ele>1904.3</ele></trkpt>
      <trkpt lat="46.270291637904954" lon="8.58273392485237">
      <ele>1904.4</ele></trkpt>
      <trkpt lat="46.27032351099213" lon="8.582710062886315">
      <ele>1904.5</ele></trkpt>
      <trkpt lat="46.27035484348896" lon="8.582738782365347">
      <ele>1904.5</ele></trkpt>
      <trkpt lat="46.27037582357303" lon="8.582749446239209">
      <ele>1904.6</ele></trkpt>
      <trkpt lat="46.27039907126576" lon="8.58274404522687">
      <ele>1904.7</ele></trkpt>
      <trkpt lat="46.27049543108779" lon="8.58280565660242">
      <ele>1904.8</ele></trkpt>
      <trkpt lat="46.27058175584909" lon="8.58281782417554">
      <ele>1904.9</ele></trkpt>
      <trkpt lat="46.270677842725625" lon="8.582854820084364">
      <ele>1906.0</ele></trkpt>
      <trkpt lat="46.27076303752675" lon="8.58287374898569">
      <ele>1907.1</ele></trkpt>
      <trkpt lat="46.270838614933304" lon="8.582906032702184">
      <ele>1908.2</ele></trkpt>
      <trkpt lat="46.27090206769948" lon="8.58293804857828">
      <ele>1909.2</ele></trkpt>
      <trkpt lat="46.270967505908466" lon="8.582987243903698">
      <ele>1910.3</ele></trkpt>
      <trkpt lat="46.27100264359983" lon="8.583005315045762">
      <ele>1911.4</ele></trkpt>
      <trkpt lat="46.27104698898691" lon="8.58300784330726">
      <ele>1912.5</ele></trkpt>
      <trkpt lat="46.27108246139332" lon="8.582986586642676">
      <ele>1913.6</ele></trkpt>
      <trkpt lat="46.271135296024994" lon="8.582940526930273">
      <ele>1914.7</ele></trkpt>
      <trkpt lat="46.2711654099363" lon="8.582915369316403">
      <ele>1915.8</ele></trkpt>
      <trkpt lat="46.271283176161816" lon="8.582827136399054">
      <ele>1916.8</ele></trkpt>
      <trkpt lat="46.27132881968147" lon="8.582820506722944">
      <ele>1917.9</ele></trkpt>
      <trkpt lat="46.271410364190096" lon="8.582840098524802">
      <ele>1919.0</ele></trkpt>
      <trkpt lat="46.27144116556596" lon="8.582862619206374">
      <ele>1920.1</ele></trkpt>
      <trkpt lat="46.27151591060491" lon="8.582841980485886">
      <ele>1921.2</ele></trkpt>
      <trkpt lat="46.27150816206598" lon="8.582726549362441">
      <ele>1922.3</ele></trkpt>
      <trkpt lat="46.27151760634413" lon="8.582646663431557">
      <ele>1923.3</ele></trkpt>
      <trkpt lat="46.27152246087764" lon="8.582632780215336">
      <ele>1924.4</ele></trkpt>
      <trkpt lat="46.27153310653185" lon="8.582589789773971">
      <ele>1925.5</ele></trkpt>
      <trkpt lat="46.27159448537263" lon="8.582582232236373">
      <ele>1926.6</ele></trkpt>
      <trkpt lat="46.271767967124475" lon="8.582602562944475">
      <ele>1927.9</ele></trkpt>
      <trkpt lat="46.271876666326975" lon="8.582578239529164">
      <ele>1929.3</ele></trkpt>
      <trkpt lat="46.27192394607598" lon="8.582537900033707">
      <ele>1930.6</ele></trkpt>
      <trkpt lat="46.272012027167186" lon="8.582457305208676">
      <ele>1932.0</ele></trkpt>
      <trkpt lat="46.272041408495994" lon="8.5824298481946">
      <ele>1933.3</ele></trkpt>
      <trkpt lat="46.27205812884931" lon="8.582382197771647">
      <ele>1934.7</ele></trkpt>
      <trkpt lat="46.27209441970652" lon="8.582329795193159">
      <ele>1936.0</ele></trkpt>
      <trkpt lat="46.27214358490789" lon="8.582297836907662">
      <ele>1937.4</ele></trkpt>
      <trkpt lat="46.272212706699825" lon="8.582266544472878">
      <ele>1938.7</ele></trkpt>
      <trkpt lat="46.27226626076438" lon="8.582257874963581">
      <ele>1940.0</ele></trkpt>
      <trkpt lat="46.27235777708484" lon="8.582293140302376">
      <ele>1941.4</ele></trkpt>
      <trkpt lat="46.27246357200184" lon="8.582275773673985">
      <ele>1942.7</ele></trkpt>
      <trkpt lat="46.272512622845326" lon="8.582248898365954">
      <ele>1944.1</ele></trkpt>
      <trkpt lat="46.27263582904183" lon="8.582266848434507">
      <ele>1945.4</ele></trkpt>
      <trkpt lat="46.272693418508226" lon="8.58224522516958">
      <ele>1946.8</ele></trkpt>
      <trkpt lat="46.272823143170605" lon="8.582240426747141">
      <ele>1948.1</ele></trkpt>
      <trkpt lat="46.27288377799392" lon="8.582229038741284">
      <ele>1949.5</ele></trkpt>
      <trkpt lat="46.272952046633876" lon="8.582239438282764">
      <ele>1950.8</ele></trkpt>
      <trkpt lat="46.27305982193641" lon="8.582229079866648">
      <ele>1952.2</ele></trkpt>
      <trkpt lat="46.27309256222808" lon="8.582256493805502">
      <ele>1953.5</ele></trkpt>
      <trkpt lat="46.273099251395635" lon="8.582215961755203">
      <ele>1954.9</ele></trkpt>
      <trkpt lat="46.27302351542616" lon="8.582087162909808">
      <ele>1956.2</ele></trkpt>
      <trkpt lat="46.27297281618119" lon="8.581969100767246">
      <ele>1957.6</ele></trkpt>
      <trkpt lat="46.27294867280685" lon="8.581868138210082">
      <ele>1959.0</ele></trkpt>
      <trkpt lat="46.27290426030914" lon="8.581755579607378">
      <ele>1960.3</ele></trkpt>
      <trkpt lat="46.27288792000012" lon="8.581673891403995">
      <ele>1961.7</ele></trkpt>
      <trkpt lat="46.27289375235395" lon="8.581607718431368">
      <ele>1963.1</ele></trkpt>
      <trkpt lat="46.272860883774044" lon="8.581524398756505">
      <ele>1964.5</ele></trkpt>
      <trkpt lat="46.27279383503158" lon="8.581379826298344">
      <ele>1965.8</ele></trkpt>
      <trkpt lat="46.2727886574477" lon="8.581298307912839">
      <ele>1967.2</ele></trkpt>
      <trkpt lat="46.272750134286746" lon="8.581197614918523">
      <ele>1968.6</ele></trkpt>
      <trkpt lat="46.272735839809336" lon="8.581141372456779">
      <ele>1969.9</ele></trkpt>
      <trkpt lat="46.2727215158119" lon="8.58108003076733">
      <ele>1971.3</ele></trkpt>
      <trkpt lat="46.27271895782294" lon="8.581021504899434">
      <ele>1972.7</ele></trkpt>
      <trkpt lat="46.27269542550465" lon="8.58093835589452">
      <ele>1974.1</ele></trkpt>
      <trkpt lat="46.272685835015636" lon="8.580795756066676">
      <ele>1975.4</ele></trkpt>
      <trkpt lat="46.27265578450537" lon="8.580735342897883">
      <ele>1976.8</ele></trkpt>
      <trkpt lat="46.27262380971769" lon="8.580710488995996">
      <ele>1978.2</ele></trkpt>
      <trkpt lat="46.27260072619552" lon="8.580660406436891">
      <ele>1979.5</ele></trkpt>
      <trkpt lat="46.272607174133825" lon="8.580562591038312">
      <ele>1980.9</ele></trkpt>
      <trkpt lat="46.27264560167691" lon="8.580419597901887">
      <ele>1982.0</ele></trkpt>
      <trkpt lat="46.272666611530354" lon="8.58029981221278">
      <ele>1983.2</ele></trkpt>
      <trkpt lat="46.272703558905725" lon="8.580224146764062">
      <ele>1984.3</ele></trkpt>
      <trkpt lat="46.27275931673212" lon="8.58013522753945">
      <ele>1985.4</ele></trkpt>
      <trkpt lat="46.27282290729628" lon="8.580074274974391">
      <ele>1986.6</ele></trkpt>
      <trkpt lat="46.27284302604688" lon="8.580032104461422">
      <ele>1987.7</ele></trkpt>
      <trkpt lat="46.27284708881368" lon="8.579975378017165">
      <ele>1988.8</ele></trkpt>
      <trkpt lat="46.2727884144157" lon="8.579854841704815">
      <ele>1989.9</ele></trkpt>
      <trkpt lat="46.27270596592041" lon="8.57968127690101">
      <ele>1991.1</ele></trkpt>
      <trkpt lat="46.27268818916443" lon="8.579553632907103">
      <ele>1992.2</ele></trkpt>
      <trkpt lat="46.272617528659715" lon="8.579397622793138">
      <ele>1993.3</ele></trkpt>
      <trkpt lat="46.272581930699275" lon="8.579293061813141">
      <ele>1994.5</ele></trkpt>
      <trkpt lat="46.27257143651438" lon="8.5792131450513">
      <ele>1995.6</ele></trkpt>
      <trkpt lat="46.27255509510925" lon="8.579118886716996">
      <ele>1996.7</ele></trkpt>
      <trkpt lat="46.2725434534752" lon="8.579011766319766">
      <ele>1997.8</ele></trkpt>
      <trkpt lat="46.27253827619219" lon="8.578928263616708">
      <ele>1999.0</ele></trkpt>
      <trkpt lat="46.272541415675875" lon="8.57889436455692">
      <ele>2000.1</ele></trkpt>
      <trkpt lat="46.27256911094055" lon="8.578818076358784">
      <ele>2001.2</ele></trkpt>
      <trkpt lat="46.272574848432406" lon="8.578756688769486">
      <ele>2002.4</ele></trkpt>
      <trkpt lat="46.27257138259496" lon="8.578709573907435">
      <ele>2003.5</ele></trkpt>
      <trkpt lat="46.272583707071206" lon="8.578655174359733">
      <ele>2005.0</ele></trkpt>
      <trkpt lat="46.27263193962772" lon="8.578546895167714">
      <ele>2006.5</ele></trkpt>
      <trkpt lat="46.272643852775815" lon="8.578455615910727">
      <ele>2008.0</ele></trkpt>
      <trkpt lat="46.27264066845679" lon="8.578380535807687">
      <ele>2009.5</ele></trkpt>
      <trkpt lat="46.272618609658494" lon="8.578306318855688">
      <ele>2011.0</ele></trkpt>
      <trkpt lat="46.27254425117651" lon="8.578196639670601">
      <ele>2012.5</ele></trkpt>
      <trkpt lat="46.272503458617194" lon="8.578109303562945">
      <ele>2014.0</ele></trkpt>
      <trkpt lat="46.27249714773699" lon="8.578032886802928">
      <ele>2015.5</ele></trkpt>
      <trkpt lat="46.272496440432676" lon="8.57786633023832">
      <ele>2017.0</ele></trkpt>
      <trkpt lat="46.272476763483404" lon="8.577789620740793">
      <ele>2018.5</ele></trkpt>
      <trkpt lat="46.27245392340015" lon="8.577727738736694">
      <ele>2019.9</ele></trkpt>
      <trkpt lat="46.272361357307304" lon="8.57753920264407">
      <ele>2021.4</ele></trkpt>
      <trkpt lat="46.27232331202764" lon="8.577492609819226">
      <ele>2022.9</ele></trkpt>
      <trkpt lat="46.27222194474733" lon="8.577411583496497">
      <ele>2024.4</ele></trkpt>
      <trkpt lat="46.27215251469843" lon="8.577359209593755">
      <ele>2025.9</ele></trkpt>
      <trkpt lat="46.27212228684616" lon="8.577325183304513">
      <ele>2027.4</ele></trkpt>
      <trkpt lat="46.2720977556526" lon="8.577203342032519">
      <ele>2028.9</ele></trkpt>
      <trkpt lat="46.27209717538804" lon="8.577092899665631">
      <ele>2030.4</ele></trkpt>
      <trkpt lat="46.27212955294944" lon="8.57695258122202">
      <ele>2031.9</ele></trkpt>
      <trkpt lat="46.27217915692175" lon="8.576809755778413">
      <ele>2033.4</ele></trkpt>
      <trkpt lat="46.2722455161746" lon="8.57670858814167">
      <ele>2032.7</ele></trkpt>
      <trkpt lat="46.272317357805264" lon="8.576575749767175">
      <ele>2032.0</ele></trkpt>
      <trkpt lat="46.272332941540135" lon="8.576480733171692">
      <ele>2031.3</ele></trkpt>
      <trkpt lat="46.27238605050263" lon="8.576331052183608">
      <ele>2030.6</ele></trkpt>
      <trkpt lat="46.27246711051206" lon="8.576137611573413">
      <ele>2029.9</ele></trkpt>
      <trkpt lat="46.27251049711243" lon="8.576017137771602">
      <ele>2029.2</ele></trkpt>
      <trkpt lat="46.27254991164355" lon="8.575821009658746">
      <ele>2028.5</ele></trkpt>
      <trkpt lat="46.272588451950625" lon="8.575559631794569">
      <ele>2027.8</ele></trkpt>
      <trkpt lat="46.2726380110873" lon="8.57540497105051">
      <ele>2027.1</ele></trkpt>
      <trkpt lat="46.27267115838268" lon="8.575303353627298">
      <ele>2026.5</ele></trkpt>
      <trkpt lat="46.272671170472364" lon="8.575180325151804">
      <ele>2025.8</ele></trkpt>
      <trkpt lat="46.27270052784042" lon="8.57498843581339">
      <ele>2025.1</ele></trkpt>
      <trkpt lat="46.272686295458215" lon="8.574878213196493">
      <ele>2024.4</ele></trkpt>
      <trkpt lat="46.27267065352797" lon="8.574754248107384">
      <ele>2023.7</ele></trkpt>
      <trkpt lat="46.272665843777446" lon="8.574654432553592">
      <ele>2023.0</ele></trkpt>
      <trkpt lat="46.27264660521622" lon="8.574503355519628">
      <ele>2022.3</ele></trkpt>
      <trkpt lat="46.27265132053553" lon="8.57436429909275">
      <ele>2021.6</ele></trkpt>
      <trkpt lat="46.27264822915495" lon="8.574186444348522">
      <ele>2020.9</ele></trkpt>
      <trkpt lat="46.27265844232115" lon="8.574026628085136">
      <ele>2020.2</ele></trkpt>
      <trkpt lat="46.27265348581882" lon="8.57394227410168">
      <ele>2019.5</ele></trkpt>
      <trkpt lat="46.272661841910896" lon="8.573875180305421">
      <ele>2021.5</ele></trkpt>
      <trkpt lat="46.27266559959112" lon="8.573800128558652">
      <ele>2023.5</ele></trkpt>
      <trkpt lat="46.27264948002849" lon="8.573644731829342">
      <ele>2025.5</ele></trkpt>
      <trkpt lat="46.272638119247326" lon="8.573618534700772">
      <ele>2027.5</ele></trkpt>
      <trkpt lat="46.272604443973165" lon="8.573570219253426">
      <ele>2029.5</ele></trkpt>
      <trkpt lat="46.27258966259169" lon="8.573495766927818">
      <ele>2031.4</ele></trkpt>
      <trkpt lat="46.27254031233205" lon="8.573429804991719">
      <ele>2033.4</ele></trkpt>
      <trkpt lat="46.272530810675875" lon="8.57339315111195">
      <ele>2035.4</ele></trkpt>
      <trkpt lat="46.2725091542936" lon="8.57337537979793">
      <ele>2037.4</ele></trkpt>
      <trkpt lat="46.2725373447758" lon="8.573279833480598">
      <ele>2039.4</ele></trkpt>
      <trkpt lat="46.272534003775945" lon="8.573238884094472">
      <ele>2041.4</ele></trkpt>
      <trkpt lat="46.27254895528461" lon="8.573177934619359">
      <ele>2043.4</ele></trkpt>
      <trkpt lat="46.272582107621226" lon="8.57314292252149">
      <ele>2045.4</ele></trkpt>
      <trkpt lat="46.2726325867797" lon="8.573124112368868">
      <ele>2047.4</ele></trkpt>
      <trkpt lat="46.272708573415194" lon="8.57312481435503">
      <ele>2049.4</ele></trkpt>
      <trkpt lat="46.27273602802771" lon="8.572977902638522">
      <ele>2051.3</ele></trkpt>
      <trkpt lat="46.272730731733496" lon="8.572834018607654">
      <ele>2053.3</ele></trkpt>
      <trkpt lat="46.27280177816917" lon="8.572594228761321">
      <ele>2055.3</ele></trkpt>
      <trkpt lat="46.272818451641236" lon="8.572564308716993">
      <ele>2057.3</ele></trkpt>
      <trkpt lat="46.272870156971564" lon="8.5726233394497">
      <ele>2059.3</ele></trkpt>
      <trkpt lat="46.27292367440953" lon="8.572706227705046">
      <ele>2060.1</ele></trkpt>
      <trkpt lat="46.27294714669953" lon="8.572716966082213">
      <ele>2060.9</ele></trkpt>
      <trkpt lat="46.27302292929426" lon="8.572725460437233">
      <ele>2061.8</ele></trkpt>
      <trkpt lat="46.27306893387976" lon="8.57273839394665">
      <ele>2062.6</ele></trkpt>
      <trkpt lat="46.27312278021899" lon="8.572683417854648">
      <ele>2063.4</ele></trkpt>
      <trkpt lat="46.27316268368128" lon="8.572691112555468">
      <ele>2064.2</ele></trkpt>
      <trkpt lat="46.27323279963612" lon="8.572650110770637">
      <ele>2065.0</ele></trkpt>
      <trkpt lat="46.27328047656691" lon="8.572596705424523">
      <ele>2065.9</ele></trkpt>
      <trkpt lat="46.27329817982954" lon="8.572595997518452">
      <ele>2066.7</ele></trkpt>
      <trkpt lat="46.27335507046301" lon="8.57262327329584">
      <ele>2067.5</ele></trkpt>
      <trkpt lat="46.27340394094819" lon="8.572635708649598">
      <ele>2068.3</ele></trkpt>
      <trkpt lat="46.2734292900404" lon="8.572617165453295">
      <ele>2069.1</ele></trkpt>
      <trkpt lat="46.27345398932786" lon="8.57259523551338">
      <ele>2070.0</ele></trkpt>
      <trkpt lat="46.273485371000845" lon="8.572586976474138">
      <ele>2070.8</ele></trkpt>
      <trkpt lat="46.27352489925335" lon="8.572580041857373">
      <ele>2071.6</ele></trkpt>
      <trkpt lat="46.27356121036044" lon="8.572553890839785">
      <ele>2072.4</ele></trkpt>
      <trkpt lat="46.27363143902751" lon="8.572466613272082">
      <ele>2073.2</ele></trkpt>
      <trkpt lat="46.2736817829476" lon="8.572395735282324">
      <ele>2074.1</ele></trkpt>
      <trkpt lat="46.273698872497505" lon="8.572387139393804">
      <ele>2074.9</ele></trkpt>
      <trkpt lat="46.27377292043542" lon="8.572399061286845">
      <ele>2075.7</ele></trkpt>
      <trkpt lat="46.27384975245865" lon="8.572404281827687">
      <ele>2077.0</ele></trkpt>
      <trkpt lat="46.27391546215158" lon="8.572292116338485">
      <ele>2078.3</ele></trkpt>
      <trkpt lat="46.27394397186797" lon="8.572227477500297">
      <ele>2079.6</ele></trkpt>
      <trkpt lat="46.273987263181176" lon="8.57218346366386">
      <ele>2080.9</ele></trkpt>
      <trkpt lat="46.274031026016274" lon="8.572159737825656">
      <ele>2082.2</ele></trkpt>
      <trkpt lat="46.27410255362656" lon="8.572008303964713">
      <ele>2083.5</ele></trkpt>
      <trkpt lat="46.27412619239297" lon="8.571954811723579">
      <ele>2084.8</ele></trkpt>
      <trkpt lat="46.27416650773525" lon="8.571865676991582">
      <ele>2086.1</ele></trkpt>
      <trkpt lat="46.274210869722964" lon="8.571816248894253">
      <ele>2087.4</ele></trkpt>
      <trkpt lat="46.27424812409031" lon="8.571794709471495">
      <ele>2088.8</ele></trkpt>
      <trkpt lat="46.274330465117075" lon="8.571656746139855">
      <ele>2090.1</ele></trkpt>
      <trkpt lat="46.27441064983223" lon="8.57137826784438">
      <ele>2091.4</ele></trkpt>
      <trkpt lat="46.274452652431485" lon="8.571326350902549">
      <ele>2092.7</ele></trkpt>
      <trkpt lat="46.27450956704676" lon="8.571208330175471">
      <ele>2094.0</ele></trkpt>
      <trkpt lat="46.274522011438336" lon="8.571158665082356">
      <ele>2095.3</ele></trkpt>
      <trkpt lat="46.274539614163544" lon="8.57106371114007">
      <ele>2096.6</ele></trkpt>
      <trkpt lat="46.274558462470814" lon="8.571003410794098">
      <ele>2097.9</ele></trkpt>
      <trkpt lat="46.27458236060809" lon="8.570994981965974">
      <ele>2099.2</ele></trkpt>
      <trkpt lat="46.27462071543318" lon="8.570967743174865">
      <ele>2100.5</ele></trkpt>
      <trkpt lat="46.27467870021754" lon="8.570952239193552">
      <ele>2101.8</ele></trkpt>
      <trkpt lat="46.2747022235458" lon="8.5709111337841">
      <ele>2109.7</ele></trkpt>
      <trkpt lat="46.274812595083034" lon="8.570823688530915">
      <ele>2117.7</ele></trkpt>
      <trkpt lat="46.27495810171368" lon="8.57119666017116">
      <ele>2125.6</ele></trkpt>
      <trkpt lat="46.275103607115824" lon="8.571569633805966">
      <ele>2133.6</ele></trkpt>
      <trkpt lat="46.275199311387006" lon="8.572123229893933">
      <ele>2141.5</ele></trkpt>
      <trkpt lat="46.27529501295013" lon="8.572676827927344">
      <ele>2149.5</ele></trkpt>
      <trkpt lat="46.27549600301393" lon="8.572827029954368">
      <ele>2157.4</ele></trkpt>
      <trkpt lat="46.275696992880086" lon="8.572977233091944">
      <ele>2165.4</ele></trkpt>
      <trkpt lat="46.2759936512706" lon="8.572561597856868">
      <ele>2173.3</ele></trkpt>
      <trkpt lat="46.276033981025904" lon="8.57302752270976">
      <ele>2181.2</ele></trkpt>
      <trkpt lat="46.27607430886282" lon="8.573493448251618">
      <ele>2189.2</ele></trkpt>
      <trkpt lat="46.27611463478135" lon="8.573959374482419">
      <ele>2197.1</ele></trkpt>
      <trkpt lat="46.27618780224386" lon="8.574130789797605">
      <ele>2205.1</ele></trkpt>
      <trkpt lat="46.27618780224386" lon="8.574130789797605">
      <ele>2213.0</ele></trkpt>
      <trkpt lat="46.27633644370012" lon="8.574479030381731">
      <ele>2221.0</ele></trkpt>
      <trkpt lat="46.276485084085564" lon="8.574827272868472">
      <ele>2228.9</ele></trkpt>
      <trkpt lat="46.27669599265854" lon="8.575140377541826">
      <ele>2236.9</ele></trkpt>
      <trkpt lat="46.27690690036698" lon="8.575453484643258">
      <ele>2244.8</ele></trkpt>
      <trkpt lat="46.277158489110775" lon="8.57575351864642">
      <ele>2252.8</ele></trkpt>
      <trkpt lat="46.27741007706167" lon="8.57605355542552">
      <ele>2260.7</ele></trkpt>
      </trkseg>
  </trk>
</gpx>