<?xml version='1.0' encoding='utf-8'?>
<gpx xmlns="http://www.topografix.com/GPX/1/1" xmlns:xsi="http://www.w3.org/2001/XMLSchema-instance" xsi:schemaLocation="http://www.topografix.com/GPX/1/1 http://www.topografix.com/GPX/1/1/gpx.xsd" version="1.1" creator="gpx.py -- https://github.com/tkrajina/gpxpy">
  <trk>
    <name>hoernlihuette</name>
    <trkseg>
      <trkpt lat="45.99102017477024" lon="7.709781695654395">
      <ele>2581.1</ele></trkpt>
    <trkpt lat="45.99099304147923" lon="7.709760563798532">
      <ele>2580.6</ele></trkpt>
      <trkpt lat="45.990974819998286" lon="7.709714374702017">
      <ele>2580.1</ele></trkpt>
      <trkpt lat="45.990967621402824" lon="7.7096218703827715">
      <ele>2579.6</ele></trkpt>
      <trkpt lat="45.99096166560303" lon="7.709390340166556">
      <ele>2579.1</ele></trkpt>
      <trkpt lat="45.99095844764448" lon="7.709202199268109">
      <ele>2578.6</ele></trkpt>
      <trkpt lat="45.990955706016635" lon="7.709089029391237">
      <ele>2578.1</ele></trkpt>
      <trkpt lat="45.99095550211564" lon="7.7090802912907925">
      <ele>2577.7</ele></trkpt>
      <trkpt lat="45.99093288451926" lon="7.70905536206385">
      <ele>2577.2</ele></trkpt>
      <trkpt lat="45.99090119882722" lon="7.7089932586749494">
      <ele>2576.7</ele></trkpt>
      <trkpt lat="45.99086885337042" lon="7.70893992789547">
      <ele>2576.2</ele></trkpt>
      <trkpt lat="45.99084868859245" lon="7.708901214817205">
      <ele>2575.7</ele></trkpt>
      <trkpt lat="45.9908099777219" lon="7.708838973685429">
      <ele>2575.2</ele></trkpt>
      <trkpt lat="45.9907700826418" lon="7.70877914013624">
      <ele>2574.7</ele></trkpt>
      <trkpt lat="45.9907402368785" lon="7.708707444442084">
      <ele>2574.5</ele></trkpt>
      <trkpt lat="45.990695257353714" lon="7.708625917578029">
      <ele>2574.3</ele></trkpt>
      <trkpt lat="45.99063426084968" lon="7.7084977100026055">
      <ele>2574.1</ele></trkpt>
      <trkpt lat="45.99057482193496" lon="7.708395153643114">
      <ele>2573.9</ele></trkpt>
      <trkpt lat="45.990551777818595" lon="7.708349186795118">
      <ele>2573.6</ele></trkpt>
      <trkpt lat="45.99050656003979" lon="7.70829567716595">
      <ele>2573.4</ele></trkpt>
      <trkpt lat="45.990467201893765" lon="7.708240647831925">
      <ele>2573.2</ele></trkpt>
      <trkpt lat="45.990430874906096" lon="7.7081744573616175">
      <ele>2573.0</ele></trkpt>
      <trkpt lat="45.99040764693776" lon="7.70808122998137">
      <ele>2572.8</ele></trkpt>
      <trkpt lat="45.99039145495764" lon="7.7079873146014855">
      <ele>2572.6</ele></trkpt>
      <trkpt lat="45.99034775778526" lon="7.7078921928071065">
      <ele>2572.4</ele></trkpt>
      <trkpt lat="45.99031679146776" lon="7.707814878769914">
      <ele>2572.2</ele></trkpt>
      <trkpt lat="45.99029322275534" lon="7.707762482892554">
      <ele>2572.0</ele></trkpt>
      <trkpt lat="45.99024749882808" lon="7.7076985697334095">
      <ele>2571.8</ele></trkpt>
      <trkpt lat="45.990201085745895" lon="7.70764824270528">
      <ele>2571.6</ele></trkpt>
      <trkpt lat="45.99015044648781" lon="7.707612271622837">
      <ele>2571.3</ele></trkpt>
      <trkpt lat="45.990108800555845" lon="7.707550805008667">
      <ele>2571.1</ele></trkpt>
      <trkpt lat="45.99005024681932" lon="7.707480286187277">
      <ele>2570.9</ele></trkpt>
      <trkpt lat="45.990002903970556" lon="7.707401124347762">
      <ele>2570.7</ele></trkpt>
      <trkpt lat="45.98995914602666" lon="7.707312417367902">
      <ele>2570.5</ele></trkpt>
      <trkpt lat="45.98993618549336" lon="7.707257624638244">
      <ele>2571.4</ele></trkpt>
      <trkpt lat="45.989908816741305" lon="7.707191698813022">
      <ele>2572.3</ele></trkpt>
      <trkpt lat="45.98988676524434" lon="7.70711026109765">
      <ele>2573.2</ele></trkpt>
      <trkpt lat="45.98987811119376" lon="7.70705384808917">
      <ele>2574.1</ele></trkpt>
      <trkpt lat="45.98988051784434" lon="7.707021609427678">
      <ele>2575.0</ele></trkpt>
      <trkpt lat="45.98988991788994" lon="7.70699903244424">
      <ele>2575.9</ele></trkpt>
      <trkpt lat="45.9899075433019" lon="7.706952311147363">
      <ele>2576.8</ele></trkpt>
      <trkpt lat="45.98991524742723" lon="7.706901527624448">
      <ele>2577.7</ele></trkpt>
      <trkpt lat="45.98992659144232" lon="7.70678788701763">
      <ele>2578.6</ele></trkpt>
      <trkpt lat="45.98992975781118" lon="7.706666979313845">
      <ele>2579.4</ele></trkpt>
      <trkpt lat="45.98992933850324" lon="7.706582356820003">
      <ele>2580.3</ele></trkpt>
      <trkpt lat="45.98993778422101" lon="7.706454196310073">
      <ele>2581.2</ele></trkpt>
      <trkpt lat="45.98994033676027" lon="7.706345390790777">
      <ele>2582.1</ele></trkpt>
      <trkpt lat="45.98993831306541" lon="7.706193871952231">
      <ele>2583.0</ele></trkpt>
      <trkpt lat="45.98993555981443" lon="7.706110838308969">
      <ele>2583.9</ele></trkpt>
      <trkpt lat="45.98992695428997" lon="7.706026201628861">
      <ele>2584.8</ele></trkpt>
      <trkpt lat="45.98992354732374" lon="7.7059721889680555">
      <ele>2585.7</ele></trkpt>
      <trkpt lat="45.98992890967272" lon="7.705926259178195">
      <ele>2586.6</ele></trkpt>
      <trkpt lat="45.98996647515992" lon="7.705857773176632">
      <ele>2587.5</ele></trkpt>
      <trkpt lat="45.98999406742212" lon="7.705795716897549">
      <ele>2588.4</ele></trkpt>
      <trkpt lat="45.99000820977437" lon="7.70574576468853">
      <ele>2589.1</ele></trkpt>
      <trkpt lat="45.9900123999514" lon="7.7056933763969555">
      <ele>2589.8</ele></trkpt>
      <trkpt lat="45.99001430615103" lon="7.705621644697694">
      <ele>2590.6</ele></trkpt>
      <trkpt lat="45.990024873960174" lon="7.705595846770573">
      <ele>2591.3</ele></trkpt>
      <trkpt lat="45.99005938525201" lon="7.7055862070102625">
      <ele>2592.0</ele></trkpt>
      <trkpt lat="45.990099141123025" lon="7.7055878463251">
      <ele>2592.8</ele></trkpt>
      <trkpt lat="45.99012597568765" lon="7.705617685454645">
      <ele>2593.5</ele></trkpt>
      <trkpt lat="45.99013883336028" lon="7.705620122770794">
      <ele>2594.2</ele></trkpt>
      <trkpt lat="45.99014879622257" lon="7.705610453597">
      <ele>2594.9</ele></trkpt>
      <trkpt lat="45.99015057955566" lon="7.7055943305324694">
      <ele>2595.7</ele></trkpt>
      <trkpt lat="45.990142431934935" lon="7.705578210651502">
      <ele>2596.4</ele></trkpt>
      <trkpt lat="45.990125516292814" lon="7.705557234296917">
      <ele>2597.1</ele></trkpt>
      <trkpt lat="45.990118588274996" lon="7.705516135515751">
      <ele>2597.8</ele></trkpt>
      <trkpt lat="45.99010693166579" lon="7.705492745711118">
      <ele>2598.6</ele></trkpt>
      <trkpt lat="45.99007891431457" lon="7.705468540544126">
      <ele>2599.3</ele></trkpt>
      <trkpt lat="45.99006611773019" lon="7.705440318593162">
      <ele>2600.0</ele></trkpt>
      <trkpt lat="45.99005388916546" lon="7.70541533867651">
      <ele>2600.7</ele></trkpt>
      <trkpt lat="45.990020643866075" lon="7.7053766153500725">
      <ele>2601.5</ele></trkpt>
      <trkpt lat="45.99000492486217" lon="7.705340326254425">
      <ele>2602.2</ele></trkpt>
      <trkpt lat="45.98999212496514" lon="7.7053096910507985">
      <ele>2602.9</ele></trkpt>
      <trkpt lat="45.98996589982625" lon="7.705269375956592">
      <ele>2603.8</ele></trkpt>
      <trkpt lat="45.989933253626084" lon="7.705216950207791">
      <ele>2604.7</ele></trkpt>
      <trkpt lat="45.989905845684405" lon="7.70518228198587">
      <ele>2605.6</ele></trkpt>
      <trkpt lat="45.989890089296466" lon="7.70516936442784">
      <ele>2606.5</ele></trkpt>
      <trkpt lat="45.989877253100836" lon="7.705154047797844">
      <ele>2607.3</ele></trkpt>
      <trkpt lat="45.98986681865613" lon="7.705112132051243">
      <ele>2608.2</ele></trkpt>
      <trkpt lat="45.98984114246117" lon="7.705083099081768">
      <ele>2609.1</ele></trkpt>
      <trkpt lat="45.98980967021569" lon="7.705036318907314">
      <ele>2610.0</ele></trkpt>
      <trkpt lat="45.989781727620766" lon="7.704976663545905">
      <ele>2610.9</ele></trkpt>
      <trkpt lat="45.989765982654404" lon="7.704958906637121">
      <ele>2611.8</ele></trkpt>
      <trkpt lat="45.98974730759998" lon="7.704936321798972">
      <ele>2612.7</ele></trkpt>
      <trkpt lat="45.98973740387642" lon="7.7049210066259155">
      <ele>2613.6</ele></trkpt>
      <trkpt lat="45.98974094311962" lon="7.704904079168334">
      <ele>2614.5</ele></trkpt>
      <trkpt lat="45.98975732808151" lon="7.704898454731183">
      <ele>2615.4</ele></trkpt>
      <trkpt lat="45.98977951242849" lon="7.704912977902176">
      <ele>2616.2</ele></trkpt>
      <trkpt lat="45.98981518111472" lon="7.704912196442745">
      <ele>2617.1</ele></trkpt>
      <trkpt lat="45.989828646383096" lon="7.704904957534345">
      <ele>2618.0</ele></trkpt>
      <trkpt lat="45.98983160663401" lon="7.704885613933186">
      <ele>2618.9</ele></trkpt>
      <trkpt lat="45.98982520595612" lon="7.70486867680863">
      <ele>2619.8</ele></trkpt>
      <trkpt lat="45.98979369688992" lon="7.704841241676584">
      <ele>2620.7</ele></trkpt>
      <trkpt lat="45.98976335632958" lon="7.704806572375014">
      <ele>2621.7</ele></trkpt>
      <trkpt lat="45.989754030210094" lon="7.704790446994902">
      <ele>2622.8</ele></trkpt>
      <trkpt lat="45.98975524153772" lon="7.70477270807435">
      <ele>2623.8</ele></trkpt>
      <trkpt lat="45.98977162512213" lon="7.704763857259421">
      <ele>2624.8</ele></trkpt>
      <trkpt lat="45.98980844413737" lon="7.704771147127499">
      <ele>2625.8</ele></trkpt>
      <trkpt lat="45.9898440799124" lon="7.704788097349815">
      <ele>2626.8</ele></trkpt>
      <trkpt lat="45.98989254101107" lon="7.70482117712704">
      <ele>2627.9</ele></trkpt>
      <trkpt lat="45.989917598256724" lon="7.704864725515007">
      <ele>2628.9</ele></trkpt>
      <trkpt lat="45.989944421600626" lon="7.70489939074091">
      <ele>2629.9</ele></trkpt>
      <trkpt lat="45.98998415270402" lon="7.704911508594269">
      <ele>2630.9</ele></trkpt>
      <trkpt lat="45.99001041605741" lon="7.704935717804744">
      <ele>2632.0</ele></trkpt>
      <trkpt lat="45.99004432166291" lon="7.7049349277784165">
      <ele>2633.0</ele></trkpt>
      <trkpt lat="45.99008998227155" lon="7.70490835834309">
      <ele>2634.0</ele></trkpt>
      <trkpt lat="45.9901075643725" lon="7.704883394500371">
      <ele>2635.0</ele></trkpt>
      <trkpt lat="45.99011697865961" lon="7.704858416722319">
      <ele>2636.1</ele></trkpt>
      <trkpt lat="45.990112401190224" lon="7.704808437647411">
      <ele>2637.1</ele></trkpt>
      <trkpt lat="45.99009555018339" lon="7.70476005079298">
      <ele>2638.1</ele></trkpt>
      <trkpt lat="45.99007223036506" lon="7.704719737106223">
      <ele>2639.1</ele></trkpt>
      <trkpt lat="45.99002845064149" lon="7.704685053988751">
      <ele>2640.2</ele></trkpt>
      <trkpt lat="45.98999929174377" lon="7.7046527907682965">
      <ele>2641.2</ele></trkpt>
      <trkpt lat="45.989975980368165" lon="7.704616503714535">
      <ele>2641.3</ele></trkpt>
      <trkpt lat="45.98995906122081" lon="7.704593127306836">
      <ele>2641.4</ele></trkpt>
      <trkpt lat="45.98992928197131" lon="7.704572140445241">
      <ele>2641.6</ele></trkpt>
      <trkpt lat="45.98989653628211" lon="7.704576949894677">
      <ele>2641.7</ele></trkpt>
      <trkpt lat="45.98988429235039" lon="7.704558397037605">
      <ele>2641.8</ele></trkpt>
      <trkpt lat="45.98987970662004" lon="7.7045156709654306">
      <ele>2641.9</ele></trkpt>
      <trkpt lat="45.98987042141897" lon="7.704474573958496">
      <ele>2642.0</ele></trkpt>
      <trkpt lat="45.98984483586727" lon="7.704410877988845">
      <ele>2642.2</ele></trkpt>
      <trkpt lat="45.98983329608787" lon="7.704330253942408">
      <ele>2642.3</ele></trkpt>
      <trkpt lat="45.98982701558998" lon="7.7042585214182715">
      <ele>2642.4</ele></trkpt>
      <trkpt lat="45.989802046539545" lon="7.704169843877087">
      <ele>2642.5</ele></trkpt>
      <trkpt lat="45.989765415690584" lon="7.704067456029746">
      <ele>2642.6</ele></trkpt>
      <trkpt lat="45.989728842247175" lon="7.703936844683914">
      <ele>2642.8</ele></trkpt>
      <trkpt lat="45.98970975171895" lon="7.7038385040505695">
      <ele>2642.9</ele></trkpt>
      <trkpt lat="45.98970461422826" lon="7.703774030064507">
      <ele>2643.0</ele></trkpt>
      <trkpt lat="45.98968020386475" lon="7.703703887659305">
      <ele>2643.1</ele></trkpt>
      <trkpt lat="45.98966742861749" lon="7.703647300591347">
      <ele>2643.2</ele></trkpt>
      <trkpt lat="45.98963129092859" lon="7.703564505960936">
      <ele>2643.4</ele></trkpt>
      <trkpt lat="45.98959830369339" lon="7.703522881621756">
      <ele>2643.5</ele></trkpt>
      <trkpt lat="45.98956995620523" lon="7.703482054100977">
      <ele>2643.6</ele></trkpt>
      <trkpt lat="45.98954453150336" lon="7.703430051897478">
      <ele>2643.8</ele></trkpt>
      <trkpt lat="45.989495347870985" lon="7.703363597079066">
      <ele>2644.0</ele></trkpt>
      <trkpt lat="45.98946350180453" lon="7.7033339545533615">
      <ele>2644.2</ele></trkpt>
      <trkpt lat="45.989431087898076" lon="7.703297134002838">
      <ele>2644.4</ele></trkpt>
      <trkpt lat="45.98937960444911" lon="7.703217879242934">
      <ele>2644.6</ele></trkpt>
      <trkpt lat="45.98934312046024" lon="7.70318664001017">
      <ele>2644.7</ele></trkpt>
      <trkpt lat="45.98930897087219" lon="7.703145784813769">
      <ele>2644.9</ele></trkpt>
      <trkpt lat="45.989267862931364" lon="7.7030993468083215">
      <ele>2645.1</ele></trkpt>
      <trkpt lat="45.98923718886316" lon="7.703060908879978">
      <ele>2645.3</ele></trkpt>
      <trkpt lat="45.989210042868336" lon="7.703002510806812">
      <ele>2645.5</ele></trkpt>
      <trkpt lat="45.98917991553558" lon="7.7029840657388196">
      <ele>2645.7</ele></trkpt>
      <trkpt lat="45.98916663806618" lon="7.7029496738379555">
      <ele>2645.9</ele></trkpt>
      <trkpt lat="45.98921329987281" lon="7.702825906129334">
      <ele>2646.1</ele></trkpt>
      <trkpt lat="45.98915802262566" lon="7.702718694117879">
      <ele>2646.3</ele></trkpt>
      <trkpt lat="45.98909514834779" lon="7.702578989203786">
      <ele>2646.4</ele></trkpt>
      <trkpt lat="45.989133678498405" lon="7.702501034213414">
      <ele>2646.6</ele></trkpt>
      <trkpt lat="45.98916419809422" lon="7.702471112288594">
      <ele>2646.8</ele></trkpt>
      <trkpt lat="45.98920233504268" lon="7.7023996981584775">
      <ele>2647.0</ele></trkpt>
      <trkpt lat="45.98921658174388" lon="7.702362161095745">
      <ele>2647.2</ele></trkpt>
      <trkpt lat="45.98923169336161" lon="7.702316355952137">
      <ele>2647.4</ele></trkpt>
      <trkpt lat="45.989240996503696" lon="7.702231020003781">
      <ele>2648.3</ele></trkpt>
      <trkpt lat="45.98924165720569" lon="7.702190862219557">
      <ele>2649.1</ele></trkpt>
      <trkpt lat="45.9892388257779" lon="7.702151513553405">
      <ele>2650.0</ele></trkpt>
      <trkpt lat="45.989229625449155" lon="7.702096841579264">
      <ele>2650.8</ele></trkpt>
      <trkpt lat="45.98922625107022" lon="7.702035783782193">
      <ele>2651.7</ele></trkpt>
      <trkpt lat="45.98919840976803" lon="7.701989836389078">
      <ele>2652.6</ele></trkpt>
      <trkpt lat="45.989195560592925" lon="7.7019657416066">
      <ele>2653.4</ele></trkpt>
      <trkpt lat="45.98916134277629" lon="7.701907710167025">
      <ele>2654.3</ele></trkpt>
      <trkpt lat="45.98912773589718" lon="7.701838441337147">
      <ele>2655.1</ele></trkpt>
      <trkpt lat="45.989108583527" lon="7.701815829724525">
      <ele>2656.0</ele></trkpt>
      <trkpt lat="45.989084186499404" lon="7.701797206414721">
      <ele>2656.9</ele></trkpt>
      <trkpt lat="45.98906795643435" lon="7.701767407808614">
      <ele>2657.7</ele></trkpt>
      <trkpt lat="45.989052920555025" lon="7.70172314828751">
      <ele>2658.6</ele></trkpt>
      <trkpt lat="45.989054726459685" lon="7.7016894229048525">
      <ele>2659.4</ele></trkpt>
      <trkpt lat="45.98906638736719" lon="7.7016766512274994">
      <ele>2660.3</ele></trkpt>
      <trkpt lat="45.98909717070934" lon="7.70169931867709">
      <ele>2661.2</ele></trkpt>
      <trkpt lat="45.9891349208564" lon="7.701731672707079">
      <ele>2662.0</ele></trkpt>
      <trkpt lat="45.989186629443395" lon="7.7017689204263275">
      <ele>2662.9</ele></trkpt>
      <trkpt lat="45.98921626172015" lon="7.7017875818347665">
      <ele>2663.7</ele></trkpt>
      <trkpt lat="45.989215173785404" lon="7.701745015292791">
      <ele>2664.6</ele></trkpt>
      <trkpt lat="45.989220516757" lon="7.701691239242469">
      <ele>2665.4</ele></trkpt>
      <trkpt lat="45.989211870851214" lon="7.701649436501141">
      <ele>2666.2</ele></trkpt>
      <trkpt lat="45.98923803927883" lon="7.701656814972591">
      <ele>2667.0</ele></trkpt>
      <trkpt lat="45.989265338049535" lon="7.701677065367842">
      <ele>2667.8</ele></trkpt>
      <trkpt lat="45.98928504514746" lon="7.701712520341606">
      <ele>2668.6</ele></trkpt>
      <trkpt lat="45.989307128935415" lon="7.70172790625971">
      <ele>2669.4</ele></trkpt>
      <trkpt lat="45.98937279857857" lon="7.701761233497641">
      <ele>2670.2</ele></trkpt>
      <trkpt lat="45.98940072894678" lon="7.701761406490448">
      <ele>2671.0</ele></trkpt>
      <trkpt lat="45.98950137804027" lon="7.70175397944717">
      <ele>2671.8</ele></trkpt>
      <trkpt lat="45.9895153176747" lon="7.701766925909853">
      <ele>2672.6</ele></trkpt>
      <trkpt lat="45.98952866928592" lon="7.701777443362589">
      <ele>2673.5</ele></trkpt>
      <trkpt lat="45.989547289531735" lon="7.701777558696995">
      <ele>2674.3</ele></trkpt>
      <trkpt lat="45.989569432628386" lon="7.701756010112195">
      <ele>2675.1</ele></trkpt>
      <trkpt lat="45.98959794994443" lon="7.701751372255823">
      <ele>2675.9</ele></trkpt>
      <trkpt lat="45.98964045463526" lon="7.70173154758536">
      <ele>2676.7</ele></trkpt>
      <trkpt lat="45.989667223120534" lon="7.701728501560282">
      <ele>2677.5</ele></trkpt>
      <trkpt lat="45.98972427545501" lon="7.701703945997573">
      <ele>2678.3</ele></trkpt>
      <trkpt lat="45.98977434662909" lon="7.701687396845914">
      <ele>2679.1</ele></trkpt>
      <trkpt lat="45.989817960654285" lon="7.701693284811579">
      <ele>2679.9</ele></trkpt>
      <trkpt lat="45.989891288430634" lon="7.701675260037015">
      <ele>2680.7</ele></trkpt>
      <trkpt lat="45.98995065325469" lon="7.701661968906698">
      <ele>2681.4</ele></trkpt>
      <trkpt lat="45.9900059394614" lon="7.701650258413996">
      <ele>2682.0</ele></trkpt>
      <trkpt lat="45.9900344755215" lon="7.701637593408413">
      <ele>2682.7</ele></trkpt>
      <trkpt lat="45.99004322424791" lon="7.701619967979239">
      <ele>2683.4</ele></trkpt>
      <trkpt lat="45.990039197752075" lon="7.701603081296726">
      <ele>2684.1</ele></trkpt>
      <trkpt lat="45.99001712708287" lon="7.701582068541656">
      <ele>2684.8</ele></trkpt>
      <trkpt lat="45.989982887679474" lon="7.70154090368549">
      <ele>2685.4</ele></trkpt>
      <trkpt lat="45.98995502556826" lon="7.701503783077773">
      <ele>2686.1</ele></trkpt>
      <trkpt lat="45.98993649376809" lon="7.7014619194263725">
      <ele>2686.8</ele></trkpt>
      <trkpt lat="45.98990978715085" lon="7.701438458300885">
      <ele>2687.4</ele></trkpt>
      <trkpt lat="45.98988828428296" lon="7.701424675382524">
      <ele>2688.1</ele></trkpt>
      <trkpt lat="45.9898470775539" lon="7.701377863452221">
      <ele>2688.8</ele></trkpt>
      <trkpt lat="45.98981865804702" lon="7.701336726786666">
      <ele>2689.5</ele></trkpt>
      <trkpt lat="45.98978380051267" lon="7.701305999672837">
      <ele>2690.1</ele></trkpt>
      <trkpt lat="45.989754735963764" lon="7.701294580938259">
      <ele>2690.8</ele></trkpt>
      <trkpt lat="45.989712893620464" lon="7.701273434823141">
      <ele>2691.5</ele></trkpt>
      <trkpt lat="45.98968907406733" lon="7.701254014192145">
      <ele>2692.2</ele></trkpt>
      <trkpt lat="45.98966933985708" lon="7.70123783950315">
      <ele>2692.8</ele></trkpt>
      <trkpt lat="45.98966646133654" lon="7.701218545181977">
      <ele>2693.5</ele></trkpt>
      <trkpt lat="45.989680442590796" lon="7.7012098108464535">
      <ele>2694.2</ele></trkpt>
      <trkpt lat="45.989726976750156" lon="7.701213299138301">
      <ele>2695.4</ele></trkpt>
      <trkpt lat="45.98975025167002" lon="7.7012078228007095">
      <ele>2696.7</ele></trkpt>
      <trkpt lat="45.98979508791875" lon="7.7011872087080695">
      <ele>2697.9</ele></trkpt>
      <trkpt lat="45.98983760746355" lon="7.701160969648419">
      <ele>2699.2</ele></trkpt>
      <trkpt lat="45.98987602219188" lon="7.701147551677772">
      <ele>2700.4</ele></trkpt>
      <trkpt lat="45.98991096511616" lon="7.701130090567135">
      <ele>2701.7</ele></trkpt>
      <trkpt lat="45.98994010304641" lon="7.701106174726074">
      <ele>2702.9</ele></trkpt>
      <trkpt lat="45.98998784506333" lon="7.701081586653367">
      <ele>2704.2</ele></trkpt>
      <trkpt lat="45.990013496559335" lon="7.701056040864267">
      <ele>2705.4</ele></trkpt>
      <trkpt lat="45.990042032939385" lon="7.701039349069524">
      <ele>2706.7</ele></trkpt>
      <trkpt lat="45.99007929137288" lon="7.701020298669197">
      <ele>2707.9</ele></trkpt>
      <trkpt lat="45.990100880729734" lon="7.700993120161783">
      <ele>2709.2</ele></trkpt>
      <trkpt lat="45.99009567424365" lon="7.7009730144085">
      <ele>2710.4</ele></trkpt>
      <trkpt lat="45.99006893382557" lon="7.700964020233158">
      <ele>2711.7</ele></trkpt>
      <trkpt lat="45.990019492688646" lon="7.70095729185387">
      <ele>2712.9</ele></trkpt>
      <trkpt lat="45.98995144553701" lon="7.700952061671237">
      <ele>2714.2</ele></trkpt>
      <trkpt lat="45.98988397784353" lon="7.700945221110639">
      <ele>2715.4</ele></trkpt>
      <trkpt lat="45.98982347327015" lon="7.700949680292398">
      <ele>2716.7</ele></trkpt>
      <trkpt lat="45.98980428891797" lon="7.700940722386559">
      <ele>2717.9</ele></trkpt>
      <trkpt lat="45.989792094249566" lon="7.700927797334277">
      <ele>2719.2</ele></trkpt>
      <trkpt lat="45.989798546005446" lon="7.700903746916192">
      <ele>2720.1</ele></trkpt>
      <trkpt lat="45.989822479244125" lon="7.700858925239931">
      <ele>2721.0</ele></trkpt>
      <trkpt lat="45.98985223057288" lon="7.700814931525916">
      <ele>2721.9</ele></trkpt>
      <trkpt lat="45.989891252049716" lon="7.700795889483974">
      <ele>2722.8</ele></trkpt>
      <trkpt lat="45.98996697710369" lon="7.700744953379287">
      <ele>2723.6</ele></trkpt>
      <trkpt lat="45.98998620700773" lon="7.7007266166045065">
      <ele>2724.5</ele></trkpt>
      <trkpt lat="45.98999963605256" lon="7.700696172611172">
      <ele>2725.4</ele></trkpt>
      <trkpt lat="45.990001508565065" lon="7.70063755246657">
      <ele>2726.3</ele></trkpt>
      <trkpt lat="45.990000419824696" lon="7.700599011811139">
      <ele>2727.2</ele></trkpt>
      <trkpt lat="45.990019099028196" lon="7.700562178932594">
      <ele>2728.1</ele></trkpt>
      <trkpt lat="45.990021515728785" lon="7.700513214589291">
      <ele>2729.0</ele></trkpt>
      <trkpt lat="45.99001522161573" lon="7.7004617694536925">
      <ele>2729.9</ele></trkpt>
      <trkpt lat="45.98999081872075" lon="7.700445572621439">
      <ele>2730.8</ele></trkpt>
      <trkpt lat="45.98996990570201" lon="7.700433393160062">
      <ele>2731.7</ele></trkpt>
      <trkpt lat="45.98993562142693" lon="7.700407482977847">
      <ele>2732.6</ele></trkpt>
      <trkpt lat="45.98990655303672" lon="7.700397677839591">
      <ele>2733.4</ele></trkpt>
      <trkpt lat="45.98987281882464" lon="7.700398277914279">
      <ele>2734.3</ele></trkpt>
      <trkpt lat="45.98983381577012" lon="7.7004132938570615">
      <ele>2735.2</ele></trkpt>
      <trkpt lat="45.98978200121628" lon="7.700433049277432">
      <ele>2736.1</ele></trkpt>
      <trkpt lat="45.98974764312633" lon="7.700450500683825">
      <ele>2737.0</ele></trkpt>
      <trkpt lat="45.9897074852203" lon="7.700463123549205">
      <ele>2738.0</ele></trkpt>
      <trkpt lat="45.9896603644819" lon="7.7004604332186695">
      <ele>2739.0</ele></trkpt>
      <trkpt lat="45.98962896823034" lon="7.700449791027683">
      <ele>2740.0</ele></trkpt>
      <trkpt lat="45.989579577437084" lon="7.700421395453789">
      <ele>2741.0</ele></trkpt>
      <trkpt lat="45.98953195638822" lon="7.700378528690757">
      <ele>2742.0</ele></trkpt>
      <trkpt lat="45.98949595685204" lon="7.70033976982077">
      <ele>2743.0</ele></trkpt>
      <trkpt lat="45.98946697652946" lon="7.700288190933908">
      <ele>2744.0</ele></trkpt>
      <trkpt lat="45.98945484738425" lon="7.7002431581729365">
      <ele>2745.0</ele></trkpt>
      <trkpt lat="45.989456693880626" lon="7.700191765410007">
      <ele>2746.0</ele></trkpt>
      <trkpt lat="45.98949002528572" lon="7.700101213678767">
      <ele>2747.1</ele></trkpt>
      <trkpt lat="45.98952216789546" lon="7.7000267361141255">
      <ele>2748.1</ele></trkpt>
      <trkpt lat="45.98953738467016" lon="7.699977846218279">
      <ele>2749.1</ele></trkpt>
      <trkpt lat="45.989568901256334" lon="7.699925020573127">
      <ele>2750.1</ele></trkpt>
      <trkpt lat="45.98958238220572" lon="7.699872108781897">
      <ele>2751.1</ele></trkpt>
      <trkpt lat="45.98960290716878" lon="7.699787896562599">
      <ele>2752.1</ele></trkpt>
      <trkpt lat="45.98961298043586" lon="7.699691593798619">
      <ele>2753.1</ele></trkpt>
      <trkpt lat="45.98961378689755" lon="7.69956873936766">
      <ele>2754.1</ele></trkpt>
      <trkpt lat="45.98960985774865" lon="7.699498051320489">
      <ele>2755.1</ele></trkpt>
      <trkpt lat="45.98960943580318" lon="7.6994161265910135">
      <ele>2756.1</ele></trkpt>
      <trkpt lat="45.98960213351511" lon="7.699333678689764">
      <ele>2757.1</ele></trkpt>
      <trkpt lat="45.98960146731766" lon="7.699326138834049">
      <ele>2757.3</ele></trkpt>
      <trkpt lat="45.98959056385003" lon="7.699244964337357">
      <ele>2757.4</ele></trkpt>
      <trkpt lat="45.98958022245679" lon="7.699177433422444">
      <ele>2757.6</ele></trkpt>
      <trkpt lat="45.98955821849538" lon="7.699123500802917">
      <ele>2757.7</ele></trkpt>
      <trkpt lat="45.989537944450404" lon="7.699080016816349">
      <ele>2757.9</ele></trkpt>
      <trkpt lat="45.989538145778255" lon="7.699031855332349">
      <ele>2758.0</ele></trkpt>
      <trkpt lat="45.989553494364294" lon="7.698968563496911">
      <ele>2758.2</ele></trkpt>
      <trkpt lat="45.989565526224744" lon="7.698888569340214">
      <ele>2758.3</ele></trkpt>
      <trkpt lat="45.989578415416055" lon="7.698807353223168">
      <ele>2758.5</ele></trkpt>
      <trkpt lat="45.989582757798" lon="7.698765560778966">
      <ele>2758.6</ele></trkpt>
      <trkpt lat="45.98960731559518" lon="7.6987225867709475">
      <ele>2758.8</ele></trkpt>
      <trkpt lat="45.989628570478686" lon="7.6986569224469115">
      <ele>2759.0</ele></trkpt>
      <trkpt lat="45.98963292460066" lon="7.698613916911676">
      <ele>2759.1</ele></trkpt>
      <trkpt lat="45.98962982202947" lon="7.698520016229422">
      <ele>2759.3</ele></trkpt>
      <trkpt lat="45.98962550196612" lon="7.698446926001275">
      <ele>2759.4</ele></trkpt>
      <trkpt lat="45.989631310934605" lon="7.698369831594767">
      <ele>2759.6</ele></trkpt>
      <trkpt lat="45.989631398941846" lon="7.698331671085317">
      <ele>2759.7</ele></trkpt>
      <trkpt lat="45.98961913456025" lon="7.698286431499988">
      <ele>2759.9</ele></trkpt>
      <trkpt lat="45.989623730900135" lon="7.698251454178166">
      <ele>2760.0</ele></trkpt>
      <trkpt lat="45.98963843998993" lon="7.698215647253993">
      <ele>2760.2</ele></trkpt>
      <trkpt lat="45.98965091121371" lon="7.698175067646655">
      <ele>2760.8</ele></trkpt>
      <trkpt lat="45.9896515400313" lon="7.698152021781606">
      <ele>2761.3</ele></trkpt>
      <trkpt lat="45.98964939551896" lon="7.698106739859573">
      <ele>2761.9</ele></trkpt>
      <trkpt lat="45.98963823355098" lon="7.698071016731551">
      <ele>2762.5</ele></trkpt>
      <trkpt lat="45.98961582902873" lon="7.698034543448772">
      <ele>2763.1</ele></trkpt>
      <trkpt lat="45.98961591142382" lon="7.697998770400474">
      <ele>2763.6</ele></trkpt>
      <trkpt lat="45.989610408038885" lon="7.697951110933668">
      <ele>2764.2</ele></trkpt>
      <trkpt lat="45.98960039242323" lon="7.697905843388502">
      <ele>2764.8</ele></trkpt>
      <trkpt lat="45.98959560382892" lon="7.697793828718389">
      <ele>2765.4</ele></trkpt>
      <trkpt lat="45.98958722095194" lon="7.697770004604588">
      <ele>2765.9</ele></trkpt>
      <trkpt lat="45.989568180491105" lon="7.697737496417353">
      <ele>2766.5</ele></trkpt>
      <trkpt lat="45.98955367250364" lon="7.6976898718299775">
      <ele>2767.1</ele></trkpt>
      <trkpt lat="45.989544243611746" lon="7.697635857387687">
      <ele>2767.7</ele></trkpt>
      <trkpt lat="45.98952575720146" lon="7.697604926336043">
      <ele>2768.2</ele></trkpt>
      <trkpt lat="45.9895095487259" lon="7.697565256319093">
      <ele>2768.8</ele></trkpt>
      <trkpt lat="45.989497300531305" lon="7.6975128417635785">
      <ele>2769.4</ele></trkpt>
      <trkpt lat="45.989472668889306" lon="7.697466834199105">
      <ele>2770.0</ele></trkpt>
      <trkpt lat="45.989455376242105" lon="7.697405710621807">
      <ele>2770.5</ele></trkpt>
      <trkpt lat="45.98944816503122" lon="7.697365205691229">
      <ele>2771.1</ele></trkpt>
      <trkpt lat="45.98942855958684" lon="7.697331894932867">
      <ele>2771.7</ele></trkpt>
      <trkpt lat="45.98940503967451" lon="7.697287467199936">
      <ele>2772.5</ele></trkpt>
      <trkpt lat="45.98940006264011" lon="7.697253335157293">
      <ele>2773.2</ele></trkpt>
      <trkpt lat="45.989396780478636" lon="7.697217572164323">
      <ele>2774.0</ele></trkpt>
      <trkpt lat="45.98937831217534" lon="7.697178704710306">
      <ele>2774.8</ele></trkpt>
      <trkpt lat="45.98936660497139" lon="7.697137417223948">
      <ele>2775.5</ele></trkpt>
      <trkpt lat="45.98935997874084" lon="7.697084990733909">
      <ele>2776.3</ele></trkpt>
      <trkpt lat="45.98934994634237" lon="7.697046885872514">
      <ele>2777.1</ele></trkpt>
      <trkpt lat="45.98932082223978" lon="7.696998508687094">
      <ele>2777.8</ele></trkpt>
      <trkpt lat="45.989296771930476" lon="7.69693819237456">
      <ele>2778.6</ele></trkpt>
      <trkpt lat="45.98927326082896" lon="7.696893777865278">
      <ele>2779.3</ele></trkpt>
      <trkpt lat="45.98924250915658" lon="7.696821570165952">
      <ele>2780.1</ele></trkpt>
      <trkpt lat="45.98920557607599" lon="7.696738247843915">
      <ele>2780.9</ele></trkpt>
      <trkpt lat="45.989179814232756" lon="7.6966946230036895">
      <ele>2781.6</ele></trkpt>
      <trkpt lat="45.98915242119084" lon="7.696628754905346">
      <ele>2782.4</ele></trkpt>
      <trkpt lat="45.98911765842056" lon="7.696583590739318">
      <ele>2783.2</ele></trkpt>
      <trkpt lat="45.9890778257413" lon="7.696540816004456">
      <ele>2783.9</ele></trkpt>
      <trkpt lat="45.989035713353644" lon="7.6965075803974905">
      <ele>2784.7</ele></trkpt>
      <trkpt lat="45.989007084993816" lon="7.6964822417820375">
      <ele>2785.5</ele></trkpt>
      <trkpt lat="45.988972897895366" lon="7.696437067635695">
      <ele>2786.2</ele></trkpt>
      <trkpt lat="45.9889532959136" lon="7.6963981954081895">
      <ele>2787.0</ele></trkpt>
      <trkpt lat="45.988934856478075" lon="7.696346591329826">
      <ele>2788.9</ele></trkpt>
      <trkpt lat="45.988896211586166" lon="7.696283948632636">
      <ele>2790.8</ele></trkpt>
      <trkpt lat="45.98885876032899" lon="7.696218562854971">
      <ele>2792.7</ele></trkpt>
      <trkpt lat="45.988827571942664" lon="7.696164059818328">
      <ele>2794.6</ele></trkpt>
      <trkpt lat="45.988688387511694" lon="7.695864226888036">
      <ele>2796.6</ele></trkpt>
      <trkpt lat="45.988652283846015" lon="7.695823122382785">
      <ele>2798.5</ele></trkpt>
      <trkpt lat="45.98859175643825" lon="7.695664325378942">
      <ele>2800.4</ele></trkpt>
      <trkpt lat="45.98856902814397" lon="7.69552103730469">
      <ele>2802.3</ele></trkpt>
      <trkpt lat="45.98852799172226" lon="7.695477367678436">
      <ele>2804.2</ele></trkpt>
      <trkpt lat="45.988505999998345" lon="7.695302866066082">
      <ele>2806.1</ele></trkpt>
      <trkpt lat="45.98845625983634" lon="7.695269324989864">
      <ele>2808.0</ele></trkpt>
      <trkpt lat="45.98839806844304" lon="7.695158804788542">
      <ele>2809.9</ele></trkpt>
      <trkpt lat="45.98833641196925" lon="7.6950688004091505">
      <ele>2811.8</ele></trkpt>
      <trkpt lat="45.98833846140556" lon="7.694899548316534">
      <ele>2813.7</ele></trkpt>
      <trkpt lat="45.98835586595521" lon="7.694781626648437">
      <ele>2815.6</ele></trkpt>
      <trkpt lat="45.98830802936847" lon="7.69465063670567">
      <ele>2817.6</ele></trkpt>
      <trkpt lat="45.988261962647314" lon="7.694488889842361">
      <ele>2819.5</ele></trkpt>
      <trkpt lat="45.98823833862263" lon="7.694275912188118">
      <ele>2821.4</ele></trkpt>
      <trkpt lat="45.988233398598794" lon="7.69416561629058">
      <ele>2823.3</ele></trkpt>
      <trkpt lat="45.98824397646328" lon="7.694027156787554">
      <ele>2825.2</ele></trkpt>
      <trkpt lat="45.98819447263535" lon="7.693865394614292">
      <ele>2826.9</ele></trkpt>
      <trkpt lat="45.98818109478732" lon="7.693675552175301">
      <ele>2828.5</ele></trkpt>
      <trkpt lat="45.98817981882038" lon="7.693452419814668">
      <ele>2830.2</ele></trkpt>
      <trkpt lat="45.98815624701327" lon="7.693203541651125">
      <ele>2831.8</ele></trkpt>
      <trkpt lat="45.98811002038971" lon="7.6931315494626595">
      <ele>2833.5</ele></trkpt>
      <trkpt lat="45.98810865067649" lon="7.692949454628837">
      <ele>2835.2</ele></trkpt>
      <trkpt lat="45.9881190829479" lon="7.69288279754189">
      <ele>2836.8</ele></trkpt>
      <trkpt lat="45.988167284555054" lon="7.692829143338195">
      <ele>2838.5</ele></trkpt>
      <trkpt lat="45.98819614356866" lon="7.693003661870632">
      <ele>2840.1</ele></trkpt>
      <trkpt lat="45.98824055169166" lon="7.693132053165267">
      <ele>2841.8</ele></trkpt>
      <trkpt lat="45.98826801822878" lon="7.693142427417832">
      <ele>2843.5</ele></trkpt>
      <trkpt lat="45.988293933525306" lon="7.693063027518071">
      <ele>2845.1</ele></trkpt>
      <trkpt lat="45.988268352463905" lon="7.692970599419406">
      <ele>2846.8</ele></trkpt>
      <trkpt lat="45.988290589576664" lon="7.692986330665647">
      <ele>2848.4</ele></trkpt>
      <trkpt lat="45.98835030774051" lon="7.693222253121196">
      <ele>2850.1</ele></trkpt>
      <trkpt lat="45.98832263360045" lon="7.693319608567434">
      <ele>2851.8</ele></trkpt>
      <trkpt lat="45.98833283842129" lon="7.693373508518119">
      <ele>2853.4</ele></trkpt>
      <trkpt lat="45.98836367473277" lon="7.693417232165917">
      <ele>2855.1</ele></trkpt>
      <trkpt lat="45.988387534692635" lon="7.693514788806858">
      <ele>2856.7</ele></trkpt>
      <trkpt lat="45.98838743920097" lon="7.69356094950817">
      <ele>2858.4</ele></trkpt>
      <trkpt lat="45.98839064162595" lon="7.693684078027336">
      <ele>2859.7</ele></trkpt>
      <trkpt lat="45.98833896270355" lon="7.693755679220406">
      <ele>2861.0</ele></trkpt>
      <trkpt lat="45.98836468257977" lon="7.693786564587274">
      <ele>2862.3</ele></trkpt>
      <trkpt lat="45.988431768490905" lon="7.69372783695292">
      <ele>2863.6</ele></trkpt>
      <trkpt lat="45.98846620880732" lon="7.693689501830788">
      <ele>2864.9</ele></trkpt>
      <trkpt lat="45.98847319367564" lon="7.693627964580587">
      <ele>2866.3</ele></trkpt>
      <trkpt lat="45.988469933674914" lon="7.693538195058191">
      <ele>2867.6</ele></trkpt>
      <trkpt lat="45.98853032371741" lon="7.693397372790465">
      <ele>2868.9</ele></trkpt>
      <trkpt lat="45.9885536641744" lon="7.693342867353241">
      <ele>2870.2</ele></trkpt>
      <trkpt lat="45.98856048444691" lon="7.693222753265524">
      <ele>2871.5</ele></trkpt>
      <trkpt lat="45.98858554621227" lon="7.693023487040012">
      <ele>2872.8</ele></trkpt>
      <trkpt lat="45.98866836159411" lon="7.692735018107253">
      <ele>2874.1</ele></trkpt>
      <trkpt lat="45.988714740938576" lon="7.692563983203677">
      <ele>2875.4</ele></trkpt>
      <trkpt lat="45.98865544225504" lon="7.69261225689522">
      <ele>2876.7</ele></trkpt>
      <trkpt lat="45.98856315290574" lon="7.692706370893079">
      <ele>2878.1</ele></trkpt>
      <trkpt lat="45.98854285928606" lon="7.692718317077887">
      <ele>2879.4</ele></trkpt>
      <trkpt lat="45.988523233535595" lon="7.692765161530376">
      <ele>2880.7</ele></trkpt>
      <trkpt lat="45.98848404117721" lon="7.692828639977582">
      <ele>2882.0</ele></trkpt>
      <trkpt lat="45.98846452615205" lon="7.692818444724158">
      <ele>2883.3</ele></trkpt>
      <trkpt lat="45.98846989528957" lon="7.69269935643376">
      <ele>2884.6</ele></trkpt>
      <trkpt lat="45.98847452579209" lon="7.692441006740062">
      <ele>2886.1</ele></trkpt>
      <trkpt lat="45.98854157042982" lon="7.6923324121342205">
      <ele>2887.7</ele></trkpt>
      <trkpt lat="45.9886074388976" lon="7.692302661609749">
      <ele>2889.2</ele></trkpt>
      <trkpt lat="45.9886496686764" lon="7.692264361565985">
      <ele>2890.7</ele></trkpt>
      <trkpt lat="45.98868264214201" lon="7.6921701396749">
      <ele>2892.2</ele></trkpt>
      <trkpt lat="45.98868607684073" lon="7.692090905619117">
      <ele>2893.8</ele></trkpt>
      <trkpt lat="45.9887290692057" lon="7.691973513720953">
      <ele>2895.3</ele></trkpt>
      <trkpt lat="45.98872269986058" lon="7.69187379259415">
      <ele>2896.8</ele></trkpt>
      <trkpt lat="45.98880029066642" lon="7.691723355670378">
      <ele>2898.4</ele></trkpt>
      <trkpt lat="45.988803791450906" lon="7.691618569652197">
      <ele>2899.9</ele></trkpt>
      <trkpt lat="45.98874993627241" lon="7.691406096788747">
      <ele>2901.4</ele></trkpt>
      <trkpt lat="45.988692689219434" lon="7.691249861849887">
      <ele>2903.0</ele></trkpt>
      <trkpt lat="45.98861884702836" lon="7.691165122057892">
      <ele>2904.5</ele></trkpt>
      <trkpt lat="45.988582947158285" lon="7.691024317359567">
      <ele>2906.0</ele></trkpt>
      <trkpt lat="45.9884686928551" lon="7.690584026577942">
      <ele>2907.5</ele></trkpt>
      <trkpt lat="45.988414904265504" lon="7.690340894082238">
      <ele>2909.1</ele></trkpt>
      <trkpt lat="45.988352615394966" lon="7.690238309857016">
      <ele>2910.6</ele></trkpt>
      <trkpt lat="45.98829051875179" lon="7.690033480714924">
      <ele>2912.1</ele></trkpt>
      <trkpt lat="45.98822832898995" lon="7.68988232329788">
      <ele>2913.7</ele></trkpt>
      <trkpt lat="45.98816305580523" lon="7.689621227849255">
      <ele>2915.2</ele></trkpt>
      <trkpt lat="45.98807475730305" lon="7.68936258272304">
      <ele>2916.0</ele></trkpt>
      <trkpt lat="45.98799152079393" lon="7.689040043660673">
      <ele>2916.8</ele></trkpt>
      <trkpt lat="45.9879721686079" lon="7.688843116853357">
      <ele>2917.7</ele></trkpt>
      <trkpt lat="45.9878968251235" lon="7.688684236086993">
      <ele>2918.5</ele></trkpt>
      <trkpt lat="45.98780990933565" lon="7.688563630330702">
      <ele>2919.3</ele></trkpt>
      <trkpt lat="45.9877246135346" lon="7.6884507107257525">
      <ele>2920.1</ele></trkpt>
      <trkpt lat="45.98749490977733" lon="7.6881734484857684">
      <ele>2921.0</ele></trkpt>
      <trkpt lat="45.98731948536124" lon="7.687891351301299">
      <ele>2921.8</ele></trkpt>
      <trkpt lat="45.98716540585959" lon="7.687629819872991">
      <ele>2922.6</ele></trkpt>
      <trkpt lat="45.98708189778839" lon="7.687440205778237">
      <ele>2923.4</ele></trkpt>
      <trkpt lat="45.986810113634036" lon="7.686815083865026">
      <ele>2924.3</ele></trkpt>
      <trkpt lat="45.9866964419728" lon="7.686539958837973">
      <ele>2925.1</ele></trkpt>
      <trkpt lat="45.98665978441219" lon="7.68645471292333">
      <ele>2925.9</ele></trkpt>
      <trkpt lat="45.98661135729122" lon="7.686354702646883">
      <ele>2926.8</ele></trkpt>
      <trkpt lat="45.98659033614962" lon="7.686280574037568">
      <ele>2927.6</ele></trkpt>
      <trkpt lat="45.98658199928454" lon="7.686185623279858">
      <ele>2928.4</ele></trkpt>
      <trkpt lat="45.98660000532908" lon="7.686121401273429">
      <ele>2929.2</ele></trkpt>
      <trkpt lat="45.98661273340251" lon="7.68606838233984">
      <ele>2930.0</ele></trkpt>
      <trkpt lat="45.98661270120442" lon="7.686001149400117">
      <ele>2930.9</ele></trkpt>
      <trkpt lat="45.98656528868293" lon="7.685852648875569">
      <ele>2931.7</ele></trkpt>
      <trkpt lat="45.98643923138943" lon="7.6855554689922">
      <ele>2932.7</ele></trkpt>
      <trkpt lat="45.986312781931574" lon="7.6853260889357875">
      <ele>2933.7</ele></trkpt>
      <trkpt lat="45.98624008935273" lon="7.685166210335137">
      <ele>2934.7</ele></trkpt>
      <trkpt lat="45.98613951762526" lon="7.685064870324522">
      <ele>2935.7</ele></trkpt>
      <trkpt lat="45.9860717730584" lon="7.685007385755374">
      <ele>2936.6</ele></trkpt>
      <trkpt lat="45.98587881387575" lon="7.684829933499496">
      <ele>2937.6</ele></trkpt>
      <trkpt lat="45.985656410411984" lon="7.684702819032285">
      <ele>2938.6</ele></trkpt>
      <trkpt lat="45.98546750282602" lon="7.684589379805599">
      <ele>2939.6</ele></trkpt>
      <trkpt lat="45.98526549294593" lon="7.684445209116358">
      <ele>2940.6</ele></trkpt>
      <trkpt lat="45.985170798472204" lon="7.684370945879184">
      <ele>2941.6</ele></trkpt>
      <trkpt lat="45.98508090485158" lon="7.68424428756504">
      <ele>2942.6</ele></trkpt>
      <trkpt lat="45.984981534167275" lon="7.684128065360208">
      <ele>2943.6</ele></trkpt>
      <trkpt lat="45.98487576708639" lon="7.684061624948122">
      <ele>2944.6</ele></trkpt>
      <trkpt lat="45.984787404927886" lon="7.683987455809322">
      <ele>2945.6</ele></trkpt>
      <trkpt lat="45.98469588696398" lon="7.683900149284881">
      <ele>2946.6</ele></trkpt>
      <trkpt lat="45.984609690223536" lon="7.683810544150682">
      <ele>2947.5</ele></trkpt>
      <trkpt lat="45.98452916825438" lon="7.68370911876736">
      <ele>2948.5</ele></trkpt>
      <trkpt lat="45.98451149132549" lon="7.683668224047397">
      <ele>2949.5</ele></trkpt>
      <trkpt lat="45.98452191189736" lon="7.683596149831887">
      <ele>2950.5</ele></trkpt>
      <trkpt lat="45.984545880330785" lon="7.683428542787348">
      <ele>2951.5</ele></trkpt>
      <trkpt lat="45.984480047068025" lon="7.683443204178973">
      <ele>2954.3</ele></trkpt>
      <trkpt lat="45.98448014941508" lon="7.683387846206426">
      <ele>2957.2</ele></trkpt>
      <trkpt lat="45.98451008932758" lon="7.683324285590828">
      <ele>2960.0</ele></trkpt>
      <trkpt lat="45.98457195775282" lon="7.6832341045264565">
      <ele>2962.9</ele></trkpt>
      <trkpt lat="45.984629773771445" lon="7.683108664064502">
      <ele>2965.7</ele></trkpt>
      <trkpt lat="45.98462483455803" lon="7.683001254109489">
      <ele>2968.5</ele></trkpt>
      <trkpt lat="45.984598384892" lon="7.682853448710868">
      <ele>2971.4</ele></trkpt>
      <trkpt lat="45.98457030417015" lon="7.682789874043">
      <ele>2974.2</ele></trkpt>
      <trkpt lat="45.98451965466064" lon="7.682618049771402">
      <ele>2977.1</ele></trkpt>
      <trkpt lat="45.98444074560648" lon="7.68248163770744">
      <ele>2979.9</ele></trkpt>
      <trkpt lat="45.984365023589206" lon="7.6822898819157235">
      <ele>2982.7</ele></trkpt>
      <trkpt lat="45.98434544767578" lon="7.682311550972232">
      <ele>2985.6</ele></trkpt>
      <trkpt lat="45.98435783288" lon="7.682648698181288">
      <ele>2988.4</ele></trkpt>
      <trkpt lat="45.98433947263889" lon="7.682752738947108">
      <ele>2991.3</ele></trkpt>
      <trkpt lat="45.984255582168615" lon="7.68253241596688">
      <ele>2994.1</ele></trkpt>
      <trkpt lat="45.98418696379513" lon="7.6823876758205785">
      <ele>2996.9</ele></trkpt>
      <trkpt lat="45.984041195921606" lon="7.682265910140391">
      <ele>2999.8</ele></trkpt>
      <trkpt lat="45.9840678299658" lon="7.68231641867003">
      <ele>3002.6</ele></trkpt>
      <trkpt lat="45.98409187032756" lon="7.682401549958017">
      <ele>3005.5</ele></trkpt>
      <trkpt lat="45.98400647275824" lon="7.6823453084483555">
      <ele>3008.3</ele></trkpt>
      <trkpt lat="45.983907581347154" lon="7.682360056074117">
      <ele>3010.8</ele></trkpt>
      <trkpt lat="45.983805466447535" lon="7.682264022185777">
      <ele>3013.3</ele></trkpt>
      <trkpt lat="45.983825410052724" lon="7.682047364007736">
      <ele>3015.8</ele></trkpt>
      <trkpt lat="45.98374881710282" lon="7.682170823329356">
      <ele>3018.3</ele></trkpt>
      <trkpt lat="45.98369352800631" lon="7.682201482126863">
      <ele>3020.8</ele></trkpt>
      <trkpt lat="45.98376217331339" lon="7.681992821931617">
      <ele>3023.3</ele></trkpt>
      <trkpt lat="45.983808836600076" lon="7.681915980179808">
      <ele>3025.8</ele></trkpt>
      <trkpt lat="45.98384454084689" lon="7.6818653232592915">
      <ele>3028.3</ele></trkpt>
      <trkpt lat="45.98385613796582" lon="7.6817144118885174">
      <ele>3030.8</ele></trkpt>
      <trkpt lat="45.983829411235966" lon="7.681710886568698">
      <ele>3033.3</ele></trkpt>
      <trkpt lat="45.98374631063022" lon="7.681611351153513">
      <ele>3035.8</ele></trkpt>
      <trkpt lat="45.983784070733364" lon="7.6817625847022">
      <ele>3038.3</ele></trkpt>
      <trkpt lat="45.983706827303756" lon="7.681829186941995">
      <ele>3040.8</ele></trkpt>
      <trkpt lat="45.98364817411506" lon="7.6818556373560325">
      <ele>3043.3</ele></trkpt>
      <trkpt lat="45.98364616131684" lon="7.681833807975631">
      <ele>3045.8</ele></trkpt>
      <trkpt lat="45.98366988422228" lon="7.681795382416087">
      <ele>3048.3</ele></trkpt>
      <trkpt lat="45.98367308563938" lon="7.681733329013405">
      <ele>3050.8</ele></trkpt>
      <trkpt lat="45.98366794034574" lon="7.681733293258647">
      <ele>3053.3</ele></trkpt>
      <trkpt lat="45.983631895775574" lon="7.681766618702854">
      <ele>3055.8</ele></trkpt>
      <trkpt lat="45.98363684015828" lon="7.681684714035703">
      <ele>3058.3</ele></trkpt>
      <trkpt lat="45.98361264074623" lon="7.6816188485259795">
      <ele>3061.3</ele></trkpt>
      <trkpt lat="45.98357267931633" lon="7.681541415796888">
      <ele>3064.4</ele></trkpt>
      <trkpt lat="45.9835386295819" lon="7.68160494514885">
      <ele>3067.4</ele></trkpt>
      <trkpt lat="45.98353967383651" lon="7.681466969018508">
      <ele>3070.5</ele></trkpt>
      <trkpt lat="45.98345632170705" lon="7.681308746809744">
      <ele>3073.5</ele></trkpt>
      <trkpt lat="45.983471989353944" lon="7.681259743025963">
      <ele>3076.5</ele></trkpt>
      <trkpt lat="45.98346775302552" lon="7.681117524115897">
      <ele>3079.6</ele></trkpt>
      <trkpt lat="45.983496115408705" lon="7.680975514070736">
      <ele>3082.6</ele></trkpt>
      <trkpt lat="45.98349472659605" lon="7.680918627841458">
      <ele>3085.7</ele></trkpt>
      <trkpt lat="45.983467079454755" lon="7.680870438728372">
      <ele>3088.7</ele></trkpt>
      <trkpt lat="45.98337458793136" lon="7.680678382167713">
      <ele>3091.7</ele></trkpt>
      <trkpt lat="45.98331318282637" lon="7.680520465084576">
      <ele>3094.8</ele></trkpt>
      <trkpt lat="45.98330827965819" lon="7.680646371459705">
      <ele>3097.8</ele></trkpt>
      <trkpt lat="45.98329781233293" lon="7.680837275362458">
      <ele>3100.9</ele></trkpt>
      <trkpt lat="45.98316856492724" lon="7.680448713449313">
      <ele>3103.9</ele></trkpt>
      <trkpt lat="45.983128942684374" lon="7.680200283301648">
      <ele>3106.9</ele></trkpt>
      <trkpt lat="45.983094818744085" lon="7.680189745203758">
      <ele>3110.0</ele></trkpt>
      <trkpt lat="45.98307407884866" lon="7.680380925672076">
      <ele>3113.0</ele></trkpt>
      <trkpt lat="45.983047941773656" lon="7.680295452107409">
      <ele>3116.1</ele></trkpt>
      <trkpt lat="45.983039262864466" lon="7.680080824897892">
      <ele>3119.1</ele></trkpt>
      <trkpt lat="45.98304000372129" lon="7.679827476490145">
      <ele>3121.9</ele></trkpt>
      <trkpt lat="45.983020036258836" lon="7.679754985751846">
      <ele>3124.7</ele></trkpt>
      <trkpt lat="45.982997961107806" lon="7.679868583118128">
      <ele>3127.5</ele></trkpt>
      <trkpt lat="45.98292288470347" lon="7.680062014130231">
      <ele>3130.3</ele></trkpt>
      <trkpt lat="45.98293297021631" lon="7.679800978118469">
      <ele>3133.1</ele></trkpt>
      <trkpt lat="45.98293044939727" lon="7.6796044824341765">
      <ele>3135.9</ele></trkpt>
      <trkpt lat="45.982861567725" lon="7.67979537302802">
      <ele>3138.7</ele></trkpt>
      <trkpt lat="45.98286194137451" lon="7.679671279985431">
      <ele>3141.5</ele></trkpt>
      <trkpt lat="45.98285161172478" lon="7.679487679690443">
      <ele>3144.3</ele></trkpt>
      <trkpt lat="45.982795878324936" lon="7.679633839435681">
      <ele>3147.1</ele></trkpt>
      <trkpt lat="45.98276399369378" lon="7.679640344440636">
      <ele>3149.9</ele></trkpt>
      <trkpt lat="45.98266234314519" lon="7.679565855849079">
      <ele>3152.7</ele></trkpt>
      <trkpt lat="45.98255335638396" lon="7.679565143886448">
      <ele>3155.5</ele></trkpt>
      <trkpt lat="45.98244950417766" lon="7.679569486923059">
      <ele>3158.3</ele></trkpt>
      <trkpt lat="45.98240029062635" lon="7.679493668288596">
      <ele>3161.1</ele></trkpt>
      <trkpt lat="45.982461976615774" lon="7.679495759118885">
      <ele>3163.9</ele></trkpt>
      <trkpt lat="45.98232762380981" lon="7.679313692369718">
      <ele>3166.7</ele></trkpt>
      <trkpt lat="45.98232768654677" lon="7.67928013050248">
      <ele>3169.5</ele></trkpt>
      <trkpt lat="45.982399657716286" lon="7.679280614648373">
      <ele>3172.3</ele></trkpt>
      <trkpt lat="45.98253433147162" lon="7.6792915553925765">
      <ele>3175.1</ele></trkpt>
      <trkpt lat="45.982451234125904" lon="7.679193716398324">
      <ele>3177.2</ele></trkpt>
      <trkpt lat="45.982323978611895" lon="7.679062018353381">
      <ele>3179.3</ele></trkpt>
      <trkpt lat="45.982246071096235" lon="7.678939040978163">
      <ele>3181.3</ele></trkpt>
      <trkpt lat="45.98231498728254" lon="7.67892104628273">
      <ele>3183.4</ele></trkpt>
      <trkpt lat="45.982449698583736" lon="7.678910192139551">
      <ele>3185.5</ele></trkpt>
      <trkpt lat="45.982540151682684" lon="7.678929234886179">
      <ele>3187.6</ele></trkpt>
      <trkpt lat="45.9824971048809" lon="7.678855134136422">
      <ele>3189.7</ele></trkpt>
      <trkpt lat="45.98245612682274" lon="7.678772668153409">
      <ele>3191.7</ele></trkpt>
      <trkpt lat="45.98240479569021" lon="7.6787320676919455">
      <ele>3193.8</ele></trkpt>
      <trkpt lat="45.98238741435444" lon="7.678678260999241">
      <ele>3195.9</ele></trkpt>
      <trkpt lat="45.98241109869137" lon="7.678661641829205">
      <ele>3198.0</ele></trkpt>
      <trkpt lat="45.982404006036504" lon="7.6786045640396985">
      <ele>3200.1</ele></trkpt>
      <trkpt lat="45.98238561162264" lon="7.678540688166062">
      <ele>3202.1</ele></trkpt>
      <trkpt lat="45.9824165296263" lon="7.678502306500958">
      <ele>3204.2</ele></trkpt>
      <trkpt lat="45.98245970880373" lon="7.678505940968849">
      <ele>3206.3</ele></trkpt>
      <trkpt lat="45.98253473678321" lon="7.678519857239362">
      <ele>3208.4</ele></trkpt>
      <trkpt lat="45.98248657839323" lon="7.678433992158735">
      <ele>3210.5</ele></trkpt>
      <trkpt lat="45.98242296093846" lon="7.678363105100833">
      <ele>3212.5</ele></trkpt>
      <trkpt lat="45.982375820755664" lon="7.678280599718344">
      <ele>3214.6</ele></trkpt>
      <trkpt lat="45.982399521026835" lon="7.678252238200942">
      <ele>3216.7</ele></trkpt>
      <trkpt lat="45.98243561094803" lon="7.678197104347408">
      <ele>3218.9</ele></trkpt>
      <trkpt lat="45.98238021857716" lon="7.6781246019606995">
      <ele>3221.2</ele></trkpt>
      <trkpt lat="45.982317562289296" lon="7.678092327028596">
      <ele>3223.4</ele></trkpt>
      <trkpt lat="45.98236811047921" lon="7.67800205546672">
      <ele>3225.7</ele></trkpt>
      <trkpt lat="45.98229621585702" lon="7.677961327178128">
      <ele>3227.9</ele></trkpt>
      <trkpt lat="45.9822089868386" lon="7.677868492048211">
      <ele>3230.2</ele></trkpt>
      <trkpt lat="45.982083784453444" lon="7.677743516459074">
      <ele>3232.4</ele></trkpt>
      <trkpt lat="45.98206846251882" lon="7.6776897451983706">
      <ele>3234.7</ele></trkpt>
      <trkpt lat="45.982095233790176" lon="7.677668106813799">
      <ele>3236.9</ele></trkpt>
      <trkpt lat="45.98223913889453" lon="7.677690851862945">
      <ele>3239.2</ele></trkpt>
      <trkpt lat="45.98231728964115" lon="7.677682986501324">
      <ele>3241.4</ele></trkpt>
      <trkpt lat="45.98234922925766" lon="7.677646286324038">
      <ele>3243.7</ele></trkpt>
      <trkpt lat="45.98234830687576" lon="7.677589235667771">
      <ele>3245.9</ele></trkpt>
      <trkpt lat="45.98230735823753" lon="7.677496706221191">
      <ele>3248.2</ele></trkpt>
      <trkpt lat="45.98222938498978" lon="7.677403925090611">
      <ele>3250.4</ele></trkpt>
      <trkpt lat="45.98229937621647" lon="7.677362435800351">
      <ele>3252.7</ele></trkpt>
      <trkpt lat="45.98225014526032" lon="7.677298374408149">
      <ele>3254.9</ele></trkpt>
      <trkpt lat="45.98225276318634" lon="7.677268539945593">
      <ele>3257.2</ele></trkpt>
      <trkpt lat="45.98230540342762" lon="7.677184031831396">
      <ele>3259.4</ele></trkpt>
      <trkpt lat="45.98231650686354" lon="7.677038153971783">
      <ele>3261.7</ele></trkpt>
      </trkseg>
  </trk>
</gpx>