<?xml version='1.0' encoding='utf-8'?>
<gpx xmlns="http://www.topografix.com/GPX/1/1" xmlns:xsi="http://www.w3.org/2001/XMLSchema-instance" xsi:schemaLocation="http://www.topografix.com/GPX/1/1 http://www.topografix.com/GPX/1/1/gpx.xsd" version="1.1" creator="extract_sac_gpx.py">
  <metadata>
    <name>From Lauenen (Louwenesee - Geltenschuss)</name>
  <desc>Elevations from SwissTopo height API (sampled + interpolated)</desc></metadata>
  <wpt lat="46.422975854965756" lon="7.322623207887266">
    <ele>1240</ele>
    <name>Lauenen, Geltenhorn</name>
    <type>start</type>
  </wpt>
  <wpt lat="46.39387846353972" lon="7.3408510163970675">
    <ele>1380</ele>
    <name>Lauenensee, Haltestelle/Parkplatz</name>
    <type>departure_arrival</type>
  </wpt>
  <wpt lat="46.369568850180386" lon="7.339092041053738">
    <ele>2002</ele>
    <name>Geltenhütte SAC</name>
    <type>hut</type>
  </wpt>
  <trk>
    <name>From Lauenen (Louwenesee - Geltenschuss)</name>
    <trkseg>
      <trkpt lat="46.424472655762855" lon="7.3218887943764015">
      <ele>1241.2</ele></trkpt>
      <trkpt lat="46.42444072139139" lon="7.322063958870476">
      <ele>1241.2</ele></trkpt>
      <trkpt lat="46.42440412436321" lon="7.322245312239868">
      <ele>1241.2</ele></trkpt>
      <trkpt lat="46.424388456584865" lon="7.322397091050165">
      <ele>1241.3</ele></trkpt>
      <trkpt lat="46.424358403138115" lon="7.3224419569775785">
      <ele>1241.3</ele></trkpt>
      <trkpt lat="46.424308765645485" lon="7.322547848949764">
      <ele>1241.3</ele></trkpt>
      <trkpt lat="46.42428538455841" lon="7.322608024552163">
      <ele>1241.3</ele></trkpt>
      <trkpt lat="46.42425419931761" lon="7.322689810984871">
      <ele>1241.3</ele></trkpt>
      <trkpt lat="46.42420358567803" lon="7.322764965415208">
      <ele>1241.4</ele></trkpt>
      <trkpt lat="46.42418809742586" lon="7.32278477146626">
      <ele>1241.4</ele></trkpt>
      <trkpt lat="46.42412793940506" lon="7.322859972093315">
      <ele>1241.4</ele></trkpt>
      <trkpt lat="46.42406203096776" lon="7.322924231644819">
      <ele>1241.4</ele></trkpt>
      <trkpt lat="46.423732234200735" lon="7.323172641350329">
      <ele>1241.4</ele></trkpt>
      <trkpt lat="46.42360587539964" lon="7.323272749657944">
      <ele>1241.5</ele></trkpt>
      <trkpt lat="46.42352644826164" lon="7.323330090331315">
      <ele>1241.5</ele></trkpt>
      <trkpt lat="46.42345510662958" lon="7.323359341612281">
      <ele>1241.5</ele></trkpt>
      <trkpt lat="46.423383089642215" lon="7.323352496080535">
      <ele>1241.5</ele></trkpt>
      <trkpt lat="46.42332179417105" lon="7.323317828980878">
      <ele>1241.5</ele></trkpt>
      <trkpt lat="46.42325204077378" lon="7.3232634723336405">
      <ele>1241.6</ele></trkpt>
      <trkpt lat="46.42319484550186" lon="7.323191670998974">
      <ele>1241.6</ele></trkpt>
      <trkpt lat="46.42310019315538" lon="7.32305878459642">
      <ele>1241.6</ele></trkpt>
      <trkpt lat="46.42299945362225" lon="7.322875920900332">
      <ele>1241.4</ele></trkpt>
      <trkpt lat="46.42294647649772" lon="7.322777132205398">
      <ele>1241.2</ele></trkpt>
      <trkpt lat="46.422859322421495" lon="7.322649525455505">
      <ele>1240.9</ele></trkpt>
      <trkpt lat="46.422815166262076" lon="7.322600045515508">
      <ele>1240.7</ele></trkpt>
      <trkpt lat="46.42278523905673" lon="7.32257488658511">
      <ele>1240.5</ele></trkpt>
      <trkpt lat="46.422802831157796" lon="7.322527629162072">
      <ele>1240.3</ele></trkpt>
      <trkpt lat="46.422755868187366" lon="7.322495612383201">
      <ele>1240.1</ele></trkpt>
      <trkpt lat="46.42271419138415" lon="7.322469203882887">
      <ele>1239.8</ele></trkpt>
      <trkpt lat="46.42261582813584" lon="7.322411593114372">
      <ele>1239.6</ele></trkpt>
      <trkpt lat="46.42251915531281" lon="7.322370837485863">
      <ele>1239.4</ele></trkpt>
      <trkpt lat="46.42242915157108" lon="7.3223421132316275">
      <ele>1239.2</ele></trkpt>
      <trkpt lat="46.42239080558834" lon="7.32231811737848">
      <ele>1239.0</ele></trkpt>
      <trkpt lat="46.42229081175618" lon="7.3222845886938535">
      <ele>1238.7</ele></trkpt>
      <trkpt lat="46.42213915278134" lon="7.322239151479486">
      <ele>1238.5</ele></trkpt>
      <trkpt lat="46.42202249659606" lon="7.322203265362585">
      <ele>1238.3</ele></trkpt>
      <trkpt lat="46.42194751568379" lon="7.322201006721831">
      <ele>1238.1</ele></trkpt>
      <trkpt lat="46.4218992076684" lon="7.322208342798301">
      <ele>1237.9</ele></trkpt>
      <trkpt lat="46.42181426883164" lon="7.322232628775175">
      <ele>1237.6</ele></trkpt>
      <trkpt lat="46.421701025884204" lon="7.322288259477048">
      <ele>1237.4</ele></trkpt>
      <trkpt lat="46.42142793631592" lon="7.322428588539635">
      <ele>1237.2</ele></trkpt>
      <trkpt lat="46.42128639643248" lon="7.322496350273634">
      <ele>1237.3</ele></trkpt>
      <trkpt lat="46.42119145772632" lon="7.322532689155856">
      <ele>1237.4</ele></trkpt>
      <trkpt lat="46.4211334432504" lon="7.3225398764950045">
      <ele>1237.5</ele></trkpt>
      <trkpt lat="46.42112109383103" lon="7.322541424823314">
      <ele>1237.6</ele></trkpt>
      <trkpt lat="46.42108629880156" lon="7.322541499247241">
      <ele>1237.7</ele></trkpt>
      <trkpt lat="46.42095985746888" lon="7.32254274527751">
      <ele>1237.8</ele></trkpt>
      <trkpt lat="46.42082873741967" lon="7.322543025728799">
      <ele>1237.9</ele></trkpt>
      <trkpt lat="46.42069493864706" lon="7.32254523704859">
      <ele>1238.0</ele></trkpt>
      <trkpt lat="46.420490237453606" lon="7.322548575576949">
      <ele>1238.1</ele></trkpt>
      <trkpt lat="46.42041196356642" lon="7.322554544392809">
      <ele>1238.2</ele></trkpt>
      <trkpt lat="46.42036113026174" lon="7.322564330780917">
      <ele>1238.3</ele></trkpt>
      <trkpt lat="46.420332375142515" lon="7.322576957632453">
      <ele>1238.4</ele></trkpt>
      <trkpt lat="46.420296272503016" lon="7.322600253412109">
      <ele>1238.5</ele></trkpt>
      <trkpt lat="46.42025617363686" lon="7.322639036746484">
      <ele>1238.6</ele></trkpt>
      <trkpt lat="46.42020284944155" lon="7.322693730542107">
      <ele>1238.7</ele></trkpt>
      <trkpt lat="46.420097836494854" lon="7.3227926562406545">
      <ele>1238.8</ele></trkpt>
      <trkpt lat="46.42000760240583" lon="7.322881898446129">
      <ele>1238.9</ele></trkpt>
      <trkpt lat="46.41995662565661" lon="7.322936300583042">
      <ele>1239.0</ele></trkpt>
      <trkpt lat="46.41990096438388" lon="7.323001716956251">
      <ele>1239.1</ele></trkpt>
      <trkpt lat="46.419857617578856" lon="7.323057793602034">
      <ele>1239.2</ele></trkpt>
      <trkpt lat="46.419818956586454" lon="7.323113001690611">
      <ele>1239.1</ele></trkpt>
      <trkpt lat="46.41984267685099" lon="7.323147160933498">
      <ele>1239.0</ele></trkpt>
      <trkpt lat="46.41977731671635" lon="7.323228843926821">
      <ele>1238.9</ele></trkpt>
      <trkpt lat="46.419694565131955" lon="7.323325444215395">
      <ele>1238.7</ele></trkpt>
      <trkpt lat="46.41958245678569" lon="7.323435894408028">
      <ele>1238.6</ele></trkpt>
      <trkpt lat="46.419493175720476" lon="7.323507390557591">
      <ele>1238.5</ele></trkpt>
      <trkpt lat="46.41937221816712" lon="7.3235849760385445">
      <ele>1238.4</ele></trkpt>
      <trkpt lat="46.41923379247274" lon="7.323655092930604">
      <ele>1238.3</ele></trkpt>
      <trkpt lat="46.419158505110396" lon="7.323705499756699">
      <ele>1238.2</ele></trkpt>
      <trkpt lat="46.41910093631112" lon="7.323770905407678">
      <ele>1238.1</ele></trkpt>
      <trkpt lat="46.419041407096685" lon="7.3238636564293">
      <ele>1237.9</ele></trkpt>
      <trkpt lat="46.418978459813786" lon="7.323992366628826">
      <ele>1237.8</ele></trkpt>
      <trkpt lat="46.418902354124846" lon="7.324159072527412">
      <ele>1237.7</ele></trkpt>
      <trkpt lat="46.41885056564129" lon="7.324149530361769">
      <ele>1237.6</ele></trkpt>
      <trkpt lat="46.41871172940186" lon="7.324107276546684">
      <ele>1237.5</ele></trkpt>
      <trkpt lat="46.41866370022685" lon="7.324096881062022">
      <ele>1237.4</ele></trkpt>
      <trkpt lat="46.41865156401006" lon="7.324265259060017">
      <ele>1237.2</ele></trkpt>
      <trkpt lat="46.41860448604215" lon="7.324610114199113">
      <ele>1237.1</ele></trkpt>
      <trkpt lat="46.418584827561716" lon="7.324669793504567">
      <ele>1237.0</ele></trkpt>
      <trkpt lat="46.418545426604254" lon="7.324723465853264">
      <ele>1236.9</ele></trkpt>
      <trkpt lat="46.418489815526684" lon="7.324777172126826">
      <ele>1237.0</ele></trkpt>
      <trkpt lat="46.41809018938919" lon="7.324979412025442">
      <ele>1237.1</ele></trkpt>
      <trkpt lat="46.417880266479884" lon="7.3250324780235365">
      <ele>1237.1</ele></trkpt>
      <trkpt lat="46.41765786884539" lon="7.3250787930721355">
      <ele>1237.2</ele></trkpt>
      <trkpt lat="46.417519299924145" lon="7.325114552898886">
      <ele>1237.3</ele></trkpt>
      <trkpt lat="46.4174109253937" lon="7.3251553741408815">
      <ele>1237.4</ele></trkpt>
      <trkpt lat="46.41727120711742" lon="7.325220245418687">
      <ele>1237.5</ele></trkpt>
      <trkpt lat="46.417191880696144" lon="7.32526231928471">
      <ele>1237.5</ele></trkpt>
      <trkpt lat="46.41704029706695" lon="7.325327136752522">
      <ele>1237.6</ele></trkpt>
      <trkpt lat="46.416932301534885" lon="7.325369218078691">
      <ele>1237.7</ele></trkpt>
      <trkpt lat="46.41685956772679" lon="7.325410159129155">
      <ele>1237.8</ele></trkpt>
      <trkpt lat="46.4167950611672" lon="7.325465390362098">
      <ele>1237.9</ele></trkpt>
      <trkpt lat="46.41663092660762" lon="7.325636654012687">
      <ele>1237.9</ele></trkpt>
      <trkpt lat="46.4165765727604" lon="7.325679585277189">
      <ele>1238.0</ele></trkpt>
      <trkpt lat="46.41650671713889" lon="7.325720220502006">
      <ele>1238.1</ele></trkpt>
      <trkpt lat="46.41639629117063" lon="7.32576082292506">
      <ele>1238.2</ele></trkpt>
      <trkpt lat="46.41624266667995" lon="7.325808980788531">
      <ele>1238.3</ele></trkpt>
      <trkpt lat="46.41615541562257" lon="7.325824640016366">
      <ele>1238.3</ele></trkpt>
      <trkpt lat="46.41598229517726" lon="7.325834182443234">
      <ele>1238.4</ele></trkpt>
      <trkpt lat="46.415850554177254" lon="7.325843261638074">
      <ele>1238.5</ele></trkpt>
      <trkpt lat="46.41576103771919" lon="7.325851381621277">
      <ele>1238.5</ele></trkpt>
      <trkpt lat="46.415681820976985" lon="7.325841114996446">
      <ele>1238.5</ele></trkpt>
      <trkpt lat="46.415619408026515" lon="7.32583080047507">
      <ele>1238.5</ele></trkpt>
      <trkpt lat="46.415566984666754" lon="7.325797807935157">
      <ele>1238.5</ele></trkpt>
      <trkpt lat="46.41551609883446" lon="7.325736965423139">
      <ele>1238.5</ele></trkpt>
      <trkpt lat="46.41547737777253" lon="7.325696921044393">
      <ele>1238.5</ele></trkpt>
      <trkpt lat="46.415419346519954" lon="7.325633232184878">
      <ele>1238.5</ele></trkpt>
      <trkpt lat="46.41537156400155" lon="7.325590358413679">
      <ele>1238.5</ele></trkpt>
      <trkpt lat="46.41531154101531" lon="7.325559124947028">
      <ele>1238.5</ele></trkpt>
      <trkpt lat="46.41523180663623" lon="7.325534956075095">
      <ele>1238.5</ele></trkpt>
      <trkpt lat="46.41513956363484" lon="7.325533158291577">
      <ele>1238.5</ele></trkpt>
      <trkpt lat="46.41505192664642" lon="7.325549663861428">
      <ele>1238.5</ele></trkpt>
      <trkpt lat="46.41496844460274" lon="7.325574159617933">
      <ele>1238.5</ele></trkpt>
      <trkpt lat="46.41488254313024" lon="7.325608089913298">
      <ele>1238.5</ele></trkpt>
      <trkpt lat="46.41480340240369" lon="7.325647078482673">
      <ele>1238.5</ele></trkpt>
      <trkpt lat="46.41468026117664" lon="7.325737442188453">
      <ele>1238.5</ele></trkpt>
      <trkpt lat="46.414612138667515" lon="7.325784081202024">
      <ele>1238.5</ele></trkpt>
      <trkpt lat="46.414548508528675" lon="7.32582526115192">
      <ele>1238.5</ele></trkpt>
      <trkpt lat="46.41448567038846" lon="7.32584873789889">
      <ele>1238.5</ele></trkpt>
      <trkpt lat="46.41441648725942" lon="7.325851027665637">
      <ele>1238.5</ele></trkpt>
      <trkpt lat="46.414353577859124" lon="7.325848062899324">
      <ele>1238.5</ele></trkpt>
      <trkpt lat="46.41426535826334" lon="7.325830531800801">
      <ele>1238.6</ele></trkpt>
      <trkpt lat="46.41419009481771" lon="7.325815458005359">
      <ele>1238.6</ele></trkpt>
      <trkpt lat="46.41413273993396" lon="7.325807682485417">
      <ele>1238.7</ele></trkpt>
      <trkpt lat="46.41408041224868" lon="7.3258166354083425">
      <ele>1238.7</ele></trkpt>
      <trkpt lat="46.41403274183892" lon="7.325841211977721">
      <ele>1238.7</ele></trkpt>
      <trkpt lat="46.41398274471135" lon="7.325887071310894">
      <ele>1238.8</ele></trkpt>
      <trkpt lat="46.41393191959483" lon="7.32595067257728">
      <ele>1238.8</ele></trkpt>
      <trkpt lat="46.413861926751615" lon="7.326043486099885">
      <ele>1238.9</ele></trkpt>
      <trkpt lat="46.41381533829395" lon="7.326097817983763">
      <ele>1238.9</ele></trkpt>
      <trkpt lat="46.41377121157527" lon="7.326140010032914">
      <ele>1238.9</ele></trkpt>
      <trkpt lat="46.41372995884771" lon="7.326168487698165">
      <ele>1239.0</ele></trkpt>
      <trkpt lat="46.41366779751111" lon="7.326194186321307">
      <ele>1239.0</ele></trkpt>
      <trkpt lat="46.413528434863494" lon="7.326210004136042">
      <ele>1239.1</ele></trkpt>
      <trkpt lat="46.41343552042053" lon="7.326220536307201">
      <ele>1239.1</ele></trkpt>
      <trkpt lat="46.41336519330096" lon="7.326239436520573">
      <ele>1239.1</ele></trkpt>
      <trkpt lat="46.413313489228564" lon="7.326251365968874">
      <ele>1239.2</ele></trkpt>
      <trkpt lat="46.41320950038975" lon="7.326270205717553">
      <ele>1239.2</ele></trkpt>
      <trkpt lat="46.4131494138328" lon="7.3262654268685266">
      <ele>1239.3</ele></trkpt>
      <trkpt lat="46.41308064368049" lon="7.326248726607954">
      <ele>1239.3</ele></trkpt>
      <trkpt lat="46.41296645000428" lon="7.326191086978797">
      <ele>1239.3</ele></trkpt>
      <trkpt lat="46.41287759956582" lon="7.326154191394647">
      <ele>1239.3</ele></trkpt>
      <trkpt lat="46.41279537623482" lon="7.326169058331642">
      <ele>1239.4</ele></trkpt>
      <trkpt lat="46.4126984808585" lon="7.326220072691246">
      <ele>1239.4</ele></trkpt>
      <trkpt lat="46.41258872070773" lon="7.326279164063946">
      <ele>1239.4</ele></trkpt>
      <trkpt lat="46.41248804839437" lon="7.326313291392574">
      <ele>1239.5</ele></trkpt>
      <trkpt lat="46.41238220514711" lon="7.326321730002159">
      <ele>1239.5</ele></trkpt>
      <trkpt lat="46.41227442143222" lon="7.326323695761145">
      <ele>1239.5</ele></trkpt>
      <trkpt lat="46.41218916077832" lon="7.326332729014969">
      <ele>1239.5</ele></trkpt>
      <trkpt lat="46.41213022711715" lon="7.3263657812439975">
      <ele>1239.5</ele></trkpt>
      <trkpt lat="46.41208124597778" lon="7.326402233307911">
      <ele>1239.6</ele></trkpt>
      <trkpt lat="46.4120224843791" lon="7.32649106617218">
      <ele>1239.6</ele></trkpt>
      <trkpt lat="46.41196088150175" lon="7.32660866011639">
      <ele>1239.6</ele></trkpt>
      <trkpt lat="46.41190102878924" lon="7.326740582353813">
      <ele>1239.6</ele></trkpt>
      <trkpt lat="46.41183180875316" lon="7.326888013231805">
      <ele>1239.7</ele></trkpt>
      <trkpt lat="46.41179207832773" lon="7.326955307808043">
      <ele>1239.7</ele></trkpt>
      <trkpt lat="46.411745414585276" lon="7.327024996558042">
      <ele>1239.7</ele></trkpt>
      <trkpt lat="46.41170267092826" lon="7.327065232569028">
      <ele>1239.8</ele></trkpt>
      <trkpt lat="46.41163543967875" lon="7.327113127062824">
      <ele>1239.8</ele></trkpt>
      <trkpt lat="46.4115418844203" lon="7.327158201274705">
      <ele>1239.8</ele></trkpt>
      <trkpt lat="46.41142822491823" lon="7.327204305015168">
      <ele>1239.9</ele></trkpt>
      <trkpt lat="46.41132734411743" lon="7.327246259612595">
      <ele>1239.9</ele></trkpt>
      <trkpt lat="46.411248802305046" lon="7.327281951634027">
      <ele>1240.0</ele></trkpt>
      <trkpt lat="46.41120636805752" lon="7.327289230678387">
      <ele>1240.1</ele></trkpt>
      <trkpt lat="46.41117144056575" lon="7.327291825368907">
      <ele>1240.1</ele></trkpt>
      <trkpt lat="46.41113365019393" lon="7.327273773331282">
      <ele>1240.2</ele></trkpt>
      <trkpt lat="46.41109163262492" lon="7.327238159691794">
      <ele>1240.3</ele></trkpt>
      <trkpt lat="46.411042802968204" lon="7.327190959280894">
      <ele>1240.3</ele></trkpt>
      <trkpt lat="46.41099152537315" lon="7.327151788301377">
      <ele>1240.4</ele></trkpt>
      <trkpt lat="46.410927880761484" lon="7.327105489851219">
      <ele>1240.4</ele></trkpt>
      <trkpt lat="46.41085482219915" lon="7.327063762729312">
      <ele>1240.5</ele></trkpt>
      <trkpt lat="46.41076195079042" lon="7.327017511585398">
      <ele>1240.6</ele></trkpt>
      <trkpt lat="46.410635737035406" lon="7.326957530564509">
      <ele>1240.6</ele></trkpt>
      <trkpt lat="46.41052978373923" lon="7.326918186498643">
      <ele>1240.7</ele></trkpt>
      <trkpt lat="46.41040837712639" lon="7.326889187553489">
      <ele>1240.8</ele></trkpt>
      <trkpt lat="46.410313151136194" lon="7.326863581216364">
      <ele>1240.8</ele></trkpt>
      <trkpt lat="46.41026341978503" lon="7.326860029144143">
      <ele>1240.9</ele></trkpt>
      <trkpt lat="46.410172710454944" lon="7.3268535572546005">
      <ele>1241.0</ele></trkpt>
      <trkpt lat="46.41009298180488" lon="7.326862317833246">
      <ele>1241.0</ele></trkpt>
      <trkpt lat="46.40998470564549" lon="7.326884909598844">
      <ele>1241.1</ele></trkpt>
      <trkpt lat="46.40992398836826" lon="7.326906467026955">
      <ele>1241.2</ele></trkpt>
      <trkpt lat="46.40982133003193" lon="7.326970247228532">
      <ele>1241.2</ele></trkpt>
      <trkpt lat="46.40976510786717" lon="7.327016504914795">
      <ele>1241.3</ele></trkpt>
      <trkpt lat="46.40972333490813" lon="7.32705589213973">
      <ele>1241.4</ele></trkpt>
      <trkpt lat="46.40969763420763" lon="7.327092307136604">
      <ele>1241.5</ele></trkpt>
      <trkpt lat="46.40968101955079" lon="7.3271291976290955">
      <ele>1241.5</ele></trkpt>
      <trkpt lat="46.40965180705133" lon="7.327198704642147">
      <ele>1241.6</ele></trkpt>
      <trkpt lat="46.409566366864006" lon="7.327446625994843">
      <ele>1241.7</ele></trkpt>
      <trkpt lat="46.409492797053275" lon="7.327663557355511">
      <ele>1241.8</ele></trkpt>
      <trkpt lat="46.40945006362381" lon="7.327778921115337">
      <ele>1241.8</ele></trkpt>
      <trkpt lat="46.40941324378234" lon="7.327842655781115">
      <ele>1241.9</ele></trkpt>
      <trkpt lat="46.409375200026325" lon="7.327887470593276">
      <ele>1242.0</ele></trkpt>
      <trkpt lat="46.409303835408" lon="7.327922014333721">
      <ele>1242.1</ele></trkpt>
      <trkpt lat="46.40925611503549" lon="7.327932723701689">
      <ele>1242.1</ele></trkpt>
      <trkpt lat="46.40922649891212" lon="7.3279393776059045">
      <ele>1242.2</ele></trkpt>
      <trkpt lat="46.40914320899171" lon="7.327958469617343">
      <ele>1242.3</ele></trkpt>
      <trkpt lat="46.4090516232973" lon="7.328003393234728">
      <ele>1242.4</ele></trkpt>
      <trkpt lat="46.40899758696739" lon="7.328031515909164">
      <ele>1242.4</ele></trkpt>
      <trkpt lat="46.408886684835835" lon="7.328101278916654">
      <ele>1242.5</ele></trkpt>
      <trkpt lat="46.408768260124674" lon="7.328242739659533">
      <ele>1242.6</ele></trkpt>
      <trkpt lat="46.408693320358715" lon="7.328365930725387">
      <ele>1242.7</ele></trkpt>
      <trkpt lat="46.40864523035131" lon="7.32849625864014">
      <ele>1242.8</ele></trkpt>
      <trkpt lat="46.40861700400305" lon="7.328590977917488">
      <ele>1242.9</ele></trkpt>
      <trkpt lat="46.40859236314415" lon="7.328644763715551">
      <ele>1243.0</ele></trkpt>
      <trkpt lat="46.40853345249914" lon="7.328711545622572">
      <ele>1243.1</ele></trkpt>
      <trkpt lat="46.40846995581234" lon="7.328761573509713">
      <ele>1243.3</ele></trkpt>
      <trkpt lat="46.40829625094296" lon="7.328864610433745">
      <ele>1243.4</ele></trkpt>
      <trkpt lat="46.40810892083405" lon="7.328952380707989">
      <ele>1243.5</ele></trkpt>
      <trkpt lat="46.407874761046436" lon="7.3290511688019">
      <ele>1243.6</ele></trkpt>
      <trkpt lat="46.4076995151473" lon="7.329123632984919">
      <ele>1243.7</ele></trkpt>
      <trkpt lat="46.407519735966446" lon="7.329187353777844">
      <ele>1243.8</ele></trkpt>
      <trkpt lat="46.40736862116118" lon="7.329218245028455">
      <ele>1243.9</ele></trkpt>
      <trkpt lat="46.4070286490047" lon="7.329301963482079">
      <ele>1244.0</ele></trkpt>
      <trkpt lat="46.40676271241756" lon="7.329359302100859">
      <ele>1244.1</ele></trkpt>
      <trkpt lat="46.40644994767172" lon="7.329438581570609">
      <ele>1244.2</ele></trkpt>
      <trkpt lat="46.40610392129229" lon="7.329522296390471">
      <ele>1244.4</ele></trkpt>
      <trkpt lat="46.40581834177576" lon="7.329592780581846">
      <ele>1244.5</ele></trkpt>
      <trkpt lat="46.40560528877154" lon="7.329639099910376">
      <ele>1244.6</ele></trkpt>
      <trkpt lat="46.40540583710424" lon="7.329685378577393">
      <ele>1244.7</ele></trkpt>
      <trkpt lat="46.40521998888324" lon="7.329733814289221">
      <ele>1244.8</ele></trkpt>
      <trkpt lat="46.40506437430026" lon="7.32979094071808">
      <ele>1245.0</ele></trkpt>
      <trkpt lat="46.40491632227556" lon="7.329854592639925">
      <ele>1245.1</ele></trkpt>
      <trkpt lat="46.40478640118623" lon="7.3299138386013745">
      <ele>1245.2</ele></trkpt>
      <trkpt lat="46.4046860958726" lon="7.329965976910182">
      <ele>1245.4</ele></trkpt>
      <trkpt lat="46.404655738717985" lon="7.329988001191694">
      <ele>1245.5</ele></trkpt>
      <trkpt lat="46.40461058501152" lon="7.330020744216906">
      <ele>1245.7</ele></trkpt>
      <trkpt lat="46.40451546677254" lon="7.330125797365251">
      <ele>1245.8</ele></trkpt>
      <trkpt lat="46.40438408230749" lon="7.330235304834485">
      <ele>1246.0</ele></trkpt>
      <trkpt lat="46.40422552418706" lon="7.330375450810515">
      <ele>1246.1</ele></trkpt>
      <trkpt lat="46.404032219318516" lon="7.330528759898698">
      <ele>1246.3</ele></trkpt>
      <trkpt lat="46.4039098812348" lon="7.330616388233224">
      <ele>1246.5</ele></trkpt>
      <trkpt lat="46.40366221833683" lon="7.330820062565798">
      <ele>1246.6</ele></trkpt>
      <trkpt lat="46.403476471256525" lon="7.330975538093954">
      <ele>1246.8</ele></trkpt>
      <trkpt lat="46.40336017790522" lon="7.331063178555153">
      <ele>1246.9</ele></trkpt>
      <trkpt lat="46.40328803275963" lon="7.3311104332937775">
      <ele>1247.0</ele></trkpt>
      <trkpt lat="46.40321564275055" lon="7.331165113399065">
      <ele>1247.2</ele></trkpt>
      <trkpt lat="46.40309345274449" lon="7.33127665209993">
      <ele>1247.3</ele></trkpt>
      <trkpt lat="46.402968114286836" lon="7.3313883265520765">
      <ele>1247.5</ele></trkpt>
      <trkpt lat="46.40287751487183" lon="7.331469334859493">
      <ele>1247.6</ele></trkpt>
      <trkpt lat="46.40281709380113" lon="7.331519699332123">
      <ele>1247.8</ele></trkpt>
      <trkpt lat="46.402759750820415" lon="7.331600368563845">
      <ele>1247.9</ele></trkpt>
      <trkpt lat="46.40267704337973" lon="7.331770433859938">
      <ele>1248.1</ele></trkpt>
      <trkpt lat="46.402575098153164" lon="7.331954450038656">
      <ele>1248.2</ele></trkpt>
      <trkpt lat="46.40250389430372" lon="7.3320465105881585">
      <ele>1248.3</ele></trkpt>
      <trkpt lat="46.40247695047286" lon="7.3320827777804425">
      <ele>1248.5</ele></trkpt>
      <trkpt lat="46.40242496168176" lon="7.332127442204721">
      <ele>1248.6</ele></trkpt>
      <trkpt lat="46.40239996902133" lon="7.332191558590139">
      <ele>1248.7</ele></trkpt>
      <trkpt lat="46.402346165941964" lon="7.332344856032528">
      <ele>1248.9</ele></trkpt>
      <trkpt lat="46.402303824379025" lon="7.332403414748626">
      <ele>1249.0</ele></trkpt>
      <trkpt lat="46.40224607188955" lon="7.332450885701219">
      <ele>1249.2</ele></trkpt>
      <trkpt lat="46.40216902092678" lon="7.332476106680876">
      <ele>1249.3</ele></trkpt>
      <trkpt lat="46.401968669928664" lon="7.332523856119064">
      <ele>1249.4</ele></trkpt>
      <trkpt lat="46.401760610835964" lon="7.33256324622225">
      <ele>1249.6</ele></trkpt>
      <trkpt lat="46.401708601037555" lon="7.332585635233877">
      <ele>1249.7</ele></trkpt>
      <trkpt lat="46.40165659123474" lon="7.332608024202609">
      <ele>1249.8</ele></trkpt>
      <trkpt lat="46.40153716850041" lon="7.332650023404238">
      <ele>1250.0</ele></trkpt>
      <trkpt lat="46.40144665907687" lon="7.3327031226588595">
      <ele>1250.1</ele></trkpt>
      <trkpt lat="46.40136195080237" lon="7.332784063003643">
      <ele>1250.2</ele></trkpt>
      <trkpt lat="46.401281113368604" lon="7.332887282786956">
      <ele>1250.4</ele></trkpt>
      <trkpt lat="46.401217654300886" lon="7.3330183079523845">
      <ele>1250.5</ele></trkpt>
      <trkpt lat="46.401196555297" lon="7.3331297589713005">
      <ele>1250.6</ele></trkpt>
      <trkpt lat="46.4011841186106" lon="7.33318273147109">
      <ele>1250.6</ele></trkpt>
      <trkpt lat="46.40117080679561" lon="7.3332233007587995">
      <ele>1250.7</ele></trkpt>
      <trkpt lat="46.401153479323135" lon="7.333260002919086">
      <ele>1250.8</ele></trkpt>
      <trkpt lat="46.40110900519931" lon="7.333299046251254">
      <ele>1250.8</ele></trkpt>
      <trkpt lat="46.40107181522435" lon="7.333316230350077">
      <ele>1250.9</ele></trkpt>
      <trkpt lat="46.40100584123557" lon="7.333296814829533">
      <ele>1251.0</ele></trkpt>
      <trkpt lat="46.400939849228095" lon="7.333277373385177">
      <ele>1251.0</ele></trkpt>
      <trkpt lat="46.40087897153392" lon="7.333292158845296">
      <ele>1251.1</ele></trkpt>
      <trkpt lat="46.40082659267981" lon="7.333333830875663">
      <ele>1251.2</ele></trkpt>
      <trkpt lat="46.400718470975576" lon="7.333475837374247">
      <ele>1251.2</ele></trkpt>
      <trkpt lat="46.40065764987729" lon="7.333551736085154">
      <ele>1251.3</ele></trkpt>
      <trkpt lat="46.40059519180127" lon="7.3336765416529">
      <ele>1251.3</ele></trkpt>
      <trkpt lat="46.40057895280828" lon="7.333703684056193">
      <ele>1251.4</ele></trkpt>
      <trkpt lat="46.400541119876" lon="7.3337552355505755">
      <ele>1251.5</ele></trkpt>
      <trkpt lat="46.40052129779156" lon="7.333769603001105">
      <ele>1251.5</ele></trkpt>
      <trkpt lat="46.40049575831589" lon="7.333788116392428">
      <ele>1251.6</ele></trkpt>
      <trkpt lat="46.400451125012964" lon="7.333801114410843">
      <ele>1251.7</ele></trkpt>
      <trkpt lat="46.400438840295664" lon="7.333804700910183">
      <ele>1251.7</ele></trkpt>
      <trkpt lat="46.400429019703815" lon="7.333807554491181">
      <ele>1251.8</ele></trkpt>
      <trkpt lat="46.400415437443264" lon="7.333808789977679">
      <ele>1252.8</ele></trkpt>
      <trkpt lat="46.40036359994591" lon="7.333813467050815">
      <ele>1253.8</ele></trkpt>
      <trkpt lat="46.40030621141133" lon="7.333827087767152">
      <ele>1254.8</ele></trkpt>
      <trkpt lat="46.40027284116579" lon="7.333840662099784">
      <ele>1255.7</ele></trkpt>
      <trkpt lat="46.40023949240275" lon="7.333867759288974">
      <ele>1256.7</ele></trkpt>
      <trkpt lat="46.4002248203697" lon="7.333887070749469">
      <ele>1257.7</ele></trkpt>
      <trkpt lat="46.4002114735934" lon="7.333909526319991">
      <ele>1258.7</ele></trkpt>
      <trkpt lat="46.400198009641365" lon="7.333990234616566">
      <ele>1259.7</ele></trkpt>
      <trkpt lat="46.40020297099472" lon="7.334044173646516">
      <ele>1260.7</ele></trkpt>
      <trkpt lat="46.40022348318796" lon="7.334095313151035">
      <ele>1261.7</ele></trkpt>
      <trkpt lat="46.40024379756465" lon="7.334117274783539">
      <ele>1262.6</ele></trkpt>
      <trkpt lat="46.40035378025422" lon="7.334158633125856">
      <ele>1263.6</ele></trkpt>
      <trkpt lat="46.400397807095146" lon="7.3342294529013445">
      <ele>1264.6</ele></trkpt>
      <trkpt lat="46.400416448250134" lon="7.334261183007679">
      <ele>1265.6</ele></trkpt>
      <trkpt lat="46.400416479741864" lon="7.334295419437747">
      <ele>1266.6</ele></trkpt>
      <trkpt lat="46.40040633716923" lon="7.334310093131328">
      <ele>1267.6</ele></trkpt>
      <trkpt lat="46.40031675430884" lon="7.334373836042496">
      <ele>1268.5</ele></trkpt>
      <trkpt lat="46.400203012570806" lon="7.334578523376761">
      <ele>1269.5</ele></trkpt>
      <trkpt lat="46.40011144673649" lon="7.334785442923833">
      <ele>1270.5</ele></trkpt>
      <trkpt lat="46.39998748205674" lon="7.3349768203236145">
      <ele>1271.5</ele></trkpt>
      <trkpt lat="46.39995506810242" lon="7.334964022499254">
      <ele>1274.1</ele></trkpt>
      <trkpt lat="46.39994483613938" lon="7.334871163521555">
      <ele>1276.8</ele></trkpt>
      <trkpt lat="46.399912470974236" lon="7.33461697010385">
      <ele>1279.4</ele></trkpt>
      <trkpt lat="46.39989711353767" lon="7.334477636365642">
      <ele>1282.0</ele></trkpt>
      <trkpt lat="46.39985813116849" lon="7.334384806771802">
      <ele>1284.7</ele></trkpt>
      <trkpt lat="46.39982420427287" lon="7.3342822025662855">
      <ele>1287.3</ele></trkpt>
      <trkpt lat="46.39976834150191" lon="7.334223641789326">
      <ele>1289.9</ele></trkpt>
      <trkpt lat="46.39965498323015" lon="7.334179845754193">
      <ele>1292.6</ele></trkpt>
      <trkpt lat="46.39954872722131" lon="7.334092360375261">
      <ele>1295.2</ele></trkpt>
      <trkpt lat="46.399480661560254" lon="7.334057956462432">
      <ele>1297.8</ele></trkpt>
      <trkpt lat="46.3993198149822" lon="7.33387734831367">
      <ele>1300.5</ele></trkpt>
      <trkpt lat="46.399260574205485" lon="7.33383346191446">
      <ele>1303.1</ele></trkpt>
      <trkpt lat="46.39927576015694" lon="7.33390308738161">
      <ele>1305.8</ele></trkpt>
      <trkpt lat="46.39928171696455" lon="7.333914674187479">
      <ele>1308.4</ele></trkpt>
      <trkpt lat="46.399301382579665" lon="7.333945179316258">
      <ele>1311.0</ele></trkpt>
      <trkpt lat="46.399317747466775" lon="7.3339666670373544">
      <ele>1313.7</ele></trkpt>
      <trkpt lat="46.39932491536509" lon="7.333994166687158">
      <ele>1316.3</ele></trkpt>
      <trkpt lat="46.39933177662652" lon="7.334020821766927">
      <ele>1318.9</ele></trkpt>
      <trkpt lat="46.39934698671696" lon="7.334058200910797">
      <ele>1321.6</ele></trkpt>
      <trkpt lat="46.39938778349769" lon="7.3340989765032525">
      <ele>1324.2</ele></trkpt>
      <trkpt lat="46.39941411361586" lon="7.334128168671031">
      <ele>1324.8</ele></trkpt>
      <trkpt lat="46.3994558384837" lon="7.334180410887179">
      <ele>1325.4</ele></trkpt>
      <trkpt lat="46.39949738221553" lon="7.334221575295522">
      <ele>1326.0</ele></trkpt>
      <trkpt lat="46.39951997953985" lon="7.334280563783413">
      <ele>1326.6</ele></trkpt>
      <trkpt lat="46.39950463496905" lon="7.33434140655781">
      <ele>1327.2</ele></trkpt>
      <trkpt lat="46.3994923965233" lon="7.334365992020581">
      <ele>1327.9</ele></trkpt>
      <trkpt lat="46.39947657606949" lon="7.334369104021186">
      <ele>1328.5</ele></trkpt>
      <trkpt lat="46.39945079528146" lon="7.334438392443614">
      <ele>1329.1</ele></trkpt>
      <trkpt lat="46.39938450296207" lon="7.334503142565684">
      <ele>1329.7</ele></trkpt>
      <trkpt lat="46.399304137781606" lon="7.334534489871706">
      <ele>1330.3</ele></trkpt>
      <trkpt lat="46.399352675267416" lon="7.3344235107283895">
      <ele>1330.9</ele></trkpt>
      <trkpt lat="46.399364531309274" lon="7.334384129125102">
      <ele>1331.5</ele></trkpt>
      <trkpt lat="46.399363038311634" lon="7.334345280244831">
      <ele>1332.1</ele></trkpt>
      <trkpt lat="46.39932947010619" lon="7.334378436295586">
      <ele>1332.7</ele></trkpt>
      <trkpt lat="46.399307953647714" lon="7.334379621835199">
      <ele>1333.4</ele></trkpt>
      <trkpt lat="46.39926300242016" lon="7.334408924914303">
      <ele>1334.0</ele></trkpt>
      <trkpt lat="46.399194031597084" lon="7.334417274915356">
      <ele>1334.6</ele></trkpt>
      <trkpt lat="46.39908006851998" lon="7.334459244754522">
      <ele>1335.2</ele></trkpt>
      <trkpt lat="46.39912681020401" lon="7.334312824537475">
      <ele>1335.8</ele></trkpt>
      <trkpt lat="46.39915809120623" lon="7.334238064826089">
      <ele>1336.4</ele></trkpt>
      <trkpt lat="46.399178371584334" lon="7.334174248334402">
      <ele>1337.8</ele></trkpt>
      <trkpt lat="46.3991864769825" lon="7.334076960661722">
      <ele>1339.2</ele></trkpt>
      <trkpt lat="46.39918509984385" lon="7.33402729357221">
      <ele>1340.6</ele></trkpt>
      <trkpt lat="46.39910652837827" lon="7.33412095914539">
      <ele>1342.0</ele></trkpt>
      <trkpt lat="46.399096285421464" lon="7.334085234909117">
      <ele>1343.4</ele></trkpt>
      <trkpt lat="46.39909961221511" lon="7.3340542304730025">
      <ele>1344.8</ele></trkpt>
      <trkpt lat="46.399084257916996" lon="7.333948289459057">
      <ele>1346.2</ele></trkpt>
      <trkpt lat="46.39904239230252" lon="7.333831425545733">
      <ele>1347.6</ele></trkpt>
      <trkpt lat="46.399001758915965" lon="7.333782614549155">
      <ele>1349.0</ele></trkpt>
      <trkpt lat="46.398967937664935" lon="7.33378512432785">
      <ele>1350.5</ele></trkpt>
      <trkpt lat="46.39895703630308" lon="7.333825518126492">
      <ele>1351.9</ele></trkpt>
      <trkpt lat="46.3989527600489" lon="7.3338413894239">
      <ele>1353.3</ele></trkpt>
      <trkpt lat="46.39891726568267" lon="7.333863458131511">
      <ele>1354.7</ele></trkpt>
      <trkpt lat="46.3988714340616" lon="7.333845187069509">
      <ele>1356.1</ele></trkpt>
      <trkpt lat="46.398734004270835" lon="7.333880311835003">
      <ele>1357.5</ele></trkpt>
      <trkpt lat="46.39860291131961" lon="7.333841752542658">
      <ele>1358.9</ele></trkpt>
      <trkpt lat="46.398367496077775" lon="7.334134759841465">
      <ele>1360.3</ele></trkpt>
      <trkpt lat="46.39826054642546" lon="7.334241584760572">
      <ele>1361.7</ele></trkpt>
      <trkpt lat="46.39820395537899" lon="7.334330109300954">
      <ele>1363.1</ele></trkpt>
      <trkpt lat="46.39817067160537" lon="7.334330173235553">
      <ele>1364.5</ele></trkpt>
      <trkpt lat="46.3981481383275" lon="7.334282108003169">
      <ele>1365.8</ele></trkpt>
      <trkpt lat="46.39815343877165" lon="7.334176779162481">
      <ele>1367.2</ele></trkpt>
      <trkpt lat="46.39823768216745" lon="7.333834656000795">
      <ele>1368.5</ele></trkpt>
      <trkpt lat="46.39826011112866" lon="7.333769601069196">
      <ele>1369.9</ele></trkpt>
      <trkpt lat="46.39826544838522" lon="7.333704579112098">
      <ele>1371.2</ele></trkpt>
      <trkpt lat="46.398220447460865" lon="7.333679961666174">
      <ele>1372.6</ele></trkpt>
      <trkpt lat="46.39818090524255" lon="7.333721645487066">
      <ele>1374.0</ele></trkpt>
      <trkpt lat="46.39801288904883" lon="7.333940408236706">
      <ele>1375.3</ele></trkpt>
      <trkpt lat="46.39793259903579" lon="7.333994561385863">
      <ele>1376.7</ele></trkpt>
      <trkpt lat="46.397889089935695" lon="7.334036577453834">
      <ele>1378.0</ele></trkpt>
      <trkpt lat="46.39786373806604" lon="7.334053724226154">
      <ele>1379.3</ele></trkpt>
      <trkpt lat="46.3978289300663" lon="7.334049487528769">
      <ele>1380.7</ele></trkpt>
      <trkpt lat="46.39779877286388" lon="7.3340355552262695">
      <ele>1382.0</ele></trkpt>
      <trkpt lat="46.39775133025841" lon="7.334055448976037">
      <ele>1383.4</ele></trkpt>
      <trkpt lat="46.39771440784465" lon="7.33407025157643">
      <ele>1384.8</ele></trkpt>
      <trkpt lat="46.39768033660735" lon="7.334084580588304">
      <ele>1386.1</ele></trkpt>
      <trkpt lat="46.3976469450506" lon="7.33407506227233">
      <ele>1387.5</ele></trkpt>
      <trkpt lat="46.39761945125465" lon="7.3340521273678085">
      <ele>1388.8</ele></trkpt>
      <trkpt lat="46.397595746120516" lon="7.334050339717823">
      <ele>1390.2</ele></trkpt>
      <trkpt lat="46.39756220315095" lon="7.334071740869352">
      <ele>1391.5</ele></trkpt>
      <trkpt lat="46.39754242380504" lon="7.334103244176362">
      <ele>1391.0</ele></trkpt>
      <trkpt lat="46.397447686454825" lon="7.334078982538055">
      <ele>1390.5</ele></trkpt>
      <trkpt lat="46.39741557664591" lon="7.334103488362753">
      <ele>1390.0</ele></trkpt>
      <trkpt lat="46.39734624971103" lon="7.334125608387276">
      <ele>1389.5</ele></trkpt>
      <trkpt lat="46.3973056682647" lon="7.334142797255121">
      <ele>1389.0</ele></trkpt>
      <trkpt lat="46.39725322606219" lon="7.334125787423046">
      <ele>1388.5</ele></trkpt>
      <trkpt lat="46.39720418649876" lon="7.3341405611491535">
      <ele>1388.0</ele></trkpt>
      <trkpt lat="46.3970993516358" lon="7.334170095513836">
      <ele>1387.5</ele></trkpt>
      <trkpt lat="46.39703357019856" lon="7.334154476599873">
      <ele>1387.0</ele></trkpt>
      <trkpt lat="46.396998357294855" lon="7.334111065576034">
      <ele>1386.5</ele></trkpt>
      <trkpt lat="46.39697229447867" lon="7.334040059703387">
      <ele>1386.0</ele></trkpt>
      <trkpt lat="46.39695582570401" lon="7.333964445694554">
      <ele>1385.5</ele></trkpt>
      <trkpt lat="46.39692199842921" lon="7.333931186752393">
      <ele>1385.0</ele></trkpt>
      <trkpt lat="46.396880405007586" lon="7.333924011837486">
      <ele>1384.5</ele></trkpt>
      <trkpt lat="46.39685575053726" lon="7.333907286809169">
      <ele>1384.0</ele></trkpt>
      <trkpt lat="46.396830466295626" lon="7.333861256533674">
      <ele>1383.5</ele></trkpt>
      <trkpt lat="46.39681822435821" lon="7.333833247878055">
      <ele>1383.0</ele></trkpt>
      <trkpt lat="46.396808263194124" lon="7.333810526638241">
      <ele>1382.5</ele></trkpt>
      <trkpt lat="46.39677870855064" lon="7.333776999592173">
      <ele>1382.0</ele></trkpt>
      <trkpt lat="46.396766608277346" lon="7.333766023290677">
      <ele>1381.5</ele></trkpt>
      <trkpt lat="46.39671582820132" lon="7.333873400521268">
      <ele>1381.4</ele></trkpt>
      <trkpt lat="46.39668920746013" lon="7.333928970216437">
      <ele>1381.4</ele></trkpt>
      <trkpt lat="46.39666130924072" lon="7.334003967226071">
      <ele>1381.3</ele></trkpt>
      <trkpt lat="46.396611734962825" lon="7.334112004803128">
      <ele>1381.3</ele></trkpt>
      <trkpt lat="46.396571210519326" lon="7.334152011715874">
      <ele>1381.2</ele></trkpt>
      <trkpt lat="46.396514279215644" lon="7.334203075745551">
      <ele>1381.2</ele></trkpt>
      <trkpt lat="46.39643555065024" lon="7.334292355121401">
      <ele>1381.1</ele></trkpt>
      <trkpt lat="46.39637832254811" lon="7.334323981638715">
      <ele>1381.1</ele></trkpt>
      <trkpt lat="46.39632379301641" lon="7.334335918083696">
      <ele>1381.0</ele></trkpt>
      <trkpt lat="46.396252903940734" lon="7.334332101679751">
      <ele>1381.0</ele></trkpt>
      <trkpt lat="46.39610975123449" lon="7.334316618446776">
      <ele>1380.9</ele></trkpt>
      <trkpt lat="46.39590659045002" lon="7.334283503182281">
      <ele>1380.8</ele></trkpt>
      <trkpt lat="46.395846605887236" lon="7.334281655188341">
      <ele>1380.8</ele></trkpt>
      <trkpt lat="46.39574983482909" lon="7.334305491295341">
      <ele>1380.7</ele></trkpt>
      <trkpt lat="46.395633989560004" lon="7.3343451220155105">
      <ele>1380.7</ele></trkpt>
      <trkpt lat="46.39558902428203" lon="7.3343787007231676">
      <ele>1380.6</ele></trkpt>
      <trkpt lat="46.39543919587331" lon="7.334518886165727">
      <ele>1380.6</ele></trkpt>
      <trkpt lat="46.39537240768463" lon="7.33459227844463">
      <ele>1380.5</ele></trkpt>
      <trkpt lat="46.39527027009932" lon="7.334708734555984">
      <ele>1380.5</ele></trkpt>
      <trkpt lat="46.395214427292856" lon="7.334769922941741">
      <ele>1380.4</ele></trkpt>
      <trkpt lat="46.395120437707426" lon="7.334864676182852">
      <ele>1380.4</ele></trkpt>
      <trkpt lat="46.394995146941326" lon="7.335002849013732">
      <ele>1380.4</ele></trkpt>
      <trkpt lat="46.39487938596488" lon="7.33512523220206">
      <ele>1380.4</ele></trkpt>
      <trkpt lat="46.394786768820474" lon="7.335216042175882">
      <ele>1380.4</ele></trkpt>
      <trkpt lat="46.394714553738055" lon="7.335267405535021">
      <ele>1380.5</ele></trkpt>
      <trkpt lat="46.39463963453133" lon="7.335332581454365">
      <ele>1380.5</ele></trkpt>
      <trkpt lat="46.39458651170136" lon="7.335377992558967">
      <ele>1380.5</ele></trkpt>
      <trkpt lat="46.394551103016234" lon="7.335425346125523">
      <ele>1380.5</ele></trkpt>
      <trkpt lat="46.394465329343085" lon="7.3355535861315575">
      <ele>1380.5</ele></trkpt>
      <trkpt lat="46.39439862280235" lon="7.335648284966207">
      <ele>1380.5</ele></trkpt>
      <trkpt lat="46.39424611538737" lon="7.335841683499455">
      <ele>1380.5</ele></trkpt>
      <trkpt lat="46.39413715960934" lon="7.335960097935886">
      <ele>1380.5</ele></trkpt>
      <trkpt lat="46.3940527348461" lon="7.3360686235691">
      <ele>1380.5</ele></trkpt>
      <trkpt lat="46.39398325761651" lon="7.336123932327459">
      <ele>1380.5</ele></trkpt>
      <trkpt lat="46.393934216705645" lon="7.336167371211193">
      <ele>1380.5</ele></trkpt>
      <trkpt lat="46.393878392676044" lon="7.33625022968687">
      <ele>1380.6</ele></trkpt>
      <trkpt lat="46.39383618283681" lon="7.336307449845202">
      <ele>1380.6</ele></trkpt>
      <trkpt lat="46.39376398692255" lon="7.3363706419557975">
      <ele>1380.6</ele></trkpt>
      <trkpt lat="46.39371359811171" lon="7.336435756044725">
      <ele>1380.6</ele></trkpt>
      <trkpt lat="46.39366460509211" lon="7.336522527433051">
      <ele>1380.6</ele></trkpt>
      <trkpt lat="46.393614221657536" lon="7.336583714884463">
      <ele>1380.6</ele></trkpt>
      <trkpt lat="46.39351342619424" lon="7.336684390511422">
      <ele>1380.6</ele></trkpt>
      <trkpt lat="46.39345076202673" lon="7.336733769613141">
      <ele>1380.5</ele></trkpt>
      <trkpt lat="46.3933731391221" lon="7.3368343882178095">
      <ele>1380.5</ele></trkpt>
      <trkpt lat="46.39325604945201" lon="7.33700208826932">
      <ele>1380.5</ele></trkpt>
      <trkpt lat="46.393198848840726" lon="7.33706525073428">
      <ele>1380.5</ele></trkpt>
      <trkpt lat="46.393136184495916" lon="7.337114616109371">
      <ele>1380.5</ele></trkpt>
      <trkpt lat="46.3931143965735" lon="7.3371442083315515">
      <ele>1380.4</ele></trkpt>
      <trkpt lat="46.3930899078276" lon="7.337191539062832">
      <ele>1380.4</ele></trkpt>
      <trkpt lat="46.39306542397304" lon="7.337264494879187">
      <ele>1380.4</ele></trkpt>
      <trkpt lat="46.39303008859699" lon="7.337384755783672">
      <ele>1380.4</ele></trkpt>
      <trkpt lat="46.393007844356674" lon="7.337497867566005">
      <ele>1380.4</ele></trkpt>
      <trkpt lat="46.392992083379944" lon="7.337577905482458">
      <ele>1380.3</ele></trkpt>
      <trkpt lat="46.39297309490266" lon="7.33768038918664">
      <ele>1380.3</ele></trkpt>
      <trkpt lat="46.392958203105565" lon="7.337787103556004">
      <ele>1380.3</ele></trkpt>
      <trkpt lat="46.39295588329825" lon="7.337849031902493">
      <ele>1380.3</ele></trkpt>
      <trkpt lat="46.39296547871646" lon="7.337947042087602">
      <ele>1380.3</ele></trkpt>
      <trkpt lat="46.392977495706276" lon="7.3380674096500575">
      <ele>1380.2</ele></trkpt>
      <trkpt lat="46.392979969618175" lon="7.338179214215161">
      <ele>1380.2</ele></trkpt>
      <trkpt lat="46.39297650782057" lon="7.338292732897238">
      <ele>1380.2</ele></trkpt>
      <trkpt lat="46.39296710764786" lon="7.338435501909653">
      <ele>1380.4</ele></trkpt>
      <trkpt lat="46.39295052661683" lon="7.33851464393177">
      <ele>1380.7</ele></trkpt>
      <trkpt lat="46.39291964543285" lon="7.338586934694108">
      <ele>1380.9</ele></trkpt>
      <trkpt lat="46.39288637117431" lon="7.33863859712768">
      <ele>1381.2</ele></trkpt>
      <trkpt lat="46.39283405165194" lon="7.338688565412209">
      <ele>1381.4</ele></trkpt>
      <trkpt lat="46.392791232819455" lon="7.338719612643184">
      <ele>1381.7</ele></trkpt>
      <trkpt lat="46.39275553830426" lon="7.338729988117084">
      <ele>1381.9</ele></trkpt>
      <trkpt lat="46.39269889755638" lon="7.33871493315614">
      <ele>1382.2</ele></trkpt>
      <trkpt lat="46.39256460695568" lon="7.338639111603466">
      <ele>1382.4</ele></trkpt>
      <trkpt lat="46.39235925994239" lon="7.338563421363629">
      <ele>1382.7</ele></trkpt>
      <trkpt lat="46.392153906152494" lon="7.338480113201255">
      <ele>1382.9</ele></trkpt>
      <trkpt lat="46.39193800390099" lon="7.338370199471748">
      <ele>1383.1</ele></trkpt>
      <trkpt lat="46.391751062913414" lon="7.33827546998872">
      <ele>1383.4</ele></trkpt>
      <trkpt lat="46.39151880328381" lon="7.338131565281322">
      <ele>1383.6</ele></trkpt>
      <trkpt lat="46.39142840712515" lon="7.33809200245786">
      <ele>1383.9</ele></trkpt>
      <trkpt lat="46.391311835398355" lon="7.338074680379699">
      <ele>1384.1</ele></trkpt>
      <trkpt lat="46.39127452158834" lon="7.338074749473362">
      <ele>1384.4</ele></trkpt>
      <trkpt lat="46.39105086584706" lon="7.338128427078069">
      <ele>1384.6</ele></trkpt>
      <trkpt lat="46.39092195861859" lon="7.338189521317561">
      <ele>1384.9</ele></trkpt>
      <trkpt lat="46.39080096969625" lon="7.338273416581416">
      <ele>1385.1</ele></trkpt>
      <trkpt lat="46.39073265776221" lon="7.338406668204046">
      <ele>1385.8</ele></trkpt>
      <trkpt lat="46.390666910874906" lon="7.338460039631651">
      <ele>1386.6</ele></trkpt>
      <trkpt lat="46.390713877579586" lon="7.338613541152821">
      <ele>1387.3</ele></trkpt>
      <trkpt lat="46.39073867452627" lon="7.338680435196">
      <ele>1388.0</ele></trkpt>
      <trkpt lat="46.39076309008371" lon="7.338722889000135">
      <ele>1388.8</ele></trkpt>
      <trkpt lat="46.39069910727507" lon="7.338828596913875">
      <ele>1389.5</ele></trkpt>
      <trkpt lat="46.39067031095367" lon="7.338908927987648">
      <ele>1390.2</ele></trkpt>
      <trkpt lat="46.39066049387949" lon="7.3389773416880235">
      <ele>1390.9</ele></trkpt>
      <trkpt lat="46.39065453107778" lon="7.339030030683124">
      <ele>1391.7</ele></trkpt>
      <trkpt lat="46.39065154965635" lon="7.339056362175825">
      <ele>1392.4</ele></trkpt>
      <trkpt lat="46.39065314914777" lon="7.339095386763016">
      <ele>1393.1</ele></trkpt>
      <trkpt lat="46.39066420780452" lon="7.339129596834015">
      <ele>1393.9</ele></trkpt>
      <trkpt lat="46.39067982226776" lon="7.339168400755911">
      <ele>1394.6</ele></trkpt>
    </trkseg>
    <trkseg>
      <trkpt lat="46.39067982226776" lon="7.339168400755911">
      <ele>1395.3</ele></trkpt>
      <trkpt lat="46.39063583697544" lon="7.339223512441941">
      <ele>1396.0</ele></trkpt>
      <trkpt lat="46.39060849039473" lon="7.339244194286795">
      <ele>1396.8</ele></trkpt>
      <trkpt lat="46.39056805072763" lon="7.339270074261281">
      <ele>1397.5</ele></trkpt>
      <trkpt lat="46.390540722217374" lon="7.339311400784995">
      <ele>1398.2</ele></trkpt>
      <trkpt lat="46.39052170413827" lon="7.339350996011906">
      <ele>1399.0</ele></trkpt>
      <trkpt lat="46.39050150908515" lon="7.3393819870507775">
      <ele>1399.7</ele></trkpt>
      <trkpt lat="46.39049182180575" lon="7.339444849015753">
      <ele>1400.8</ele></trkpt>
      <trkpt lat="46.390432371349156" lon="7.339498194454679">
      <ele>1401.9</ele></trkpt>
      <trkpt lat="46.39033889963274" lon="7.339510624488818">
      <ele>1403.0</ele></trkpt>
      <trkpt lat="46.39025105931392" lon="7.339502620558856">
      <ele>1404.0</ele></trkpt>
      <trkpt lat="46.39018305439605" lon="7.33947407882421">
      <ele>1405.1</ele></trkpt>
      <trkpt lat="46.39012070587884" lon="7.339453717068707">
      <ele>1406.2</ele></trkpt>
      <trkpt lat="46.39000171188503" lon="7.339453934382025">
      <ele>1407.3</ele></trkpt>
      <trkpt lat="46.3899280307334" lon="7.339425416208846">
      <ele>1408.4</ele></trkpt>
      <trkpt lat="46.38986851765671" lon="7.3393968592234655">
      <ele>1409.5</ele></trkpt>
      <trkpt lat="46.389786297964314" lon="7.339335596051634">
      <ele>1410.6</ele></trkpt>
      <trkpt lat="46.38973244851634" lon="7.339302933790612">
      <ele>1411.6</ele></trkpt>
      <trkpt lat="46.38967495651854" lon="7.339291598705085">
      <ele>1412.7</ele></trkpt>
      <trkpt lat="46.38959170230354" lon="7.339343348996781">
      <ele>1413.8</ele></trkpt>
      <trkpt lat="46.38955361788588" lon="7.339346863689842">
      <ele>1414.9</ele></trkpt>
      <trkpt lat="46.38949888258507" lon="7.339350408818112">
      <ele>1416.0</ele></trkpt>
      <trkpt lat="46.38946317597424" lon="7.339347029036036">
      <ele>1417.1</ele></trkpt>
      <trkpt lat="46.38936084790651" lon="7.339364402372216">
      <ele>1418.1</ele></trkpt>
      <trkpt lat="46.38926563231155" lon="7.339357712322317">
      <ele>1419.2</ele></trkpt>
      <trkpt lat="46.38922278619813" lon="7.339357790644799">
      <ele>1420.3</ele></trkpt>
      <trkpt lat="46.389187109653825" lon="7.339378487107796">
      <ele>1421.4</ele></trkpt>
      <trkpt lat="46.38913238940055" lon="7.339399231340914">
      <ele>1424.7</ele></trkpt>
      <trkpt lat="46.389046718201584" lon="7.339413142010195">
      <ele>1427.9</ele></trkpt>
      <trkpt lat="46.388983787572016" lon="7.3394369041763685">
      <ele>1431.2</ele></trkpt>
      <trkpt lat="46.38891072342601" lon="7.339465884827806">
      <ele>1434.5</ele></trkpt>
      <trkpt lat="46.38882124714274" lon="7.339521051497144">
      <ele>1437.7</ele></trkpt>
      <trkpt lat="46.38877736908538" lon="7.339565240767538">
      <ele>1441.0</ele></trkpt>
      <trkpt lat="46.38876835835505" lon="7.339589151305737">
      <ele>1444.3</ele></trkpt>
      <trkpt lat="46.38872109060409" lon="7.339748709045168">
      <ele>1447.5</ele></trkpt>
      <trkpt lat="46.388663502409294" lon="7.339823057071276">
      <ele>1450.8</ele></trkpt>
      <trkpt lat="46.388611709265795" lon="7.339909939420949">
      <ele>1454.1</ele></trkpt>
      <trkpt lat="46.388524475078384" lon="7.34004027996152">
      <ele>1457.3</ele></trkpt>
      <trkpt lat="46.3884862835655" lon="7.340075852260166">
      <ele>1460.6</ele></trkpt>
      <trkpt lat="46.388407166705264" lon="7.340127280712766">
      <ele>1463.8</ele></trkpt>
      <trkpt lat="46.38812608195181" lon="7.340222468821283">
      <ele>1467.1</ele></trkpt>
      <trkpt lat="46.387992361642894" lon="7.340273995610466">
      <ele>1470.4</ele></trkpt>
      <trkpt lat="46.38774682596043" lon="7.340440122877022">
      <ele>1473.6</ele></trkpt>
      <trkpt lat="46.38748489879575" lon="7.340594448456405">
      <ele>1476.9</ele></trkpt>
      <trkpt lat="46.38740030772767" lon="7.34063010341241">
      <ele>1480.2</ele></trkpt>
      <trkpt lat="46.38729386167437" lon="7.340650029041894">
      <ele>1483.4</ele></trkpt>
      <trkpt lat="46.38714374871114" lon="7.340677911155576">
      <ele>1486.7</ele></trkpt>
      <trkpt lat="46.38704819605705" lon="7.340666240820586">
      <ele>1488.4</ele></trkpt>
      <trkpt lat="46.38687893552377" lon="7.3406468257391975">
      <ele>1490.1</ele></trkpt>
      <trkpt lat="46.38675330437282" lon="7.34057604873443">
      <ele>1491.8</ele></trkpt>
      <trkpt lat="46.386600337346124" lon="7.340465867855142">
      <ele>1493.5</ele></trkpt>
      <trkpt lat="46.386479389718744" lon="7.340339614263726">
      <ele>1495.2</ele></trkpt>
      <trkpt lat="46.38642702032351" lon="7.340322497712131">
      <ele>1496.9</ele></trkpt>
      <trkpt lat="46.38635796417605" lon="7.340284794231942">
      <ele>1498.6</ele></trkpt>
      <trkpt lat="46.386331742198095" lon="7.340233259811612">
      <ele>1500.3</ele></trkpt>
      <trkpt lat="46.38631712061045" lon="7.34018754117391">
      <ele>1502.0</ele></trkpt>
      <trkpt lat="46.3862819839921" lon="7.340156809142731">
      <ele>1503.7</ele></trkpt>
      <trkpt lat="46.3862339395523" lon="7.340137488079504">
      <ele>1505.4</ele></trkpt>
      <trkpt lat="46.3861661649629" lon="7.340125378525261">
      <ele>1507.1</ele></trkpt>
      <trkpt lat="46.38611196696864" lon="7.340074376110339">
      <ele>1508.8</ele></trkpt>
      <trkpt lat="46.38601511432621" lon="7.339964355987998">
      <ele>1510.5</ele></trkpt>
      <trkpt lat="46.38598723206447" lon="7.339896809817579">
      <ele>1512.2</ele></trkpt>
      <trkpt lat="46.38595496039355" lon="7.339747258602927">
      <ele>1513.9</ele></trkpt>
      <trkpt lat="46.38592086229759" lon="7.3395357818806035">
      <ele>1515.6</ele></trkpt>
      <trkpt lat="46.38591360251022" lon="7.339401667608614">
      <ele>1517.3</ele></trkpt>
      <trkpt lat="46.38591349636763" lon="7.339280422661785">
      <ele>1519.0</ele></trkpt>
      <trkpt lat="46.385891989651334" lon="7.339179872904729">
      <ele>1520.7</ele></trkpt>
      <trkpt lat="46.38586515986565" lon="7.33911284533517">
      <ele>1521.4</ele></trkpt>
      <trkpt lat="46.38583297099182" lon="7.339058736015415">
      <ele>1522.0</ele></trkpt>
      <trkpt lat="46.38581149579781" lon="7.338994285624943">
      <ele>1522.7</ele></trkpt>
      <trkpt lat="46.38579004777127" lon="7.338960786669604">
      <ele>1523.3</ele></trkpt>
      <trkpt lat="46.385760173739904" lon="7.338951065993844">
      <ele>1524.0</ele></trkpt>
      <trkpt lat="46.38572506778639" lon="7.3389556021943365">
      <ele>1524.6</ele></trkpt>
      <trkpt lat="46.38570202181022" lon="7.33897701537418">
      <ele>1525.3</ele></trkpt>
      <trkpt lat="46.38563184934338" lon="7.339071974058198">
      <ele>1525.9</ele></trkpt>
      <trkpt lat="46.385584034964175" lon="7.3391202500872526">
      <ele>1526.6</ele></trkpt>
      <trkpt lat="46.385531576102444" lon="7.339144914844431">
      <ele>1527.2</ele></trkpt>
      <trkpt lat="46.38543721812329" lon="7.339213502781626">
      <ele>1527.9</ele></trkpt>
      <trkpt lat="46.38540505734944" lon="7.339252962379624">
      <ele>1528.6</ele></trkpt>
      <trkpt lat="46.38533756777335" lon="7.339360966513927">
      <ele>1529.2</ele></trkpt>
      <trkpt lat="46.385300811985125" lon="7.3393922058380525">
      <ele>1529.9</ele></trkpt>
      <trkpt lat="46.38524706610018" lon="7.339416196595871">
      <ele>1530.5</ele></trkpt>
      <trkpt lat="46.385196945433904" lon="7.339429885318712">
      <ele>1531.2</ele></trkpt>
      <trkpt lat="46.38514475749963" lon="7.339476413740038">
      <ele>1531.8</ele></trkpt>
      <trkpt lat="46.38510534359162" lon="7.33952323074203">
      <ele>1532.5</ele></trkpt>
      <trkpt lat="46.3850745448445" lon="7.339546438467175">
      <ele>1533.1</ele></trkpt>
      <trkpt lat="46.3849491656443" lon="7.339641300951529">
      <ele>1533.8</ele></trkpt>
      <trkpt lat="46.38488347343878" lon="7.339675517389127">
      <ele>1534.8</ele></trkpt>
      <trkpt lat="46.38484669312317" lon="7.339719989384158">
      <ele>1535.8</ele></trkpt>
      <trkpt lat="46.38480373550641" lon="7.339746936769704">
      <ele>1536.8</ele></trkpt>
      <trkpt lat="46.38475715976379" lon="7.339761411567064">
      <ele>1537.8</ele></trkpt>
      <trkpt lat="46.3847339923638" lon="7.339767537314976">
      <ele>1538.8</ele></trkpt>
      <trkpt lat="46.384692983583165" lon="7.339821779127614">
      <ele>1539.8</ele></trkpt>
      <trkpt lat="46.38465554827675" lon="7.33987858817669">
      <ele>1540.8</ele></trkpt>
      <trkpt lat="46.384603827917175" lon="7.339935436105175">
      <ele>1541.8</ele></trkpt>
      <trkpt lat="46.384548547484464" lon="7.340005185443674">
      <ele>1542.8</ele></trkpt>
      <trkpt lat="46.38451287532119" lon="7.340031053308473">
      <ele>1543.8</ele></trkpt>
      <trkpt lat="46.38448432096865" lon="7.340038839569597">
      <ele>1544.8</ele></trkpt>
      <trkpt lat="46.38443251979763" lon="7.34000280933481">
      <ele>1545.8</ele></trkpt>
      <trkpt lat="46.384378928526786" lon="7.339956487209163">
      <ele>1546.8</ele></trkpt>
      <trkpt lat="46.38434677822992" lon="7.3399359032130445">
      <ele>1547.8</ele></trkpt>
      <trkpt lat="46.38431465038532" lon="7.339941122193737">
      <ele>1548.8</ele></trkpt>
      <trkpt lat="46.38426823525364" lon="7.339943780331477">
      <ele>1549.8</ele></trkpt>
      <trkpt lat="46.38425749904391" lon="7.33991802287141">
      <ele>1550.8</ele></trkpt>
      <trkpt lat="46.384200343191594" lon="7.33987941584455">
      <ele>1551.8</ele></trkpt>
      <trkpt lat="46.384155718208625" lon="7.339871762606426">
      <ele>1552.8</ele></trkpt>
      <trkpt lat="46.384093198723505" lon="7.339830604666933">
      <ele>1553.8</ele></trkpt>
      <trkpt lat="46.384002129397345" lon="7.33979208556296">
      <ele>1555.0</ele></trkpt>
      <trkpt lat="46.3839342709762" lon="7.339756085115052">
      <ele>1556.1</ele></trkpt>
      <trkpt lat="46.383921150856345" lon="7.339740614317236">
      <ele>1557.3</ele></trkpt>
      <trkpt lat="46.38389773630668" lon="7.33969027325459">
      <ele>1558.4</ele></trkpt>
      <trkpt lat="46.38382877926543" lon="7.339570562264155">
      <ele>1559.6</ele></trkpt>
      <trkpt lat="46.38380017988443" lon="7.3395267692512665">
      <ele>1560.7</ele></trkpt>
      <trkpt lat="46.38373942331039" lon="7.3394443374065945">
      <ele>1561.9</ele></trkpt>
      <trkpt lat="46.383698317677755" lon="7.339387659531474">
      <ele>1563.0</ele></trkpt>
      <trkpt lat="46.38367326016279" lon="7.339320644324717">
      <ele>1564.2</ele></trkpt>
      <trkpt lat="46.383655372149214" lon="7.339263924134867">
      <ele>1565.3</ele></trkpt>
      <trkpt lat="46.3836069403906" lon="7.3392134083365885">
      <ele>1566.5</ele></trkpt>
      <trkpt lat="46.38355917758413" lon="7.339197429237075">
      <ele>1567.7</ele></trkpt>
      <trkpt lat="46.38352838570549" lon="7.339166834436472">
      <ele>1568.8</ele></trkpt>
      <trkpt lat="46.383492305368634" lon="7.339106599112903">
      <ele>1570.0</ele></trkpt>
      <trkpt lat="46.38345393455367" lon="7.339050280702689">
      <ele>1571.1</ele></trkpt>
      <trkpt lat="46.38334229377827" lon="7.3389319367311145">
      <ele>1572.3</ele></trkpt>
      <trkpt lat="46.38324029993815" lon="7.338848516108606">
      <ele>1573.4</ele></trkpt>
      <trkpt lat="46.383169178114564" lon="7.338794702102984">
      <ele>1574.6</ele></trkpt>
      <trkpt lat="46.38313239066424" lon="7.338759140269742">
      <ele>1575.7</ele></trkpt>
      <trkpt lat="46.38312548207719" lon="7.338800072895546">
      <ele>1576.9</ele></trkpt>
      <trkpt lat="46.38310833548265" lon="7.338839906432914">
      <ele>1578.2</ele></trkpt>
      <trkpt lat="46.383089899864935" lon="7.338856292664706">
      <ele>1579.5</ele></trkpt>
      <trkpt lat="46.38305713211949" lon="7.3388498535152955">
      <ele>1580.8</ele></trkpt>
      <trkpt lat="46.38300628221263" lon="7.338781014953576">
      <ele>1582.1</ele></trkpt>
      <trkpt lat="46.38295853894697" lon="7.338746435285724">
      <ele>1583.4</ele></trkpt>
      <trkpt lat="46.38286674131221" lon="7.338698509125917">
      <ele>1584.7</ele></trkpt>
      <trkpt lat="46.38273447653443" lon="7.33857375783602">
      <ele>1586.0</ele></trkpt>
      <trkpt lat="46.382667279234205" lon="7.338461716750016">
      <ele>1587.3</ele></trkpt>
      <trkpt lat="46.382616261046834" lon="7.3384063068919785">
      <ele>1588.6</ele></trkpt>
      <trkpt lat="46.3825794095199" lon="7.338389983691452">
      <ele>1590.0</ele></trkpt>
      <trkpt lat="46.3825118145759" lon="7.338367607939428">
      <ele>1591.3</ele></trkpt>
      <trkpt lat="46.38243879094309" lon="7.338309834242537">
      <ele>1592.6</ele></trkpt>
      <trkpt lat="46.38238021346726" lon="7.3382714927968316">
      <ele>1593.9</ele></trkpt>
      <trkpt lat="46.38234126751906" lon="7.338256954426133">
      <ele>1595.2</ele></trkpt>
      <trkpt lat="46.382316214330864" lon="7.338256545777032">
      <ele>1596.5</ele></trkpt>
      <trkpt lat="46.38226001140689" lon="7.338228052946572">
      <ele>1597.8</ele></trkpt>
      <trkpt lat="46.38220396313223" lon="7.338242155922035">
      <ele>1599.1</ele></trkpt>
      <trkpt lat="46.382145144901905" lon="7.338226562483034">
      <ele>1600.4</ele></trkpt>
      <trkpt lat="46.382075005104255" lon="7.338266220438153">
      <ele>1601.7</ele></trkpt>
      <trkpt lat="46.38199616697622" lon="7.338286058746549">
      <ele>1603.0</ele></trkpt>
      <trkpt lat="46.381949008031896" lon="7.338322372476877">
      <ele>1603.1</ele></trkpt>
      <trkpt lat="46.38190708425678" lon="7.338327857241655">
      <ele>1603.1</ele></trkpt>
      <trkpt lat="46.3818901295412" lon="7.338319998517568">
      <ele>1603.2</ele></trkpt>
      <trkpt lat="46.38186132719423" lon="7.3383218714873095">
      <ele>1603.3</ele></trkpt>
      <trkpt lat="46.38183605618641" lon="7.3383294572277755">
      <ele>1603.3</ele></trkpt>
      <trkpt lat="46.381804592476044" lon="7.338343020656603">
      <ele>1603.4</ele></trkpt>
      <trkpt lat="46.38174413592753" lon="7.338377019046018">
      <ele>1603.5</ele></trkpt>
      <trkpt lat="46.38165859755016" lon="7.33841892764373">
      <ele>1603.6</ele></trkpt>
      <trkpt lat="46.38160351419021" lon="7.338445935838077">
      <ele>1603.6</ele></trkpt>
      <trkpt lat="46.38157867437528" lon="7.338432489384207">
      <ele>1603.7</ele></trkpt>
      <trkpt lat="46.38155102053097" lon="7.338400499520521">
      <ele>1603.8</ele></trkpt>
      <trkpt lat="46.38151025665824" lon="7.33838502875552">
      <ele>1603.8</ele></trkpt>
      <trkpt lat="46.38145498193849" lon="7.3383685449351255">
      <ele>1603.9</ele></trkpt>
      <trkpt lat="46.38133794746872" lon="7.338275498335246">
      <ele>1604.0</ele></trkpt>
      <trkpt lat="46.38127634882685" lon="7.338248874721998">
      <ele>1604.1</ele></trkpt>
      <trkpt lat="46.38125048950216" lon="7.338201582864739">
      <ele>1604.1</ele></trkpt>
      <trkpt lat="46.381230599829124" lon="7.3381808874299015">
      <ele>1604.2</ele></trkpt>
      <trkpt lat="46.38120079730206" lon="7.338180877554923">
      <ele>1604.3</ele></trkpt>
      <trkpt lat="46.38116698809324" lon="7.33811585791275">
      <ele>1604.3</ele></trkpt>
      <trkpt lat="46.381101388637376" lon="7.338071512397338">
      <ele>1604.4</ele></trkpt>
      <trkpt lat="46.38101991823736" lon="7.338024193800783">
      <ele>1604.8</ele></trkpt>
      <trkpt lat="46.380924437126765" lon="7.337870511221859">
      <ele>1605.2</ele></trkpt>
      <trkpt lat="46.38077533547444" lon="7.33771976239993">
      <ele>1605.6</ele></trkpt>
      <trkpt lat="46.38070180696233" lon="7.337681307572244">
      <ele>1605.9</ele></trkpt>
      <trkpt lat="46.38062422298228" lon="7.337533559312509">
      <ele>1606.3</ele></trkpt>
      <trkpt lat="46.38056259254265" lon="7.3374714781553125">
      <ele>1606.7</ele></trkpt>
      <trkpt lat="46.3804811118122" lon="7.337433025632066">
      <ele>1607.1</ele></trkpt>
      <trkpt lat="46.380381702427066" lon="7.3373236632920635">
      <ele>1607.5</ele></trkpt>
      <trkpt lat="46.380210840549964" lon="7.33726449009086">
      <ele>1607.9</ele></trkpt>
      <trkpt lat="46.380053901167614" lon="7.337252590877096">
      <ele>1608.2</ele></trkpt>
      <trkpt lat="46.3799307694431" lon="7.337273214461924">
      <ele>1608.6</ele></trkpt>
      <trkpt lat="46.37981957853294" lon="7.3373381645578775">
      <ele>1609.0</ele></trkpt>
      <trkpt lat="46.37969050115489" lon="7.3373794655790725">
      <ele>1609.4</ele></trkpt>
      <trkpt lat="46.379617064845064" lon="7.337444422824859">
      <ele>1609.8</ele></trkpt>
      <trkpt lat="46.379503912135334" lon="7.337538906935906">
      <ele>1610.2</ele></trkpt>
      <trkpt lat="46.37943042309132" lon="7.337544788745813">
      <ele>1610.6</ele></trkpt>
      <trkpt lat="46.37936091427276" lon="7.3375654286384036">
      <ele>1610.9</ele></trkpt>
      <trkpt lat="46.37930133356534" lon="7.337562446022905">
      <ele>1611.3</ele></trkpt>
      <trkpt lat="46.37922189774607" lon="7.337597869778823">
      <ele>1611.7</ele></trkpt>
      <trkpt lat="46.37920004734219" lon="7.337597845432659">
      <ele>1612.1</ele></trkpt>
      <trkpt lat="46.37916390351924" lon="7.337588437296933">
      <ele>1613.0</ele></trkpt>
      <trkpt lat="46.37904143764683" lon="7.3376598276680625">
      <ele>1613.9</ele></trkpt>
      <trkpt lat="46.37896186962061" lon="7.337708457029519">
      <ele>1614.9</ele></trkpt>
      <trkpt lat="46.378885793174945" lon="7.337778772909477">
      <ele>1615.8</ele></trkpt>
      <trkpt lat="46.37884980188277" lon="7.337789133898506">
      <ele>1616.7</ele></trkpt>
      <trkpt lat="46.378799012745375" lon="7.337839932097903">
      <ele>1617.6</ele></trkpt>
      <trkpt lat="46.37876125393309" lon="7.337825132838473">
      <ele>1618.6</ele></trkpt>
      <trkpt lat="46.37872753683795" lon="7.337884204754256">
      <ele>1619.5</ele></trkpt>
      <trkpt lat="46.37866000400513" lon="7.337881223575916">
      <ele>1620.4</ele></trkpt>
      <trkpt lat="46.37857263280894" lon="7.337925499539076">
      <ele>1621.3</ele></trkpt>
      <trkpt lat="46.37853884070784" lon="7.337890026730881">
      <ele>1622.3</ele></trkpt>
      <trkpt lat="46.37844350386351" lon="7.337898833942361">
      <ele>1623.2</ele></trkpt>
      <trkpt lat="46.37836009824271" lon="7.337931300561242">
      <ele>1624.1</ele></trkpt>
      <trkpt lat="46.37827385663106" lon="7.337910456411267">
      <ele>1625.0</ele></trkpt>
      <trkpt lat="46.37820461016229" lon="7.337912573433485">
      <ele>1626.0</ele></trkpt>
      <trkpt lat="46.378117260274834" lon="7.337828953472222">
      <ele>1626.9</ele></trkpt>
      <trkpt lat="46.3780701580807" lon="7.337817616083825">
      <ele>1627.8</ele></trkpt>
      <trkpt lat="46.37803627122337" lon="7.33784761218907">
      <ele>1628.8</ele></trkpt>
      <trkpt lat="46.37799538574697" lon="7.337826983066833">
      <ele>1629.7</ele></trkpt>
      <trkpt lat="46.37793955836688" lon="7.337775824672464">
      <ele>1630.6</ele></trkpt>
      <trkpt lat="46.37793302880278" lon="7.337757016470551">
      <ele>1631.8</ele></trkpt>
      <trkpt lat="46.377880922022555" lon="7.337752408159468">
      <ele>1633.1</ele></trkpt>
      <trkpt lat="46.37782714516924" lon="7.337700752236813">
      <ele>1634.3</ele></trkpt>
      <trkpt lat="46.37778966712249" lon="7.337667899389405">
      <ele>1635.6</ele></trkpt>
      <trkpt lat="46.377747307999485" lon="7.3376491448637875">
      <ele>1636.8</ele></trkpt>
      <trkpt lat="46.37766917776629" lon="7.337665757816312">
      <ele>1638.1</ele></trkpt>
      <trkpt lat="46.377618680334734" lon="7.337639973879899">
      <ele>1639.3</ele></trkpt>
      <trkpt lat="46.3775747187706" lon="7.337640055613712">
      <ele>1640.6</ele></trkpt>
      <trkpt lat="46.37752257636063" lon="7.337595454621801">
      <ele>1641.8</ele></trkpt>
      <trkpt lat="46.377431340210286" lon="7.337532106311155">
      <ele>1643.0</ele></trkpt>
      <trkpt lat="46.377330330590816" lon="7.337464071385641">
      <ele>1644.3</ele></trkpt>
      <trkpt lat="46.377291258443194" lon="7.337459439129312">
      <ele>1645.5</ele></trkpt>
      <trkpt lat="46.37723098063353" lon="7.337431321274497">
      <ele>1646.8</ele></trkpt>
      <trkpt lat="46.37713320215247" lon="7.337335050690623">
      <ele>1648.0</ele></trkpt>
      <trkpt lat="46.37707942779739" lon="7.3372763383758475">
      <ele>1649.3</ele></trkpt>
      <trkpt lat="46.3770060722758" lon="7.3371800227255575">
      <ele>1650.5</ele></trkpt>
      <trkpt lat="46.37693922260764" lon="7.337086047670706">
      <ele>1651.8</ele></trkpt>
      <trkpt lat="46.3768577069151" lon="7.336968575347238">
      <ele>1653.0</ele></trkpt>
      <trkpt lat="46.37681367150633" lon="7.336886320532795">
      <ele>1654.3</ele></trkpt>
      <trkpt lat="46.37672731746662" lon="7.336820612600347">
      <ele>1655.5</ele></trkpt>
      <trkpt lat="46.37665232702141" lon="7.336717256797548">
      <ele>1656.9</ele></trkpt>
      <trkpt lat="46.37661969520859" lon="7.336642025539613">
      <ele>1658.3</ele></trkpt>
      <trkpt lat="46.37656430023961" lon="7.3366021503585666">
      <ele>1659.7</ele></trkpt>
      <trkpt lat="46.3765415058722" lon="7.336592770253704">
      <ele>1661.2</ele></trkpt>
      <trkpt lat="46.3764779677264" lon="7.336550545007922">
      <ele>1662.6</ele></trkpt>
      <trkpt lat="46.37645835246738" lon="7.3364753026094105">
      <ele>1664.0</ele></trkpt>
      <trkpt lat="46.37639802615655" lon="7.33638366956326">
      <ele>1665.4</ele></trkpt>
      <trkpt lat="46.37635885796911" lon="7.336282599965811">
      <ele>1666.8</ele></trkpt>
      <trkpt lat="46.376342518551695" lon="7.336219101014273">
      <ele>1668.2</ele></trkpt>
      <trkpt lat="46.37633596110099" lon="7.336169711473894">
      <ele>1669.7</ele></trkpt>
      <trkpt lat="46.37631154013626" lon="7.336172110007973">
      <ele>1671.1</ele></trkpt>
      <trkpt lat="46.37629851924434" lon="7.336167442624969">
      <ele>1672.5</ele></trkpt>
      <trkpt lat="46.37627897389038" lon="7.33616981896486">
      <ele>1673.9</ele></trkpt>
      <trkpt lat="46.37623824536729" lon="7.336144031644186">
      <ele>1675.3</ele></trkpt>
      <trkpt lat="46.37620240357134" lon="7.33612057460886">
      <ele>1676.7</ele></trkpt>
      <trkpt lat="46.376138922674265" lon="7.336141866573022">
      <ele>1678.1</ele></trkpt>
      <trkpt lat="46.37609822601646" lon="7.3361513402049745">
      <ele>1679.6</ele></trkpt>
      <trkpt lat="46.37608034550911" lon="7.3361843083849045">
      <ele>1681.0</ele></trkpt>
      <trkpt lat="46.37606243787425" lon="7.336177297775665">
      <ele>1682.4</ele></trkpt>
      <trkpt lat="46.3760526367512" lon="7.336142029371617">
      <ele>1683.8</ele></trkpt>
      <trkpt lat="46.37605093360329" lon="7.336069093351355">
      <ele>1685.4</ele></trkpt>
      <trkpt lat="46.376016707228" lon="7.3360315186489515">
      <ele>1687.0</ele></trkpt>
      <trkpt lat="46.37599554103131" lon="7.336022148799494">
      <ele>1688.6</ele></trkpt>
      <trkpt lat="46.375964539105574" lon="7.335949281239291">
      <ele>1690.2</ele></trkpt>
      <trkpt lat="46.37593031482155" lon="7.335914059122154">
      <ele>1691.8</ele></trkpt>
      <trkpt lat="46.37588961180233" lon="7.335916488540668">
      <ele>1693.4</ele></trkpt>
      <trkpt lat="46.37582119046133" lon="7.3358860490728075">
      <ele>1695.0</ele></trkpt>
      <trkpt lat="46.375793505021676" lon="7.335869621304293">
      <ele>1696.6</ele></trkpt>
      <trkpt lat="46.37579343891194" lon="7.335796695538052">
      <ele>1698.2</ele></trkpt>
      <trkpt lat="46.37579991333993" lon="7.3357543522074184">
      <ele>1699.8</ele></trkpt>
      <trkpt lat="46.37578198126041" lon="7.335740258485631">
      <ele>1701.3</ele></trkpt>
      <trkpt lat="46.37575430436219" lon="7.335733266566546">
      <ele>1702.9</ele></trkpt>
      <trkpt lat="46.37570539412113" lon="7.3356627858854875">
      <ele>1704.5</ele></trkpt>
      <trkpt lat="46.375671167611344" lon="7.335625211678114">
      <ele>1706.1</ele></trkpt>
      <trkpt lat="46.375700421426394" lon="7.3355757418833285">
      <ele>1707.7</ele></trkpt>
      <trkpt lat="46.375671086362665" lon="7.335535806008197">
      <ele>1709.3</ele></trkpt>
      <trkpt lat="46.37562872735042" lon="7.335507670105405">
      <ele>1710.9</ele></trkpt>
      <trkpt lat="46.37559614183504" lon="7.335484207569749">
      <ele>1712.5</ele></trkpt>
      <trkpt lat="46.375592846465324" lon="7.3354512796749844">
      <ele>1714.1</ele></trkpt>
      <trkpt lat="46.37560254716861" lon="7.335375970176922">
      <ele>1715.7</ele></trkpt>
      <trkpt lat="46.37562527349345" lon="7.33530066186827">
      <ele>1717.5</ele></trkpt>
      <trkpt lat="46.37561870706386" lon="7.335241863344905">
      <ele>1719.2</ele></trkpt>
      <trkpt lat="46.375599138960894" lon="7.335199543676808">
      <ele>1721.0</ele></trkpt>
      <trkpt lat="46.37557147876872" lon="7.3352207682902275">
      <ele>1722.8</ele></trkpt>
      <trkpt lat="46.375498224527256" lon="7.335237387786388">
      <ele>1724.5</ele></trkpt>
      <trkpt lat="46.37545423680928" lon="7.335218652043437">
      <ele>1726.3</ele></trkpt>
      <trkpt lat="46.37545258326756" lon="7.335181016257408">
      <ele>1728.1</ele></trkpt>
      <trkpt lat="46.37548346979604" lon="7.335126838441885">
      <ele>1729.8</ele></trkpt>
      <trkpt lat="46.37548994181387" lon="7.3350821298452935">
      <ele>1731.6</ele></trkpt>
      <trkpt lat="46.375460614782895" lon="7.335061026842414">
      <ele>1733.3</ele></trkpt>
      <trkpt lat="46.37541338136812" lon="7.335054059602972">
      <ele>1735.1</ele></trkpt>
      <trkpt lat="46.37542311836744" lon="7.335018754555591">
      <ele>1736.9</ele></trkpt>
      <trkpt lat="46.375445850884134" lon="7.334950477639528">
      <ele>1738.6</ele></trkpt>
      <trkpt lat="46.37547507074805" lon="7.334844562323188">
      <ele>1740.4</ele></trkpt>
      <trkpt lat="46.375474991062646" lon="7.334757535401187">
      <ele>1742.2</ele></trkpt>
      <trkpt lat="46.37545869822798" lon="7.334745804387996">
      <ele>1743.9</ele></trkpt>
      <trkpt lat="46.375421218941526" lon="7.334722351743478">
      <ele>1745.7</ele></trkpt>
      <trkpt lat="46.375391941783505" lon="7.334745932053611">
      <ele>1747.5</ele></trkpt>
      <trkpt lat="46.375356110101556" lon="7.334743648149122">
      <ele>1749.2</ele></trkpt>
      <trkpt lat="46.37534790655126" lon="7.334675443401145">
      <ele>1751.0</ele></trkpt>
      <trkpt lat="46.37536411094208" lon="7.334590724926603">
      <ele>1753.3</ele></trkpt>
      <trkpt lat="46.37539822769519" lon="7.334508324497589">
      <ele>1755.5</ele></trkpt>
      <trkpt lat="46.37542421235431" lon="7.334425939564748">
      <ele>1757.8</ele></trkpt>
      <trkpt lat="46.37543554708432" lon="7.334357697274159">
      <ele>1760.1</ele></trkpt>
      <trkpt lat="46.37541758272417" lon="7.334298920960557">
      <ele>1762.3</ele></trkpt>
      <trkpt lat="46.375391540086184" lon="7.3343083807019935">
      <ele>1764.6</ele></trkpt>
      <trkpt lat="46.37534432211364" lon="7.334308471382179">
      <ele>1766.9</ele></trkpt>
      <trkpt lat="46.37532795561329" lon="7.334216758120996">
      <ele>1769.2</ele></trkpt>
      <trkpt lat="46.375284013200336" lon="7.334247411127155">
      <ele>1771.4</ele></trkpt>
      <trkpt lat="46.37525954247108" lon="7.334195717795367">
      <ele>1773.7</ele></trkpt>
      <trkpt lat="46.37523026325656" lon="7.334216945899535">
      <ele>1776.0</ele></trkpt>
      <trkpt lat="46.37515694849029" lon="7.334167685987674">
      <ele>1778.2</ele></trkpt>
      <trkpt lat="46.375129976895934" lon="7.334135466819431">
      <ele>1780.5</ele></trkpt>
      <trkpt lat="46.37508200983298" lon="7.334123134167781">
      <ele>1782.8</ele></trkpt>
      <trkpt lat="46.37502992025032" lon="7.334137348871405">
      <ele>1785.1</ele></trkpt>
      <trkpt lat="46.374998936302504" lon="7.334095052027357">
      <ele>1787.3</ele></trkpt>
      <trkpt lat="46.37497611572274" lon="7.334057470334934">
      <ele>1789.6</ele></trkpt>
      <trkpt lat="46.37492887171424" lon="7.3340293323538015">
      <ele>1791.9</ele></trkpt>
      <trkpt lat="46.37481975990033" lon="7.334015428020897">
      <ele>1794.1</ele></trkpt>
      <trkpt lat="46.37474164105106" lon="7.334043807296019">
      <ele>1796.4</ele></trkpt>
      <trkpt lat="46.374679797427504" lon="7.3340745075632015">
      <ele>1798.0</ele></trkpt>
      <trkpt lat="46.37465374613263" lon="7.334074557705143">
      <ele>1799.6</ele></trkpt>
      <trkpt lat="46.374616310088676" lon="7.334098153731642">
      <ele>1801.3</ele></trkpt>
      <trkpt lat="46.37461302363041" lon="7.334055816908776">
      <ele>1802.9</ele></trkpt>
      <trkpt lat="46.3746292427554" lon="7.333987566150514">
      <ele>1804.5</ele></trkpt>
      <trkpt lat="46.37463409263322" lon="7.333949918440453">
      <ele>1806.1</ele></trkpt>
      <trkpt lat="46.374538076235766" lon="7.334001843134031">
      <ele>1807.7</ele></trkpt>
      <trkpt lat="46.374484380174884" lon="7.334039597816881">
      <ele>1809.4</ele></trkpt>
      <trkpt lat="46.37442904688793" lon="7.334077342579598">
      <ele>1811.0</ele></trkpt>
      <trkpt lat="46.37438679191225" lon="7.334152700299081">
      <ele>1812.6</ele></trkpt>
      <trkpt lat="46.374380197846136" lon="7.334211002791138">
      <ele>1814.2</ele></trkpt>
      <trkpt lat="46.37435701384911" lon="7.334296500050352">
      <ele>1815.8</ele></trkpt>
      <trkpt lat="46.37435183666932" lon="7.334359855452926">
      <ele>1817.5</ele></trkpt>
      <trkpt lat="46.37436261126939" lon="7.334416214060539">
      <ele>1819.1</ele></trkpt>
      <trkpt lat="46.3743186907657" lon="7.334460980624281">
      <ele>1820.7</ele></trkpt>
      <trkpt lat="46.37427963543121" lon="7.334484579343319">
      <ele>1822.3</ele></trkpt>
      <trkpt lat="46.374209622940995" lon="7.3344753170477235">
      <ele>1823.9</ele></trkpt>
      <trkpt lat="46.37415916979507" lon="7.334508334070588">
      <ele>1825.6</ele></trkpt>
      <trkpt lat="46.37405008863741" lon="7.334517952640496">
      <ele>1827.2</ele></trkpt>
      <trkpt lat="46.373963791575164" lon="7.334515778660806">
      <ele>1828.8</ele></trkpt>
      <trkpt lat="46.373897043771265" lon="7.334525316053022">
      <ele>1831.3</ele></trkpt>
      <trkpt lat="46.37382870446517" lon="7.3345748466438465">
      <ele>1833.7</ele></trkpt>
      <trkpt lat="46.37379130103825" lon="7.334624304884075">
      <ele>1836.2</ele></trkpt>
      <trkpt lat="46.373752237040954" lon="7.334638493834059">
      <ele>1838.6</ele></trkpt>
      <trkpt lat="46.37358780335442" lon="7.33465528807741">
      <ele>1841.1</ele></trkpt>
      <trkpt lat="46.37349013040992" lon="7.334676646159703">
      <ele>1843.6</ele></trkpt>
      <trkpt lat="46.373389222981075" lon="7.334712124417687">
      <ele>1846.0</ele></trkpt>
      <trkpt lat="46.37331768065496" lon="7.334829878321896">
      <ele>1848.5</ele></trkpt>
      <trkpt lat="46.37327379482194" lon="7.334902884688385">
      <ele>1850.9</ele></trkpt>
      <trkpt lat="46.37326244431691" lon="7.334964067163629">
      <ele>1853.4</ele></trkpt>
      <trkpt lat="46.373262515260116" lon="7.335041694200214">
      <ele>1855.9</ele></trkpt>
      <trkpt lat="46.37327235968044" lon="7.3351240072919035">
      <ele>1858.3</ele></trkpt>
      <trkpt lat="46.37329205090563" lon="7.335281576540404">
      <ele>1860.8</ele></trkpt>
      <trkpt lat="46.373341091975256" lon="7.335495533360602">
      <ele>1863.2</ele></trkpt>
      <trkpt lat="46.37338203218203" lon="7.335754213440691">
      <ele>1865.7</ele></trkpt>
      <trkpt lat="46.37339535990847" lon="7.336097630463121">
      <ele>1868.2</ele></trkpt>
      <trkpt lat="46.37341006267218" lon="7.336151706644805">
      <ele>1870.6</ele></trkpt>
      <trkpt lat="46.37344921611842" lon="7.3362363172604494">
      <ele>1873.1</ele></trkpt>
      <trkpt lat="46.37350630947677" lon="7.336353827097493">
      <ele>1875.5</ele></trkpt>
      <trkpt lat="46.373501469405284" lon="7.336403235535743">
      <ele>1878.0</ele></trkpt>
      <trkpt lat="46.37347876407034" lon="7.336492667481731">
      <ele>1879.2</ele></trkpt>
      <trkpt lat="46.37347880221415" lon="7.336535022667745">
      <ele>1880.5</ele></trkpt>
      <trkpt lat="46.373399136538" lon="7.33666455133356">
      <ele>1881.7</ele></trkpt>
      <trkpt lat="46.37338614840819" lon="7.3367163142804515">
      <ele>1882.9</ele></trkpt>
      <trkpt lat="46.37340411574097" lon="7.336779793877004">
      <ele>1884.1</ele></trkpt>
      <trkpt lat="46.373407444514584" lon="7.336850357978477">
      <ele>1885.3</ele></trkpt>
      <trkpt lat="46.37342867606836" lon="7.3369326502974035">
      <ele>1886.6</ele></trkpt>
      <trkpt lat="46.373443380542504" lon="7.33698907908064">
      <ele>1887.8</ele></trkpt>
      <trkpt lat="46.37342715961123" lon="7.337057327453067">
      <ele>1889.0</ele></trkpt>
      <trkpt lat="46.37338333759621" lon="7.337203254700021">
      <ele>1890.2</ele></trkpt>
      <trkpt lat="46.37337039338593" lon="7.337304429622772">
      <ele>1891.5</ele></trkpt>
      <trkpt lat="46.373284229312134" lon="7.337441039020326">
      <ele>1892.7</ele></trkpt>
      <trkpt lat="46.3732322079342" lon="7.337542273422098">
      <ele>1893.9</ele></trkpt>
      <trkpt lat="46.373194862512634" lon="7.337648198014749">
      <ele>1895.2</ele></trkpt>
      <trkpt lat="46.37313954330324" lon="7.337692995177012">
      <ele>1896.4</ele></trkpt>
      <trkpt lat="46.373074933150406" lon="7.337709217643384">
      <ele>1897.6</ele></trkpt>
      <trkpt lat="46.37297592876417" lon="7.337721007245973">
      <ele>1898.8</ele></trkpt>
      <trkpt lat="46.37288152659342" lon="7.3377389224894705">
      <ele>1900.0</ele></trkpt>
      <trkpt lat="46.372829756604695" lon="7.337779203016363">
      <ele>1901.3</ele></trkpt>
      <trkpt lat="46.372785555745025" lon="7.337844019300225">
      <ele>1902.5</ele></trkpt>
      <trkpt lat="46.372736188882286" lon="7.337845306541904">
      <ele>1904.3</ele></trkpt>
      <trkpt lat="46.3727104105718" lon="7.337798269088056">
      <ele>1906.2</ele></trkpt>
      <trkpt lat="46.3727687186322" lon="7.337756014097241">
      <ele>1908.0</ele></trkpt>
      <trkpt lat="46.37285619724142" lon="7.337711222542669">
      <ele>1909.9</ele></trkpt>
      <trkpt lat="46.37282697132187" lon="7.337661683181683">
      <ele>1911.7</ele></trkpt>
      <trkpt lat="46.37271028922282" lon="7.337661900051564">
      <ele>1913.5</ele></trkpt>
      <trkpt lat="46.372617640870736" lon="7.33767943516156">
      <ele>1915.4</ele></trkpt>
      <trkpt lat="46.37255416952754" lon="7.337711783626061">
      <ele>1917.2</ele></trkpt>
      <trkpt lat="46.372507879622944" lon="7.337754016180595">
      <ele>1919.1</ele></trkpt>
      <trkpt lat="46.37246840908052" lon="7.3377565717402575">
      <ele>1920.9</ele></trkpt>
      <trkpt lat="46.37240543564895" lon="7.337752036056362">
      <ele>1922.7</ele></trkpt>
      <trkpt lat="46.37228817715493" lon="7.33781217887273">
      <ele>1924.6</ele></trkpt>
      <trkpt lat="46.37224030104616" lon="7.337780284320543">
      <ele>1926.4</ele></trkpt>
      <trkpt lat="46.372196805131615" lon="7.337767862829362">
      <ele>1928.3</ele></trkpt>
      <trkpt lat="46.3721735579123" lon="7.3377347009958305">
      <ele>1930.1</ele></trkpt>
      <trkpt lat="46.3721475150234" lon="7.337754308462384">
      <ele>1931.9</ele></trkpt>
      <trkpt lat="46.372165484849056" lon="7.337679690576181">
      <ele>1933.8</ele></trkpt>
      <trkpt lat="46.37213016847047" lon="7.337548937721991">
      <ele>1935.6</ele></trkpt>
      <trkpt lat="46.37212315532507" lon="7.337512444803742">
      <ele>1937.5</ele></trkpt>
      <trkpt lat="46.37211149230549" lon="7.337476935258343">
      <ele>1939.3</ele></trkpt>
      <trkpt lat="46.37205709634739" lon="7.33744736654711">
      <ele>1939.4</ele></trkpt>
      <trkpt lat="46.37201289689908" lon="7.337442965235293">
      <ele>1939.5</ele></trkpt>
      <trkpt lat="46.37194845188112" lon="7.337462748267451">
      <ele>1939.7</ele></trkpt>
      <trkpt lat="46.37192090021714" lon="7.337454846009411">
      <ele>1939.8</ele></trkpt>
      <trkpt lat="46.37183838244338" lon="7.337494195640883">
      <ele>1939.9</ele></trkpt>
      <trkpt lat="46.37178342450571" lon="7.337550635577322">
      <ele>1940.0</ele></trkpt>
      <trkpt lat="46.3717183710865" lon="7.337594332125095">
      <ele>1940.1</ele></trkpt>
      <trkpt lat="46.37167893809422" lon="7.337639033612114">
      <ele>1940.3</ele></trkpt>
      <trkpt lat="46.37163821440245" lon="7.337719320361251">
      <ele>1940.4</ele></trkpt>
      <trkpt lat="46.37162116025982" lon="7.337771634756273">
      <ele>1940.5</ele></trkpt>
      <trkpt lat="46.371585901016665" lon="7.337897137068079">
      <ele>1940.6</ele></trkpt>
      <trkpt lat="46.371511688276314" lon="7.337989649720764">
      <ele>1940.7</ele></trkpt>
      <trkpt lat="46.37147813398304" lon="7.338019381563009">
      <ele>1940.9</ele></trkpt>
      <trkpt lat="46.37146394226632" lon="7.3380738997164245">
      <ele>1941.0</ele></trkpt>
      <trkpt lat="46.371428346150715" lon="7.338093719382384">
      <ele>1941.1</ele></trkpt>
      <trkpt lat="46.37140094376516" lon="7.338172993098198">
      <ele>1941.2</ele></trkpt>
      <trkpt lat="46.37131956556138" lon="7.338209376094754">
      <ele>1941.3</ele></trkpt>
      <trkpt lat="46.3711935037747" lon="7.338344830938979">
      <ele>1941.5</ele></trkpt>
      <trkpt lat="46.3711507434131" lon="7.338329977655196">
      <ele>1941.6</ele></trkpt>
      <trkpt lat="46.37111917969049" lon="7.338311828769875">
      <ele>1941.7</ele></trkpt>
      <trkpt lat="46.37108558710447" lon="7.33830853787984">
      <ele>1942.8</ele></trkpt>
      <trkpt lat="46.37105808209243" lon="7.338282129188103">
      <ele>1943.8</ele></trkpt>
      <trkpt lat="46.37102132715523" lon="7.338161582979244">
      <ele>1944.9</ele></trkpt>
      <trkpt lat="46.37097146441421" lon="7.338161610215222">
      <ele>1945.9</ele></trkpt>
      <trkpt lat="46.370956217856985" lon="7.338183081470571">
      <ele>1947.0</ele></trkpt>
      <trkpt lat="46.37091856070086" lon="7.338181435654331">
      <ele>1948.0</ele></trkpt>
      <trkpt lat="46.37085241126797" lon="7.338186418382437">
      <ele>1949.0</ele></trkpt>
      <trkpt lat="46.37080559678881" lon="7.338174873735677">
      <ele>1950.1</ele></trkpt>
      <trkpt lat="46.37078626935696" lon="7.338189737628138">
      <ele>1951.2</ele></trkpt>
      <trkpt lat="46.370763824516786" lon="7.338229520120095">
      <ele>1952.2</ele></trkpt>
      <trkpt lat="46.370755044313405" lon="7.338168053477054">
      <ele>1953.2</ele></trkpt>
      <trkpt lat="46.37073267974466" lon="7.338105533343651">
      <ele>1954.3</ele></trkpt>
      <trkpt lat="46.37071037254203" lon="7.338067159229963">
      <ele>1955.4</ele></trkpt>
      <trkpt lat="46.37064697739183" lon="7.338023260079764">
      <ele>1956.4</ele></trkpt>
      <trkpt lat="46.37061999608906" lon="7.337999138020891">
      <ele>1957.5</ele></trkpt>
      <trkpt lat="46.370590962047245" lon="7.337962933782827">
      <ele>1958.5</ele></trkpt>
      <trkpt lat="46.370547159656525" lon="7.337949785331517">
      <ele>1959.5</ele></trkpt>
      <trkpt lat="46.37050691340405" lon="7.337960126509945">
      <ele>1960.6</ele></trkpt>
      <trkpt lat="46.37049602217434" lon="7.337962914772628">
      <ele>1961.7</ele></trkpt>
      <trkpt lat="46.37049308176268" lon="7.337964219789523">
      <ele>1962.7</ele></trkpt>
      <trkpt lat="46.37047382073968" lon="7.337972793640339">
      <ele>1963.8</ele></trkpt>
      <trkpt lat="46.370433286841404" lon="7.337912464877281">
      <ele>1964.8</ele></trkpt>
      <trkpt lat="46.370410213874415" lon="7.337832402388631">
      <ele>1965.9</ele></trkpt>
      <trkpt lat="46.37039528927644" lon="7.337780863304689">
      <ele>1966.9</ele></trkpt>
      <trkpt lat="46.370364884647095" lon="7.337619838642123">
      <ele>1968.0</ele></trkpt>
      <trkpt lat="46.37034920109969" lon="7.337514239175015">
      <ele>1969.1</ele></trkpt>
      <trkpt lat="46.37033021649421" lon="7.337429283001358">
      <ele>1970.1</ele></trkpt>
      <trkpt lat="46.37028393199806" lon="7.337356528701128">
      <ele>1971.2</ele></trkpt>
      <trkpt lat="46.37018509680068" lon="7.337265665710266">
      <ele>1972.2</ele></trkpt>
      <trkpt lat="46.37013888903269" lon="7.337268766905136">
      <ele>1973.3</ele></trkpt>
      <trkpt lat="46.37008640978253" lon="7.337320483284611">
      <ele>1974.4</ele></trkpt>
      <trkpt lat="46.37001927868992" lon="7.337445041047748">
      <ele>1975.4</ele></trkpt>
      <trkpt lat="46.37007815061486" lon="7.337490454925142">
      <ele>1976.5</ele></trkpt>
      <trkpt lat="46.37002361497426" lon="7.337596795240622">
      <ele>1977.5</ele></trkpt>
      <trkpt lat="46.36998793213513" lon="7.337630247199273">
      <ele>1978.6</ele></trkpt>
      <trkpt lat="46.36996064308768" lon="7.337654586625468">
      <ele>1979.7</ele></trkpt>
      <trkpt lat="46.369981669471926" lon="7.3376788362463214">
      <ele>1980.7</ele></trkpt>
      <trkpt lat="46.36994391674515" lon="7.3377517464635496">
      <ele>1981.8</ele></trkpt>
      <trkpt lat="46.369939791379274" lon="7.337836745021783">
      <ele>1982.8</ele></trkpt>
      <trkpt lat="46.369935680324076" lon="7.337927799466385">
      <ele>1983.9</ele></trkpt>
      <trkpt lat="46.36989998478438" lon="7.337967320094309">
      <ele>1984.9</ele></trkpt>
      <trkpt lat="46.36985595287559" lon="7.338070599185621">
      <ele>1986.0</ele></trkpt>
      <trkpt lat="46.369759383895875" lon="7.338140589798775">
      <ele>1987.0</ele></trkpt>
      <trkpt lat="46.369751013335126" lon="7.338186128535649">
      <ele>1988.0</ele></trkpt>
      <trkpt lat="46.36978051230091" lon="7.338280161502109">
      <ele>1989.0</ele></trkpt>
      <trkpt lat="46.36979948554608" lon="7.338352992316471">
      <ele>1990.1</ele></trkpt>
      <trkpt lat="46.36975546668404" lon="7.338471436634935">
      <ele>1991.1</ele></trkpt>
      <trkpt lat="46.36973247115017" lon="7.338600836241152">
      <ele>1992.1</ele></trkpt>
      <trkpt lat="46.369711661188816" lon="7.338740199263522">
      <ele>1993.2</ele></trkpt>
      <trkpt lat="46.36970074952991" lon="7.338821960976099">
      <ele>1994.2</ele></trkpt>
      <trkpt lat="46.36975242174911" lon="7.338966648967339">
      <ele>1995.2</ele></trkpt>
      <trkpt lat="46.36976379295935" lon="7.338998194195146">
      <ele>1996.2</ele></trkpt>
      <trkpt lat="46.36976360599613" lon="7.3390413656147295">
      <ele>1997.3</ele></trkpt>
      <trkpt lat="46.36972791273824" lon="7.3390839263278185">
      <ele>1998.3</ele></trkpt>
      <trkpt lat="46.36955041599554" lon="7.3391818604394405">
      <ele>1999.3</ele></trkpt>
      <trkpt lat="46.36951312799451" lon="7.339211350390624">
      <ele>2000.3</ele></trkpt>
      <trkpt lat="46.36949745048125" lon="7.339223737747812">
      <ele>2001.4</ele></trkpt>
      <trkpt lat="46.369489559612525" lon="7.339273108875576">
      <ele>2002.4</ele></trkpt>
    </trkseg>
  </trk>
</gpx>