<?xml version='1.0' encoding='utf-8'?>
<gpx xmlns="http://www.topografix.com/GPX/1/1" xmlns:xsi="http://www.w3.org/2001/XMLSchema-instance" xsi:schemaLocation="http://www.topografix.com/GPX/1/1 http://www.topografix.com/GPX/1/1/gpx.xsd" version="1.1" creator="gpx.py -- https://github.com/tkrajina/gpxpy">
  <trk>
    <name>first-gl</name>
    <trkseg>
      <trkpt lat="46.96996987356891" lon="9.02274166310508">
      <ele>1095.5</ele></trkpt>
    <trkpt lat="46.96997636066535" lon="9.022579597460792">
      <ele>1095.5</ele></trkpt>
      <trkpt lat="46.97002650907314" lon="9.02214077127092">
      <ele>1095.6</ele></trkpt>
      <trkpt lat="46.97010035505454" lon="9.022049634294682">
      <ele>1095.6</ele></trkpt>
      <trkpt lat="46.97013916996098" lon="9.022007168813937">
      <ele>1095.7</ele></trkpt>
      <trkpt lat="46.97020262392565" lon="9.021961066144367">
      <ele>1095.7</ele></trkpt>
      <trkpt lat="46.970250320200506" lon="9.021928273134689">
      <ele>1095.8</ele></trkpt>
      <trkpt lat="46.97028458550394" lon="9.021896017245632">
      <ele>1095.8</ele></trkpt>
      <trkpt lat="46.970309578531655" lon="9.021861542689221">
      <ele>1095.9</ele></trkpt>
      <trkpt lat="46.97033227761628" lon="9.021811412253633">
      <ele>1095.9</ele></trkpt>
      <trkpt lat="46.97035563071851" lon="9.021744543064566">
      <ele>1095.9</ele></trkpt>
      <trkpt lat="46.97038050760946" lon="9.0216702663594">
      <ele>1096.0</ele></trkpt>
      <trkpt lat="46.97040832737636" lon="9.021596575795293">
      <ele>1096.0</ele></trkpt>
      <trkpt lat="46.97042658336772" lon="9.021551545312828">
      <ele>1096.1</ele></trkpt>
      <trkpt lat="46.970451585936644" lon="9.021490310527092">
      <ele>1096.1</ele></trkpt>
      <trkpt lat="46.97045993324004" lon="9.021459826966172">
      <ele>1096.2</ele></trkpt>
      <trkpt lat="46.970464216080416" lon="9.021420062536468">
      <ele>1096.2</ele></trkpt>
      <trkpt lat="46.97045948769714" lon="9.021377416925612">
      <ele>1096.3</ele></trkpt>
      <trkpt lat="46.97045329384913" lon="9.021335345875649">
      <ele>1096.3</ele></trkpt>
      <trkpt lat="46.97044971954925" lon="9.02129968723283">
      <ele>1096.4</ele></trkpt>
      <trkpt lat="46.97045100445378" lon="9.021267878291361">
      <ele>1096.5</ele></trkpt>
      <trkpt lat="46.97045650941629" lon="9.021228215591767">
      <ele>1096.6</ele></trkpt>
      <trkpt lat="46.970456761530755" lon="9.021144787783866">
      <ele>1096.7</ele></trkpt>
      <trkpt lat="46.970478206954226" lon="9.020924752706255">
      <ele>1096.8</ele></trkpt>
      <trkpt lat="46.970519206037835" lon="9.020413046505034">
      <ele>1096.8</ele></trkpt>
      <trkpt lat="46.97052384482345" lon="9.020194881752232">
      <ele>1096.9</ele></trkpt>
      <trkpt lat="46.970517275304445" lon="9.02005154176337">
      <ele>1097.0</ele></trkpt>
      <trkpt lat="46.97050077384292" lon="9.019956395909592">
      <ele>1097.1</ele></trkpt>
      <trkpt lat="46.9704502178884" lon="9.019827388460401">
      <ele>1097.2</ele></trkpt>
      <trkpt lat="46.970373478240646" lon="9.019632010990778">
      <ele>1097.3</ele></trkpt>
      <trkpt lat="46.97033422502554" lon="9.019493663295703">
      <ele>1097.4</ele></trkpt>
      <trkpt lat="46.970323415661895" lon="9.019390221098538">
      <ele>1097.5</ele></trkpt>
      <trkpt lat="46.970323405826704" lon="9.019153440512563">
      <ele>1097.6</ele></trkpt>
      <trkpt lat="46.970323826744554" lon="9.01903873636846">
      <ele>1097.6</ele></trkpt>
      <trkpt lat="46.97032761707058" lon="9.018930874005529">
      <ele>1097.7</ele></trkpt>
      <trkpt lat="46.97033503027365" lon="9.018895657271436">
      <ele>1097.8</ele></trkpt>
      <trkpt lat="46.97034713560143" lon="9.01885553150057">
      <ele>1097.9</ele></trkpt>
      <trkpt lat="46.97036496828417" lon="9.018818938993935">
      <ele>1098.0</ele></trkpt>
      <trkpt lat="46.970398822378705" lon="9.018792951581268">
      <ele>1098.1</ele></trkpt>
      <trkpt lat="46.970432682024764" lon="9.018765255640067">
      <ele>1098.6</ele></trkpt>
      <trkpt lat="46.970471219605784" lon="9.018734332570569">
      <ele>1099.1</ele></trkpt>
      <trkpt lat="46.970500799717" lon="9.018682917956564">
      <ele>1099.6</ele></trkpt>
      <trkpt lat="46.970517449201864" lon="9.018647959705824">
      <ele>1100.2</ele></trkpt>
      <trkpt lat="46.97053070559213" lon="9.018607867613762">
      <ele>1100.7</ele></trkpt>
      <trkpt lat="46.97054537780548" lon="9.018549258453534">
      <ele>1101.2</ele></trkpt>
      <trkpt lat="46.97055095861369" lon="9.018478565717693">
      <ele>1101.7</ele></trkpt>
      <trkpt lat="46.970550327813655" lon="9.018441429743214">
      <ele>1102.2</ele></trkpt>
      <trkpt lat="46.97054617021875" lon="9.018407554763153">
      <ele>1102.7</ele></trkpt>
      <trkpt lat="46.970534997002495" lon="9.018362432806066">
      <ele>1103.2</ele></trkpt>
      <trkpt lat="46.970515588561994" lon="9.018310996281208">
      <ele>1103.8</ele></trkpt>
      <trkpt lat="46.97047761464404" lon="9.018244227165159">
      <ele>1104.3</ele></trkpt>
      <trkpt lat="46.97044732120938" lon="9.018183546087547">
      <ele>1104.8</ele></trkpt>
      <trkpt lat="46.97043583498987" lon="9.018131751285404">
      <ele>1105.3</ele></trkpt>
      <trkpt lat="46.97044040678489" lon="9.018063749690928">
      <ele>1105.8</ele></trkpt>
      <trkpt lat="46.97045693610863" lon="9.018002237815447">
      <ele>1106.3</ele></trkpt>
      <trkpt lat="46.97048073995739" lon="9.017944935492604">
      <ele>1106.9</ele></trkpt>
      <trkpt lat="46.97050476289198" lon="9.017866504738755">
      <ele>1107.4</ele></trkpt>
      <trkpt lat="46.97050983864795" lon="9.017832441358804">
      <ele>1107.9</ele></trkpt>
      <trkpt lat="46.97051786033247" lon="9.017764133654662">
      <ele>1108.4</ele></trkpt>
      <trkpt lat="46.97051952753233" lon="9.017686215141161">
      <ele>1109.1</ele></trkpt>
      <trkpt lat="46.97051511039518" lon="9.01761564896776">
      <ele>1109.8</ele></trkpt>
      <trkpt lat="46.97051244929624" lon="9.017540389620741">
      <ele>1110.5</ele></trkpt>
      <trkpt lat="46.97051914488988" lon="9.017475591642846">
      <ele>1111.3</ele></trkpt>
      <trkpt lat="46.970538741430225" lon="9.017408885977325">
      <ele>1112.0</ele></trkpt>
      <trkpt lat="46.97056266630579" lon="9.017339507939576">
      <ele>1112.7</ele></trkpt>
      <trkpt lat="46.97058362148075" lon="9.017266257189013">
      <ele>1113.4</ele></trkpt>
      <trkpt lat="46.97060252686632" lon="9.017183745625816">
      <ele>1114.1</ele></trkpt>
      <trkpt lat="46.97061018888071" lon="9.017107554146648">
      <ele>1114.8</ele></trkpt>
      <trkpt lat="46.97061473629313" lon="9.017001422044702">
      <ele>1115.6</ele></trkpt>
      <trkpt lat="46.97062422846245" lon="9.01691449344466">
      <ele>1116.3</ele></trkpt>
      <trkpt lat="46.970639692523314" lon="9.016832288010821">
      <ele>1117.0</ele></trkpt>
      <trkpt lat="46.97067274978866" lon="9.016768080548568">
      <ele>1117.7</ele></trkpt>
      <trkpt lat="46.970704507812414" lon="9.016760339129966">
      <ele>1118.4</ele></trkpt>
      <trkpt lat="46.9707255096824" lon="9.016758169918957">
      <ele>1119.1</ele></trkpt>
      <trkpt lat="46.970750028142966" lon="9.016777002386434">
      <ele>1119.8</ele></trkpt>
      <trkpt lat="46.97076483125524" lon="9.016809455273366">
      <ele>1120.6</ele></trkpt>
      <trkpt lat="46.97077056532931" lon="9.016877852274286">
      <ele>1121.3</ele></trkpt>
      <trkpt lat="46.97077422101239" lon="9.016975656175681">
      <ele>1122.0</ele></trkpt>
      <trkpt lat="46.970778686002696" lon="9.017032975271162">
      <ele>1122.7</ele></trkpt>
      <trkpt lat="46.97078967261448" lon="9.01709691331127">
      <ele>1123.4</ele></trkpt>
      <trkpt lat="46.97081133005713" lon="9.017180420471407">
      <ele>1124.1</ele></trkpt>
      <trkpt lat="46.97084145019704" lon="9.017270708877179">
      <ele>1124.8</ele></trkpt>
      <trkpt lat="46.97087751830945" lon="9.017347857756365">
      <ele>1125.5</ele></trkpt>
      <trkpt lat="46.97096404814573" lon="9.017458495219348">
      <ele>1126.2</ele></trkpt>
      <trkpt lat="46.97101742089693" lon="9.017496196467487">
      <ele>1126.8</ele></trkpt>
      <trkpt lat="46.97109487590469" lon="9.01754062571587">
      <ele>1127.5</ele></trkpt>
      <trkpt lat="46.97112631808059" lon="9.017565616358006">
      <ele>1128.2</ele></trkpt>
      <trkpt lat="46.971148674469724" lon="9.017596399109008">
      <ele>1128.9</ele></trkpt>
      <trkpt lat="46.97116198688805" lon="9.017631897406265">
      <ele>1129.6</ele></trkpt>
      <trkpt lat="46.9711903487592" lon="9.017725052864414">
      <ele>1130.3</ele></trkpt>
      <trkpt lat="46.97122127093831" lon="9.017785174682576">
      <ele>1131.0</ele></trkpt>
      <trkpt lat="46.971250446685936" lon="9.017823163742133">
      <ele>1131.7</ele></trkpt>
      <trkpt lat="46.971276573946795" lon="9.017832961878227">
      <ele>1132.4</ele></trkpt>
      <trkpt lat="46.97130302804136" lon="9.017819689223366">
      <ele>1133.0</ele></trkpt>
      <trkpt lat="46.97132565808061" lon="9.017784235739633">
      <ele>1133.7</ele></trkpt>
      <trkpt lat="46.971330797698016" lon="9.017716144542378">
      <ele>1134.4</ele></trkpt>
      <trkpt lat="46.971294260075965" lon="9.017574471474397">
      <ele>1135.1</ele></trkpt>
      <trkpt lat="46.97127937220399" lon="9.017512915325817">
      <ele>1135.8</ele></trkpt>
      <trkpt lat="46.97123037737228" lon="9.01740884850225">
      <ele>1136.5</ele></trkpt>
      <trkpt lat="46.971211454783116" lon="9.017323410009054">
      <ele>1137.2</ele></trkpt>
      <trkpt lat="46.971215690822845" lon="9.017251007504186">
      <ele>1137.9</ele></trkpt>
      <trkpt lat="46.97123582870346" lon="9.017178954169118">
      <ele>1138.6</ele></trkpt>
      <trkpt lat="46.971265931242186" lon="9.017117642970113">
      <ele>1139.2</ele></trkpt>
      <trkpt lat="46.971314401661395" lon="9.017044858249728">
      <ele>1139.9</ele></trkpt>
      <trkpt lat="46.97134593796909" lon="9.016995720713545">
      <ele>1140.6</ele></trkpt>
      <trkpt lat="46.97136044315941" lon="9.016943953233387">
      <ele>1141.3</ele></trkpt>
      <trkpt lat="46.97134996354745" lon="9.016868016060426">
      <ele>1142.0</ele></trkpt>
      <trkpt lat="46.97132704397759" lon="9.016793172260392">
      <ele>1142.7</ele></trkpt>
      <trkpt lat="46.97129809929308" lon="9.016702431543939">
      <ele>1143.3</ele></trkpt>
      <trkpt lat="46.97128134708266" lon="9.016632487731915">
      <ele>1144.0</ele></trkpt>
      <trkpt lat="46.9712748348338" lon="9.01654871536472">
      <ele>1144.7</ele></trkpt>
      <trkpt lat="46.97127558105831" lon="9.016474895808797">
      <ele>1145.4</ele></trkpt>
      <trkpt lat="46.97128061065517" lon="9.016400360911593">
      <ele>1146.1</ele></trkpt>
      <trkpt lat="46.97128965582146" lon="9.01631253737653">
      <ele>1146.8</ele></trkpt>
      <trkpt lat="46.97130014583433" lon="9.016234127747289">
      <ele>1147.5</ele></trkpt>
      <trkpt lat="46.97131415373851" lon="9.016154401915122">
      <ele>1148.1</ele></trkpt>
      <trkpt lat="46.97131484188817" lon="9.016048825326209">
      <ele>1148.8</ele></trkpt>
      <trkpt lat="46.971312709085666" lon="9.01595340484608">
      <ele>1149.5</ele></trkpt>
      <trkpt lat="46.97130000077403" lon="9.015867426394678">
      <ele>1150.2</ele></trkpt>
      <trkpt lat="46.971297160604294" lon="9.015803135826937">
      <ele>1151.1</ele></trkpt>
      <trkpt lat="46.97130303095516" lon="9.015760972276839">
      <ele>1152.0</ele></trkpt>
      <trkpt lat="46.97131487755065" lon="9.01573760891943">
      <ele>1152.9</ele></trkpt>
      <trkpt lat="46.97134100384333" lon="9.015721986015219">
      <ele>1153.7</ele></trkpt>
      <trkpt lat="46.971365084549795" lon="9.015734719806085">
      <ele>1154.6</ele></trkpt>
      <trkpt lat="46.971398999802005" lon="9.015780089248919">
      <ele>1155.5</ele></trkpt>
      <trkpt lat="46.97143567494751" lon="9.015861580027341">
      <ele>1156.4</ele></trkpt>
      <trkpt lat="46.97149014838663" lon="9.015949442718682">
      <ele>1157.3</ele></trkpt>
      <trkpt lat="46.971537776700266" lon="9.016001879137532">
      <ele>1158.2</ele></trkpt>
      <trkpt lat="46.97158649123262" lon="9.016059066186047">
      <ele>1159.1</ele></trkpt>
      <trkpt lat="46.97162656524298" lon="9.016131535490159">
      <ele>1159.9</ele></trkpt>
      <trkpt lat="46.971672041591916" lon="9.016230503852588">
      <ele>1160.8</ele></trkpt>
      <trkpt lat="46.97170879614662" lon="9.016299011585225">
      <ele>1161.7</ele></trkpt>
      <trkpt lat="46.97175048018187" lon="9.01635189163698">
      <ele>1162.6</ele></trkpt>
      <trkpt lat="46.9718011162777" lon="9.01639888348637">
      <ele>1163.5</ele></trkpt>
      <trkpt lat="46.9718377184936" lon="9.01643204316173">
      <ele>1164.4</ele></trkpt>
      <trkpt lat="46.971880043564845" lon="9.016501096110467">
      <ele>1165.2</ele></trkpt>
      <trkpt lat="46.97191676267161" lon="9.016574781949279">
      <ele>1166.1</ele></trkpt>
      <trkpt lat="46.97194778667858" lon="9.016666110503312">
      <ele>1167.0</ele></trkpt>
      <trkpt lat="46.97197222525165" lon="9.016741722669838">
      <ele>1167.9</ele></trkpt>
      <trkpt lat="46.97201071523634" lon="9.016828578477531">
      <ele>1169.2</ele></trkpt>
      <trkpt lat="46.97205570070186" lon="9.016888009948845">
      <ele>1170.5</ele></trkpt>
      <trkpt lat="46.97212584370811" lon="9.01696755516123">
      <ele>1171.8</ele></trkpt>
      <trkpt lat="46.97219098606578" lon="9.017073110062507">
      <ele>1173.1</ele></trkpt>
      <trkpt lat="46.97224899032434" lon="9.0171312159409">
      <ele>1174.4</ele></trkpt>
      <trkpt lat="46.97229552377457" lon="9.01718145322183">
      <ele>1175.7</ele></trkpt>
      <trkpt lat="46.97233524142362" lon="9.017252310298728">
      <ele>1177.0</ele></trkpt>
      <trkpt lat="46.97236364856442" lon="9.017345468914213">
      <ele>1178.3</ele></trkpt>
      <trkpt lat="46.97238222348747" lon="9.017467255347967">
      <ele>1179.6</ele></trkpt>
      <trkpt lat="46.972397825808834" lon="9.017586680544703">
      <ele>1181.0</ele></trkpt>
      <trkpt lat="46.972420377255" lon="9.017667311878137">
      <ele>1182.3</ele></trkpt>
      <trkpt lat="46.97245307316449" lon="9.017731259537141">
      <ele>1183.6</ele></trkpt>
      <trkpt lat="46.972502756851064" lon="9.01781142714697">
      <ele>1184.9</ele></trkpt>
      <trkpt lat="46.97254756449175" lon="9.01789940364451">
      <ele>1186.2</ele></trkpt>
      <trkpt lat="46.972588456877624" lon="9.018018179955915">
      <ele>1187.5</ele></trkpt>
      <trkpt lat="46.97262223029052" lon="9.018145606141236">
      <ele>1188.8</ele></trkpt>
      <trkpt lat="46.97264178251742" lon="9.018229054668321">
      <ele>1190.1</ele></trkpt>
      <trkpt lat="46.972648849282855" lon="9.018289475560142">
      <ele>1191.4</ele></trkpt>
      <trkpt lat="46.97266136289338" lon="9.018427317603212">
      <ele>1192.7</ele></trkpt>
      <trkpt lat="46.97264692183301" lon="9.018537053213159">
      <ele>1194.0</ele></trkpt>
      <trkpt lat="46.972650135209115" lon="9.018617891817673">
      <ele>1195.1</ele></trkpt>
      <trkpt lat="46.97266419628589" lon="9.018687824600221">
      <ele>1196.2</ele></trkpt>
      <trkpt lat="46.97268573220352" lon="9.018750695564751">
      <ele>1197.2</ele></trkpt>
      <trkpt lat="46.97270091453285" lon="9.018820214529056">
      <ele>1198.3</ele></trkpt>
      <trkpt lat="46.972707509476585" lon="9.018894607001519">
      <ele>1199.4</ele></trkpt>
      <trkpt lat="46.9727275236846" lon="9.01896408422963">
      <ele>1200.5</ele></trkpt>
      <trkpt lat="46.97276602985963" lon="9.019048340848178">
      <ele>1201.5</ele></trkpt>
      <trkpt lat="46.972813924153634" lon="9.019117929064567">
      <ele>1202.6</ele></trkpt>
      <trkpt lat="46.97283109975711" lon="9.019225572356364">
      <ele>1203.7</ele></trkpt>
      <trkpt lat="46.97285861602282" lon="9.019344074869247">
      <ele>1204.8</ele></trkpt>
      <trkpt lat="46.97288645196591" lon="9.019410680724556">
      <ele>1205.8</ele></trkpt>
      <trkpt lat="46.97293142709231" lon="9.019470115066119">
      <ele>1206.9</ele></trkpt>
      <trkpt lat="46.972984028326046" lon="9.019501737543216">
      <ele>1208.0</ele></trkpt>
      <trkpt lat="46.97306604025406" lon="9.019524262712698">
      <ele>1209.0</ele></trkpt>
      <trkpt lat="46.97311760023407" lon="9.0195433151047">
      <ele>1210.1</ele></trkpt>
      <trkpt lat="46.973164675504336" lon="9.019566586222295">
      <ele>1211.2</ele></trkpt>
      <trkpt lat="46.97322157961975" lon="9.01960586726198">
      <ele>1212.3</ele></trkpt>
      <trkpt lat="46.973260571478654" lon="9.019641177179793">
      <ele>1213.3</ele></trkpt>
      <trkpt lat="46.97331110758472" lon="9.019694019738555">
      <ele>1214.4</ele></trkpt>
      <trkpt lat="46.973356296427056" lon="9.019741210642014">
      <ele>1215.5</ele></trkpt>
      <trkpt lat="46.97338956396511" lon="9.019774722295438">
      <ele>1216.2</ele></trkpt>
      <trkpt lat="46.97342439135484" lon="9.019795595704721">
      <ele>1216.8</ele></trkpt>
      <trkpt lat="46.973456263943596" lon="9.019793261345132">
      <ele>1217.5</ele></trkpt>
      <trkpt lat="46.97348150949892" lon="9.01977173834489">
      <ele>1218.2</ele></trkpt>
      <trkpt lat="46.973496901350934" lon="9.019745140645998">
      <ele>1218.9</ele></trkpt>
      <trkpt lat="46.97350736569845" lon="9.019711812547722">
      <ele>1219.5</ele></trkpt>
      <trkpt lat="46.973509594065376" lon="9.019666359488127">
      <ele>1220.2</ele></trkpt>
      <trkpt lat="46.973493744167484" lon="9.01960092058274">
      <ele>1220.9</ele></trkpt>
      <trkpt lat="46.97346842279921" lon="9.019520954453986">
      <ele>1221.6</ele></trkpt>
      <trkpt lat="46.97345015439528" lon="9.019461911423896">
      <ele>1222.2</ele></trkpt>
      <trkpt lat="46.973454121888054" lon="9.019415602650888">
      <ele>1222.9</ele></trkpt>
      <trkpt lat="46.973456727435135" lon="9.019385197783185">
      <ele>1223.6</ele></trkpt>
      <trkpt lat="46.973478860440906" lon="9.019315356594111">
      <ele>1224.3</ele></trkpt>
      <trkpt lat="46.97351161915841" lon="9.019242883819095">
      <ele>1225.0</ele></trkpt>
      <trkpt lat="46.97355662316235" lon="9.019169075792307">
      <ele>1225.6</ele></trkpt>
      <trkpt lat="46.973599949806186" lon="9.019088370085521">
      <ele>1226.3</ele></trkpt>
      <trkpt lat="46.973632344675416" lon="9.019025310779334">
      <ele>1227.0</ele></trkpt>
      <trkpt lat="46.97366261357964" lon="9.018948084966105">
      <ele>1227.7</ele></trkpt>
      <trkpt lat="46.97368110109848" lon="9.018882263367786">
      <ele>1228.3</ele></trkpt>
      <trkpt lat="46.97369381535354" lon="9.018809055584004">
      <ele>1229.0</ele></trkpt>
      <trkpt lat="46.97370035889756" lon="9.018742934992833">
      <ele>1229.8</ele></trkpt>
      <trkpt lat="46.97370555870263" lon="9.018681611959925">
      <ele>1230.6</ele></trkpt>
      <trkpt lat="46.97370773699794" lon="9.018628664957857">
      <ele>1231.4</ele></trkpt>
      <trkpt lat="46.9737143445291" lon="9.018571602661094">
      <ele>1232.2</ele></trkpt>
      <trkpt lat="46.97371797052212" lon="9.018518711388428">
      <ele>1233.0</ele></trkpt>
      <trkpt lat="46.97373009780094" lon="9.018480897055932">
      <ele>1233.8</ele></trkpt>
      <trkpt lat="46.973742380005" lon="9.01843249292486">
      <ele>1234.6</ele></trkpt>
      <trkpt lat="46.97375891834134" lon="9.018390575856728">
      <ele>1235.4</ele></trkpt>
      <trkpt lat="46.973784025283756" lon="9.018359505205003">
      <ele>1236.2</ele></trkpt>
      <trkpt lat="46.973832860857634" lon="9.018290961393259">
      <ele>1237.0</ele></trkpt>
      <trkpt lat="46.97386255411104" lon="9.018243069338546">
      <ele>1237.9</ele></trkpt>
      <trkpt lat="46.97390274234519" lon="9.01817003844941">
      <ele>1238.7</ele></trkpt>
      <trkpt lat="46.97395050931869" lon="9.018073912236575">
      <ele>1239.5</ele></trkpt>
      <trkpt lat="46.97399392342852" lon="9.017977657820738">
      <ele>1240.3</ele></trkpt>
      <trkpt lat="46.97402149136838" lon="9.017872432750854">
      <ele>1241.1</ele></trkpt>
      <trkpt lat="46.974028255563226" lon="9.017802664001454">
      <ele>1241.9</ele></trkpt>
      <trkpt lat="46.974017442376926" lon="9.017745102084392">
      <ele>1242.7</ele></trkpt>
      <trkpt lat="46.97399037420775" lon="9.017708250932289">
      <ele>1243.5</ele></trkpt>
      <trkpt lat="46.97395455099586" lon="9.017675387987307">
      <ele>1244.3</ele></trkpt>
      <trkpt lat="46.97392890123402" lon="9.017640721160786">
      <ele>1245.1</ele></trkpt>
      <trkpt lat="46.973919410354895" lon="9.017591663252338">
      <ele>1245.9</ele></trkpt>
      <trkpt lat="46.97392625668821" lon="9.017542047362113">
      <ele>1246.6</ele></trkpt>
      <trkpt lat="46.9739324100402" lon="9.017493751810273">
      <ele>1247.4</ele></trkpt>
      <trkpt lat="46.97393915300941" lon="9.017438572781682">
      <ele>1248.1</ele></trkpt>
      <trkpt lat="46.97394003266361" lon="9.017372088046715">
      <ele>1248.9</ele></trkpt>
      <trkpt lat="46.973936171534575" lon="9.017307514449932">
      <ele>1249.6</ele></trkpt>
      <trkpt lat="46.97392824374461" lon="9.017242939602887">
      <ele>1250.4</ele></trkpt>
      <trkpt lat="46.97392029724304" lon="9.017198015076717">
      <ele>1251.1</ele></trkpt>
      <trkpt lat="46.97390730986927" lon="9.0171539281992">
      <ele>1251.9</ele></trkpt>
      <trkpt lat="46.97388287958901" lon="9.01709733326105">
      <ele>1252.7</ele></trkpt>
      <trkpt lat="46.97385453621843" lon="9.01703677204606">
      <ele>1253.4</ele></trkpt>
      <trkpt lat="46.9738349843607" lon="9.01698329124595">
      <ele>1254.2</ele></trkpt>
      <trkpt lat="46.97382795900743" lon="9.016934187721228">
      <ele>1254.9</ele></trkpt>
      <trkpt lat="46.9738307330293" lon="9.016882349044025">
      <ele>1255.7</ele></trkpt>
      <trkpt lat="46.97385031670335" lon="9.016814587127463">
      <ele>1256.4</ele></trkpt>
      <trkpt lat="46.97387440038718" lon="9.01675455486687">
      <ele>1257.2</ele></trkpt>
      <trkpt lat="46.97391619896044" lon="9.016683423560169">
      <ele>1257.9</ele></trkpt>
      <trkpt lat="46.97395993033184" lon="9.016619591504297">
      <ele>1258.7</ele></trkpt>
      <trkpt lat="46.97400609715527" lon="9.01656183790788">
      <ele>1259.4</ele></trkpt>
      <trkpt lat="46.97404852915871" lon="9.016506774219694">
      <ele>1260.2</ele></trkpt>
      <trkpt lat="46.974075217112116" lon="9.016459502493854">
      <ele>1261.4</ele></trkpt>
      <trkpt lat="46.97409271777963" lon="9.016409713060083">
      <ele>1262.5</ele></trkpt>
      <trkpt lat="46.97410741644252" lon="9.016328176342068">
      <ele>1263.7</ele></trkpt>
      <trkpt lat="46.97411230542913" lon="9.016231813622513">
      <ele>1264.8</ele></trkpt>
      <trkpt lat="46.97410745820181" lon="9.016161703434605">
      <ele>1266.0</ele></trkpt>
      <trkpt lat="46.974090872766794" lon="9.016101842809682">
      <ele>1267.2</ele></trkpt>
      <trkpt lat="46.974056828885615" lon="9.016043598727343">
      <ele>1268.3</ele></trkpt>
      <trkpt lat="46.973996861438366" lon="9.015971856251673">
      <ele>1269.5</ele></trkpt>
      <trkpt lat="46.97395845358624" lon="9.01591560040906">
      <ele>1270.6</ele></trkpt>
      <trkpt lat="46.97391754004871" lon="9.015829591043083">
      <ele>1271.8</ele></trkpt>
      <trkpt lat="46.973895649380125" lon="9.01573353304479">
      <ele>1273.0</ele></trkpt>
      <trkpt lat="46.97387427471406" lon="9.015599305901835">
      <ele>1274.1</ele></trkpt>
      <trkpt lat="46.97385733978872" lon="9.015458873670262">
      <ele>1275.3</ele></trkpt>
      <trkpt lat="46.973829289959944" lon="9.01528206019279">
      <ele>1276.4</ele></trkpt>
      <trkpt lat="46.97380373671056" lon="9.015135000141747">
      <ele>1277.6</ele></trkpt>
      <trkpt lat="46.9737747043583" lon="9.015030254877678">
      <ele>1278.8</ele></trkpt>
      <trkpt lat="46.973730623143254" lon="9.014963225926698">
      <ele>1279.9</ele></trkpt>
      <trkpt lat="46.973669002931985" lon="9.014906289668893">
      <ele>1281.1</ele></trkpt>
      <trkpt lat="46.973617507289795" lon="9.014851753840276">
      <ele>1282.2</ele></trkpt>
      <trkpt lat="46.973586580396876" lon="9.014778775819552">
      <ele>1283.4</ele></trkpt>
      <trkpt lat="46.973541652023435" lon="9.014669305855353">
      <ele>1284.9</ele></trkpt>
      <trkpt lat="46.97347848733801" lon="9.01451266499524">
      <ele>1286.4</ele></trkpt>
      <trkpt lat="46.97342658321458" lon="9.014381802232723">
      <ele>1287.9</ele></trkpt>
      <trkpt lat="46.97337425960435" lon="9.01417671505235">
      <ele>1289.5</ele></trkpt>
      <trkpt lat="46.973335879683006" lon="9.014012311286844">
      <ele>1291.0</ele></trkpt>
      <trkpt lat="46.973309945828206" lon="9.01389283179553">
      <ele>1292.5</ele></trkpt>
      <trkpt lat="46.973308031273746" lon="9.013820679579617">
      <ele>1294.0</ele></trkpt>
      <trkpt lat="46.9733238572657" lon="9.013725716785096">
      <ele>1295.5</ele></trkpt>
      <trkpt lat="46.97332187512281" lon="9.013657821305303">
      <ele>1297.0</ele></trkpt>
      <trkpt lat="46.97328666234105" lon="9.013580446816354">
      <ele>1298.6</ele></trkpt>
      <trkpt lat="46.97323138641788" lon="9.013483411744454">
      <ele>1300.1</ele></trkpt>
      <trkpt lat="46.97321218586557" lon="9.013402274682415">
      <ele>1301.6</ele></trkpt>
      <trkpt lat="46.97319936821552" lon="9.013278921706329">
      <ele>1303.1</ele></trkpt>
      <trkpt lat="46.97318219764408" lon="9.013155441150452">
      <ele>1304.6</ele></trkpt>
      <trkpt lat="46.97315803148999" lon="9.013012657064538">
      <ele>1306.1</ele></trkpt>
      <trkpt lat="46.97312699469187" lon="9.012842121492834">
      <ele>1307.6</ele></trkpt>
      <trkpt lat="46.97310830863003" lon="9.012722829252263">
      <ele>1309.2</ele></trkpt>
      <trkpt lat="46.97309776185902" lon="9.012540184219844">
      <ele>1310.7</ele></trkpt>
      <trkpt lat="46.97308487620432" lon="9.012421062167302">
      <ele>1312.2</ele></trkpt>
      <trkpt lat="46.97306589332655" lon="9.012319427226398">
      <ele>1313.7</ele></trkpt>
      <trkpt lat="46.973013702557374" lon="9.012196813788087">
      <ele>1315.0</ele></trkpt>
      <trkpt lat="46.97294880599427" lon="9.012094004505405">
      <ele>1316.3</ele></trkpt>
      <trkpt lat="46.97288239485641" lon="9.01200124577078">
      <ele>1317.6</ele></trkpt>
      <trkpt lat="46.972830702791015" lon="9.011943224629668">
      <ele>1318.8</ele></trkpt>
      <trkpt lat="46.972726700465955" lon="9.011871565244688">
      <ele>1320.1</ele></trkpt>
      <trkpt lat="46.97261971570629" lon="9.011815959646281">
      <ele>1321.4</ele></trkpt>
      <trkpt lat="46.97256771900459" lon="9.011780130314866">
      <ele>1322.7</ele></trkpt>
      <trkpt lat="46.97253781000577" lon="9.011744948152732">
      <ele>1324.0</ele></trkpt>
      <trkpt lat="46.97251110495583" lon="9.011677565042433">
      <ele>1325.3</ele></trkpt>
      <trkpt lat="46.972464878375824" lon="9.011522833404827">
      <ele>1326.6</ele></trkpt>
      <trkpt lat="46.972426417440914" lon="9.011395537565122">
      <ele>1327.8</ele></trkpt>
      <trkpt lat="46.97240757666999" lon="9.0112992185958">
      <ele>1329.1</ele></trkpt>
      <trkpt lat="46.972396613208424" lon="9.011224831120506">
      <ele>1330.4</ele></trkpt>
      <trkpt lat="46.97237896608088" lon="9.011043453078605">
      <ele>1331.7</ele></trkpt>
      <trkpt lat="46.97237432733366" lon="9.01096840968749">
      <ele>1333.0</ele></trkpt>
      <trkpt lat="46.97237112090613" lon="9.010910942320466">
      <ele>1334.3</ele></trkpt>
      <trkpt lat="46.97236772328395" lon="9.010845109791951">
      <ele>1335.5</ele></trkpt>
      <trkpt lat="46.97236259725724" lon="9.01080165029402">
      <ele>1336.8</ele></trkpt>
      <trkpt lat="46.97235245472888" lon="9.010750039248938">
      <ele>1338.1</ele></trkpt>
      <trkpt lat="46.97233774732826" lon="9.010698018553974">
      <ele>1339.4</ele></trkpt>
      <trkpt lat="46.972319580494364" lon="9.010639114321998">
      <ele>1340.1</ele></trkpt>
      <trkpt lat="46.972302864394045" lon="9.010597760359474">
      <ele>1340.8</ele></trkpt>
      <trkpt lat="46.97228140497347" lon="9.010549327555099">
      <ele>1341.5</ele></trkpt>
      <trkpt lat="46.972260430843704" lon="9.010499620888972">
      <ele>1342.2</ele></trkpt>
      <trkpt lat="46.97224763429787" lon="9.010453242468909">
      <ele>1343.0</ele></trkpt>
      <trkpt lat="46.97223695128486" lon="9.010410198780855">
      <ele>1343.7</ele></trkpt>
      <trkpt lat="46.972228519178" lon="9.010355877773208">
      <ele>1344.4</ele></trkpt>
      <trkpt lat="46.97222422500965" lon="9.010304885021823">
      <ele>1345.1</ele></trkpt>
      <trkpt lat="46.97222205049247" lon="9.010248249848349">
      <ele>1345.8</ele></trkpt>
      <trkpt lat="46.97222191852374" lon="9.010191595597398">
      <ele>1346.5</ele></trkpt>
      <trkpt lat="46.972215227990965" lon="9.010136234665543">
      <ele>1347.2</ele></trkpt>
      <trkpt lat="46.97220013332956" lon="9.010088816468178">
      <ele>1347.9</ele></trkpt>
      <trkpt lat="46.9721760201911" lon="9.01004559016562">
      <ele>1348.6</ele></trkpt>
      <trkpt lat="46.97214368915699" lon="9.009997378456994">
      <ele>1349.3</ele></trkpt>
      <trkpt lat="46.972127342365006" lon="9.0099710722857">
      <ele>1350.0</ele></trkpt>
      <trkpt lat="46.97212393360315" lon="9.00993554967779">
      <ele>1350.8</ele></trkpt>
      <trkpt lat="46.97212324320457" lon="9.00988746217247">
      <ele>1351.5</ele></trkpt>
      <trkpt lat="46.97212839573003" lon="9.009799049230041">
      <ele>1352.2</ele></trkpt>
      <trkpt lat="46.9721337018562" lon="9.009706645015735">
      <ele>1352.9</ele></trkpt>
      <trkpt lat="46.972127609432135" lon="9.00964438804157">
      <ele>1353.6</ele></trkpt>
      <trkpt lat="46.97208407481193" lon="9.009481444291596">
      <ele>1354.1</ele></trkpt>
      <trkpt lat="46.97207274614029" lon="9.009432966763514">
      <ele>1354.5</ele></trkpt>
      <trkpt lat="46.97207473404938" lon="9.00939032037668">
      <ele>1355.0</ele></trkpt>
      <trkpt lat="46.972080085194285" lon="9.009340569508831">
      <ele>1355.4</ele></trkpt>
      <trkpt lat="46.97208859029857" lon="9.009275348503358">
      <ele>1355.9</ele></trkpt>
      <trkpt lat="46.97209658832378" lon="9.009209705185448">
      <ele>1356.4</ele></trkpt>
      <trkpt lat="46.97210030882533" lon="9.00916601850527">
      <ele>1356.8</ele></trkpt>
      <trkpt lat="46.97209676381775" lon="9.0091148113077">
      <ele>1357.3</ele></trkpt>
      <trkpt lat="46.97208405589219" lon="9.009071774519617">
      <ele>1357.7</ele></trkpt>
      <trkpt lat="46.97206154665705" lon="9.009042133901964">
      <ele>1358.2</ele></trkpt>
      <trkpt lat="46.972041351119145" lon="9.009024206464296">
      <ele>1358.7</ele></trkpt>
      <trkpt lat="46.97201870431549" lon="9.00900920415814">
      <ele>1359.1</ele></trkpt>
      <trkpt lat="46.97198926587245" lon="9.008996093118391">
      <ele>1359.6</ele></trkpt>
      <trkpt lat="46.971951301039084" lon="9.008996573234748">
      <ele>1360.0</ele></trkpt>
      <trkpt lat="46.971907229796656" lon="9.009006062325223">
      <ele>1360.5</ele></trkpt>
      <trkpt lat="46.97184705955119" lon="9.009029591380948">
      <ele>1361.0</ele></trkpt>
      <trkpt lat="46.97180215634435" lon="9.009046613799228">
      <ele>1361.4</ele></trkpt>
      <trkpt lat="46.97176615163475" lon="9.009054406596054">
      <ele>1361.9</ele></trkpt>
      <trkpt lat="46.97172545261377" lon="9.009056791420551">
      <ele>1362.3</ele></trkpt>
      <trkpt lat="46.971679454604164" lon="9.009049965184103">
      <ele>1362.8</ele></trkpt>
      <trkpt lat="46.97152692849159" lon="9.009014524537703">
      <ele>1363.5</ele></trkpt>
      <trkpt lat="46.97146969616708" lon="9.009003544980306">
      <ele>1364.1</ele></trkpt>
      <trkpt lat="46.97140234179188" lon="9.00899259802123">
      <ele>1364.8</ele></trkpt>
      <trkpt lat="46.97133919643472" lon="9.008988332897822">
      <ele>1365.5</ele></trkpt>
      <trkpt lat="46.971295794868595" lon="9.008994253238093">
      <ele>1366.2</ele></trkpt>
      <trkpt lat="46.97123397106036" lon="9.009002539567597">
      <ele>1366.8</ele></trkpt>
      <trkpt lat="46.97118802886661" lon="9.00900805699174">
      <ele>1367.5</ele></trkpt>
      <trkpt lat="46.97115275775849" lon="9.009004988215839">
      <ele>1368.2</ele></trkpt>
      <trkpt lat="46.97112472330834" lon="9.008997097054554">
      <ele>1368.8</ele></trkpt>
      <trkpt lat="46.9711036982396" lon="9.008976017495677">
      <ele>1369.5</ele></trkpt>
      <trkpt lat="46.971089922578756" lon="9.008951811465833">
      <ele>1370.2</ele></trkpt>
      <trkpt lat="46.971081423614145" lon="9.008915457294137">
      <ele>1370.8</ele></trkpt>
      <trkpt lat="46.97108295131075" lon="9.008884719521799">
      <ele>1371.5</ele></trkpt>
      <trkpt lat="46.97108767397557" lon="9.008809899337834">
      <ele>1372.2</ele></trkpt>
      <trkpt lat="46.97109791573839" lon="9.00872230715771">
      <ele>1372.8</ele></trkpt>
      <trkpt lat="46.971096895039835" lon="9.00866085698597">
      <ele>1373.5</ele></trkpt>
      <trkpt lat="46.97107212194165" lon="9.008590891884376">
      <ele>1374.2</ele></trkpt>
      <trkpt lat="46.97105138060955" lon="9.008540549896445">
      <ele>1374.9</ele></trkpt>
      <trkpt lat="46.971047142737454" lon="9.008471592712384">
      <ele>1375.5</ele></trkpt>
      <trkpt lat="46.971045228968904" lon="9.00838402636013">
      <ele>1376.2</ele></trkpt>
      <trkpt lat="46.97105252506068" lon="9.0083006197565">
      <ele>1376.7</ele></trkpt>
      <trkpt lat="46.971055190979406" lon="9.00826821972909">
      <ele>1377.1</ele></trkpt>
      <trkpt lat="46.97106731650418" lon="9.008228972349663">
      <ele>1377.6</ele></trkpt>
      <trkpt lat="46.97109101254765" lon="9.008185752037011">
      <ele>1378.1</ele></trkpt>
      <trkpt lat="46.97111910305099" lon="9.00816721249701">
      <ele>1378.5</ele></trkpt>
      <trkpt lat="46.97115560234812" lon="9.00815549055542">
      <ele>1379.0</ele></trkpt>
      <trkpt lat="46.971202243464845" lon="9.00815083403066">
      <ele>1379.5</ele></trkpt>
      <trkpt lat="46.971259502707575" lon="9.00814473974377">
      <ele>1379.9</ele></trkpt>
      <trkpt lat="46.97130302330268" lon="9.008138664476313">
      <ele>1380.4</ele></trkpt>
      <trkpt lat="46.9713395227756" lon="9.008126929336582">
      <ele>1380.8</ele></trkpt>
      <trkpt lat="46.971373704490425" lon="9.008104427442717">
      <ele>1381.3</ele></trkpt>
      <trkpt lat="46.97139811220312" lon="9.008076250916124">
      <ele>1381.8</ele></trkpt>
      <trkpt lat="46.97141539932089" lon="9.00803785072092">
      <ele>1382.2</ele></trkpt>
      <trkpt lat="46.97142665367157" lon="9.0079912565043">
      <ele>1382.7</ele></trkpt>
      <trkpt lat="46.971426428132496" lon="9.007953185644475">
      <ele>1383.2</ele></trkpt>
      <trkpt lat="46.97141589257049" lon="9.007915733538084">
      <ele>1383.6</ele></trkpt>
      <trkpt lat="46.97139710898726" lon="9.007876804894696">
      <ele>1384.1</ele></trkpt>
      <trkpt lat="46.9713642973384" lon="9.007839319596494">
      <ele>1384.6</ele></trkpt>
      <trkpt lat="46.971317204009715" lon="9.007801430139407">
      <ele>1385.0</ele></trkpt>
      <trkpt lat="46.971263951842815" lon="9.0077790149209">
      <ele>1385.5</ele></trkpt>
      <trkpt lat="46.971185802386294" lon="9.007748906054308">
      <ele>1386.2</ele></trkpt>
      <trkpt lat="46.9711155139128" lon="9.007753805111257">
      <ele>1386.9</ele></trkpt>
      <trkpt lat="46.97105352938879" lon="9.007760694916165">
      <ele>1387.6</ele></trkpt>
      <trkpt lat="46.970952042001734" lon="9.007783806227122">
      <ele>1388.3</ele></trkpt>
      <trkpt lat="46.97082890342075" lon="9.007823673720859">
      <ele>1389.0</ele></trkpt>
      <trkpt lat="46.97073091480543" lon="9.007852118201608">
      <ele>1389.7</ele></trkpt>
      <trkpt lat="46.970650897111" lon="9.007872386727648">
      <ele>1390.4</ele></trkpt>
      <trkpt lat="46.97059374165835" lon="9.007874186332426">
      <ele>1391.1</ele></trkpt>
      <trkpt lat="46.97055336083522" lon="9.007867788279345">
      <ele>1391.8</ele></trkpt>
      <trkpt lat="46.97052026338467" lon="9.00785118027183">
      <ele>1392.5</ele></trkpt>
      <trkpt lat="46.97048982597506" lon="9.00781376498278">
      <ele>1393.1</ele></trkpt>
      <trkpt lat="46.9704749758701" lon="9.007768130511453">
      <ele>1393.8</ele></trkpt>
      <trkpt lat="46.97046582602795" lon="9.007680051395763">
      <ele>1394.5</ele></trkpt>
      <trkpt lat="46.970459266164134" lon="9.00764069208373">
      <ele>1395.2</ele></trkpt>
      <trkpt lat="46.97044450756133" lon="9.007601513819042">
      <ele>1395.9</ele></trkpt>
      <trkpt lat="46.970423557566924" lon="9.007570329929823">
      <ele>1396.6</ele></trkpt>
      <trkpt lat="46.970389591285" lon="9.007545547802213">
      <ele>1397.3</ele></trkpt>
      <trkpt lat="46.97037420536637" lon="9.00753313769912">
      <ele>1398.0</ele></trkpt>
      <trkpt lat="46.970361131992654" lon="9.007517417295112">
      <ele>1398.7</ele></trkpt>
      <trkpt lat="46.97035593248677" lon="9.00749764217341">
      <ele>1399.4</ele></trkpt>
      <trkpt lat="46.97035715436404" lon="9.00746095500207">
      <ele>1399.3</ele></trkpt>
      <trkpt lat="46.97035842102815" lon="9.007426910976397">
      <ele>1399.2</ele></trkpt>
      <trkpt lat="46.97035634102803" lon="9.007384961954122">
      <ele>1399.0</ele></trkpt>
      <trkpt lat="46.97035611352925" lon="9.007354909324498">
      <ele>1398.9</ele></trkpt>
      <trkpt lat="46.97035418273031" lon="9.00730139840903">
      <ele>1398.8</ele></trkpt>
      <trkpt lat="46.970350461808735" lon="9.007238661061256">
      <ele>1398.7</ele></trkpt>
      <trkpt lat="46.97034876413192" lon="9.00719572431864">
      <ele>1398.5</ele></trkpt>
      <trkpt lat="46.97033416677101" lon="9.007164476483075">
      <ele>1398.4</ele></trkpt>
      <trkpt lat="46.97031773466884" lon="9.007121345954419">
      <ele>1398.3</ele></trkpt>
      <trkpt lat="46.97030210314619" lon="9.007078882866097">
      <ele>1398.2</ele></trkpt>
      <trkpt lat="46.970287577540766" lon="9.007050279021065">
      <ele>1398.0</ele></trkpt>
      <trkpt lat="46.97026823794093" lon="9.007020404249754">
      <ele>1397.9</ele></trkpt>
      <trkpt lat="46.97025019827687" lon="9.00699546997335">
      <ele>1397.8</ele></trkpt>
      <trkpt lat="46.970234322123645" lon="9.006978774124612">
      <ele>1397.7</ele></trkpt>
      <trkpt lat="46.9702132675765" lon="9.006961795609044">
      <ele>1397.5</ele></trkpt>
      <trkpt lat="46.970199492140125" lon="9.006950694521729">
      <ele>1397.4</ele></trkpt>
      <trkpt lat="46.97017887378203" lon="9.006935371696322">
      <ele>1397.3</ele></trkpt>
      <trkpt lat="46.970168026822456" lon="9.00693052041857">
      <ele>1397.2</ele></trkpt>
      <trkpt lat="46.97015647769982" lon="9.006930301407845">
      <ele>1397.0</ele></trkpt>
      <trkpt lat="46.97013947199449" lon="9.006916595605333">
      <ele>1396.9</ele></trkpt>
      <trkpt lat="46.97011231267437" lon="9.006893392883004">
      <ele>1396.8</ele></trkpt>
      <trkpt lat="46.97009298544319" lon="9.006882997159831">
      <ele>1396.6</ele></trkpt>
      <trkpt lat="46.97007322165722" lon="9.006870972056001">
      <ele>1396.5</ele></trkpt>
      <trkpt lat="46.970044771370866" lon="9.006842829197048">
      <ele>1396.4</ele></trkpt>
      <trkpt lat="46.970023546212026" lon="9.006817933491156">
      <ele>1396.2</ele></trkpt>
      <trkpt lat="46.97000241659568" lon="9.006778819451416">
      <ele>1396.1</ele></trkpt>
      <trkpt lat="46.96998452604943" lon="9.006742323560024">
      <ele>1396.0</ele></trkpt>
      <trkpt lat="46.969970158699475" lon="9.006702145283148">
      <ele>1395.9</ele></trkpt>
      <trkpt lat="46.969947014845204" lon="9.006643218023621">
      <ele>1395.7</ele></trkpt>
      <trkpt lat="46.9699374969173" lon="9.006606979837422">
      <ele>1395.6</ele></trkpt>
      <trkpt lat="46.969927372530066" lon="9.006561142441862">
      <ele>1395.5</ele></trkpt>
      <trkpt lat="46.96991940232084" lon="9.006523569421383">
      <ele>1395.3</ele></trkpt>
      <trkpt lat="46.969913123803735" lon="9.006489923097623">
      <ele>1395.2</ele></trkpt>
      <trkpt lat="46.96990672865454" lon="9.006450989745412">
      <ele>1395.1</ele></trkpt>
      <trkpt lat="46.969891043066895" lon="9.006405883791594">
      <ele>1395.0</ele></trkpt>
      <trkpt lat="46.96987920355712" lon="9.006372955750566">
      <ele>1394.8</ele></trkpt>
      <trkpt lat="46.96986877164336" lon="9.006350254916347">
      <ele>1394.7</ele></trkpt>
      <trkpt lat="46.96985549497957" lon="9.006343466495519">
      <ele>1394.6</ele></trkpt>
      <trkpt lat="46.96983713559307" lon="9.006322164015012">
      <ele>1394.4</ele></trkpt>
      <trkpt lat="46.96982810794372" lon="9.006290198718686">
      <ele>1394.3</ele></trkpt>
      <trkpt lat="46.96982013782522" lon="9.006252612669943">
      <ele>1394.1</ele></trkpt>
      <trkpt lat="46.969814660008986" lon="9.006219620697104">
      <ele>1393.8</ele></trkpt>
      <trkpt lat="46.96981767166007" lon="9.00619216017603">
      <ele>1393.6</ele></trkpt>
      <trkpt lat="46.969822645903704" lon="9.00614552823648">
      <ele>1393.4</ele></trkpt>
      <trkpt lat="46.96982380453246" lon="9.006106197754383">
      <ele>1393.2</ele></trkpt>
      <trkpt lat="46.96982676215364" lon="9.006076106977833">
      <ele>1393.0</ele></trkpt>
      <trkpt lat="46.9698316947189" lon="9.006046336711973">
      <ele>1392.7</ele></trkpt>
      <trkpt lat="46.96983166997022" lon="9.006007352838044">
      <ele>1392.5</ele></trkpt>
      <trkpt lat="46.96983288255677" lon="9.005970652591026">
      <ele>1392.3</ele></trkpt>
      <trkpt lat="46.96982810678209" lon="9.005933028389586">
      <ele>1392.0</ele></trkpt>
      <trkpt lat="46.96982685722013" lon="9.005911239690612">
      <ele>1391.8</ele></trkpt>
      <trkpt lat="46.96981775746209" lon="9.005876643700864">
      <ele>1391.6</ele></trkpt>
      <trkpt lat="46.96981364235247" lon="9.00585123581743">
      <ele>1391.4</ele></trkpt>
      <trkpt lat="46.969810103530946" lon="9.005815921538638">
      <ele>1391.1</ele></trkpt>
      <trkpt lat="46.96980786469442" lon="9.005785547667777">
      <ele>1390.9</ele></trkpt>
      <trkpt lat="46.969814413667976" lon="9.00573756846638">
      <ele>1390.7</ele></trkpt>
      <trkpt lat="46.969822208609635" lon="9.005691899411888">
      <ele>1390.5</ele></trkpt>
      <trkpt lat="46.969824069193955" lon="9.005647936667403">
      <ele>1390.2</ele></trkpt>
      <trkpt lat="46.969832494208575" lon="9.005595004568187">
      <ele>1390.0</ele></trkpt>
      <trkpt lat="46.96984767266655" lon="9.00554099461265">
      <ele>1389.8</ele></trkpt>
      <trkpt lat="46.969862319497295" lon="9.005499547298534">
      <ele>1389.6</ele></trkpt>
      <trkpt lat="46.969885969256374" lon="9.005451081234114">
      <ele>1389.5</ele></trkpt>
      <trkpt lat="46.969903759969554" lon="9.00542645709075">
      <ele>1389.3</ele></trkpt>
      <trkpt lat="46.96992036751538" lon="9.005402166423803">
      <ele>1389.2</ele></trkpt>
      <trkpt lat="46.96992055790534" lon="9.005373756031751">
      <ele>1389.0</ele></trkpt>
      <trkpt lat="46.96992160840903" lon="9.00532915182664">
      <ele>1388.9</ele></trkpt>
      <trkpt lat="46.96992481371919" lon="9.00529277251451">
      <ele>1388.7</ele></trkpt>
      <trkpt lat="46.96993746733945" lon="9.005251017201129">
      <ele>1388.6</ele></trkpt>
      <trkpt lat="46.96995254146946" lon="9.005211211985172">
      <ele>1388.4</ele></trkpt>
      <trkpt lat="46.969971461448516" lon="9.00518361084518">
      <ele>1388.2</ele></trkpt>
      <trkpt lat="46.9699890400755" lon="9.005167917884991">
      <ele>1388.1</ele></trkpt>
      <trkpt lat="46.970009083628554" lon="9.00516804259474">
      <ele>1387.9</ele></trkpt>
      <trkpt lat="46.96999588065734" lon="9.005124915158028">
      <ele>1387.8</ele></trkpt>
      <trkpt lat="46.969984935140914" lon="9.005079868945984">
      <ele>1387.6</ele></trkpt>
      <trkpt lat="46.96997935516839" lon="9.00503918514763">
      <ele>1387.5</ele></trkpt>
      <trkpt lat="46.969978991094465" lon="9.004988795973725">
      <ele>1387.3</ele></trkpt>
      <trkpt lat="46.96998443750559" lon="9.004947737217453">
      <ele>1387.2</ele></trkpt>
      <trkpt lat="46.969992044231695" lon="9.004911210213574">
      <ele>1387.0</ele></trkpt>
      <trkpt lat="46.970001830747634" lon="9.004860670219195">
      <ele>1386.9</ele></trkpt>
      <trkpt lat="46.970011432506574" lon="9.004822992188931">
      <ele>1386.7</ele></trkpt>
      <trkpt lat="46.97002826692688" lon="9.004766283175115">
      <ele>1388.0</ele></trkpt>
      <trkpt lat="46.97005075691762" lon="9.004703903402124">
      <ele>1389.2</ele></trkpt>
      <trkpt lat="46.97007599622413" lon="9.00465035725871">
      <ele>1390.5</ele></trkpt>
      <trkpt lat="46.97010527268561" lon="9.004592381180593">
      <ele>1391.7</ele></trkpt>
      <trkpt lat="46.97013012356512" lon="9.004543555232353">
      <ele>1393.0</ele></trkpt>
      <trkpt lat="46.97015409558424" lon="9.00449451960374">
      <ele>1394.2</ele></trkpt>
      <trkpt lat="46.970187355355264" lon="9.004414315689646">
      <ele>1395.5</ele></trkpt>
      <trkpt lat="46.97022236253588" lon="9.004312883412148">
      <ele>1396.7</ele></trkpt>
      <trkpt lat="46.97025075028167" lon="9.00421588450441">
      <ele>1398.0</ele></trkpt>
      <trkpt lat="46.97027994437469" lon="9.00411056291678">
      <ele>1399.2</ele></trkpt>
      <trkpt lat="46.97030960506314" lon="9.004019160591392">
      <ele>1400.5</ele></trkpt>
      <trkpt lat="46.970344452021074" lon="9.003934047342446">
      <ele>1401.7</ele></trkpt>
      <trkpt lat="46.97036538872071" lon="9.003865470448268">
      <ele>1403.0</ele></trkpt>
      <trkpt lat="46.97037347995265" lon="9.003811883801056">
      <ele>1404.2</ele></trkpt>
      <trkpt lat="46.9703741725887" lon="9.00376115706428">
      <ele>1405.5</ele></trkpt>
      <trkpt lat="46.97042517024001" lon="9.004267580944129">
      <ele>1406.7</ele></trkpt>
      <trkpt lat="46.97047616565298" lon="9.004774005788367">
      <ele>1408.0</ele></trkpt>
      <trkpt lat="46.97052715882763" lon="9.005280431596953">
      <ele>1409.2</ele></trkpt>
      <trkpt lat="46.97053897808543" lon="9.005287216747922">
      <ele>1410.5</ele></trkpt>
      <trkpt lat="46.9706056521075" lon="9.005286086404702">
      <ele>1411.7</ele></trkpt>
      <trkpt lat="46.97066283606991" lon="9.005282195052684">
      <ele>1413.2</ele></trkpt>
      <trkpt lat="46.970761902233434" lon="9.005279525619619">
      <ele>1414.6</ele></trkpt>
      <trkpt lat="46.97083416008607" lon="9.005287193507451">
      <ele>1416.0</ele></trkpt>
      <trkpt lat="46.97088939956012" lon="9.00528601870775">
      <ele>1417.5</ele></trkpt>
      <trkpt lat="46.97099060036339" lon="9.005266719148295">
      <ele>1419.0</ele></trkpt>
      <trkpt lat="46.97102322467759" lon="9.005248192110077">
      <ele>1420.4</ele></trkpt>
      <trkpt lat="46.97108703158022" lon="9.00517772418703">
      <ele>1421.9</ele></trkpt>
      <trkpt lat="46.97113412419205" lon="9.005076156924366">
      <ele>1423.3</ele></trkpt>
      <trkpt lat="46.97124186285715" lon="9.004995837466076">
      <ele>1424.8</ele></trkpt>
      <trkpt lat="46.97135295866823" lon="9.004949000635818">
      <ele>1426.2</ele></trkpt>
      <trkpt lat="46.97147431542408" lon="9.004952540560808">
      <ele>1427.7</ele></trkpt>
      <trkpt lat="46.971591864531845" lon="9.004886425751527">
      <ele>1429.1</ele></trkpt>
      <trkpt lat="46.9717102339169" lon="9.004824803470084">
      <ele>1430.5</ele></trkpt>
      <trkpt lat="46.97177007883188" lon="9.00483489531245">
      <ele>1432.0</ele></trkpt>
      <trkpt lat="46.97184238357219" lon="9.004839790763278">
      <ele>1433.5</ele></trkpt>
      <trkpt lat="46.971909808004646" lon="9.004852877077868">
      <ele>1434.9</ele></trkpt>
      <trkpt lat="46.972026969870036" lon="9.004849341353992">
      <ele>1436.4</ele></trkpt>
      <trkpt lat="46.972083133563096" lon="9.004850979538823">
      <ele>1437.8</ele></trkpt>
      <trkpt lat="46.972112897907124" lon="9.004832368453396">
      <ele>1439.2</ele></trkpt>
      <trkpt lat="46.972127916868416" lon="9.00470900413048">
      <ele>1440.7</ele></trkpt>
      <trkpt lat="46.97213737478997" lon="9.004713459735841">
      <ele>1441.3</ele></trkpt>
      <trkpt lat="46.972143412068746" lon="9.004759534327238">
      <ele>1442.0</ele></trkpt>
      <trkpt lat="46.972152252141434" lon="9.004809870441452">
      <ele>1442.6</ele></trkpt>
      <trkpt lat="46.97217812604403" lon="9.004854749228365">
      <ele>1443.3</ele></trkpt>
      <trkpt lat="46.97218122395882" lon="9.00483675356451">
      <ele>1443.9</ele></trkpt>
      <trkpt lat="46.97217619709343" lon="9.004786528637789">
      <ele>1444.6</ele></trkpt>
      <trkpt lat="46.97217244642609" lon="9.004712695047704">
      <ele>1445.2</ele></trkpt>
      <trkpt lat="46.97217025138337" lon="9.004663945985898">
      <ele>1445.9</ele></trkpt>
      <trkpt lat="46.97217826779134" lon="9.004634960865737">
      <ele>1446.5</ele></trkpt>
      <trkpt lat="46.97220166183967" lon="9.00459530444994">
      <ele>1447.2</ele></trkpt>
      <trkpt lat="46.97220965920515" lon="9.004567712003219">
      <ele>1447.8</ele></trkpt>
      <trkpt lat="46.97220914276184" lon="9.004535704643565">
      <ele>1448.4</ele></trkpt>
      <trkpt lat="46.97219913033146" lon="9.004502027110943">
      <ele>1449.1</ele></trkpt>
      <trkpt lat="46.972197850450556" lon="9.004456091233166">
      <ele>1449.7</ele></trkpt>
      <trkpt lat="46.9722130816801" lon="9.004386977765849">
      <ele>1450.4</ele></trkpt>
      <trkpt lat="46.972228132854454" lon="9.004330385168988">
      <ele>1451.0</ele></trkpt>
      <trkpt lat="46.97223463757941" lon="9.004211819481343">
      <ele>1451.7</ele></trkpt>
      <trkpt lat="46.972245063740786" lon="9.004128252074505">
      <ele>1452.3</ele></trkpt>
      <trkpt lat="46.97224551254186" lon="9.00404334225171">
      <ele>1453.0</ele></trkpt>
      <trkpt lat="46.972280137101315" lon="9.003934980987538">
      <ele>1453.6</ele></trkpt>
      <trkpt lat="46.97233690211349" lon="9.003779907317558">
      <ele>1454.2</ele></trkpt>
      <trkpt lat="46.97236265443423" lon="9.003656460734414">
      <ele>1454.8</ele></trkpt>
      <trkpt lat="46.97236544258434" lon="9.003609079179641">
      <ele>1455.3</ele></trkpt>
      <trkpt lat="46.97237226442328" lon="9.003580584747521">
      <ele>1455.9</ele></trkpt>
      <trkpt lat="46.97237838812854" lon="9.003550505831125">
      <ele>1456.5</ele></trkpt>
      <trkpt lat="46.972380937567195" lon="9.00349424513017">
      <ele>1457.1</ele></trkpt>
      <trkpt lat="46.97238534848053" lon="9.003485501505175">
      <ele>1457.7</ele></trkpt>
      <trkpt lat="46.97239915246293" lon="9.00346817258719">
      <ele>1458.2</ele></trkpt>
      <trkpt lat="46.972409428933126" lon="9.003447599453654">
      <ele>1458.8</ele></trkpt>
      <trkpt lat="46.97241407279531" lon="9.003421131399731">
      <ele>1459.4</ele></trkpt>
      <trkpt lat="46.97241348664468" lon="9.003385638756725">
      <ele>1460.0</ele></trkpt>
      <trkpt lat="46.97242002898278" lon="9.003376957229158">
      <ele>1460.6</ele></trkpt>
      <trkpt lat="46.97242870247436" lon="9.003343311686345">
      <ele>1461.1</ele></trkpt>
      <trkpt lat="46.972431220233055" lon="9.003315730143145">
      <ele>1461.7</ele></trkpt>
      <trkpt lat="46.97243559151279" lon="9.0032835233542">
      <ele>1462.3</ele></trkpt>
      <trkpt lat="46.972439799232596" lon="9.003263299095996">
      <ele>1462.9</ele></trkpt>
      <trkpt lat="46.97244615254907" lon="9.00324209897985">
      <ele>1463.5</ele></trkpt>
      <trkpt lat="46.97244633761723" lon="9.003228539792776">
      <ele>1464.0</ele></trkpt>
      <trkpt lat="46.9724436859464" lon="9.003213859575645">
      <ele>1464.6</ele></trkpt>
      <trkpt lat="46.97244959615912" lon="9.00319941568771">
      <ele>1465.2</ele></trkpt>
      <trkpt lat="46.97245321244091" lon="9.003174402922708">
      <ele>1465.7</ele></trkpt>
      <trkpt lat="46.972451422383855" lon="9.003130870501606">
      <ele>1466.2</ele></trkpt>
      <trkpt lat="46.97245831576252" lon="9.003061526576946">
      <ele>1466.7</ele></trkpt>
      <trkpt lat="46.97247042635532" lon="9.002959290672626">
      <ele>1467.2</ele></trkpt>
      <trkpt lat="46.97248203897319" lon="9.00289354105081">
      <ele>1467.7</ele></trkpt>
      <trkpt lat="46.972482797896056" lon="9.002837924691573">
      <ele>1468.2</ele></trkpt>
      <trkpt lat="46.97249608642338" lon="9.002735723008009">
      <ele>1468.7</ele></trkpt>
      <trkpt lat="46.972507983404256" lon="9.002649122087844">
      <ele>1469.2</ele></trkpt>
      <trkpt lat="46.97252185125276" lon="9.002592152508722">
      <ele>1469.7</ele></trkpt>
      <trkpt lat="46.972541601714255" lon="9.002540559254296">
      <ele>1470.2</ele></trkpt>
      <trkpt lat="46.97255302427315" lon="9.002488723418393">
      <ele>1470.6</ele></trkpt>
      <trkpt lat="46.97255154206533" lon="9.002422605384337">
      <ele>1471.1</ele></trkpt>
      <trkpt lat="46.972541385340236" lon="9.002382312419147">
      <ele>1471.6</ele></trkpt>
      <trkpt lat="46.972526509419836" lon="9.00233841202634">
      <ele>1472.1</ele></trkpt>
      <trkpt lat="46.972522842483215" lon="9.002258324072674">
      <ele>1472.6</ele></trkpt>
      <trkpt lat="46.97253732679378" lon="9.002156143859748">
      <ele>1473.1</ele></trkpt>
      <trkpt lat="46.97254184532727" lon="9.002086730568692">
      <ele>1473.6</ele></trkpt>
      <trkpt lat="46.97255587900585" lon="9.002017581161391">
      <ele>1474.1</ele></trkpt>
      <trkpt lat="46.97256863072749" lon="9.00195534757096">
      <ele>1474.6</ele></trkpt>
      <trkpt lat="46.97258016246386" lon="9.001894826586389">
      <ele>1475.1</ele></trkpt>
      <trkpt lat="46.97261240337534" lon="9.001800129418587">
      <ele>1475.3</ele></trkpt>
      <trkpt lat="46.97263740868247" lon="9.001712174696332">
      <ele>1475.5</ele></trkpt>
      <trkpt lat="46.97264056493508" lon="9.001654892950041">
      <ele>1475.7</ele></trkpt>
      <trkpt lat="46.972649459913356" lon="9.001560094343589">
      <ele>1475.9</ele></trkpt>
      <trkpt lat="46.9726722787094" lon="9.001577727463557">
      <ele>1476.1</ele></trkpt>
      <trkpt lat="46.972688493971326" lon="9.001627016360453">
      <ele>1476.3</ele></trkpt>
      <trkpt lat="46.972713302415116" lon="9.001666986572948">
      <ele>1476.5</ele></trkpt>
      <trkpt lat="46.97274383974607" lon="9.001682701963123">
      <ele>1476.7</ele></trkpt>
      <trkpt lat="46.9727869439975" lon="9.001680736408687">
      <ele>1476.9</ele></trkpt>
      <trkpt lat="46.9728078691829" lon="9.001669647317707">
      <ele>1477.2</ele></trkpt>
      <trkpt lat="46.97282484397624" lon="9.00166586962016">
      <ele>1477.4</ele></trkpt>
      <trkpt lat="46.9728404828738" lon="9.001701340639954">
      <ele>1477.6</ele></trkpt>
      <trkpt lat="46.97285457379013" lon="9.001630615131996">
      <ele>1477.8</ele></trkpt>
      <trkpt lat="46.972859144478186" lon="9.001579788625989">
      <ele>1478.0</ele></trkpt>
      <trkpt lat="46.97287197184715" lon="9.001543003709903">
      <ele>1478.2</ele></trkpt>
      <trkpt lat="46.97288006491347" lon="9.001461483140668">
      <ele>1478.4</ele></trkpt>
      <trkpt lat="46.97288724509916" lon="9.00138950486626">
      <ele>1478.6</ele></trkpt>
      <trkpt lat="46.97288496671893" lon="9.001280106153773">
      <ele>1478.8</ele></trkpt>
      <trkpt lat="46.97288190047507" lon="9.00117173605271">
      <ele>1479.0</ele></trkpt>
      <trkpt lat="46.97287951171286" lon="9.001069760554923">
      <ele>1479.2</ele></trkpt>
      <trkpt lat="46.97287331151126" lon="9.000965557975766">
      <ele>1480.2</ele></trkpt>
      <trkpt lat="46.97288450873595" lon="9.00088201144819">
      <ele>1481.2</ele></trkpt>
      <trkpt lat="46.97290380920386" lon="9.0008231091844">
      <ele>1482.2</ele></trkpt>
      <trkpt lat="46.972911623440126" lon="9.000760691851186">
      <ele>1483.2</ele></trkpt>
      <trkpt lat="46.97292418141407" lon="9.000688856754559">
      <ele>1484.2</ele></trkpt>
      <trkpt lat="46.97294116497229" lon="9.000630951653077">
      <ele>1485.2</ele></trkpt>
      <trkpt lat="46.9729678620509" lon="9.000592427434757">
      <ele>1486.2</ele></trkpt>
      <trkpt lat="46.97298416794623" lon="9.00052812765913">
      <ele>1487.2</ele></trkpt>
      <trkpt lat="46.972993394961186" lon="9.000420114983008">
      <ele>1488.2</ele></trkpt>
      <trkpt lat="46.97299290863279" lon="9.000346848787476">
      <ele>1489.2</ele></trkpt>
      <trkpt lat="46.97298616029477" lon="9.000280853176903">
      <ele>1490.2</ele></trkpt>
      <trkpt lat="46.97302723123761" lon="9.000205575258356">
      <ele>1491.2</ele></trkpt>
      <trkpt lat="46.973044234798046" lon="9.000199681718774">
      <ele>1492.2</ele></trkpt>
      <trkpt lat="46.97304934355578" lon="9.000164788094496">
      <ele>1493.2</ele></trkpt>
      <trkpt lat="46.97307542964181" lon="9.000115625357607">
      <ele>1494.2</ele></trkpt>
      <trkpt lat="46.9730917117798" lon="9.000052389299036">
      <ele>1495.2</ele></trkpt>
      <trkpt lat="46.97311421216155" lon="8.999985088464696">
      <ele>1496.2</ele></trkpt>
      <trkpt lat="46.97313571336966" lon="8.99993367606392">
      <ele>1497.2</ele></trkpt>
      <trkpt lat="46.973150312949386" lon="8.999881011420165">
      <ele>1498.2</ele></trkpt>
      <trkpt lat="46.973158780838304" lon="8.999826052263753">
      <ele>1499.2</ele></trkpt>
      <trkpt lat="46.973178657500654" lon="8.999780954290339">
      <ele>1500.5</ele></trkpt>
      <trkpt lat="46.97319158006538" lon="8.999737796600838">
      <ele>1501.9</ele></trkpt>
      <trkpt lat="46.973234617029284" lon="8.999685932305601">
      <ele>1503.2</ele></trkpt>
      <trkpt lat="46.97326002524496" lon="8.999630374548262">
      <ele>1504.6</ele></trkpt>
      <trkpt lat="46.97328463083923" lon="8.999576935905608">
      <ele>1505.9</ele></trkpt>
      <trkpt lat="46.97331588356615" lon="8.999542775781663">
      <ele>1507.3</ele></trkpt>
      <trkpt lat="46.973330671372416" lon="8.999530455808701">
      <ele>1508.6</ele></trkpt>
      <trkpt lat="46.97335221566922" lon="8.999475863385005">
      <ele>1510.0</ele></trkpt>
      <trkpt lat="46.9733731551298" lon="8.999463709059496">
      <ele>1511.3</ele></trkpt>
      <trkpt lat="46.97338959104624" lon="8.99944399734744">
      <ele>1512.7</ele></trkpt>
      <trkpt lat="46.97342359808619" lon="8.999432209702109">
      <ele>1514.0</ele></trkpt>
      <trkpt lat="46.97344102406533" lon="8.999396609110716">
      <ele>1515.3</ele></trkpt>
      <trkpt lat="46.97346735056126" lon="8.999384611318767">
      <ele>1516.7</ele></trkpt>
      <trkpt lat="46.973486233932306" lon="8.99940849117985">
      <ele>1518.0</ele></trkpt>
      <trkpt lat="46.97350666730246" lon="8.999479761590543">
      <ele>1519.4</ele></trkpt>
      <trkpt lat="46.973513596380855" lon="8.999504766154955">
      <ele>1520.7</ele></trkpt>
      <trkpt lat="46.97351096344885" lon="8.999553428387609">
      <ele>1522.1</ele></trkpt>
      <trkpt lat="46.97352239192999" lon="8.99958629256745">
      <ele>1523.4</ele></trkpt>
      <trkpt lat="46.973555715502584" lon="8.99960685935659">
      <ele>1524.8</ele></trkpt>
      <trkpt lat="46.97359408245838" lon="8.99962110582337">
      <ele>1526.1</ele></trkpt>
      <trkpt lat="46.97362803881726" lon="8.999671843966684">
      <ele>1528.8</ele></trkpt>
      <trkpt lat="46.9736560358259" lon="8.999743308285195">
      <ele>1531.5</ele></trkpt>
      <trkpt lat="46.973686593839375" lon="8.99972515068071">
      <ele>1534.2</ele></trkpt>
      <trkpt lat="46.97368663466813" lon="8.99980341281784">
      <ele>1536.9</ele></trkpt>
      <trkpt lat="46.97373361748206" lon="8.999739938122724">
      <ele>1539.6</ele></trkpt>
      <trkpt lat="46.9737930240237" lon="8.999736000101032">
      <ele>1542.3</ele></trkpt>
      <trkpt lat="46.97385411101247" lon="8.999781756968599">
      <ele>1545.0</ele></trkpt>
      <trkpt lat="46.97392503176371" lon="8.999818257082902">
      <ele>1547.7</ele></trkpt>
      <trkpt lat="46.973964174519544" lon="8.999792712172987">
      <ele>1550.4</ele></trkpt>
      <trkpt lat="46.974017293424566" lon="8.999803878255115">
      <ele>1553.0</ele></trkpt>
      <trkpt lat="46.9740782966895" lon="8.999775183299723">
      <ele>1555.7</ele></trkpt>
      <trkpt lat="46.974140322054076" lon="8.99975797989115">
      <ele>1558.4</ele></trkpt>
      <trkpt lat="46.97420755982879" lon="8.99971609823192">
      <ele>1561.1</ele></trkpt>
      <trkpt lat="46.974336858819335" lon="8.999668252404305">
      <ele>1563.8</ele></trkpt>
      <trkpt lat="46.974369833363426" lon="8.999620629243868">
      <ele>1566.5</ele></trkpt>
      <trkpt lat="46.97442453188729" lon="8.99958979208369">
      <ele>1569.2</ele></trkpt>
      <trkpt lat="46.974515511662695" lon="8.99952220609615">
      <ele>1571.9</ele></trkpt>
      <trkpt lat="46.97456479239312" lon="8.999462411707864">
      <ele>1574.6</ele></trkpt>
      <trkpt lat="46.97458251676943" lon="8.999433969641094">
      <ele>1577.3</ele></trkpt>
      <trkpt lat="46.97460610582259" lon="8.999399677853887">
      <ele>1580.0</ele></trkpt>
      <trkpt lat="46.974621413657744" lon="8.999366341474204">
      <ele>1581.2</ele></trkpt>
      <trkpt lat="46.9746329068344" lon="8.999311192636148">
      <ele>1582.3</ele></trkpt>
      <trkpt lat="46.97464105786042" lon="8.9992583389336">
      <ele>1583.5</ele></trkpt>
      <trkpt lat="46.974647398691104" lon="8.999217512397387">
      <ele>1584.6</ele></trkpt>
      <trkpt lat="46.9746532294282" lon="8.999144098958114">
      <ele>1585.8</ele></trkpt>
      <trkpt lat="46.974633658949266" lon="8.999097327283842">
      <ele>1587.0</ele></trkpt>
      <trkpt lat="46.974608769423405" lon="8.99903680966559">
      <ele>1588.1</ele></trkpt>
      <trkpt lat="46.97461373234515" lon="8.998990790448167">
      <ele>1589.3</ele></trkpt>
      <trkpt lat="46.97461741397288" lon="8.998948348723873">
      <ele>1590.4</ele></trkpt>
      <trkpt lat="46.97459967374003" lon="8.998919796017171">
      <ele>1591.6</ele></trkpt>
      <trkpt lat="46.97456066105254" lon="8.998867714368096">
      <ele>1592.8</ele></trkpt>
      <trkpt lat="46.97454687811628" lon="8.998819428554652">
      <ele>1593.9</ele></trkpt>
      <trkpt lat="46.97454800595453" lon="8.99878415527418">
      <ele>1595.1</ele></trkpt>
      <trkpt lat="46.974553663169175" lon="8.998732727594026">
      <ele>1596.2</ele></trkpt>
      <trkpt lat="46.974538133725375" lon="8.998660717890486">
      <ele>1597.4</ele></trkpt>
      <trkpt lat="46.97449533237568" lon="8.998608697299003">
      <ele>1598.6</ele></trkpt>
      <trkpt lat="46.97449464117663" lon="8.99857155726745">
      <ele>1599.7</ele></trkpt>
      <trkpt lat="46.97454984455386" lon="8.998572359240239">
      <ele>1600.9</ele></trkpt>
      <trkpt lat="46.97456708626016" lon="8.998525816072876">
      <ele>1602.0</ele></trkpt>
      <trkpt lat="46.974599203296656" lon="8.998511422652507">
      <ele>1603.2</ele></trkpt>
      <trkpt lat="46.97463617571293" lon="8.998458236281413">
      <ele>1604.7</ele></trkpt>
      <trkpt lat="46.974647824934806" lon="8.998416052251999">
      <ele>1606.1</ele></trkpt>
      <trkpt lat="46.97465998736719" lon="8.99838111258678">
      <ele>1607.6</ele></trkpt>
      <trkpt lat="46.97466972807643" lon="8.99834430176282">
      <ele>1609.1</ele></trkpt>
      <trkpt lat="46.974669738465956" lon="8.998296587528777">
      <ele>1610.5</ele></trkpt>
      <trkpt lat="46.974638597344175" lon="8.998290832647701">
      <ele>1612.0</ele></trkpt>
      <trkpt lat="46.97463342271919" lon="8.99826712741154">
      <ele>1613.5</ele></trkpt>
      <trkpt lat="46.9746375958081" lon="8.998232849490048">
      <ele>1614.9</ele></trkpt>
      <trkpt lat="46.97464859639449" lon="8.998193367483662">
      <ele>1616.4</ele></trkpt>
      <trkpt lat="46.97466864057315" lon="8.998165005485413">
      <ele>1617.8</ele></trkpt>
      <trkpt lat="46.97467395939319" lon="8.998137109604988">
      <ele>1619.3</ele></trkpt>
      <trkpt lat="46.97464672197789" lon="8.998110923352153">
      <ele>1620.8</ele></trkpt>
      <trkpt lat="46.974617588185794" lon="8.998048876467632">
      <ele>1622.2</ele></trkpt>
      <trkpt lat="46.97465456502693" lon="8.997949710449886">
      <ele>1623.7</ele></trkpt>
      <trkpt lat="46.97464323554991" lon="8.997875798565095">
      <ele>1625.2</ele></trkpt>
      <trkpt lat="46.974648589673876" lon="8.9978492707238">
      <ele>1626.6</ele></trkpt>
      <trkpt lat="46.97463492875969" lon="8.997827041028094">
      <ele>1628.1</ele></trkpt>
      <trkpt lat="46.97457925999021" lon="8.997770493727273">
      <ele>1629.6</ele></trkpt>
      <trkpt lat="46.97456273584063" lon="8.997739163833279">
      <ele>1631.0</ele></trkpt>
      <trkpt lat="46.974551175393145" lon="8.997700748627912">
      <ele>1632.5</ele></trkpt>
      <trkpt lat="46.97454568297676" lon="8.997660708834827">
      <ele>1633.7</ele></trkpt>
      <trkpt lat="46.97456251191677" lon="8.997628612323528">
      <ele>1635.0</ele></trkpt>
      <trkpt lat="46.97455747426225" lon="8.997599456210573">
      <ele>1636.2</ele></trkpt>
      <trkpt lat="46.9745540996677" lon="8.997538643928134">
      <ele>1637.4</ele></trkpt>
      <trkpt lat="46.974523426803025" lon="8.99748058813815">
      <ele>1638.7</ele></trkpt>
      <trkpt lat="46.97452874783455" lon="8.997447224238059">
      <ele>1639.9</ele></trkpt>
      <trkpt lat="46.97450826439397" lon="8.997396746360073">
      <ele>1641.1</ele></trkpt>
      <trkpt lat="46.97447637734837" lon="8.997338655456126">
      <ele>1642.3</ele></trkpt>
      <trkpt lat="46.974470088530545" lon="8.997312184000432">
      <ele>1643.6</ele></trkpt>
      <trkpt lat="46.97445408951992" lon="8.997287218325239">
      <ele>1644.8</ele></trkpt>
      <trkpt lat="46.97441776400384" lon="8.997242576911317">
      <ele>1646.0</ele></trkpt>
      <trkpt lat="46.97441965433122" lon="8.997195522127004">
      <ele>1647.3</ele></trkpt>
      <trkpt lat="46.97443696577406" lon="8.997171602251">
      <ele>1648.5</ele></trkpt>
      <trkpt lat="46.9744610150954" lon="8.997142449275625">
      <ele>1649.7</ele></trkpt>
      <trkpt lat="46.97445231933319" lon="8.99711500102348">
      <ele>1650.9</ele></trkpt>
      <trkpt lat="46.97442988719362" lon="8.997073510161975">
      <ele>1652.2</ele></trkpt>
      <trkpt lat="46.97442488619342" lon="8.997041647487501">
      <ele>1653.4</ele></trkpt>
      <trkpt lat="46.97445043521869" lon="8.997035199005744">
      <ele>1654.6</ele></trkpt>
      <trkpt lat="46.974440706857095" lon="8.996995023279233">
      <ele>1655.9</ele></trkpt>
      <trkpt lat="46.97447900898381" lon="8.996986263436105">
      <ele>1657.1</ele></trkpt>
      <trkpt lat="46.97447453675134" lon="8.996959844744186">
      <ele>1658.6</ele></trkpt>
      <trkpt lat="46.9744469558083" lon="8.99689735742327">
      <ele>1660.1</ele></trkpt>
      <trkpt lat="46.97449379996383" lon="8.996884336859893">
      <ele>1661.6</ele></trkpt>
      <trkpt lat="46.974526062025674" lon="8.996874481530332">
      <ele>1663.1</ele></trkpt>
      <trkpt lat="46.97453807127912" lon="8.996839524019316">
      <ele>1664.6</ele></trkpt>
      <trkpt lat="46.97451502415956" lon="8.99679892233094">
      <ele>1666.1</ele></trkpt>
      <trkpt lat="46.97453352831228" lon="8.99677594386584">
      <ele>1667.6</ele></trkpt>
      <trkpt lat="46.97448590636638" lon="8.996716450321607">
      <ele>1669.1</ele></trkpt>
      <trkpt lat="46.97450645427189" lon="8.996678138988736">
      <ele>1670.6</ele></trkpt>
      <trkpt lat="46.97457140291115" lon="8.99669206393979">
      <ele>1672.1</ele></trkpt>
      <trkpt lat="46.97463660680605" lon="8.996704418993051">
      <ele>1673.6</ele></trkpt>
      <trkpt lat="46.97468352109425" lon="8.996731911593924">
      <ele>1675.1</ele></trkpt>
      <trkpt lat="46.974706584300776" lon="8.996726981285626">
      <ele>1676.6</ele></trkpt>
      <trkpt lat="46.97472260290364" lon="8.99667703692684">
      <ele>1678.1</ele></trkpt>
      <trkpt lat="46.974744677152344" lon="8.99665153302114">
      <ele>1679.6</ele></trkpt>
      <trkpt lat="46.97476635463578" lon="8.996659194345849">
      <ele>1681.1</ele></trkpt>
      <trkpt lat="46.974790509792044" lon="8.996734779605454">
      <ele>1682.6</ele></trkpt>
      <trkpt lat="46.974848682640996" lon="8.996748784110881">
      <ele>1684.1</ele></trkpt>
      <trkpt lat="46.97489533909706" lon="8.99675155762306">
      <ele>1685.6</ele></trkpt>
      <trkpt lat="46.974853149973804" lon="8.996682231496433">
      <ele>1687.1</ele></trkpt>
      <trkpt lat="46.974879287412065" lon="8.996674853459341">
      <ele>1689.0</ele></trkpt>
      <trkpt lat="46.97491960212421" lon="8.996681517701425">
      <ele>1690.8</ele></trkpt>
      <trkpt lat="46.97497269341518" lon="8.99667222714246">
      <ele>1692.7</ele></trkpt>
      <trkpt lat="46.975010450377226" lon="8.996737336837178">
      <ele>1694.6</ele></trkpt>
      <trkpt lat="46.975042699948375" lon="8.996811803483022">
      <ele>1696.4</ele></trkpt>
      <trkpt lat="46.9750783325194" lon="8.996833303667113">
      <ele>1698.3</ele></trkpt>
      <trkpt lat="46.9750894414666" lon="8.996875833355057">
      <ele>1700.2</ele></trkpt>
      <trkpt lat="46.97513162106773" lon="8.996946513560948">
      <ele>1702.1</ele></trkpt>
      <trkpt lat="46.97517003515934" lon="8.996961285686004">
      <ele>1703.9</ele></trkpt>
      <trkpt lat="46.97519926117213" lon="8.996992103647521">
      <ele>1705.8</ele></trkpt>
      <trkpt lat="46.97522063353537" lon="8.99700500102728">
      <ele>1707.7</ele></trkpt>
      <trkpt lat="46.97522381279165" lon="8.996968354055598">
      <ele>1709.5</ele></trkpt>
      <trkpt lat="46.975248921414014" lon="8.996970476109402">
      <ele>1711.4</ele></trkpt>
      <trkpt lat="46.97523348244202" lon="8.996915556665225">
      <ele>1713.3</ele></trkpt>
      <trkpt lat="46.975260463687476" lon="8.996912291160676">
      <ele>1715.2</ele></trkpt>
      <trkpt lat="46.97530960573038" lon="8.996930108731336">
      <ele>1717.0</ele></trkpt>
      <trkpt lat="46.97535708757466" lon="8.996938348270277">
      <ele>1718.9</ele></trkpt>
      <trkpt lat="46.97536529295777" lon="8.996929069671154">
      <ele>1720.8</ele></trkpt>
      <trkpt lat="46.97541427752677" lon="8.996959133561539">
      <ele>1722.6</ele></trkpt>
      <trkpt lat="46.97545278576701" lon="8.997035149605038">
      <ele>1724.5</ele></trkpt>
      <trkpt lat="46.97554150837004" lon="8.997022963198045">
      <ele>1726.3</ele></trkpt>
      <trkpt lat="46.975599474792546" lon="8.9970342806974">
      <ele>1728.0</ele></trkpt>
      <trkpt lat="46.975644347930384" lon="8.997111980303659">
      <ele>1729.8</ele></trkpt>
      <trkpt lat="46.97569486525507" lon="8.997216580292518">
      <ele>1731.6</ele></trkpt>
      <trkpt lat="46.97575805999646" lon="8.997283402398674">
      <ele>1733.3</ele></trkpt>
      <trkpt lat="46.975784228597206" lon="8.997396812723442">
      <ele>1735.1</ele></trkpt>
      <trkpt lat="46.975829994521426" lon="8.997413468172859">
      <ele>1736.9</ele></trkpt>
      <trkpt lat="46.97586559927759" lon="8.997382086777058">
      <ele>1738.7</ele></trkpt>
      <trkpt lat="46.97589502326732" lon="8.997413555213031">
      <ele>1740.4</ele></trkpt>
      <trkpt lat="46.97593220253128" lon="8.997442383267364">
      <ele>1742.2</ele></trkpt>
      <trkpt lat="46.975948244935644" lon="8.997593173065216">
      <ele>1744.0</ele></trkpt>
      <trkpt lat="46.975961078140855" lon="8.997723902798304">
      <ele>1745.7</ele></trkpt>
      <trkpt lat="46.97596749711349" lon="8.997834071865462">
      <ele>1747.5</ele></trkpt>
      <trkpt lat="46.97598069808626" lon="8.997940389316144">
      <ele>1749.3</ele></trkpt>
      <trkpt lat="46.97600092967915" lon="8.998026562824778">
      <ele>1751.1</ele></trkpt>
      <trkpt lat="46.97603345881108" lon="8.998100921460805">
      <ele>1752.8</ele></trkpt>
      <trkpt lat="46.97610462642299" lon="8.99828729243837">
      <ele>1754.6</ele></trkpt>
      <trkpt lat="46.976107228401204" lon="8.99838634875897">
      <ele>1756.4</ele></trkpt>
      <trkpt lat="46.9761084930463" lon="8.998551944922417">
      <ele>1758.1</ele></trkpt>
      <trkpt lat="46.976119614876296" lon="8.998699266972134">
      <ele>1759.9</ele></trkpt>
      <trkpt lat="46.97613767507135" lon="8.998787612538841">
      <ele>1761.7</ele></trkpt>
      <trkpt lat="46.97617913929136" lon="8.998849954171167">
      <ele>1763.5</ele></trkpt>
      <trkpt lat="46.97625233153545" lon="8.998896076966822">
      <ele>1765.3</ele></trkpt>
      <trkpt lat="46.97631254341608" lon="8.998918897963605">
      <ele>1767.0</ele></trkpt>
      <trkpt lat="46.97636836694763" lon="8.998993119566274">
      <ele>1768.8</ele></trkpt>
      <trkpt lat="46.97640972812069" lon="8.999033940385145">
      <ele>1770.6</ele></trkpt>
      <trkpt lat="46.97642889569366" lon="8.99904553917592">
      <ele>1772.4</ele></trkpt>
      <trkpt lat="46.97643912651489" lon="8.998973394762999">
      <ele>1774.2</ele></trkpt>
      <trkpt lat="46.97644866335767" lon="8.998951575270205">
      <ele>1776.0</ele></trkpt>
      <trkpt lat="46.97648597707665" lon="8.998926869235875">
      <ele>1777.8</ele></trkpt>
      <trkpt lat="46.97649127291656" lon="8.998908607059908">
      <ele>1779.5</ele></trkpt>
      <trkpt lat="46.976486945985" lon="8.998855678067542">
      <ele>1781.3</ele></trkpt>
      <trkpt lat="46.97649072707131" lon="8.998825094486964">
      <ele>1783.1</ele></trkpt>
      <trkpt lat="46.97650147673921" lon="8.998776297316088">
      <ele>1784.9</ele></trkpt>
      <trkpt lat="46.976523739225584" lon="8.998746250728834">
      <ele>1786.7</ele></trkpt>
      <trkpt lat="46.97653515841574" lon="8.998709737212891">
      <ele>1788.5</ele></trkpt>
      <trkpt lat="46.976537942339775" lon="8.998628792574642">
      <ele>1790.2</ele></trkpt>
      <trkpt lat="46.97654376231071" lon="8.998509855186581">
      <ele>1792.0</ele></trkpt>
      <trkpt lat="46.97655238552641" lon="8.998431525127652">
      <ele>1793.8</ele></trkpt>
      <trkpt lat="46.9765688178389" lon="8.998306257757795">
      <ele>1795.6</ele></trkpt>
      <trkpt lat="46.97658748061068" lon="8.998192280905549">
      <ele>1797.7</ele></trkpt>
      <trkpt lat="46.97661451102006" lon="8.998086197384685">
      <ele>1799.8</ele></trkpt>
      <trkpt lat="46.97663639822647" lon="8.997999064046157">
      <ele>1801.9</ele></trkpt>
      <trkpt lat="46.97663685155961" lon="8.99788834389373">
      <ele>1804.0</ele></trkpt>
      <trkpt lat="46.976634113380534" lon="8.99774700842314">
      <ele>1806.1</ele></trkpt>
      <trkpt lat="46.97661978143314" lon="8.997653052603814">
      <ele>1808.3</ele></trkpt>
      <trkpt lat="46.976617622415496" lon="8.99755842496422">
      <ele>1810.4</ele></trkpt>
      <trkpt lat="46.976647897931244" lon="8.99750940564742">
      <ele>1812.5</ele></trkpt>
      <trkpt lat="46.976667717631216" lon="8.997475041710153">
      <ele>1814.6</ele></trkpt>
      <trkpt lat="46.97668613275906" lon="8.997460604211442">
      <ele>1816.7</ele></trkpt>
      <trkpt lat="46.97671215441052" lon="8.997472993014132">
      <ele>1818.8</ele></trkpt>
      <trkpt lat="46.97673200815233" lon="8.997520155316618">
      <ele>1820.9</ele></trkpt>
      <trkpt lat="46.976775666912076" lon="8.9975746602045">
      <ele>1823.0</ele></trkpt>
      <trkpt lat="46.976811615221806" lon="8.997610643430342">
      <ele>1825.1</ele></trkpt>
      <trkpt lat="46.976846046168276" lon="8.99767484446297">
      <ele>1827.2</ele></trkpt>
      <trkpt lat="46.97687142532524" lon="8.99773381390894">
      <ele>1829.4</ele></trkpt>
      <trkpt lat="46.97690061550534" lon="8.997764605943354">
      <ele>1831.5</ele></trkpt>
      <trkpt lat="46.97693665435859" lon="8.997793927469024">
      <ele>1833.6</ele></trkpt>
      <trkpt lat="46.97696119426598" lon="8.99783124907711">
      <ele>1835.7</ele></trkpt>
      <trkpt lat="46.976972763205794" lon="8.997901451045694">
      <ele>1837.8</ele></trkpt>
      <trkpt lat="46.97698226034195" lon="8.997956620646024">
      <ele>1838.6</ele></trkpt>
      <trkpt lat="46.97702838206315" lon="8.998129003863069">
      <ele>1839.5</ele></trkpt>
      <trkpt lat="46.97707247023188" lon="8.998266336086242">
      <ele>1840.3</ele></trkpt>
      <trkpt lat="46.97710139353831" lon="8.998353105741252">
      <ele>1841.1</ele></trkpt>
      <trkpt lat="46.97713705223456" lon="8.99840903557012">
      <ele>1841.9</ele></trkpt>
      <trkpt lat="46.97716804299702" lon="8.998519736998997">
      <ele>1842.8</ele></trkpt>
      <trkpt lat="46.97719379251858" lon="8.998668485993512">
      <ele>1843.6</ele></trkpt>
      <trkpt lat="46.977219541847006" lon="8.998817235130934">
      <ele>1844.4</ele></trkpt>
      <trkpt lat="46.97724591983452" lon="8.99897795161285">
      <ele>1845.2</ele></trkpt>
      <trkpt lat="46.97725523734661" lon="8.999052229507614">
      <ele>1846.0</ele></trkpt>
      <trkpt lat="46.977230671480164" lon="8.999115992421206">
      <ele>1846.9</ele></trkpt>
      <trkpt lat="46.97722421818082" lon="8.999186236463737">
      <ele>1847.7</ele></trkpt>
      <trkpt lat="46.97724787588033" lon="8.99931344600369">
      <ele>1848.5</ele></trkpt>
      <trkpt lat="46.977255027252184" lon="8.999431828659835">
      <ele>1849.3</ele></trkpt>
      <trkpt lat="46.97726385284073" lon="8.999483403842838">
      <ele>1850.2</ele></trkpt>
      <trkpt lat="46.977248135660815" lon="8.999596363166695">
      <ele>1851.0</ele></trkpt>
      <trkpt lat="46.97727134099269" lon="8.99969729581075">
      <ele>1851.8</ele></trkpt>
      <trkpt lat="46.977323191861835" lon="8.99966415273412">
      <ele>1852.6</ele></trkpt>
      <trkpt lat="46.97735387708375" lon="8.999676954398343">
      <ele>1853.5</ele></trkpt>
      <trkpt lat="46.97735810734563" lon="8.999716473445794">
      <ele>1854.3</ele></trkpt>
      <trkpt lat="46.977359808605534" lon="8.999828730031837">
      <ele>1856.9</ele></trkpt>
      <trkpt lat="46.97738598434818" lon="8.999944077606095">
      <ele>1859.6</ele></trkpt>
      <trkpt lat="46.97743615221716" lon="9.00003980057091">
      <ele>1862.2</ele></trkpt>
      <trkpt lat="46.977532744539666" lon="9.000093889052193">
      <ele>1864.8</ele></trkpt>
      <trkpt lat="46.97763003089021" lon="9.00015514891954">
      <ele>1867.5</ele></trkpt>
      <trkpt lat="46.977697569871374" lon="9.000192881410083">
      <ele>1870.1</ele></trkpt>
      <trkpt lat="46.977749806055265" lon="9.0002516745627">
      <ele>1872.7</ele></trkpt>
      <trkpt lat="46.97781698025889" lon="9.00031684399034">
      <ele>1875.4</ele></trkpt>
      <trkpt lat="46.977901048703686" lon="9.000361025580819">
      <ele>1878.0</ele></trkpt>
      <trkpt lat="46.97800037836998" lon="9.000386537933405">
      <ele>1880.7</ele></trkpt>
      <trkpt lat="46.97809134220577" lon="9.00044761495269">
      <ele>1883.3</ele></trkpt>
      <trkpt lat="46.97813756300982" lon="9.000482361830608">
      <ele>1885.9</ele></trkpt>
      <trkpt lat="46.978242821126535" lon="9.00047819381669">
      <ele>1888.6</ele></trkpt>
      <trkpt lat="46.97831789472168" lon="9.000483913809227">
      <ele>1891.2</ele></trkpt>
      <trkpt lat="46.97834687585964" lon="9.000506223321732">
      <ele>1893.8</ele></trkpt>
      <trkpt lat="46.978375773874575" lon="9.00059538802527">
      <ele>1896.5</ele></trkpt>
      <trkpt lat="46.97839436709532" lon="9.000685449255197">
      <ele>1899.1</ele></trkpt>
      <trkpt lat="46.9784271427145" lon="9.000719805356383">
      <ele>1901.7</ele></trkpt>
      <trkpt lat="46.978531907516796" lon="9.00075382412367">
      <ele>1904.4</ele></trkpt>
      <trkpt lat="46.97860881508807" lon="9.000740497519736">
      <ele>1907.0</ele></trkpt>
      <trkpt lat="46.97866416091291" lon="9.00074206836572">
      <ele>1911.5</ele></trkpt>
      <trkpt lat="46.97868755122686" lon="9.000828694139162">
      <ele>1916.1</ele></trkpt>
      <trkpt lat="46.97869460531106" lon="9.000955424778933">
      <ele>1920.6</ele></trkpt>
      <trkpt lat="46.97868835320141" lon="9.001010164722441">
      <ele>1925.1</ele></trkpt>
      <trkpt lat="46.97865972230493" lon="9.001143047460175">
      <ele>1929.7</ele></trkpt>
      <trkpt lat="46.97862627042761" lon="9.001281757794418">
      <ele>1934.2</ele></trkpt>
      <trkpt lat="46.97860558602699" lon="9.001356374181663">
      <ele>1938.7</ele></trkpt>
      <trkpt lat="46.9785592818924" lon="9.001410263675382">
      <ele>1943.3</ele></trkpt>
      <trkpt lat="46.97853021253747" lon="9.001469019044356">
      <ele>1947.8</ele></trkpt>
      <trkpt lat="46.97850595465765" lon="9.001509431906225">
      <ele>1952.3</ele></trkpt>
      <trkpt lat="46.97847217068458" lon="9.001515402422429">
      <ele>1956.9</ele></trkpt>
      <trkpt lat="46.97845229895524" lon="9.001567353141112">
      <ele>1961.4</ele></trkpt>
      <trkpt lat="46.978286915398925" lon="9.001801798847495">
      <ele>1966.0</ele></trkpt>
      <trkpt lat="46.97812153135803" lon="9.002036243108542">
      <ele>1970.5</ele></trkpt>
      <trkpt lat="46.978005916669034" lon="9.002398220793433">
      <ele>1975.0</ele></trkpt>
      <trkpt lat="46.97808359651526" lon="9.002996699006353">
      <ele>1979.6</ele></trkpt>
      <trkpt lat="46.978161273235514" lon="9.003595178954756">
      <ele>1984.1</ele></trkpt>
      <trkpt lat="46.97823894682978" lon="9.00419366063859">
      <ele>1988.6</ele></trkpt>
      <trkpt lat="46.9781315843898" lon="9.004808362423585">
      <ele>1993.2</ele></trkpt>
      <trkpt lat="46.97788589089799" lon="9.005011520429965">
      <ele>1997.7</ele></trkpt>
      </trkseg>
  </trk>
</gpx>