<?xml version='1.0' encoding='utf-8'?>
<gpx xmlns="http://www.topografix.com/GPX/1/1" xmlns:xsi="http://www.w3.org/2001/XMLSchema-instance" xsi:schemaLocation="http://www.topografix.com/GPX/1/1 http://www.topografix.com/GPX/1/1/gpx.xsd" version="1.1" creator="gpx.py -- https://github.com/tkrajina/gpxpy">
  <trk>
    <name>pass-dil-segnas-segnespass</name>
    <trkseg>
      <trkpt lat="46.90582159580914" lon="9.193512237163029">
      <ele>1517.0</ele></trkpt>
    <trkpt lat="46.905821931158044" lon="9.193618312154753">
      <ele>1517.8</ele></trkpt>
      <trkpt lat="46.905843906134365" lon="9.193678566755189">
      <ele>1518.8</ele></trkpt>
      <trkpt lat="46.905852695847905" lon="9.193734964393066">
      <ele>1519.8</ele></trkpt>
      <trkpt lat="46.905853441184824" lon="9.193806656508123">
      <ele>1520.8</ele></trkpt>
      <trkpt lat="46.905830750773546" lon="9.193835323161837">
      <ele>1521.8</ele></trkpt>
      <trkpt lat="46.9058249486185" lon="9.193861062227406">
      <ele>1522.8</ele></trkpt>
      <trkpt lat="46.90582310901451" lon="9.193904168220982">
      <ele>1523.8</ele></trkpt>
      <trkpt lat="46.90580400721786" lon="9.193934684945228">
      <ele>1524.8</ele></trkpt>
      <trkpt lat="46.905799073839184" lon="9.194023468480596">
      <ele>1525.8</ele></trkpt>
      <trkpt lat="46.90579750305403" lon="9.19404845296514">
      <ele>1526.8</ele></trkpt>
      <trkpt lat="46.90575349593382" lon="9.194053159917523">
      <ele>1527.8</ele></trkpt>
      <trkpt lat="46.905747088301524" lon="9.194160038590471">
      <ele>1528.7</ele></trkpt>
      <trkpt lat="46.90571035570042" lon="9.194161517141199">
      <ele>1529.7</ele></trkpt>
      <trkpt lat="46.9056959465815" lon="9.194199919559564">
      <ele>1530.7</ele></trkpt>
      <trkpt lat="46.905677826729686" lon="9.19424384594759">
      <ele>1531.7</ele></trkpt>
      <trkpt lat="46.90564713182699" lon="9.194257035169455">
      <ele>1532.7</ele></trkpt>
      <trkpt lat="46.905624087095426" lon="9.194269489610639">
      <ele>1533.7</ele></trkpt>
      <trkpt lat="46.905617654987665" lon="9.194285256695318">
      <ele>1534.7</ele></trkpt>
      <trkpt lat="46.90562156130131" lon="9.194310393721743">
      <ele>1535.7</ele></trkpt>
      <trkpt lat="46.90562787376618" lon="9.194333521938344">
      <ele>1536.7</ele></trkpt>
      <trkpt lat="46.905624715739656" lon="9.1943528749588">
      <ele>1537.7</ele></trkpt>
      <trkpt lat="46.90561493486825" lon="9.194369924257247">
      <ele>1538.3</ele></trkpt>
      <trkpt lat="46.90561448769307" lon="9.194399080768106">
      <ele>1538.9</ele></trkpt>
      <trkpt lat="46.90562064034448" lon="9.194432627656331">
      <ele>1539.5</ele></trkpt>
      <trkpt lat="46.9056151204823" lon="9.19445051192083">
      <ele>1540.2</ele></trkpt>
      <trkpt lat="46.905587337183114" lon="9.194492678394603">
      <ele>1540.8</ele></trkpt>
      <trkpt lat="46.90556602867846" lon="9.194516295980282">
      <ele>1541.4</ele></trkpt>
      <trkpt lat="46.90554196685632" lon="9.194532878739334">
      <ele>1542.0</ele></trkpt>
      <trkpt lat="46.905522555871805" lon="9.194556558273328">
      <ele>1542.6</ele></trkpt>
      <trkpt lat="46.90551548728476" lon="9.194582728367633">
      <ele>1543.2</ele></trkpt>
      <trkpt lat="46.90551351248118" lon="9.194618792916394">
      <ele>1543.8</ele></trkpt>
      <trkpt lat="46.90550106099179" lon="9.194654502086884">
      <ele>1544.5</ele></trkpt>
      <trkpt lat="46.905474962185366" lon="9.194710613120456">
      <ele>1545.1</ele></trkpt>
      <trkpt lat="46.905457002190424" lon="9.19473296149507">
      <ele>1545.7</ele></trkpt>
      <trkpt lat="46.905440639929694" lon="9.194775500824607">
      <ele>1546.3</ele></trkpt>
      <trkpt lat="46.90543428757703" lon="9.194848233979048">
      <ele>1546.9</ele></trkpt>
      <trkpt lat="46.905438978198134" lon="9.194883820439157">
      <ele>1547.5</ele></trkpt>
      <trkpt lat="46.90543410104094" lon="9.194922560167303">
      <ele>1548.2</ele></trkpt>
      <trkpt lat="46.90541150903036" lon="9.194967665941451">
      <ele>1548.8</ele></trkpt>
      <trkpt lat="46.905405105923734" lon="9.195012617967345">
      <ele>1549.4</ele></trkpt>
      <trkpt lat="46.90538730026661" lon="9.195087064201907">
      <ele>1550.0</ele></trkpt>
      <trkpt lat="46.90538662902563" lon="9.195130811895579">
      <ele>1550.6</ele></trkpt>
      <trkpt lat="46.9053884386363" lon="9.195167682676542">
      <ele>1551.3</ele></trkpt>
      <trkpt lat="46.90538290354315" lon="9.19521821628153">
      <ele>1551.9</ele></trkpt>
      <trkpt lat="46.905381257648315" lon="9.195263323716878">
      <ele>1552.6</ele></trkpt>
      <trkpt lat="46.90539446533566" lon="9.195302654377748">
      <ele>1553.2</ele></trkpt>
      <trkpt lat="46.90540071356872" lon="9.195329955309655">
      <ele>1553.8</ele></trkpt>
      <trkpt lat="46.90540169751758" lon="9.195358475804513">
      <ele>1554.5</ele></trkpt>
      <trkpt lat="46.90539687356135" lon="9.195393738216218">
      <ele>1555.1</ele></trkpt>
      <trkpt lat="46.90539834311763" lon="9.195422274581297">
      <ele>1555.8</ele></trkpt>
      <trkpt lat="46.905409761427634" lon="9.19545390616145">
      <ele>1556.4</ele></trkpt>
      <trkpt lat="46.905417939171315" lon="9.195479182786688">
      <ele>1557.0</ele></trkpt>
      <trkpt lat="46.90541863668507" lon="9.195495878488455">
      <ele>1557.7</ele></trkpt>
      <trkpt lat="46.9054136767898" lon="9.195508923423539">
      <ele>1558.3</ele></trkpt>
      <trkpt lat="46.90539471041508" lon="9.195534691352528">
      <ele>1559.0</ele></trkpt>
      <trkpt lat="46.90538156093533" lon="9.195553717662095">
      <ele>1559.6</ele></trkpt>
      <trkpt lat="46.90537651584764" lon="9.195572313053278">
      <ele>1560.2</ele></trkpt>
      <trkpt lat="46.90535946645182" lon="9.195597460929644">
      <ele>1560.9</ele></trkpt>
      <trkpt lat="46.9053438789624" lon="9.19562056918096">
      <ele>1561.5</ele></trkpt>
      <trkpt lat="46.9053382400227" lon="9.195646785785659">
      <ele>1562.2</ele></trkpt>
      <trkpt lat="46.905334616019026" lon="9.195665414475268">
      <ele>1562.8</ele></trkpt>
      <trkpt lat="46.905325354076766" lon="9.195679710350483">
      <ele>1563.4</ele></trkpt>
      <trkpt lat="46.9053100133546" lon="9.19568615375755">
      <ele>1564.1</ele></trkpt>
      <trkpt lat="46.90529657747204" lon="9.195693355220834">
      <ele>1564.7</ele></trkpt>
      <trkpt lat="46.905290643146515" lon="9.195707746722894">
      <ele>1565.4</ele></trkpt>
      <trkpt lat="46.90529206113521" lon="9.195739051416133">
      <ele>1566.0</ele></trkpt>
      <trkpt lat="46.90528317994462" lon="9.195759608755575">
      <ele>1566.7</ele></trkpt>
      <trkpt lat="46.90527244560252" lon="9.195776626529012">
      <ele>1567.3</ele></trkpt>
      <trkpt lat="46.90527013404581" lon="9.19580295185181">
      <ele>1568.0</ele></trkpt>
      <trkpt lat="46.905275194451285" lon="9.195845495222398">
      <ele>1568.6</ele></trkpt>
      <trkpt lat="46.90527275497696" lon="9.195880152793324">
      <ele>1569.2</ele></trkpt>
      <trkpt lat="46.90526464594174" lon="9.195912537629">
      <ele>1569.9</ele></trkpt>
      <trkpt lat="46.90526795971978" lon="9.195944600086897">
      <ele>1570.5</ele></trkpt>
      <trkpt lat="46.90527757792172" lon="9.195969228018484">
      <ele>1571.2</ele></trkpt>
      <trkpt lat="46.90527859205631" lon="9.195996357858483">
      <ele>1571.8</ele></trkpt>
      <trkpt lat="46.90527855703987" lon="9.196029702441923">
      <ele>1572.5</ele></trkpt>
      <trkpt lat="46.905290419783256" lon="9.196063436007009">
      <ele>1573.1</ele></trkpt>
      <trkpt lat="46.90529142342038" lon="9.196091248181476">
      <ele>1573.8</ele></trkpt>
      <trkpt lat="46.90528446870553" lon="9.196141039402082">
      <ele>1574.4</ele></trkpt>
      <trkpt lat="46.90528688234289" lon="9.196169606601424">
      <ele>1575.1</ele></trkpt>
      <trkpt lat="46.905285970548256" lon="9.19622899521295">
      <ele>1575.7</ele></trkpt>
      <trkpt lat="46.90527212811392" lon="9.196293146673792">
      <ele>1576.4</ele></trkpt>
      <trkpt lat="46.90527194302336" lon="9.196351495644194">
      <ele>1577.0</ele></trkpt>
      <trkpt lat="46.90526443462565" lon="9.196422103224437">
      <ele>1577.7</ele></trkpt>
      <trkpt lat="46.90524872355234" lon="9.196468483518489">
      <ele>1578.4</ele></trkpt>
      <trkpt lat="46.905243547245206" lon="9.19652666924174">
      <ele>1579.0</ele></trkpt>
      <trkpt lat="46.90524833011698" lon="9.196587268042544">
      <ele>1579.7</ele></trkpt>
      <trkpt lat="46.905252601120246" lon="9.196681195833303">
      <ele>1580.4</ele></trkpt>
      <trkpt lat="46.905249667704624" lon="9.196779049657941">
      <ele>1581.1</ele></trkpt>
      <trkpt lat="46.905258922748985" lon="9.196874177623993">
      <ele>1581.7</ele></trkpt>
      <trkpt lat="46.905262323513234" lon="9.196931606749816">
      <ele>1582.4</ele></trkpt>
      <trkpt lat="46.90526166769077" lon="9.196974304587496">
      <ele>1583.1</ele></trkpt>
      <trkpt lat="46.90528396598541" lon="9.19701046711075">
      <ele>1583.7</ele></trkpt>
      <trkpt lat="46.90529476311529" lon="9.197051465352759">
      <ele>1584.4</ele></trkpt>
      <trkpt lat="46.90529897937681" lon="9.197102659034023">
      <ele>1585.1</ele></trkpt>
      <trkpt lat="46.90529953637132" lon="9.197158944929658">
      <ele>1585.8</ele></trkpt>
      <trkpt lat="46.905306212817905" lon="9.197189384576557">
      <ele>1586.4</ele></trkpt>
      <trkpt lat="46.90531493364579" lon="9.197226140162057">
      <ele>1587.1</ele></trkpt>
      <trkpt lat="46.90534553720916" lon="9.19727924743491">
      <ele>1587.8</ele></trkpt>
      <trkpt lat="46.90539427995825" lon="9.197314187933712">
      <ele>1588.4</ele></trkpt>
      <trkpt lat="46.9054236706244" lon="9.197353707267812">
      <ele>1589.1</ele></trkpt>
      <trkpt lat="46.905456263594004" lon="9.197417290546337">
      <ele>1590.3</ele></trkpt>
      <trkpt lat="46.905473936007155" lon="9.19747518689596">
      <ele>1591.5</ele></trkpt>
      <trkpt lat="46.90549044282533" lon="9.197563266485076">
      <ele>1592.7</ele></trkpt>
      <trkpt lat="46.90550098390223" lon="9.197620916436344">
      <ele>1593.9</ele></trkpt>
      <trkpt lat="46.90552571662313" lon="9.197684255882992">
      <ele>1595.0</ele></trkpt>
      <trkpt lat="46.90556197561481" lon="9.19774171038227">
      <ele>1596.2</ele></trkpt>
      <trkpt lat="46.9055953907273" lon="9.197798034753145">
      <ele>1597.4</ele></trkpt>
      <trkpt lat="46.90560181091473" lon="9.197845139239648">
      <ele>1598.6</ele></trkpt>
      <trkpt lat="46.90560835013792" lon="9.197883911146013">
      <ele>1599.8</ele></trkpt>
      <trkpt lat="46.90562641566285" lon="9.197916798086588">
      <ele>1601.0</ele></trkpt>
      <trkpt lat="46.905629569673934" lon="9.197943998190821">
      <ele>1602.2</ele></trkpt>
      <trkpt lat="46.90562759550612" lon="9.19797936694725">
      <ele>1603.4</ele></trkpt>
      <trkpt lat="46.905644166984246" lon="9.198016379843228">
      <ele>1604.6</ele></trkpt>
      <trkpt lat="46.90567223964528" lon="9.198048557254818">
      <ele>1605.8</ele></trkpt>
      <trkpt lat="46.90568250201494" lon="9.198078077464526">
      <ele>1607.0</ele></trkpt>
      <trkpt lat="46.9056755368828" lon="9.198113269759233">
      <ele>1608.1</ele></trkpt>
      <trkpt lat="46.905674049043085" lon="9.198163240050896">
      <ele>1609.3</ele></trkpt>
      <trkpt lat="46.90568955766469" lon="9.19822315347092">
      <ele>1610.5</ele></trkpt>
      <trkpt lat="46.90570288505594" lon="9.198285069803038">
      <ele>1611.7</ele></trkpt>
      <trkpt lat="46.905720422006226" lon="9.198352335930624">
      <ele>1612.9</ele></trkpt>
      <trkpt lat="46.90574093778976" lon="9.198411363114275">
      <ele>1614.2</ele></trkpt>
      <trkpt lat="46.905758698773944" lon="9.198464051052941">
      <ele>1615.5</ele></trkpt>
      <trkpt lat="46.905777282339706" lon="9.198509466584023">
      <ele>1616.9</ele></trkpt>
      <trkpt lat="46.90581011472221" lon="9.198557436071216">
      <ele>1618.2</ele></trkpt>
      <trkpt lat="46.905829296737174" lon="9.19861015752645">
      <ele>1619.5</ele></trkpt>
      <trkpt lat="46.90581966351422" lon="9.198632777403926">
      <ele>1620.8</ele></trkpt>
      <trkpt lat="46.90580330525176" lon="9.19867496154596">
      <ele>1622.1</ele></trkpt>
      <trkpt lat="46.90580293687037" lon="9.198698921902194">
      <ele>1623.5</ele></trkpt>
      <trkpt lat="46.905817880212375" lon="9.198702535748028">
      <ele>1624.8</ele></trkpt>
      <trkpt lat="46.90585151324589" lon="9.19869842502918">
      <ele>1626.1</ele></trkpt>
      <trkpt lat="46.905864147071874" lon="9.19871238720127">
      <ele>1627.4</ele></trkpt>
      <trkpt lat="46.90587852995829" lon="9.19875245338933">
      <ele>1628.7</ele></trkpt>
      <trkpt lat="46.90592025991288" lon="9.198778829415653">
      <ele>1630.1</ele></trkpt>
      <trkpt lat="46.90594652711319" lon="9.198835957905828">
      <ele>1631.4</ele></trkpt>
      <trkpt lat="46.90596898501704" lon="9.198861702944471">
      <ele>1632.7</ele></trkpt>
      <trkpt lat="46.906011521434216" lon="9.198881856377389">
      <ele>1634.0</ele></trkpt>
      <trkpt lat="46.90603254943815" lon="9.198907554641625">
      <ele>1635.3</ele></trkpt>
      <trkpt lat="46.906037020918205" lon="9.198942097572012">
      <ele>1636.7</ele></trkpt>
      <trkpt lat="46.90605224229947" lon="9.19897385485327">
      <ele>1638.0</ele></trkpt>
      <trkpt lat="46.90606986926019" lon="9.198989017808723">
      <ele>1639.3</ele></trkpt>
      <trkpt lat="46.906075307626026" lon="9.199006906180985">
      <ele>1640.0</ele></trkpt>
      <trkpt lat="46.90611647809223" lon="9.199022853315087">
      <ele>1640.8</ele></trkpt>
      <trkpt lat="46.906157801823134" lon="9.199029418639903">
      <ele>1641.5</ele></trkpt>
      <trkpt lat="46.90616832040644" lon="9.199042261419697">
      <ele>1642.3</ele></trkpt>
      <trkpt lat="46.90616089160373" lon="9.199060778707874">
      <ele>1643.0</ele></trkpt>
      <trkpt lat="46.90614196176214" lon="9.199084118198947">
      <ele>1643.8</ele></trkpt>
      <trkpt lat="46.90614168934725" lon="9.199101832701317">
      <ele>1644.5</ele></trkpt>
      <trkpt lat="46.90615652048018" lon="9.199112742434512">
      <ele>1645.3</ele></trkpt>
      <trkpt lat="46.90618357944278" lon="9.199117790368474">
      <ele>1646.0</ele></trkpt>
      <trkpt lat="46.90620788367248" lon="9.199116498930955">
      <ele>1646.8</ele></trkpt>
      <trkpt lat="46.90621992798665" lon="9.199123155681093">
      <ele>1647.5</ele></trkpt>
      <trkpt lat="46.90621541412684" lon="9.199137593588457">
      <ele>1648.2</ele></trkpt>
      <trkpt lat="46.90618990303089" lon="9.199171141536688">
      <ele>1649.0</ele></trkpt>
      <trkpt lat="46.90617957539355" lon="9.199192688447573">
      <ele>1649.7</ele></trkpt>
      <trkpt lat="46.906184399337064" lon="9.199204307600773">
      <ele>1650.5</ele></trkpt>
      <trkpt lat="46.906204750099214" lon="9.19918101467118">
      <ele>1651.2</ele></trkpt>
      <trkpt lat="46.90621689066788" lon="9.19918141230267">
      <ele>1652.0</ele></trkpt>
      <trkpt lat="46.906222441204626" lon="9.199192004982073">
      <ele>1652.7</ele></trkpt>
      <trkpt lat="46.90620991620405" lon="9.19921660451026">
      <ele>1653.5</ele></trkpt>
      <trkpt lat="46.90620584933594" lon="9.199248780493857">
      <ele>1654.2</ele></trkpt>
      <trkpt lat="46.90622512136424" lon="9.199249411721441">
      <ele>1655.0</ele></trkpt>
      <trkpt lat="46.90624319670272" lon="9.199235418003772">
      <ele>1655.7</ele></trkpt>
      <trkpt lat="46.906256581990796" lon="9.199247317589133">
      <ele>1656.5</ele></trkpt>
      <trkpt lat="46.90624905709392" lon="9.199272080893886">
      <ele>1657.3</ele></trkpt>
      <trkpt lat="46.90623441687697" lon="9.199295560854502">
      <ele>1658.0</ele></trkpt>
      <trkpt lat="46.906234758813774" lon="9.199319544669613">
      <ele>1658.8</ele></trkpt>
      <trkpt lat="46.90624765786184" lon="9.199316842596152">
      <ele>1659.6</ele></trkpt>
      <trkpt lat="46.90626361596653" lon="9.199300692115555">
      <ele>1660.3</ele></trkpt>
      <trkpt lat="46.90630852605197" lon="9.199306324862278">
      <ele>1661.1</ele></trkpt>
      <trkpt lat="46.90634774846693" lon="9.199309697014645">
      <ele>1661.8</ele></trkpt>
      <trkpt lat="46.90633878651525" lon="9.19933546356299">
      <ele>1662.6</ele></trkpt>
      <trkpt lat="46.90631377753029" lon="9.199382576560948">
      <ele>1663.4</ele></trkpt>
      <trkpt lat="46.90630065425526" lon="9.199399857043192">
      <ele>1664.1</ele></trkpt>
      <trkpt lat="46.90629008619865" lon="9.199437032123942">
      <ele>1664.9</ele></trkpt>
      <trkpt lat="46.906338742699454" lon="9.199431326519095">
      <ele>1665.7</ele></trkpt>
      <trkpt lat="46.90636495384316" lon="9.199444696596572">
      <ele>1666.4</ele></trkpt>
      <trkpt lat="46.90635738986067" lon="9.19947258323161">
      <ele>1667.2</ele></trkpt>
      <trkpt lat="46.90634071229092" lon="9.199488710121852">
      <ele>1668.0</ele></trkpt>
      <trkpt lat="46.906343427959015" lon="9.199498172840373">
      <ele>1668.7</ele></trkpt>
      <trkpt lat="46.90636278011406" lon="9.199493594762309">
      <ele>1669.5</ele></trkpt>
      <trkpt lat="46.90638602844598" lon="9.19951415414976">
      <ele>1670.8</ele></trkpt>
      <trkpt lat="46.90643771736627" lon="9.199542944707074">
      <ele>1672.2</ele></trkpt>
      <trkpt lat="46.90645208381305" lon="9.199584061299733">
      <ele>1673.5</ele></trkpt>
      <trkpt lat="46.90643877713995" lon="9.199613847265743">
      <ele>1674.9</ele></trkpt>
      <trkpt lat="46.906426364278204" lon="9.199631151006596">
      <ele>1676.2</ele></trkpt>
      <trkpt lat="46.906406980023554" lon="9.199637815425277">
      <ele>1677.6</ele></trkpt>
      <trkpt lat="46.906421378531405" lon="9.199676845634551">
      <ele>1679.0</ele></trkpt>
      <trkpt lat="46.90642492221987" lon="9.19972489400866">
      <ele>1680.3</ele></trkpt>
      <trkpt lat="46.90643982281969" lon="9.199777489356475">
      <ele>1681.7</ele></trkpt>
      <trkpt lat="46.90644665720688" lon="9.199844406256185">
      <ele>1683.0</ele></trkpt>
      <trkpt lat="46.906444137776994" lon="9.199915178433734">
      <ele>1684.3</ele></trkpt>
      <trkpt lat="46.90644185855284" lon="9.199970335515557">
      <ele>1685.7</ele></trkpt>
      <trkpt lat="46.90643445997667" lon="9.200033661463166">
      <ele>1687.0</ele></trkpt>
      <trkpt lat="46.90642711657783" lon="9.200092814328208">
      <ele>1688.4</ele></trkpt>
      <trkpt lat="46.90643966311869" lon="9.200113023307795">
      <ele>1689.8</ele></trkpt>
      <trkpt lat="46.90646181086964" lon="9.200112711930235">
      <ele>1691.1</ele></trkpt>
      <trkpt lat="46.906469485504026" lon="9.200124424647427">
      <ele>1692.5</ele></trkpt>
      <trkpt lat="46.906453238754246" lon="9.200159326177337">
      <ele>1693.8</ele></trkpt>
      <trkpt lat="46.9064369349449" lon="9.20019735040875">
      <ele>1695.2</ele></trkpt>
      <trkpt lat="46.90644526500386" lon="9.200213246359647">
      <ele>1696.5</ele></trkpt>
      <trkpt lat="46.90646735570571" lon="9.200216057747738">
      <ele>1697.4</ele></trkpt>
      <trkpt lat="46.90648757149831" lon="9.200202134434173">
      <ele>1698.3</ele></trkpt>
      <trkpt lat="46.906505413631805" lon="9.20020271914747">
      <ele>1699.2</ele></trkpt>
      <trkpt lat="46.90650141069703" lon="9.200230722457597">
      <ele>1700.1</ele></trkpt>
      <trkpt lat="46.90649089063051" lon="9.200264761371661">
      <ele>1701.0</ele></trkpt>
      <trkpt lat="46.906494946764155" lon="9.200279493253005">
      <ele>1702.0</ele></trkpt>
      <trkpt lat="46.906508469159014" lon="9.200283061017993">
      <ele>1702.9</ele></trkpt>
      <trkpt lat="46.906518994560244" lon="9.200294867199108">
      <ele>1703.8</ele></trkpt>
      <trkpt lat="46.90651701966626" lon="9.200330236455345">
      <ele>1704.7</ele></trkpt>
      <trkpt lat="46.90651133934746" lon="9.200374858055905">
      <ele>1705.6</ele></trkpt>
      <trkpt lat="46.90649450131198" lon="9.200401403528703">
      <ele>1706.5</ele></trkpt>
      <trkpt lat="46.90646953488434" lon="9.200399534965772">
      <ele>1707.4</ele></trkpt>
      <trkpt lat="46.9064288505053" lon="9.200398201530339">
      <ele>1708.3</ele></trkpt>
      <trkpt lat="46.90639372330841" lon="9.200406437131997">
      <ele>1709.2</ele></trkpt>
      <trkpt lat="46.90634705594992" lon="9.200422617970123">
      <ele>1710.2</ele></trkpt>
      <trkpt lat="46.90629310374878" lon="9.200447946894535">
      <ele>1711.1</ele></trkpt>
      <trkpt lat="46.90624333608763" lon="9.200479662084716">
      <ele>1712.0</ele></trkpt>
      <trkpt lat="46.906209751257734" lon="9.200480635592632">
      <ele>1712.9</ele></trkpt>
      <trkpt lat="46.90617864320748" lon="9.200459818237542">
      <ele>1713.8</ele></trkpt>
      <trkpt lat="46.90615722621812" lon="9.200415569133472">
      <ele>1714.7</ele></trkpt>
      <trkpt lat="46.90614081871299" lon="9.20040536882163">
      <ele>1715.7</ele></trkpt>
      <trkpt lat="46.9061478742722" lon="9.200449120942444">
      <ele>1716.8</ele></trkpt>
      <trkpt lat="46.9061451996425" lon="9.200479675124328">
      <ele>1717.8</ele></trkpt>
      <trkpt lat="46.90615742952061" lon="9.200546177830685">
      <ele>1718.8</ele></trkpt>
      <trkpt lat="46.90617725459448" lon="9.200550044127816">
      <ele>1719.8</ele></trkpt>
      <trkpt lat="46.90621705248477" lon="9.200620667023351">
      <ele>1720.9</ele></trkpt>
      <trkpt lat="46.906174595071604" lon="9.200651518845731">
      <ele>1721.9</ele></trkpt>
      <trkpt lat="46.90617655013987" lon="9.200667717830179">
      <ele>1722.9</ele></trkpt>
      <trkpt lat="46.90621191771361" lon="9.200667249246566">
      <ele>1724.0</ele></trkpt>
      <trkpt lat="46.90622386873357" lon="9.200680546304985">
      <ele>1725.0</ele></trkpt>
      <trkpt lat="46.90619801691932" lon="9.200708725951">
      <ele>1726.0</ele></trkpt>
      <trkpt lat="46.90622096206854" lon="9.200725586764946">
      <ele>1727.1</ele></trkpt>
      <trkpt lat="46.90626406322674" lon="9.200725397991397">
      <ele>1728.1</ele></trkpt>
      <trkpt lat="46.90627258765508" lon="9.200745028841345">
      <ele>1729.1</ele></trkpt>
      <trkpt lat="46.90624681955123" lon="9.200768353683673">
      <ele>1730.2</ele></trkpt>
      <trkpt lat="46.90621147702291" lon="9.200767195089822">
      <ele>1731.2</ele></trkpt>
      <trkpt lat="46.90619459832677" lon="9.200787607960555">
      <ele>1732.2</ele></trkpt>
      <trkpt lat="46.906204287566084" lon="9.200804047373772">
      <ele>1733.2</ele></trkpt>
      <trkpt lat="46.90619635522778" lon="9.200816679501264">
      <ele>1734.3</ele></trkpt>
      <trkpt lat="46.90622383974741" lon="9.200825641412159">
      <ele>1735.3</ele></trkpt>
      <trkpt lat="46.90619992748898" lon="9.200871608027327">
      <ele>1736.0</ele></trkpt>
      <trkpt lat="46.906180786803006" lon="9.200895176309828">
      <ele>1736.8</ele></trkpt>
      <trkpt lat="46.90616593785462" lon="9.200926933034042">
      <ele>1737.5</ele></trkpt>
      <trkpt lat="46.906170433484846" lon="9.200993182301355">
      <ele>1738.2</ele></trkpt>
      <trkpt lat="46.90615325469916" lon="9.201056462839261">
      <ele>1738.9</ele></trkpt>
      <trkpt lat="46.906147007115244" lon="9.201079469135529">
      <ele>1739.6</ele></trkpt>
      <trkpt lat="46.90606371019309" lon="9.201107366707994">
      <ele>1740.4</ele></trkpt>
      <trkpt lat="46.905993257364706" lon="9.20109054977823">
      <ele>1741.1</ele></trkpt>
      <trkpt lat="46.90597256581767" lon="9.201063483208225">
      <ele>1741.8</ele></trkpt>
      <trkpt lat="46.90596293494058" lon="9.20105085297492">
      <ele>1742.5</ele></trkpt>
      <trkpt lat="46.9059452636771" lon="9.20105027358784">
      <ele>1743.3</ele></trkpt>
      <trkpt lat="46.90592197131511" lon="9.20105596908328">
      <ele>1744.0</ele></trkpt>
      <trkpt lat="46.90587222259292" lon="9.201108650178718">
      <ele>1744.7</ele></trkpt>
      <trkpt lat="46.9058207358219" lon="9.201171947571027">
      <ele>1745.5</ele></trkpt>
      <trkpt lat="46.90577297979283" lon="9.201188118134628">
      <ele>1746.2</ele></trkpt>
      <trkpt lat="46.9057450239642" lon="9.201209769153628">
      <ele>1746.9</ele></trkpt>
      <trkpt lat="46.90572873714223" lon="9.201262444393926">
      <ele>1747.6</ele></trkpt>
      <trkpt lat="46.90570692192514" lon="9.20131653997784">
      <ele>1748.3</ele></trkpt>
      <trkpt lat="46.90564120245804" lon="9.201422391847315">
      <ele>1749.1</ele></trkpt>
      <trkpt lat="46.90561687684159" lon="9.201495769259074">
      <ele>1749.8</ele></trkpt>
      <trkpt lat="46.90560238044361" lon="9.201575901855591">
      <ele>1750.5</ele></trkpt>
      <trkpt lat="46.905586167293684" lon="9.201603333476372">
      <ele>1751.1</ele></trkpt>
      <trkpt lat="46.90557060981752" lon="9.201629670677027">
      <ele>1751.8</ele></trkpt>
      <trkpt lat="46.905556232120205" lon="9.201630813908823">
      <ele>1752.4</ele></trkpt>
      <trkpt lat="46.90554071896663" lon="9.20161629719287">
      <ele>1753.1</ele></trkpt>
      <trkpt lat="46.9055115726998" lon="9.20158904525513">
      <ele>1753.7</ele></trkpt>
      <trkpt lat="46.90546619368217" lon="9.201594002971618">
      <ele>1754.4</ele></trkpt>
      <trkpt lat="46.90537027561713" lon="9.201652113742524">
      <ele>1755.0</ele></trkpt>
      <trkpt lat="46.905315857820014" lon="9.201669680029603">
      <ele>1755.7</ele></trkpt>
      <trkpt lat="46.90525099075475" lon="9.201720748202174">
      <ele>1756.3</ele></trkpt>
      <trkpt lat="46.90515926466932" lon="9.201793515838167">
      <ele>1757.0</ele></trkpt>
      <trkpt lat="46.905131943357816" lon="9.201845815262168">
      <ele>1757.7</ele></trkpt>
      <trkpt lat="46.9051211125649" lon="9.201903499874406">
      <ele>1758.3</ele></trkpt>
      <trkpt lat="46.9051154450052" lon="9.202056480937289">
      <ele>1759.0</ele></trkpt>
      <trkpt lat="46.90508179847276" lon="9.202160166567237">
      <ele>1759.6</ele></trkpt>
      <trkpt lat="46.90507653895612" lon="9.202214804310382">
      <ele>1760.3</ele></trkpt>
      <trkpt lat="46.905052352824356" lon="9.202278509695608">
      <ele>1760.9</ele></trkpt>
      <trkpt lat="46.90502103762893" lon="9.202303279180878">
      <ele>1761.6</ele></trkpt>
      <trkpt lat="46.904971121887755" lon="9.202459612955582">
      <ele>1762.2</ele></trkpt>
      <trkpt lat="46.90492503783362" lon="9.202510324709976">
      <ele>1762.9</ele></trkpt>
      <trkpt lat="46.904888661282655" lon="9.202571017257197">
      <ele>1763.3</ele></trkpt>
      <trkpt lat="46.90485942412258" lon="9.20262091635142">
      <ele>1763.8</ele></trkpt>
      <trkpt lat="46.90485188010481" lon="9.202657965894694">
      <ele>1764.2</ele></trkpt>
      <trkpt lat="46.90485512218922" lon="9.202711490777292">
      <ele>1764.7</ele></trkpt>
      <trkpt lat="46.904868801382904" lon="9.202766185269281">
      <ele>1765.1</ele></trkpt>
      <trkpt lat="46.90488664953055" lon="9.202814255604766">
      <ele>1765.5</ele></trkpt>
      <trkpt lat="46.904890074551844" lon="9.2028559055433">
      <ele>1766.0</ele></trkpt>
      <trkpt lat="46.90488426195663" lon="9.202893865234646">
      <ele>1766.4</ele></trkpt>
      <trkpt lat="46.90486320650864" lon="9.202940645623992">
      <ele>1766.9</ele></trkpt>
      <trkpt lat="46.904844262327025" lon="9.203001056663489">
      <ele>1767.3</ele></trkpt>
      <trkpt lat="46.90484058705236" lon="9.203050954318527">
      <ele>1767.7</ele></trkpt>
      <trkpt lat="46.90483814617284" lon="9.20309665209046">
      <ele>1768.2</ele></trkpt>
      <trkpt lat="46.90483344141432" lon="9.203138035151394">
      <ele>1768.6</ele></trkpt>
      <trkpt lat="46.904825181081726" lon="9.203146244793338">
      <ele>1769.1</ele></trkpt>
      <trkpt lat="46.90480606916811" lon="9.203142230375688">
      <ele>1769.5</ele></trkpt>
      <trkpt lat="46.90478999584193" lon="9.203091684523681">
      <ele>1769.9</ele></trkpt>
      <trkpt lat="46.90477640939996" lon="9.203068343075579">
      <ele>1770.4</ele></trkpt>
      <trkpt lat="46.904756996172914" lon="9.203046517042608">
      <ele>1770.8</ele></trkpt>
      <trkpt lat="46.90474256388158" lon="9.20304010940824">
      <ele>1771.3</ele></trkpt>
      <trkpt lat="46.90471696257317" lon="9.203042656146549">
      <ele>1771.7</ele></trkpt>
      <trkpt lat="46.90471036862238" lon="9.203056001066976">
      <ele>1772.8</ele></trkpt>
      <trkpt lat="46.90471350934711" lon="9.203078146284517">
      <ele>1773.9</ele></trkpt>
      <trkpt lat="46.90472330519612" lon="9.203083561538223">
      <ele>1775.0</ele></trkpt>
      <trkpt lat="46.90473607131373" lon="9.203084820775164">
      <ele>1776.0</ele></trkpt>
      <trkpt lat="46.90474684442802" lon="9.203102135945953">
      <ele>1777.1</ele></trkpt>
      <trkpt lat="46.90474304165469" lon="9.20312235973259">
      <ele>1778.2</ele></trkpt>
      <trkpt lat="46.90473304982634" lon="9.203129659198112">
      <ele>1779.3</ele></trkpt>
      <trkpt lat="46.90473093555836" lon="9.203154165662374">
      <ele>1780.4</ele></trkpt>
      <trkpt lat="46.90472230954411" lon="9.203186098943416">
      <ele>1781.5</ele></trkpt>
      <trkpt lat="46.90471824543409" lon="9.20322327568082">
      <ele>1782.6</ele></trkpt>
      <trkpt lat="46.904720654020544" lon="9.20325555805178">
      <ele>1783.6</ele></trkpt>
      <trkpt lat="46.90470974682063" lon="9.203284882696089">
      <ele>1784.7</ele></trkpt>
      <trkpt lat="46.90469042616908" lon="9.203294409608807">
      <ele>1785.8</ele></trkpt>
      <trkpt lat="46.904665037752096" lon="9.203282561667608">
      <ele>1786.9</ele></trkpt>
      <trkpt lat="46.9046456515649" lon="9.203296339930311">
      <ele>1788.0</ele></trkpt>
      <trkpt lat="46.90461969776615" lon="9.20332350329827">
      <ele>1789.1</ele></trkpt>
      <trkpt lat="46.90460898206634" lon="9.20337834206719">
      <ele>1790.1</ele></trkpt>
      <trkpt lat="46.90460529940684" lon="9.203397191276471">
      <ele>1791.2</ele></trkpt>
      <trkpt lat="46.904598150072985" lon="9.20343080081077">
      <ele>1792.3</ele></trkpt>
      <trkpt lat="46.9045805781401" lon="9.203423778019989">
      <ele>1793.4</ele></trkpt>
      <trkpt lat="46.9045735239188" lon="9.203380013662658">
      <ele>1794.7</ele></trkpt>
      <trkpt lat="46.90455723188008" lon="9.2033617558794">
      <ele>1796.1</ele></trkpt>
      <trkpt lat="46.904519371703" lon="9.2033412278091">
      <ele>1797.4</ele></trkpt>
      <trkpt lat="46.90450559752898" lon="9.203342324733269">
      <ele>1798.7</ele></trkpt>
      <trkpt lat="46.90449531274531" lon="9.20336454113137">
      <ele>1800.0</ele></trkpt>
      <trkpt lat="46.904492081973835" lon="9.20343053492849">
      <ele>1801.4</ele></trkpt>
      <trkpt lat="46.90447953492838" lon="9.203455919666702">
      <ele>1802.7</ele></trkpt>
      <trkpt lat="46.9044798054907" lon="9.203510738254025">
      <ele>1804.0</ele></trkpt>
      <trkpt lat="46.90445797122045" lon="9.203564831076726">
      <ele>1805.3</ele></trkpt>
      <trkpt lat="46.90441110130391" lon="9.20366647872801">
      <ele>1806.7</ele></trkpt>
      <trkpt lat="46.904407037552794" lon="9.203714709053868">
      <ele>1808.0</ele></trkpt>
      <trkpt lat="46.90438556896639" lon="9.203746246611791">
      <ele>1809.3</ele></trkpt>
      <trkpt lat="46.90437134433832" lon="9.203808649748463">
      <ele>1810.6</ele></trkpt>
      <trkpt lat="46.90437840738889" lon="9.20385241429281">
      <ele>1812.0</ele></trkpt>
      <trkpt lat="46.90438454218523" lon="9.203955789103645">
      <ele>1813.3</ele></trkpt>
      <trkpt lat="46.904403754727966" lon="9.203999952681048">
      <ele>1814.6</ele></trkpt>
      <trkpt lat="46.904399939127245" lon="9.204032083005309">
      <ele>1815.9</ele></trkpt>
      <trkpt lat="46.90438125976223" lon="9.20408520265891">
      <ele>1817.2</ele></trkpt>
      <trkpt lat="46.9043774907726" lon="9.204138811985809">
      <ele>1818.6</ele></trkpt>
      <trkpt lat="46.90431407943034" lon="9.204237762693472">
      <ele>1819.9</ele></trkpt>
      <trkpt lat="46.904279897342896" lon="9.20435270486008">
      <ele>1821.8</ele></trkpt>
      <trkpt lat="46.90424573158034" lon="9.204379085801941">
      <ele>1823.6</ele></trkpt>
      <trkpt lat="46.90421484735527" lon="9.204400966571665">
      <ele>1825.5</ele></trkpt>
      <trkpt lat="46.90419079729591" lon="9.204461602507541">
      <ele>1827.3</ele></trkpt>
      <trkpt lat="46.90418413218169" lon="9.204519212422353">
      <ele>1829.2</ele></trkpt>
      <trkpt lat="46.90417148029748" lon="9.204589871802831">
      <ele>1831.0</ele></trkpt>
      <trkpt lat="46.90416389505124" lon="9.204653464078246">
      <ele>1832.9</ele></trkpt>
      <trkpt lat="46.90416540233312" lon="9.204716147288504">
      <ele>1834.7</ele></trkpt>
      <trkpt lat="46.90417254328665" lon="9.204788664681764">
      <ele>1836.6</ele></trkpt>
      <trkpt lat="46.90419337859564" lon="9.204829100845448">
      <ele>1838.4</ele></trkpt>
      <trkpt lat="46.90422009830854" lon="9.204863704626483">
      <ele>1840.2</ele></trkpt>
      <trkpt lat="46.90423938059585" lon="9.204898077194256">
      <ele>1842.1</ele></trkpt>
      <trkpt lat="46.904247051391756" lon="9.204935665331686">
      <ele>1844.0</ele></trkpt>
      <trkpt lat="46.90424057190161" lon="9.20498122983289">
      <ele>1845.8</ele></trkpt>
      <trkpt lat="46.90422204350719" lon="9.205004710914595">
      <ele>1847.7</ele></trkpt>
      <trkpt lat="46.90419890323201" lon="9.205006366089004">
      <ele>1849.5</ele></trkpt>
      <trkpt lat="46.9041825126329" lon="9.204998593969272">
      <ele>1851.4</ele></trkpt>
      <trkpt lat="46.90415349692534" lon="9.205006081833117">
      <ele>1853.2</ele></trkpt>
      <trkpt lat="46.90412978966515" lon="9.204990835774632">
      <ele>1855.1</ele></trkpt>
      <trkpt lat="46.9041093083279" lon="9.204980526829786">
      <ele>1856.9</ele></trkpt>
      <trkpt lat="46.90407355214121" lon="9.204997429143425">
      <ele>1858.1</ele></trkpt>
      <trkpt lat="46.90403615107598" lon="9.205013056483228">
      <ele>1859.2</ele></trkpt>
      <trkpt lat="46.904022326282124" lon="9.20499935608709">
      <ele>1860.4</ele></trkpt>
      <trkpt lat="46.90401064928406" lon="9.20500740054145">
      <ele>1861.5</ele></trkpt>
      <trkpt lat="46.90399715033397" lon="9.205026228819293">
      <ele>1862.7</ele></trkpt>
      <trkpt lat="46.903965680175496" lon="9.205032428217532">
      <ele>1863.8</ele></trkpt>
      <trkpt lat="46.903922338153" lon="9.20505871708924">
      <ele>1865.0</ele></trkpt>
      <trkpt lat="46.90389215136552" lon="9.205089035265665">
      <ele>1866.1</ele></trkpt>
      <trkpt lat="46.90388007498877" lon="9.205122377211321">
      <ele>1867.2</ele></trkpt>
      <trkpt lat="46.90386246686003" lon="9.205139862610235">
      <ele>1868.4</ele></trkpt>
      <trkpt lat="46.90385549443926" lon="9.205163723229047">
      <ele>1869.6</ele></trkpt>
      <trkpt lat="46.9038674876112" lon="9.20518941487341">
      <ele>1870.7</ele></trkpt>
      <trkpt lat="46.903855021203235" lon="9.205248028351768">
      <ele>1871.9</ele></trkpt>
      <trkpt lat="46.903840620338194" lon="9.205271657951037">
      <ele>1873.0</ele></trkpt>
      <trkpt lat="46.90381974901486" lon="9.205286620508254">
      <ele>1874.2</ele></trkpt>
      <trkpt lat="46.903799249073444" lon="9.205277518665786">
      <ele>1875.3</ele></trkpt>
      <trkpt lat="46.90377515143247" lon="9.205287570363108">
      <ele>1876.5</ele></trkpt>
      <trkpt lat="46.903774045435995" lon="9.205305598015622">
      <ele>1877.6</ele></trkpt>
      <trkpt lat="46.90378660571318" lon="9.20534817765714">
      <ele>1878.8</ele></trkpt>
      <trkpt lat="46.90375987735679" lon="9.205367778741483">
      <ele>1879.9</ele></trkpt>
      <trkpt lat="46.903721741807125" lon="9.205431574096789">
      <ele>1880.8</ele></trkpt>
      <trkpt lat="46.903697142513415" lon="9.205474127004582">
      <ele>1881.8</ele></trkpt>
      <trkpt lat="46.90367163336376" lon="9.205487020335694">
      <ele>1882.7</ele></trkpt>
      <trkpt lat="46.90365161731927" lon="9.205478630123565">
      <ele>1883.6</ele></trkpt>
      <trkpt lat="46.90364382200202" lon="9.205475354495022">
      <ele>1884.6</ele></trkpt>
      <trkpt lat="46.90364210152449" lon="9.205487139290469">
      <ele>1885.5</ele></trkpt>
      <trkpt lat="46.90363723510855" lon="9.205520284758359">
      <ele>1886.4</ele></trkpt>
      <trkpt lat="46.90361941148822" lon="9.205507424358043">
      <ele>1887.4</ele></trkpt>
      <trkpt lat="46.903615380593784" lon="9.205504508759901">
      <ele>1888.3</ele></trkpt>
      <trkpt lat="46.903594396638745" lon="9.205529680941318">
      <ele>1889.2</ele></trkpt>
      <trkpt lat="46.903578306932054" lon="9.205520487701234">
      <ele>1890.2</ele></trkpt>
      <trkpt lat="46.903564140825544" lon="9.205532401647556">
      <ele>1891.1</ele></trkpt>
      <trkpt lat="46.9035401920193" lon="9.205532809108616">
      <ele>1892.1</ele></trkpt>
      <trkpt lat="46.90352453564807" lon="9.205531099865256">
      <ele>1893.0</ele></trkpt>
      <trkpt lat="46.90352178389396" lon="9.205549073335005">
      <ele>1893.9</ele></trkpt>
      <trkpt lat="46.90352878015688" lon="9.205579051002111">
      <ele>1894.9</ele></trkpt>
      <trkpt lat="46.90350934451578" lon="9.205597762597293">
      <ele>1895.8</ele></trkpt>
      <trkpt lat="46.90349299307249" lon="9.205628259335889">
      <ele>1896.7</ele></trkpt>
      <trkpt lat="46.90350815074965" lon="9.205675098869058">
      <ele>1897.7</ele></trkpt>
      <trkpt lat="46.903510627226936" lon="9.205705269294686">
      <ele>1898.6</ele></trkpt>
      <trkpt lat="46.903489384935305" lon="9.205745424850623">
      <ele>1899.7</ele></trkpt>
      <trkpt lat="46.90347677504772" lon="9.205798742561875">
      <ele>1900.9</ele></trkpt>
      <trkpt lat="46.90345733058008" lon="9.205817440642665">
      <ele>1902.0</ele></trkpt>
      <trkpt lat="46.90345378392511" lon="9.20585601176765">
      <ele>1903.1</ele></trkpt>
      <trkpt lat="46.90342682606159" lon="9.205885227631162">
      <ele>1904.2</ele></trkpt>
      <trkpt lat="46.90340323117912" lon="9.205886604900108">
      <ele>1905.4</ele></trkpt>
      <trkpt lat="46.90337047356413" lon="9.205909171165013">
      <ele>1906.5</ele></trkpt>
      <trkpt lat="46.903370042288124" lon="9.205937106096277">
      <ele>1907.6</ele></trkpt>
      <trkpt lat="46.903363753812634" lon="9.205962695499636">
      <ele>1908.8</ele></trkpt>
      <trkpt lat="46.903343196204105" lon="9.205984139980186">
      <ele>1909.9</ele></trkpt>
      <trkpt lat="46.90333380420379" lon="9.205993952732387">
      <ele>1911.0</ele></trkpt>
      <trkpt lat="46.90333029091574" lon="9.206030358768812">
      <ele>1912.2</ele></trkpt>
      <trkpt lat="46.903335882719865" lon="9.206049892998944">
      <ele>1913.3</ele></trkpt>
      <trkpt lat="46.9033512653721" lon="9.206061754310987">
      <ele>1914.4</ele></trkpt>
      <trkpt lat="46.90336791963833" lon="9.206074589513841">
      <ele>1915.5</ele></trkpt>
      <trkpt lat="46.90337344498467" lon="9.206098427499988">
      <ele>1916.7</ele></trkpt>
      <trkpt lat="46.90336417374612" lon="9.206126058647383">
      <ele>1917.8</ele></trkpt>
      <trkpt lat="46.903362234339006" lon="9.20615609694821">
      <ele>1918.9</ele></trkpt>
      <trkpt lat="46.90333651047957" lon="9.206200371396887">
      <ele>1920.1</ele></trkpt>
      <trkpt lat="46.90333767769876" lon="9.206219760160149">
      <ele>1921.2</ele></trkpt>
      <trkpt lat="46.90335521623594" lon="9.206228935571668">
      <ele>1922.3</ele></trkpt>
      <trkpt lat="46.90337837976896" lon="9.206255493387445">
      <ele>1923.4</ele></trkpt>
      <trkpt lat="46.903398934260814" lon="9.20626047519296">
      <ele>1924.6</ele></trkpt>
      <trkpt lat="46.903401609550265" lon="9.206277760607561">
      <ele>1925.7</ele></trkpt>
      <trkpt lat="46.90335791553712" lon="9.20634080762801">
      <ele>1926.8</ele></trkpt>
      <trkpt lat="46.90332390619188" lon="9.206348287976962">
      <ele>1927.9</ele></trkpt>
      <trkpt lat="46.90331494234943" lon="9.206356591917935">
      <ele>1929.0</ele></trkpt>
      <trkpt lat="46.903314510964215" lon="9.20638452681682">
      <ele>1930.2</ele></trkpt>
      <trkpt lat="46.903334857681216" lon="9.206402380209433">
      <ele>1931.3</ele></trkpt>
      <trkpt lat="46.90334587540601" lon="9.20645218185004">
      <ele>1932.4</ele></trkpt>
      <trkpt lat="46.90332058243924" lon="9.206468547484855">
      <ele>1933.5</ele></trkpt>
      <trkpt lat="46.90330846989546" lon="9.206489639353784">
      <ele>1934.6</ele></trkpt>
      <trkpt lat="46.90332727507594" lon="9.206511761135353">
      <ele>1935.8</ele></trkpt>
      <trkpt lat="46.90331922191637" lon="9.206556642797974">
      <ele>1936.9</ele></trkpt>
      <trkpt lat="46.903310628334026" lon="9.206582917710259">
      <ele>1938.0</ele></trkpt>
      <trkpt lat="46.903305302971816" lon="9.206599152314789">
      <ele>1939.1</ele></trkpt>
      <trkpt lat="46.90330651235132" lon="9.206616389505449">
      <ele>1940.2</ele></trkpt>
      <trkpt lat="46.90331932758978" lon="9.206644760075916">
      <ele>1941.4</ele></trkpt>
      <trkpt lat="46.90331134085043" lon="9.206685337979966">
      <ele>1942.5</ele></trkpt>
      <trkpt lat="46.90328477201112" lon="9.2066887700384">
      <ele>1943.6</ele></trkpt>
      <trkpt lat="46.90327423378554" lon="9.206703467880214">
      <ele>1944.8</ele></trkpt>
      <trkpt lat="46.90325621236705" lon="9.206821090861837">
      <ele>1946.0</ele></trkpt>
      <trkpt lat="46.90323298085678" lon="9.206864764251073">
      <ele>1947.2</ele></trkpt>
      <trkpt lat="46.90320117018086" lon="9.206884262848442">
      <ele>1948.3</ele></trkpt>
      <trkpt lat="46.90316134420854" lon="9.206858810857064">
      <ele>1949.5</ele></trkpt>
      <trkpt lat="46.90313189213882" lon="9.206857842076447">
      <ele>1950.7</ele></trkpt>
      <trkpt lat="46.90313122835611" lon="9.206900813644687">
      <ele>1951.9</ele></trkpt>
      <trkpt lat="46.90316299936798" lon="9.206942712331507">
      <ele>1953.1</ele></trkpt>
      <trkpt lat="46.903162733844084" lon="9.20695990096845">
      <ele>1954.3</ele></trkpt>
      <trkpt lat="46.90314583180387" lon="9.207004465082289">
      <ele>1955.4</ele></trkpt>
      <trkpt lat="46.903140719161144" lon="9.207049443260203">
      <ele>1956.6</ele></trkpt>
      <trkpt lat="46.90315518415169" lon="9.20706711648491">
      <ele>1957.8</ele></trkpt>
      <trkpt lat="46.903191850727666" lon="9.207076921409927">
      <ele>1959.0</ele></trkpt>
      <trkpt lat="46.90321141618348" lon="9.20710282290861">
      <ele>1960.2</ele></trkpt>
      <trkpt lat="46.9032327832849" lon="9.207175177280602">
      <ele>1961.4</ele></trkpt>
      <trkpt lat="46.903265192326366" lon="9.207193244008344">
      <ele>1962.6</ele></trkpt>
      <trkpt lat="46.9032693843628" lon="9.207208439502189">
      <ele>1963.7</ele></trkpt>
      <trkpt lat="46.903263328124574" lon="9.207218978783835">
      <ele>1964.9</ele></trkpt>
      <trkpt lat="46.9032484467704" lon="9.207228256256787">
      <ele>1966.1</ele></trkpt>
      <trkpt lat="46.9032111826373" lon="9.207255963873449">
      <ele>1967.3</ele></trkpt>
      <trkpt lat="46.90319448835238" lon="9.20728765642793">
      <ele>1968.6</ele></trkpt>
      <trkpt lat="46.903210286375696" lon="9.207313972289164">
      <ele>1969.9</ele></trkpt>
      <trkpt lat="46.90319938274184" lon="9.207352314218197">
      <ele>1971.2</ele></trkpt>
      <trkpt lat="46.903220706230606" lon="9.20740244191134">
      <ele>1972.5</ele></trkpt>
      <trkpt lat="46.90326445738602" lon="9.207431817424363">
      <ele>1973.8</ele></trkpt>
      <trkpt lat="46.90326867364821" lon="9.20744486077689">
      <ele>1975.2</ele></trkpt>
      <trkpt lat="46.903250670511596" lon="9.207465758582265">
      <ele>1976.5</ele></trkpt>
      <trkpt lat="46.90317932154718" lon="9.207506404307384">
      <ele>1977.8</ele></trkpt>
      <trkpt lat="46.90317152461704" lon="9.207534096764794">
      <ele>1979.1</ele></trkpt>
      <trkpt lat="46.90314025072307" lon="9.207556697634708">
      <ele>1980.4</ele></trkpt>
      <trkpt lat="46.90318067776266" lon="9.207609620087805">
      <ele>1981.7</ele></trkpt>
      <trkpt lat="46.90321558854702" lon="9.20763871795796">
      <ele>1983.0</ele></trkpt>
      <trkpt lat="46.90321528966415" lon="9.207658058469951">
      <ele>1984.3</ele></trkpt>
      <trkpt lat="46.903181014599525" lon="9.207682726604311">
      <ele>1985.6</ele></trkpt>
      <trkpt lat="46.90316582830317" lon="9.207712315685388">
      <ele>1987.0</ele></trkpt>
      <trkpt lat="46.90316843686174" lon="9.20773390481672">
      <ele>1988.3</ele></trkpt>
      <trkpt lat="46.90315321749844" lon="9.207765632614302">
      <ele>1989.6</ele></trkpt>
      <trkpt lat="46.90316315825656" lon="9.207789602878064">
      <ele>1990.9</ele></trkpt>
      <trkpt lat="46.90318371288509" lon="9.207794572129743">
      <ele>1992.2</ele></trkpt>
      <trkpt lat="46.9032041920061" lon="9.20780384481128">
      <ele>1993.5</ele></trkpt>
      <trkpt lat="46.903205168603336" lon="9.207836131903086">
      <ele>1994.5</ele></trkpt>
      <trkpt lat="46.90317963404291" lon="9.207867533325421">
      <ele>1995.6</ele></trkpt>
      <trkpt lat="46.903179335121365" lon="9.207886873823211">
      <ele>1996.6</ele></trkpt>
      <trkpt lat="46.903225057330275" lon="9.207922025171923">
      <ele>1997.7</ele></trkpt>
      <trkpt lat="46.9032442734681" lon="9.207961200825213">
      <ele>1998.7</ele></trkpt>
      <trkpt lat="46.90324215351651" lon="9.207991246194153">
      <ele>1999.8</ele></trkpt>
      <trkpt lat="46.903217004984285" lon="9.208015715675383">
      <ele>2000.8</ele></trkpt>
      <trkpt lat="46.90321001330417" lon="9.20804078277611">
      <ele>2001.9</ele></trkpt>
      <trkpt lat="46.903228588030615" lon="9.208067899170722">
      <ele>2002.9</ele></trkpt>
      <trkpt lat="46.90325269448951" lon="9.208110845996593">
      <ele>2004.0</ele></trkpt>
      <trkpt lat="46.90325569717298" lon="9.208130216433632">
      <ele>2005.0</ele></trkpt>
      <trkpt lat="46.90324800832756" lon="9.208146832548175">
      <ele>2006.0</ele></trkpt>
      <trkpt lat="46.90325804836379" lon="9.208191731896635">
      <ele>2007.1</ele></trkpt>
      <trkpt lat="46.90324606418337" lon="9.208219050160942">
      <ele>2008.1</ele></trkpt>
      <trkpt lat="46.90321761517336" lon="9.208243410889533">
      <ele>2009.2</ele></trkpt>
      <trkpt lat="46.903189788846284" lon="9.208281038017162">
      <ele>2010.2</ele></trkpt>
      <trkpt lat="46.90317771174101" lon="9.208314365688548">
      <ele>2011.3</ele></trkpt>
      <trkpt lat="46.903162324527756" lon="9.208348792127294">
      <ele>2012.3</ele></trkpt>
      <trkpt lat="46.903166172986005" lon="9.208366995763555">
      <ele>2013.4</ele></trkpt>
      <trkpt lat="46.90318672846837" lon="9.208372490376478">
      <ele>2014.4</ele></trkpt>
      <trkpt lat="46.90320384429615" lon="9.208386299788692">
      <ele>2015.6</ele></trkpt>
      <trkpt lat="46.90320422496231" lon="9.208415219692846">
      <ele>2016.9</ele></trkpt>
      <trkpt lat="46.90318894929254" lon="9.208442429515957">
      <ele>2018.1</ele></trkpt>
      <trkpt lat="46.90317945699193" lon="9.208468608849607">
      <ele>2019.3</ele></trkpt>
      <trkpt lat="46.90318990628883" lon="9.208487029825756">
      <ele>2020.6</ele></trkpt>
      <trkpt lat="46.903218400859956" lon="9.208513265216373">
      <ele>2021.8</ele></trkpt>
      <trkpt lat="46.903256396780904" lon="9.208565110723619">
      <ele>2023.0</ele></trkpt>
      <trkpt lat="46.90325843211272" lon="9.208594085140154">
      <ele>2024.3</ele></trkpt>
      <trkpt lat="46.90324550889577" lon="9.208628592684137">
      <ele>2025.5</ele></trkpt>
      <trkpt lat="46.90323420325101" lon="9.208665555859202">
      <ele>2026.8</ele></trkpt>
      <trkpt lat="46.903242764751056" lon="9.2086995761873">
      <ele>2028.0</ele></trkpt>
      <trkpt lat="46.903242977747254" lon="9.208739334151517">
      <ele>2029.2</ele></trkpt>
      <trkpt lat="46.903224262318076" lon="9.208774858675563">
      <ele>2030.5</ele></trkpt>
      <trkpt lat="46.90322388999572" lon="9.20879893590343">
      <ele>2031.7</ele></trkpt>
      <trkpt lat="46.90324926133973" lon="9.208813017316402">
      <ele>2032.9</ele></trkpt>
      <trkpt lat="46.903292816992405" lon="9.208826502926026">
      <ele>2034.2</ele></trkpt>
      <trkpt lat="46.90332364529813" lon="9.20886124345591">
      <ele>2035.4</ele></trkpt>
      <trkpt lat="46.90334880222163" lon="9.208889771590467">
      <ele>2036.6</ele></trkpt>
      <trkpt lat="46.90334081538646" lon="9.2089256494487">
      <ele>2037.9</ele></trkpt>
      <trkpt lat="46.90331203100189" lon="9.208971685946274">
      <ele>2039.1</ele></trkpt>
      <trkpt lat="46.903307279088416" lon="9.209012488211586">
      <ele>2040.1</ele></trkpt>
      <trkpt lat="46.903285598385274" lon="9.209026227896826">
      <ele>2041.1</ele></trkpt>
      <trkpt lat="46.90328366444439" lon="9.209044228060154">
      <ele>2042.0</ele></trkpt>
      <trkpt lat="46.90329207687796" lon="9.209087879382594">
      <ele>2043.0</ele></trkpt>
      <trkpt lat="46.9033072489891" lon="9.209120896657982">
      <ele>2044.0</ele></trkpt>
      <trkpt lat="46.90329271703427" lon="9.209152948737751">
      <ele>2045.0</ele></trkpt>
      <trkpt lat="46.90327901262872" lon="9.209185014929595">
      <ele>2046.0</ele></trkpt>
      <trkpt lat="46.903276724718964" lon="9.20922589831199">
      <ele>2046.9</ele></trkpt>
      <trkpt lat="46.90326236936756" lon="9.209247112602302">
      <ele>2047.9</ele></trkpt>
      <trkpt lat="46.903264358392626" lon="9.209278487915501">
      <ele>2048.9</ele></trkpt>
      <trkpt lat="46.90329332784398" lon="9.209273429594829">
      <ele>2049.9</ele></trkpt>
      <trkpt lat="46.90330722661317" lon="9.209282315453322">
      <ele>2050.9</ele></trkpt>
      <trkpt lat="46.90330515265251" lon="9.209309946815175">
      <ele>2051.8</ele></trkpt>
      <trkpt lat="46.90329489740319" lon="9.209332503908666">
      <ele>2052.8</ele></trkpt>
      <trkpt lat="46.90329530618302" lon="9.209359009286398">
      <ele>2053.8</ele></trkpt>
      <trkpt lat="46.90331667029968" lon="9.209365738688973">
      <ele>2054.8</ele></trkpt>
      <trkpt lat="46.903356135449826" lon="9.209376674503421">
      <ele>2055.8</ele></trkpt>
      <trkpt lat="46.90338383960478" lon="9.209400482024424">
      <ele>2056.7</ele></trkpt>
      <trkpt lat="46.90339246658775" lon="9.209429673687415">
      <ele>2057.7</ele></trkpt>
      <trkpt lat="46.90337292358949" lon="9.209465170815134">
      <ele>2058.7</ele></trkpt>
      <trkpt lat="46.90334733676763" lon="9.209518532696428">
      <ele>2059.9</ele></trkpt>
      <trkpt lat="46.903356474413094" lon="9.20956822058475">
      <ele>2061.0</ele></trkpt>
      <trkpt lat="46.90334250904312" lon="9.209617147362113">
      <ele>2062.2</ele></trkpt>
      <trkpt lat="46.90332754861742" lon="9.20967688490714">
      <ele>2063.3</ele></trkpt>
      <trkpt lat="46.90333477179457" lon="9.209690381977715">
      <ele>2064.5</ele></trkpt>
      <trkpt lat="46.90341188932085" lon="9.209721830215727">
      <ele>2065.6</ele></trkpt>
      <trkpt lat="46.90341573776357" lon="9.209740020913905">
      <ele>2066.8</ele></trkpt>
      <trkpt lat="46.903386367892466" lon="9.209770376258453">
      <ele>2067.9</ele></trkpt>
      <trkpt lat="46.9033727749731" lon="9.209795225723092">
      <ele>2069.1</ele></trkpt>
      <trkpt lat="46.90337988647632" lon="9.209815939447635">
      <ele>2070.2</ele></trkpt>
      <trkpt lat="46.90340614088022" lon="9.209826440327326">
      <ele>2071.4</ele></trkpt>
      <trkpt lat="46.90344038996506" lon="9.209854073913943">
      <ele>2072.6</ele></trkpt>
      <trkpt lat="46.90344819847019" lon="9.209883238715577">
      <ele>2073.7</ele></trkpt>
      <trkpt lat="46.903435498400114" lon="9.209903299682654">
      <ele>2074.9</ele></trkpt>
      <trkpt lat="46.9034027812175" lon="9.209937154808154">
      <ele>2076.0</ele></trkpt>
      <trkpt lat="46.903394868568256" lon="9.209968217087647">
      <ele>2077.2</ele></trkpt>
      <trkpt lat="46.903402798402254" lon="9.20998895781019">
      <ele>2078.3</ele></trkpt>
      <trkpt lat="46.90343815438962" lon="9.209998550934667">
      <ele>2079.5</ele></trkpt>
      <trkpt lat="46.90345995456209" lon="9.21003059234463">
      <ele>2080.6</ele></trkpt>
      <trkpt lat="46.903457137270806" lon="9.21005217358472">
      <ele>2081.8</ele></trkpt>
      <trkpt lat="46.903436358316526" lon="9.210061124690021">
      <ele>2082.8</ele></trkpt>
      <trkpt lat="46.90343433980342" lon="9.210085160892879">
      <ele>2083.8</ele></trkpt>
      <trkpt lat="46.9034537884493" lon="9.210108683637394">
      <ele>2084.8</ele></trkpt>
      <trkpt lat="46.90348228264757" lon="9.210134920017367">
      <ele>2085.7</ele></trkpt>
      <trkpt lat="46.903489198891954" lon="9.210167665640904">
      <ele>2086.7</ele></trkpt>
      <trkpt lat="46.903474964738386" lon="9.210180455681682">
      <ele>2087.7</ele></trkpt>
      <trkpt lat="46.90345477087602" lon="9.210205087545889">
      <ele>2088.7</ele></trkpt>
      <trkpt lat="46.90346027395191" lon="9.210223332826446">
      <ele>2089.7</ele></trkpt>
      <trkpt lat="46.90348498529436" lon="9.210226562747591">
      <ele>2090.7</ele></trkpt>
      <trkpt lat="46.90350929583961" lon="9.210256271487983">
      <ele>2091.7</ele></trkpt>
      <trkpt lat="46.90350652466078" lon="9.21027545185864">
      <ele>2092.6</ele></trkpt>
      <trkpt lat="46.90347620563188" lon="9.210295037099762">
      <ele>2093.6</ele></trkpt>
      <trkpt lat="46.90346385590733" lon="9.210340708838617">
      <ele>2094.6</ele></trkpt>
      <trkpt lat="46.90346527903671" lon="9.21036735277002">
      <ele>2095.6</ele></trkpt>
      <trkpt lat="46.903441252353616" lon="9.210411156166487">
      <ele>2096.6</ele></trkpt>
      <trkpt lat="46.903471641205314" lon="9.210427753667956">
      <ele>2097.6</ele></trkpt>
      <trkpt lat="46.90350585627801" lon="9.210429091448368">
      <ele>2098.5</ele></trkpt>
      <trkpt lat="46.903516522323265" lon="9.21043930202952">
      <ele>2099.5</ele></trkpt>
      <trkpt lat="46.903504340126744" lon="9.210472402802054">
      <ele>2100.5</ele></trkpt>
      <trkpt lat="46.90354718086847" lon="9.2105006745031">
      <ele>2101.5</ele></trkpt>
      <trkpt lat="46.90355677102576" lon="9.210523426147113">
      <ele>2102.4</ele></trkpt>
      <trkpt lat="46.903579835467184" lon="9.210520865043451">
      <ele>2103.4</ele></trkpt>
      <trkpt lat="46.903593434722005" lon="9.210575833402036">
      <ele>2104.3</ele></trkpt>
      <trkpt lat="46.903571767199686" lon="9.210600915457304">
      <ele>2105.3</ele></trkpt>
      <trkpt lat="46.90357654663358" lon="9.210616498262517">
      <ele>2106.2</ele></trkpt>
      <trkpt lat="46.90359946767488" lon="9.210633663682522">
      <ele>2107.2</ele></trkpt>
      <trkpt lat="46.903597271598514" lon="9.21065521291734">
      <ele>2108.2</ele></trkpt>
      <trkpt lat="46.90360639207384" lon="9.210674010762041">
      <ele>2109.1</ele></trkpt>
      <trkpt lat="46.90365521877291" lon="9.210676539279698">
      <ele>2110.1</ele></trkpt>
      <trkpt lat="46.90366922997575" lon="9.21070372956742">
      <ele>2111.0</ele></trkpt>
      <trkpt lat="46.90366333839471" lon="9.21072104796938">
      <ele>2111.9</ele></trkpt>
      <trkpt lat="46.903665624612266" lon="9.210735524644601">
      <ele>2112.9</ele></trkpt>
      <trkpt lat="46.90369552288211" lon="9.21074777401771">
      <ele>2113.8</ele></trkpt>
      <trkpt lat="46.90372083820498" lon="9.210815442787665">
      <ele>2114.8</ele></trkpt>
      <trkpt lat="46.903737100277205" lon="9.210816963502017">
      <ele>2115.8</ele></trkpt>
      <trkpt lat="46.90374000679561" lon="9.210831473779544">
      <ele>2116.7</ele></trkpt>
      <trkpt lat="46.90370340720736" lon="9.210849906526997">
      <ele>2117.7</ele></trkpt>
      <trkpt lat="46.90370999570723" lon="9.210870682049888">
      <ele>2118.6</ele></trkpt>
      <trkpt lat="46.90372488897143" lon="9.210880415112813">
      <ele>2119.6</ele></trkpt>
      <trkpt lat="46.90371510386903" lon="9.210906873456342">
      <ele>2120.5</ele></trkpt>
      <trkpt lat="46.90373256117109" lon="9.210912555770657">
      <ele>2121.6</ele></trkpt>
      <trkpt lat="46.90372263263897" lon="9.210948277692648">
      <ele>2122.7</ele></trkpt>
      <trkpt lat="46.90369351068769" lon="9.210968991721307">
      <ele>2123.8</ele></trkpt>
      <trkpt lat="46.90369765350624" lon="9.210985590711594">
      <ele>2124.8</ele></trkpt>
      <trkpt lat="46.90371930156425" lon="9.211004775440898">
      <ele>2125.9</ele></trkpt>
      <trkpt lat="46.90372024203394" lon="9.21102539102205">
      <ele>2127.0</ele></trkpt>
      <trkpt lat="46.903673393694184" lon="9.211058963512485">
      <ele>2128.1</ele></trkpt>
      <trkpt lat="46.90369724121459" lon="9.21109880534923">
      <ele>2129.2</ele></trkpt>
      <trkpt lat="46.9036646638468" lon="9.211141040135931">
      <ele>2130.3</ele></trkpt>
      <trkpt lat="46.903669420505196" lon="9.211158670220744">
      <ele>2131.3</ele></trkpt>
      <trkpt lat="46.90364589642986" lon="9.211181616654079">
      <ele>2132.4</ele></trkpt>
      <trkpt lat="46.903631619925136" lon="9.211215147145621">
      <ele>2133.5</ele></trkpt>
      <trkpt lat="46.903644579023634" lon="9.211228925543853">
      <ele>2134.6</ele></trkpt>
      <trkpt lat="46.903630436756615" lon="9.211253205282823">
      <ele>2135.7</ele></trkpt>
      <trkpt lat="46.90364763239238" lon="9.211276365435005">
      <ele>2136.8</ele></trkpt>
      <trkpt lat="46.903634183425524" lon="9.211296545866384">
      <ele>2137.9</ele></trkpt>
      <trkpt lat="46.903652385201816" lon="9.211337238705726">
      <ele>2138.9</ele></trkpt>
      <trkpt lat="46.90364066351236" lon="9.211366731253689">
      <ele>2140.0</ele></trkpt>
      <trkpt lat="46.903646321574904" lon="9.211408073809576">
      <ele>2141.1</ele></trkpt>
      <trkpt lat="46.903652098039245" lon="9.211441189085267">
      <ele>2142.2</ele></trkpt>
      <trkpt lat="46.903662318088685" lon="9.211470315627052">
      <ele>2143.4</ele></trkpt>
      <trkpt lat="46.90365307899643" lon="9.211545168162948">
      <ele>2144.5</ele></trkpt>
      <trkpt lat="46.903675497677476" lon="9.211766128210812">
      <ele>2145.7</ele></trkpt>
      <trkpt lat="46.90369137230211" lon="9.211794404245254">
      <ele>2146.9</ele></trkpt>
      <trkpt lat="46.9036917926123" lon="9.211814320024843">
      <ele>2148.1</ele></trkpt>
      <trkpt lat="46.90366911035486" lon="9.211890370082308">
      <ele>2149.2</ele></trkpt>
      <trkpt lat="46.90365516008698" lon="9.21192199449497">
      <ele>2150.4</ele></trkpt>
      <trkpt lat="46.903662034080185" lon="9.211944656845773">
      <ele>2151.6</ele></trkpt>
      <trkpt lat="46.90368176599554" lon="9.211951031541748">
      <ele>2152.8</ele></trkpt>
      <trkpt lat="46.90368754762415" lon="9.211989030656685">
      <ele>2153.9</ele></trkpt>
      <trkpt lat="46.90366898410992" lon="9.212027460655843">
      <ele>2155.1</ele></trkpt>
      <trkpt lat="46.903693022395586" lon="9.21204799806306">
      <ele>2156.3</ele></trkpt>
      <trkpt lat="46.903686321917625" lon="9.212075700080327">
      <ele>2157.5</ele></trkpt>
      <trkpt lat="46.90367355923157" lon="9.212157853575983">
      <ele>2158.6</ele></trkpt>
      <trkpt lat="46.90372341900587" lon="9.212198816701463">
      <ele>2159.8</ele></trkpt>
      <trkpt lat="46.903719245341954" lon="9.212231840126456">
      <ele>2161.0</ele></trkpt>
      <trkpt lat="46.90372395784766" lon="9.212246501964277">
      <ele>2162.2</ele></trkpt>
      <trkpt lat="46.90372541828711" lon="9.212272451541272">
      <ele>2163.3</ele></trkpt>
      <trkpt lat="46.9037294301707" lon="9.212292262669418">
      <ele>2164.5</ele></trkpt>
      <trkpt lat="46.90372039236621" lon="9.212320990301016">
      <ele>2165.7</ele></trkpt>
      <trkpt lat="46.90373069979037" lon="9.212331688332423">
      <ele>2166.8</ele></trkpt>
      <trkpt lat="46.903718561727786" lon="9.21236132451128">
      <ele>2167.8</ele></trkpt>
      <trkpt lat="46.90371147295328" lon="9.212465759511211">
      <ele>2168.9</ele></trkpt>
      <trkpt lat="46.90374287153949" lon="9.212507177115805">
      <ele>2170.0</ele></trkpt>
      <trkpt lat="46.903762427796615" lon="9.21255856191325">
      <ele>2171.0</ele></trkpt>
      <trkpt lat="46.90376618473946" lon="9.212595982351925">
      <ele>2172.1</ele></trkpt>
      <trkpt lat="46.90378453509063" lon="9.212603834548787">
      <ele>2173.2</ele></trkpt>
      <trkpt lat="46.90380546216804" lon="9.21260449890501">
      <ele>2174.3</ele></trkpt>
      <trkpt lat="46.90381304180184" lon="9.212632711563238">
      <ele>2175.3</ele></trkpt>
      <trkpt lat="46.9038144436277" lon="9.212704239490336">
      <ele>2176.4</ele></trkpt>
      <trkpt lat="46.903841486090236" lon="9.212748638001832">
      <ele>2177.5</ele></trkpt>
      <trkpt lat="46.90386384136152" lon="9.212777325229808">
      <ele>2178.5</ele></trkpt>
      <trkpt lat="46.903870122651085" lon="9.21272675359021">
      <ele>2179.6</ele></trkpt>
      <trkpt lat="46.90389184462789" lon="9.212715025174793">
      <ele>2180.7</ele></trkpt>
      <trkpt lat="46.90389778582378" lon="9.212771159517255">
      <ele>2181.8</ele></trkpt>
      <trkpt lat="46.9039192762269" lon="9.21277495386151">
      <ele>2182.8</ele></trkpt>
      <trkpt lat="46.903932113722526" lon="9.212739091829468">
      <ele>2183.9</ele></trkpt>
      <trkpt lat="46.90394943359387" lon="9.212734477894015">
      <ele>2185.0</ele></trkpt>
      <trkpt lat="46.9039685171831" lon="9.21281693444119">
      <ele>2186.0</ele></trkpt>
      <trkpt lat="46.904003379961594" lon="9.212874010335144">
      <ele>2187.1</ele></trkpt>
      <trkpt lat="46.90401021260422" lon="9.212911519358078">
      <ele>2188.6</ele></trkpt>
      <trkpt lat="46.904060966979934" lon="9.212892426089233">
      <ele>2190.0</ele></trkpt>
      <trkpt lat="46.90408031067762" lon="9.212916878768818">
      <ele>2191.5</ele></trkpt>
      <trkpt lat="46.90408472722649" lon="9.212951209890909">
      <ele>2192.9</ele></trkpt>
      <trkpt lat="46.904079392649905" lon="9.212979009602702">
      <ele>2194.4</ele></trkpt>
      <trkpt lat="46.904082625140546" lon="9.213010203434777">
      <ele>2195.8</ele></trkpt>
      <trkpt lat="46.90413249359967" lon="9.213051167960169">
      <ele>2197.3</ele></trkpt>
      <trkpt lat="46.90413603635156" lon="9.213185978452671">
      <ele>2198.7</ele></trkpt>
      <trkpt lat="46.90415362364391" lon="9.213204163732527">
      <ele>2200.2</ele></trkpt>
      <trkpt lat="46.90417298354752" lon="9.213227566860981">
      <ele>2201.6</ele></trkpt>
      <trkpt lat="46.90417360039322" lon="9.213269032433892">
      <ele>2203.1</ele></trkpt>
      <trkpt lat="46.904181600664174" lon="9.213310728638634">
      <ele>2204.6</ele></trkpt>
      <trkpt lat="46.904216641757365" lon="9.213313920343154">
      <ele>2206.0</ele></trkpt>
      <trkpt lat="46.904224912683496" lon="9.21333699682308">
      <ele>2207.5</ele></trkpt>
      <trkpt lat="46.90420492719147" lon="9.213397474307008">
      <ele>2208.9</ele></trkpt>
      <trkpt lat="46.90420517311414" lon="9.213423397185576">
      <ele>2210.4</ele></trkpt>
      <trkpt lat="46.9042254546057" lon="9.213425077667335">
      <ele>2211.8</ele></trkpt>
      <trkpt lat="46.9042243793373" lon="9.21345612938582">
      <ele>2213.3</ele></trkpt>
      <trkpt lat="46.90426799668293" lon="9.21346270257297">
      <ele>2214.7</ele></trkpt>
      <trkpt lat="46.904324788417526" lon="9.21349352507944">
      <ele>2216.2</ele></trkpt>
      <trkpt lat="46.90428965612493" lon="9.21353799824487">
      <ele>2217.3</ele></trkpt>
      <trkpt lat="46.90430594744026" lon="9.213560263115927">
      <ele>2218.5</ele></trkpt>
      <trkpt lat="46.9044107741074" lon="9.213589547357884">
      <ele>2219.6</ele></trkpt>
      <trkpt lat="46.904464418836056" lon="9.213625451769445">
      <ele>2220.8</ele></trkpt>
      <trkpt lat="46.90448066191441" lon="9.213650826509841">
      <ele>2221.9</ele></trkpt>
      <trkpt lat="46.90447675493196" lon="9.213706662637914">
      <ele>2223.0</ele></trkpt>
      <trkpt lat="46.90448137100848" lon="9.21372753123138">
      <ele>2224.2</ele></trkpt>
      <trkpt lat="46.90452694056409" lon="9.213768354772615">
      <ele>2225.3</ele></trkpt>
      <trkpt lat="46.904566657928676" lon="9.213829727573973">
      <ele>2226.5</ele></trkpt>
      <trkpt lat="46.904595433302966" lon="9.213882455246923">
      <ele>2227.6</ele></trkpt>
      <trkpt lat="46.904608373655755" lon="9.21396472345872">
      <ele>2228.7</ele></trkpt>
      <trkpt lat="46.904666901320574" lon="9.214044309500215">
      <ele>2229.9</ele></trkpt>
      <trkpt lat="46.90470840176188" lon="9.214068444434035">
      <ele>2231.0</ele></trkpt>
      <trkpt lat="46.904735269155346" lon="9.21412525786142">
      <ele>2232.2</ele></trkpt>
      <trkpt lat="46.90481438864588" lon="9.214228275608813">
      <ele>2233.3</ele></trkpt>
      <trkpt lat="46.90485074499078" lon="9.214266747498112">
      <ele>2234.4</ele></trkpt>
      <trkpt lat="46.904884494644755" lon="9.214315491493164">
      <ele>2235.6</ele></trkpt>
      <trkpt lat="46.90490579478607" lon="9.21441565449813">
      <ele>2236.7</ele></trkpt>
      <trkpt lat="46.90494539964344" lon="9.21448425816009">
      <ele>2237.9</ele></trkpt>
      <trkpt lat="46.904987201891146" lon="9.214613048732097">
      <ele>2239.0</ele></trkpt>
      <trkpt lat="46.90501127640151" lon="9.214691537090873">
      <ele>2240.1</ele></trkpt>
      <trkpt lat="46.90503414410018" lon="9.214768935386179">
      <ele>2241.1</ele></trkpt>
      <trkpt lat="46.90505320284174" lon="9.21485348094263">
      <ele>2242.2</ele></trkpt>
      <trkpt lat="46.905049311764685" lon="9.214908254735114">
      <ele>2243.2</ele></trkpt>
      <trkpt lat="46.90501270310878" lon="9.214991590932875">
      <ele>2244.3</ele></trkpt>
      <trkpt lat="46.9049930888842" lon="9.214978221492233">
      <ele>2245.4</ele></trkpt>
      <trkpt lat="46.90499101652901" lon="9.214976669518173">
      <ele>2246.4</ele></trkpt>
      <trkpt lat="46.90497168345977" lon="9.214961996555642">
      <ele>2247.5</ele></trkpt>
      <trkpt lat="46.90495108319743" lon="9.214954187179275">
      <ele>2248.5</ele></trkpt>
      <trkpt lat="46.90491239409432" lon="9.214951254528689">
      <ele>2249.6</ele></trkpt>
      <trkpt lat="46.90484836961255" lon="9.214955742312425">
      <ele>2250.7</ele></trkpt>
      <trkpt lat="46.90486310823021" lon="9.21499687429648">
      <ele>2251.7</ele></trkpt>
      <trkpt lat="46.90488478516265" lon="9.215056483814351">
      <ele>2252.8</ele></trkpt>
      <trkpt lat="46.90487516180643" lon="9.215100867359247">
      <ele>2253.8</ele></trkpt>
      <trkpt lat="46.904910313925484" lon="9.215162418895629">
      <ele>2254.9</ele></trkpt>
      <trkpt lat="46.904886673985864" lon="9.215178284194444">
      <ele>2256.0</ele></trkpt>
      <trkpt lat="46.90486372206636" lon="9.215209532226334">
      <ele>2257.0</ele></trkpt>
      <trkpt lat="46.90484175937891" lon="9.215233854976951">
      <ele>2258.1</ele></trkpt>
      <trkpt lat="46.904866376149556" lon="9.215276797009398">
      <ele>2259.1</ele></trkpt>
      <trkpt lat="46.90482139632621" lon="9.215336566559305">
      <ele>2260.2</ele></trkpt>
      <trkpt lat="46.90484532166113" lon="9.215365504227877">
      <ele>2261.1</ele></trkpt>
      <trkpt lat="46.9048691956385" lon="9.215364127178503">
      <ele>2262.0</ele></trkpt>
      <trkpt lat="46.90487415769146" lon="9.215363844829666">
      <ele>2262.9</ele></trkpt>
      <trkpt lat="46.904878018853005" lon="9.215410144389184">
      <ele>2263.8</ele></trkpt>
      <trkpt lat="46.90489800913212" lon="9.215461309411957">
      <ele>2264.8</ele></trkpt>
      <trkpt lat="46.90486340548292" lon="9.215487905511049">
      <ele>2265.7</ele></trkpt>
      <trkpt lat="46.90482624667733" lon="9.215504636601457">
      <ele>2266.6</ele></trkpt>
      <trkpt lat="46.90484079856171" lon="9.215558365632646">
      <ele>2267.5</ele></trkpt>
      <trkpt lat="46.904851009689175" lon="9.215600752835437">
      <ele>2268.4</ele></trkpt>
      <trkpt lat="46.90479681705131" lon="9.215611196852393">
      <ele>2269.3</ele></trkpt>
      <trkpt lat="46.90477927119899" lon="9.21562688266165">
      <ele>2270.2</ele></trkpt>
      <trkpt lat="46.90477583155622" lon="9.215629945977192">
      <ele>2271.1</ele></trkpt>
      <trkpt lat="46.90476008186627" lon="9.215661497491014">
      <ele>2272.0</ele></trkpt>
      <trkpt lat="46.90471107264845" lon="9.215687538393208">
      <ele>2272.9</ele></trkpt>
      <trkpt lat="46.90473456940833" lon="9.215745816609468">
      <ele>2273.8</ele></trkpt>
      <trkpt lat="46.90476113726699" lon="9.21583636047565">
      <ele>2274.8</ele></trkpt>
      <trkpt lat="46.90477593592668" lon="9.215874763966198">
      <ele>2275.7</ele></trkpt>
      <trkpt lat="46.904756702562565" lon="9.215893085169462">
      <ele>2276.6</ele></trkpt>
      <trkpt lat="46.9047152619508" lon="9.215948573172065">
      <ele>2277.5</ele></trkpt>
      <trkpt lat="46.904705818924434" lon="9.215976683452322">
      <ele>2278.4</ele></trkpt>
      <trkpt lat="46.904716588467636" lon="9.216043363101017">
      <ele>2279.5</ele></trkpt>
      <trkpt lat="46.90468841498475" lon="9.216118246727982">
      <ele>2280.5</ele></trkpt>
      <trkpt lat="46.90466215350744" lon="9.216185303476628">
      <ele>2281.6</ele></trkpt>
      <trkpt lat="46.90463275289193" lon="9.216343838395087">
      <ele>2282.7</ele></trkpt>
      <trkpt lat="46.90461408691587" lon="9.21638587446927">
      <ele>2283.7</ele></trkpt>
      <trkpt lat="46.904606052632275" lon="9.216440878288365">
      <ele>2284.8</ele></trkpt>
      <trkpt lat="46.90457859383368" lon="9.216466830337462">
      <ele>2285.9</ele></trkpt>
      <trkpt lat="46.904575350264196" lon="9.21650303551536">
      <ele>2286.9</ele></trkpt>
      <trkpt lat="46.9045855606608" lon="9.21654602657077">
      <ele>2288.0</ele></trkpt>
      <trkpt lat="46.90459122564474" lon="9.216592018057067">
      <ele>2289.1</ele></trkpt>
      <trkpt lat="46.904551666496246" lon="9.216579642590341">
      <ele>2290.1</ele></trkpt>
      <trkpt lat="46.904558310805136" lon="9.216619351807221">
      <ele>2291.2</ele></trkpt>
      <trkpt lat="46.904520595955695" lon="9.216651016577767">
      <ele>2292.2</ele></trkpt>
      <trkpt lat="46.904490323271496" lon="9.216652483345285">
      <ele>2293.3</ele></trkpt>
      <trkpt lat="46.904462921897995" lon="9.216679369227862">
      <ele>2294.4</ele></trkpt>
      <trkpt lat="46.90443258014421" lon="9.216722935550068">
      <ele>2295.4</ele></trkpt>
      <trkpt lat="46.904408429378776" lon="9.216775147986759">
      <ele>2296.5</ele></trkpt>
      <trkpt lat="46.904372860698366" lon="9.216805925203985">
      <ele>2297.6</ele></trkpt>
      <trkpt lat="46.90433786867685" lon="9.21685808085894">
      <ele>2298.6</ele></trkpt>
      <trkpt lat="46.904320214517725" lon="9.216883044106275">
      <ele>2299.7</ele></trkpt>
      <trkpt lat="46.90428972821442" lon="9.21691274216748">
      <ele>2300.5</ele></trkpt>
      <trkpt lat="46.90425820968372" lon="9.216960233967338">
      <ele>2301.4</ele></trkpt>
      <trkpt lat="46.90422733848183" lon="9.21701412736667">
      <ele>2302.2</ele></trkpt>
      <trkpt lat="46.90420183819734" lon="9.217060531612264">
      <ele>2303.1</ele></trkpt>
      <trkpt lat="46.90416501137957" lon="9.217064564448727">
      <ele>2303.9</ele></trkpt>
      <trkpt lat="46.90414148609059" lon="9.21708171904023">
      <ele>2304.8</ele></trkpt>
      <trkpt lat="46.90411088484772" lon="9.217115916004904">
      <ele>2305.6</ele></trkpt>
      <trkpt lat="46.90408833970356" lon="9.217120946429525">
      <ele>2306.5</ele></trkpt>
      <trkpt lat="46.90406263606315" lon="9.217132948355054">
      <ele>2307.3</ele></trkpt>
      <trkpt lat="46.904027606095525" lon="9.217119199608359">
      <ele>2308.1</ele></trkpt>
      <trkpt lat="46.90398379085842" lon="9.217091205151682">
      <ele>2309.0</ele></trkpt>
      <trkpt lat="46.90395389633423" lon="9.217083967177713">
      <ele>2309.8</ele></trkpt>
      <trkpt lat="46.903938844711526" lon="9.217087355089488">
      <ele>2310.7</ele></trkpt>
      <trkpt lat="46.90395608184747" lon="9.217134989243043">
      <ele>2311.5</ele></trkpt>
      <trkpt lat="46.903937621886826" lon="9.217163745809337">
      <ele>2312.4</ele></trkpt>
      <trkpt lat="46.90391116283177" lon="9.217175722687035">
      <ele>2313.2</ele></trkpt>
      <trkpt lat="46.90389217376404" lon="9.217190467280039">
      <ele>2314.1</ele></trkpt>
      <trkpt lat="46.90387965615207" lon="9.217231130565096">
      <ele>2314.9</ele></trkpt>
      <trkpt lat="46.9038904252459" lon="9.21726825836158">
      <ele>2315.8</ele></trkpt>
      <trkpt lat="46.903886056117145" lon="9.217316083440032">
      <ele>2316.6</ele></trkpt>
      <trkpt lat="46.90391035603919" lon="9.217383420133737">
      <ele>2317.8</ele></trkpt>
      <trkpt lat="46.90389457983711" lon="9.217429384290071">
      <ele>2319.0</ele></trkpt>
      <trkpt lat="46.903893695878445" lon="9.217478742513968">
      <ele>2320.1</ele></trkpt>
      <trkpt lat="46.90390405981379" lon="9.217538463357604">
      <ele>2321.3</ele></trkpt>
      <trkpt lat="46.90391310598987" lon="9.217574129523623">
      <ele>2322.5</ele></trkpt>
      <trkpt lat="46.903901004464984" lon="9.217611747689025">
      <ele>2323.7</ele></trkpt>
      <trkpt lat="46.903912496036966" lon="9.21765738017205">
      <ele>2324.9</ele></trkpt>
      <trkpt lat="46.90388764436891" lon="9.217719926478974">
      <ele>2326.0</ele></trkpt>
      <trkpt lat="46.90385943872483" lon="9.217724441088965">
      <ele>2327.2</ele></trkpt>
      <trkpt lat="46.90383700076771" lon="9.217750361384823">
      <ele>2328.4</ele></trkpt>
      <trkpt lat="46.90379204417579" lon="9.217757025931014">
      <ele>2329.6</ele></trkpt>
      <trkpt lat="46.90375632726167" lon="9.21778805980636">
      <ele>2330.8</ele></trkpt>
      <trkpt lat="46.903721142766535" lon="9.217789468367583">
      <ele>2331.9</ele></trkpt>
      <trkpt lat="46.90367955249138" lon="9.217804738055994">
      <ele>2333.1</ele></trkpt>
      <trkpt lat="46.90368233353695" lon="9.217845789254707">
      <ele>2334.3</ele></trkpt>
      <trkpt lat="46.90368551626755" lon="9.217913674124055">
      <ele>2335.5</ele></trkpt>
      <trkpt lat="46.90366253276648" lon="9.217970636881152">
      <ele>2336.7</ele></trkpt>
      <trkpt lat="46.903624318303855" lon="9.21804252072418">
      <ele>2337.8</ele></trkpt>
      <trkpt lat="46.903598924421985" lon="9.218086682623445">
      <ele>2339.0</ele></trkpt>
      <trkpt lat="46.903590493758834" lon="9.218165394191988">
      <ele>2340.2</ele></trkpt>
      <trkpt lat="46.903537832368464" lon="9.218209861078826">
      <ele>2341.0</ele></trkpt>
      <trkpt lat="46.90346784359739" lon="9.218288923837784">
      <ele>2341.8</ele></trkpt>
      <trkpt lat="46.90342867870353" lon="9.218304444028599">
      <ele>2342.6</ele></trkpt>
      <trkpt lat="46.903398172239534" lon="9.218335413537783">
      <ele>2343.5</ele></trkpt>
      <trkpt lat="46.903367363673766" lon="9.21833835815988">
      <ele>2344.3</ele></trkpt>
      <trkpt lat="46.90333138056288" lon="9.21833731125818">
      <ele>2345.1</ele></trkpt>
      <trkpt lat="46.90328867370248" lon="9.218333534334977">
      <ele>2345.9</ele></trkpt>
      <trkpt lat="46.903247774675066" lon="9.218310703150744">
      <ele>2346.7</ele></trkpt>
      <trkpt lat="46.90320669755911" lon="9.218299326691573">
      <ele>2347.5</ele></trkpt>
      <trkpt lat="46.90316918343308" lon="9.218299528785609">
      <ele>2348.3</ele></trkpt>
      <trkpt lat="46.90315885940399" lon="9.218241897241121">
      <ele>2349.2</ele></trkpt>
      <trkpt lat="46.90313517931257" lon="9.218222117371113">
      <ele>2350.0</ele></trkpt>
      <trkpt lat="46.90310656003969" lon="9.218228928453096">
      <ele>2350.8</ele></trkpt>
      <trkpt lat="46.90307202998255" lon="9.218230489651614">
      <ele>2351.6</ele></trkpt>
      <trkpt lat="46.90305081618601" lon="9.21819675786752">
      <ele>2352.4</ele></trkpt>
      <trkpt lat="46.903029434897036" lon="9.21817322084716">
      <ele>2353.2</ele></trkpt>
      <trkpt lat="46.90300331029072" lon="9.218164833802787">
      <ele>2354.1</ele></trkpt>
      <trkpt lat="46.9029717159436" lon="9.218170286146176">
      <ele>2354.9</ele></trkpt>
      <trkpt lat="46.90296322235622" lon="9.218185325068752">
      <ele>2355.7</ele></trkpt>
      <trkpt lat="46.90295308843828" lon="9.218209223430968">
      <ele>2356.5</ele></trkpt>
      <trkpt lat="46.90293467816313" lon="9.21823418682441">
      <ele>2357.5</ele></trkpt>
      <trkpt lat="46.902922628482635" lon="9.218283502704303">
      <ele>2358.5</ele></trkpt>
      <trkpt lat="46.902908339123506" lon="9.218332770669118">
      <ele>2359.5</ele></trkpt>
      <trkpt lat="46.902921453223705" lon="9.218357359897748">
      <ele>2360.5</ele></trkpt>
      <trkpt lat="46.902943739195535" lon="9.218370739759632">
      <ele>2361.6</ele></trkpt>
      <trkpt lat="46.90296803615389" lon="9.218399453798712">
      <ele>2362.6</ele></trkpt>
      <trkpt lat="46.90297277535083" lon="9.218431445529447">
      <ele>2363.6</ele></trkpt>
      <trkpt lat="46.9029491023376" lon="9.218457508003892">
      <ele>2364.6</ele></trkpt>
      <trkpt lat="46.902928336031124" lon="9.218488747136211">
      <ele>2365.6</ele></trkpt>
      <trkpt lat="46.902936783949144" lon="9.218541459095988">
      <ele>2366.6</ele></trkpt>
      <trkpt lat="46.902900014095344" lon="9.218582329162379">
      <ele>2367.6</ele></trkpt>
      <trkpt lat="46.902915650130076" lon="9.218624685034847">
      <ele>2368.6</ele></trkpt>
      <trkpt lat="46.90288893343098" lon="9.218653219649964">
      <ele>2369.6</ele></trkpt>
      <trkpt lat="46.90288856819628" lon="9.21867612859479">
      <ele>2370.6</ele></trkpt>
      <trkpt lat="46.90290247741927" lon="9.218698184319807">
      <ele>2371.6</ele></trkpt>
      <trkpt lat="46.902869506290244" lon="9.218741831851117">
      <ele>2372.7</ele></trkpt>
      <trkpt lat="46.902877956486435" lon="9.218776453845772">
      <ele>2373.7</ele></trkpt>
      <trkpt lat="46.90287115866942" lon="9.218825930354022">
      <ele>2374.7</ele></trkpt>
      <trkpt lat="46.90286563572961" lon="9.218889469494908">
      <ele>2375.7</ele></trkpt>
      <trkpt lat="46.90286358127871" lon="9.21892379612934">
      <ele>2376.7</ele></trkpt>
      <trkpt lat="46.90283666656003" lon="9.21896505791167">
      <ele>2377.7</ele></trkpt>
      <trkpt lat="46.902811852509856" lon="9.21901530295188">
      <ele>2378.6</ele></trkpt>
      <trkpt lat="46.90279144955025" lon="9.219024906216935">
      <ele>2379.6</ele></trkpt>
      <trkpt lat="46.90278211226638" lon="9.219045010569001">
      <ele>2380.5</ele></trkpt>
      <trkpt lat="46.902756051892254" lon="9.21907993358591">
      <ele>2381.5</ele></trkpt>
      <trkpt lat="46.90272440871144" lon="9.21908794365222">
      <ele>2382.5</ele></trkpt>
      <trkpt lat="46.90269934169604" lon="9.219107592616698">
      <ele>2383.4</ele></trkpt>
      <trkpt lat="46.9026655294559" lon="9.219110437272086">
      <ele>2384.4</ele></trkpt>
      <trkpt lat="46.902632704131044" lon="9.219146435753688">
      <ele>2385.3</ele></trkpt>
      <trkpt lat="46.90260596750383" lon="9.219176242687757">
      <ele>2386.3</ele></trkpt>
      <trkpt lat="46.90256297472004" lon="9.219190269918421">
      <ele>2387.3</ele></trkpt>
      <trkpt lat="46.90251754410028" lon="9.219216989585577">
      <ele>2388.2</ele></trkpt>
      <trkpt lat="46.90246565631038" lon="9.219224420858719">
      <ele>2389.2</ele></trkpt>
      <trkpt lat="46.90241701914112" lon="9.219216652973227">
      <ele>2390.1</ele></trkpt>
      <trkpt lat="46.902355510342694" lon="9.219216151536422">
      <ele>2391.1</ele></trkpt>
      <trkpt lat="46.90232475054108" lon="9.219216537328364">
      <ele>2392.1</ele></trkpt>
      <trkpt lat="46.902286410802475" lon="9.219221804939174">
      <ele>2393.0</ele></trkpt>
      <trkpt lat="46.9022301651087" lon="9.219220178197665">
      <ele>2394.0</ele></trkpt>
      <trkpt lat="46.902190541314816" lon="9.219211396142667">
      <ele>2394.9</ele></trkpt>
      <trkpt lat="46.9021495920574" lon="9.219192383207778">
      <ele>2395.9</ele></trkpt>
      <trkpt lat="46.90210991765879" lon="9.219187432756293">
      <ele>2397.4</ele></trkpt>
      <trkpt lat="46.902107735340536" lon="9.21922939490046">
      <ele>2398.9</ele></trkpt>
      <trkpt lat="46.90211742064509" lon="9.219280624373988">
      <ele>2400.4</ele></trkpt>
      <trkpt lat="46.90214363085821" lon="9.219329775745186">
      <ele>2401.8</ele></trkpt>
      <trkpt lat="46.90217407388158" lon="9.219349753515889">
      <ele>2403.3</ele></trkpt>
      <trkpt lat="46.90220636177551" lon="9.219393999677758">
      <ele>2404.8</ele></trkpt>
      <trkpt lat="46.902197423032845" lon="9.219437063955423">
      <ele>2406.3</ele></trkpt>
      <trkpt lat="46.90216386656898" lon="9.219424623232642">
      <ele>2407.8</ele></trkpt>
      <trkpt lat="46.90215444981018" lon="9.219449831273131">
      <ele>2409.3</ele></trkpt>
      <trkpt lat="46.9021799909216" lon="9.219495140473297">
      <ele>2410.8</ele></trkpt>
      <trkpt lat="46.902209037291925" lon="9.219554572971363">
      <ele>2412.2</ele></trkpt>
      <trkpt lat="46.90224268832039" lon="9.219607778081459">
      <ele>2413.7</ele></trkpt>
      <trkpt lat="46.9022823582515" lon="9.219659856786393">
      <ele>2415.2</ele></trkpt>
      <trkpt lat="46.902292300594844" lon="9.219694554249587">
      <ele>2416.7</ele></trkpt>
      <trkpt lat="46.90231576239806" lon="9.219728347518904">
      <ele>2418.2</ele></trkpt>
      <trkpt lat="46.902342855641514" lon="9.219769888283395">
      <ele>2419.7</ele></trkpt>
      <trkpt lat="46.90233835444108" lon="9.219816880400009">
      <ele>2421.1</ele></trkpt>
      <trkpt lat="46.90235064461258" lon="9.219845249448799">
      <ele>2422.6</ele></trkpt>
      <trkpt lat="46.90234684998344" lon="9.219894824864749">
      <ele>2424.1</ele></trkpt>
      <trkpt lat="46.902351322504515" lon="9.219943348331586">
      <ele>2425.6</ele></trkpt>
      <trkpt lat="46.9023500231464" lon="9.2199776996295">
      <ele>2426.9</ele></trkpt>
      <trkpt lat="46.902375338596855" lon="9.220035761823915">
      <ele>2428.2</ele></trkpt>
      <trkpt lat="46.90239763955325" lon="9.220094997555005">
      <ele>2429.6</ele></trkpt>
      <trkpt lat="46.902386432498105" lon="9.220139260085277">
      <ele>2430.9</ele></trkpt>
      <trkpt lat="46.90241461773638" lon="9.22015918984029">
      <ele>2432.2</ele></trkpt>
      <trkpt lat="46.90243129465343" lon="9.220195331550165">
      <ele>2433.5</ele></trkpt>
      <trkpt lat="46.90242782621281" lon="9.220224517484882">
      <ele>2434.9</ele></trkpt>
      <trkpt lat="46.90242505536587" lon="9.220256286425066">
      <ele>2436.2</ele></trkpt>
      <trkpt lat="46.90242354862299" lon="9.220303377826333">
      <ele>2437.5</ele></trkpt>
      <trkpt lat="46.90240527514185" lon="9.220320678268578">
      <ele>2438.8</ele></trkpt>
      <trkpt lat="46.902421167795886" lon="9.22035806741065">
      <ele>2440.2</ele></trkpt>
      <trkpt lat="46.902444430889354" lon="9.220404614538282">
      <ele>2441.5</ele></trkpt>
      <trkpt lat="46.90247232115136" lon="9.220442335768926">
      <ele>2442.8</ele></trkpt>
      <trkpt lat="46.90251076400289" lon="9.220477846930745">
      <ele>2444.2</ele></trkpt>
      <trkpt lat="46.902522296775516" lon="9.22050746450467">
      <ele>2445.5</ele></trkpt>
      <trkpt lat="46.90254002596703" lon="9.22052455365504">
      <ele>2446.8</ele></trkpt>
      <trkpt lat="46.90256149180631" lon="9.220588868759839">
      <ele>2448.1</ele></trkpt>
      <trkpt lat="46.90254810678309" lon="9.220627952467094">
      <ele>2449.4</ele></trkpt>
      <trkpt lat="46.902543144991746" lon="9.220657115191639">
      <ele>2450.8</ele></trkpt>
      <trkpt lat="46.902576029276005" lon="9.220711569306603">
      <ele>2452.1</ele></trkpt>
      <trkpt lat="46.90253754198269" lon="9.220725731542608">
      <ele>2453.6</ele></trkpt>
      <trkpt lat="46.90251667598299" lon="9.22076333318956">
      <ele>2455.0</ele></trkpt>
      <trkpt lat="46.90251439360319" lon="9.220811685459998">
      <ele>2456.5</ele></trkpt>
      <trkpt lat="46.90254266718222" lon="9.220826511885726">
      <ele>2458.0</ele></trkpt>
      <trkpt lat="46.90258147083722" lon="9.220886229642538">
      <ele>2459.5</ele></trkpt>
      <trkpt lat="46.90260619835061" lon="9.220934059700495">
      <ele>2460.9</ele></trkpt>
      <trkpt lat="46.90257359043619" lon="9.220956057026834">
      <ele>2462.4</ele></trkpt>
      <trkpt lat="46.902553380684026" lon="9.221000047290827">
      <ele>2463.9</ele></trkpt>
      <trkpt lat="46.902531510139674" lon="9.221054195778049">
      <ele>2465.4</ele></trkpt>
      <trkpt lat="46.90250754088271" lon="9.221098087568341">
      <ele>2466.8</ele></trkpt>
      <trkpt lat="46.9025265452225" lon="9.221129200156128">
      <ele>2468.3</ele></trkpt>
      <trkpt lat="46.902548910146656" lon="9.221137490163091">
      <ele>2469.8</ele></trkpt>
      <trkpt lat="46.9025604821822" lon="9.221164575566718">
      <ele>2471.3</ele></trkpt>
      <trkpt lat="46.90252986501654" lon="9.221203179606869">
      <ele>2472.8</ele></trkpt>
      <trkpt lat="46.902491328825555" lon="9.221219899751809">
      <ele>2474.2</ele></trkpt>
      <trkpt lat="46.90248003285753" lon="9.221269265847916">
      <ele>2475.7</ele></trkpt>
      <trkpt lat="46.90246814942641" lon="9.22130839913035">
      <ele>2477.2</ele></trkpt>
      <trkpt lat="46.90250464128668" lon="9.221324732345892">
      <ele>2478.7</ele></trkpt>
      <trkpt lat="46.90253343419075" lon="9.2213535834836">
      <ele>2480.1</ele></trkpt>
      <trkpt lat="46.90257343804827" lon="9.221385326962704">
      <ele>2481.6</ele></trkpt>
      <trkpt lat="46.9025608478056" lon="9.22142189007919">
      <ele>2483.1</ele></trkpt>
      <trkpt lat="46.9025515188889" lon="9.221442007347669">
      <ele>2484.6</ele></trkpt>
      <trkpt lat="46.90255157315482" lon="9.221485317334936">
      <ele>2486.0</ele></trkpt>
      <trkpt lat="46.90255364880149" lon="9.221542688463195">
      <ele>2487.5</ele></trkpt>
      <trkpt lat="46.9025586884207" lon="9.221602704673707">
      <ele>2489.0</ele></trkpt>
      <trkpt lat="46.90257484328027" lon="9.221628432507638">
      <ele>2490.5</ele></trkpt>
      <trkpt lat="46.90259816223366" lon="9.22163034806531">
      <ele>2492.0</ele></trkpt>
      <trkpt lat="46.90261742823193" lon="9.221642342536164">
      <ele>2493.4</ele></trkpt>
      <trkpt lat="46.90262625034924" lon="9.221675559400156">
      <ele>2494.9</ele></trkpt>
      <trkpt lat="46.9026333574606" lon="9.221718945861317">
      <ele>2496.4</ele></trkpt>
      <trkpt lat="46.90263517403935" lon="9.221751930370674">
      <ele>2497.9</ele></trkpt>
      <trkpt lat="46.9026517572537" lon="9.221786546819423">
      <ele>2499.4</ele></trkpt>
      <trkpt lat="46.9026768574025" lon="9.221823716905497">
      <ele>2500.8</ele></trkpt>
      <trkpt lat="46.90267770617223" lon="9.22186915378764">
      <ele>2502.3</ele></trkpt>
      <trkpt lat="46.902693604259056" lon="9.221898076403416">
      <ele>2503.8</ele></trkpt>
      <trkpt lat="46.90272576303341" lon="9.22193206752899">
      <ele>2505.3</ele></trkpt>
      <trkpt lat="46.90273514628109" lon="9.221978929697151">
      <ele>2506.8</ele></trkpt>
      <trkpt lat="46.902768007492995" lon="9.222017499523002">
      <ele>2508.2</ele></trkpt>
      <trkpt lat="46.90279206903551" lon="9.222071662011722">
      <ele>2509.7</ele></trkpt>
      <trkpt lat="46.90280579248128" lon="9.22214025025908">
      <ele>2511.2</ele></trkpt>
      <trkpt lat="46.90282527043698" lon="9.222238540635091">
      <ele>2512.8</ele></trkpt>
      <trkpt lat="46.90283538278983" lon="9.22228884035342">
      <ele>2514.5</ele></trkpt>
      <trkpt lat="46.90284919039554" lon="9.222301782987378">
      <ele>2516.1</ele></trkpt>
      <trkpt lat="46.90287542646752" lon="9.222316280134244">
      <ele>2517.7</ele></trkpt>
      <trkpt lat="46.90288280730943" lon="9.222341507158736">
      <ele>2519.3</ele></trkpt>
      <trkpt lat="46.902865172137055" lon="9.222374988508452">
      <ele>2521.0</ele></trkpt>
      <trkpt lat="46.90285977977222" lon="9.222421360579597">
      <ele>2522.6</ele></trkpt>
      <trkpt lat="46.90286488443418" lon="9.22252740528686">
      <ele>2524.2</ele></trkpt>
      <trkpt lat="46.90286114835192" lon="9.222573149666928">
      <ele>2525.9</ele></trkpt>
      <trkpt lat="46.90289916168839" lon="9.222588260966688">
      <ele>2527.5</ele></trkpt>
      <trkpt lat="46.90291706381569" lon="9.222640998555697">
      <ele>2529.1</ele></trkpt>
      <trkpt lat="46.90290371735504" lon="9.22267756278365">
      <ele>2530.8</ele></trkpt>
      <trkpt lat="46.90287440519602" lon="9.222727656939407">
      <ele>2532.4</ele></trkpt>
      <trkpt lat="46.90290247995452" lon="9.22275522493964">
      <ele>2534.0</ele></trkpt>
      <trkpt lat="46.90293797794932" lon="9.222786820143948">
      <ele>2535.7</ele></trkpt>
      <trkpt lat="46.90291267389819" lon="9.222820480067428">
      <ele>2537.3</ele></trkpt>
      <trkpt lat="46.90288545121167" lon="9.222880830649066">
      <ele>2538.9</ele></trkpt>
      <trkpt lat="46.90292416544457" lon="9.222945640913183">
      <ele>2540.5</ele></trkpt>
      <trkpt lat="46.902945916871566" lon="9.222992126327124">
      <ele>2542.2</ele></trkpt>
      <trkpt lat="46.90291195460901" lon="9.22300516384738">
      <ele>2543.8</ele></trkpt>
      <trkpt lat="46.90287781564139" lon="9.223028382625085">
      <ele>2545.3</ele></trkpt>
      <trkpt lat="46.902928388534185" lon="9.223102434763161">
      <ele>2546.9</ele></trkpt>
      <trkpt lat="46.902940300501726" lon="9.223155013088759">
      <ele>2548.4</ele></trkpt>
      <trkpt lat="46.90290997739595" lon="9.223127383347636">
      <ele>2549.9</ele></trkpt>
      <trkpt lat="46.90288771677902" lon="9.223158584216153">
      <ele>2551.5</ele></trkpt>
      <trkpt lat="46.90285196569582" lon="9.223189402848032">
      <ele>2553.0</ele></trkpt>
      <trkpt lat="46.902866833002875" lon="9.223244599761308">
      <ele>2554.5</ele></trkpt>
      <trkpt lat="46.902896124733196" lon="9.223288749415287">
      <ele>2556.0</ele></trkpt>
      <trkpt lat="46.90288283573747" lon="9.22332276859752">
      <ele>2557.6</ele></trkpt>
      <trkpt lat="46.90284103721941" lon="9.223355959379502">
      <ele>2559.1</ele></trkpt>
      <trkpt lat="46.902820877084054" lon="9.223396130464563">
      <ele>2560.6</ele></trkpt>
      <trkpt lat="46.90284578928087" lon="9.223433780923965">
      <ele>2562.2</ele></trkpt>
      <trkpt lat="46.902875668390635" lon="9.22348815043722">
      <ele>2563.7</ele></trkpt>
      <trkpt lat="46.90288882607701" lon="9.22355603775277">
      <ele>2565.2</ele></trkpt>
      <trkpt lat="46.90284447843816" lon="9.22356112909499">
      <ele>2566.8</ele></trkpt>
      <trkpt lat="46.90280455729581" lon="9.223571434716488">
      <ele>2568.3</ele></trkpt>
      <trkpt lat="46.90276669657996" lon="9.223593282376527">
      <ele>2569.8</ele></trkpt>
      <trkpt lat="46.902735115524735" lon="9.223644600222341">
      <ele>2571.3</ele></trkpt>
      <trkpt lat="46.90269880777943" lon="9.223662639822903">
      <ele>2572.9</ele></trkpt>
      <trkpt lat="46.90271488675356" lon="9.223688589010585">
      <ele>2574.4</ele></trkpt>
      <trkpt lat="46.90273540120503" lon="9.22371975280566">
      <ele>2577.1</ele></trkpt>
      <trkpt lat="46.90275358088683" lon="9.22375465926136">
      <ele>2579.7</ele></trkpt>
      <trkpt lat="46.902787293798355" lon="9.223758194303027">
      <ele>2582.4</ele></trkpt>
      <trkpt lat="46.90282234302785" lon="9.223770661210166">
      <ele>2585.1</ele></trkpt>
      <trkpt lat="46.90282858275143" lon="9.223802690082053">
      <ele>2587.8</ele></trkpt>
      <trkpt lat="46.90279104896951" lon="9.223804147941259">
      <ele>2590.4</ele></trkpt>
      <trkpt lat="46.90274311265937" lon="9.223846074445945">
      <ele>2593.1</ele></trkpt>
      <trkpt lat="46.90269768095349" lon="9.223872790265595">
      <ele>2595.8</ele></trkpt>
      <trkpt lat="46.9026654039134" lon="9.223920264607766">
      <ele>2598.4</ele></trkpt>
      <trkpt lat="46.902633487119544" lon="9.223991945211036">
      <ele>2601.1</ele></trkpt>
      <trkpt lat="46.902602484498416" lon="9.22405346900327">
      <ele>2603.8</ele></trkpt>
      <trkpt lat="46.90255363415167" lon="9.224111879406333">
      <ele>2606.4</ele></trkpt>
      <trkpt lat="46.90252171415468" lon="9.224155492676086">
      <ele>2609.1</ele></trkpt>
      <trkpt lat="46.90247427074974" lon="9.22425117968647">
      <ele>2611.8</ele></trkpt>
      <trkpt lat="46.902390213182585" lon="9.224295135082592">
      <ele>2614.5</ele></trkpt>
      <trkpt lat="46.902297875915934" lon="9.224384775101377">
      <ele>2617.1</ele></trkpt>
      <trkpt lat="46.90223144107095" lon="9.224469906129777">
      <ele>2619.8</ele></trkpt>
      <trkpt lat="46.902162002748454" lon="9.22455376881125">
      <ele>2622.5</ele></trkpt>
      <trkpt lat="46.90215084162013" lon="9.224588632450134">
      <ele>2625.1</ele></trkpt>
      <trkpt lat="46.902149545414915" lon="9.22462096201135">
      <ele>2627.8</ele></trkpt>
      </trkseg>
  </trk>
</gpx>