<?xml version='1.0' encoding='utf-8'?>
<gpx xmlns="http://www.topografix.com/GPX/1/1" xmlns:xsi="http://www.w3.org/2001/XMLSchema-instance" xsi:schemaLocation="http://www.topografix.com/GPX/1/1 http://www.topografix.com/GPX/1/1/gpx.xsd" version="1.1" creator="gpx.py -- https://github.com/tkrajina/gpxpy">
  <trk>
    <name>cabane-de-bertol-cas</name>
    <trkseg>
      <trkpt lat="46.02157331860854" lon="7.481669320058164">
      <ele>1968.6</ele></trkpt>
    <trkpt lat="46.021454454859224" lon="7.481735856231489">
      <ele>1969.1</ele></trkpt>
      <trkpt lat="46.02125841971039" lon="7.481801788882659">
      <ele>1969.6</ele></trkpt>
      <trkpt lat="46.02108613730704" lon="7.48185493049235">
      <ele>1970.2</ele></trkpt>
      <trkpt lat="46.020955447994595" lon="7.481888929441865">
      <ele>1970.7</ele></trkpt>
      <trkpt lat="46.02085000877159" lon="7.481899524777369">
      <ele>1971.2</ele></trkpt>
      <trkpt lat="46.02076982456448" lon="7.481897330783956">
      <ele>1971.7</ele></trkpt>
      <trkpt lat="46.020639157347645" lon="7.481873765360961">
      <ele>1972.3</ele></trkpt>
      <trkpt lat="46.02051592032589" lon="7.481850218833058">
      <ele>1972.8</ele></trkpt>
      <trkpt lat="46.02041789660306" lon="7.481852271952653">
      <ele>1973.3</ele></trkpt>
      <trkpt lat="46.020331772163026" lon="7.481882044616177">
      <ele>1973.7</ele></trkpt>
      <trkpt lat="46.020217407868735" lon="7.481920329965735">
      <ele>1974.1</ele></trkpt>
      <trkpt lat="46.02014314750852" lon="7.481975691312294">
      <ele>1974.5</ele></trkpt>
      <trkpt lat="46.02006144135356" lon="7.482048103883604">
      <ele>1974.8</ele></trkpt>
      <trkpt lat="46.01999012561388" lon="7.482141829932536">
      <ele>1975.2</ele></trkpt>
      <trkpt lat="46.01993960970909" lon="7.482205744735601">
      <ele>1975.6</ele></trkpt>
      <trkpt lat="46.019863867449246" lon="7.482254699703954">
      <ele>1976.0</ele></trkpt>
      <trkpt lat="46.019765838772585" lon="7.482269548190737">
      <ele>1976.4</ele></trkpt>
      <trkpt lat="46.019623282860394" lon="7.4822843481818575">
      <ele>1976.8</ele></trkpt>
      <trkpt lat="46.01945547106592" lon="7.482314067418985">
      <ele>1977.2</ele></trkpt>
      <trkpt lat="46.019332879701885" lon="7.48234240226078">
      <ele>1977.5</ele></trkpt>
      <trkpt lat="46.019195485819495" lon="7.482383805196079">
      <ele>1977.9</ele></trkpt>
      <trkpt lat="46.01911232620753" lon="7.4824226559908595">
      <ele>1978.3</ele></trkpt>
      <trkpt lat="46.018998428194806" lon="7.482487435462793">
      <ele>1978.7</ele></trkpt>
      <trkpt lat="46.01888090287473" lon="7.482580734631465">
      <ele>1979.1</ele></trkpt>
      <trkpt lat="46.01878688359687" lon="7.482648124825458">
      <ele>1979.5</ele></trkpt>
      <trkpt lat="46.01869284599968" lon="7.482762217759687">
      <ele>1979.8</ele></trkpt>
      <trkpt lat="46.01860243853397" lon="7.482863323708486">
      <ele>1980.2</ele></trkpt>
      <trkpt lat="46.0185047917179" lon="7.482959245731108">
      <ele>1980.6</ele></trkpt>
      <trkpt lat="46.018394504453745" lon="7.483036977040227">
      <ele>1981.0</ele></trkpt>
      <trkpt lat="46.01823360696084" lon="7.483119870408609">
      <ele>1981.6</ele></trkpt>
      <trkpt lat="46.018101623700545" lon="7.483195013859035">
      <ele>1982.2</ele></trkpt>
      <trkpt lat="46.01799313921332" lon="7.483285722063722">
      <ele>1982.7</ele></trkpt>
      <trkpt lat="46.01787923660018" lon="7.483360879566366">
      <ele>1983.3</ele></trkpt>
      <trkpt lat="46.01774906023873" lon="7.483438592887637">
      <ele>1983.9</ele></trkpt>
      <trkpt lat="46.01759538783174" lon="7.483516312385894">
      <ele>1984.5</ele></trkpt>
      <trkpt lat="46.0174670377507" lon="7.4835706819208605">
      <ele>1985.0</ele></trkpt>
      <trkpt lat="46.0173996416024" lon="7.4835771857407725">
      <ele>1985.6</ele></trkpt>
      <trkpt lat="46.01735406349495" lon="7.4835731843855156">
      <ele>1986.2</ele></trkpt>
      <trkpt lat="46.01730346158274" lon="7.483557584158721">
      <ele>1986.8</ele></trkpt>
      <trkpt lat="46.01725829703182" lon="7.4835315944738925">
      <ele>1987.3</ele></trkpt>
      <trkpt lat="46.01723356742012" lon="7.48351215493061">
      <ele>1987.9</ele></trkpt>
      <trkpt lat="46.017142652340354" lon="7.483440704403143">
      <ele>1988.5</ele></trkpt>
      <trkpt lat="46.01698543523189" lon="7.483316042529109">
      <ele>1989.0</ele></trkpt>
      <trkpt lat="46.01687340833569" lon="7.483243297182844">
      <ele>1989.6</ele></trkpt>
      <trkpt lat="46.0167703986442" lon="7.483183548569607">
      <ele>1990.2</ele></trkpt>
      <trkpt lat="46.0167053341321" lon="7.483162746629682">
      <ele>1990.8</ele></trkpt>
      <trkpt lat="46.01662400878993" lon="7.483157477063983">
      <ele>1991.3</ele></trkpt>
      <trkpt lat="46.01651012806596" lon="7.483154802069066">
      <ele>1991.9</ele></trkpt>
      <trkpt lat="46.01633773054363" lon="7.483156469384525">
      <ele>1992.5</ele></trkpt>
      <trkpt lat="46.016124081737" lon="7.483154036003195">
      <ele>1993.0</ele></trkpt>
      <trkpt lat="46.01604395073253" lon="7.48315397079385">
      <ele>1993.5</ele></trkpt>
      <trkpt lat="46.015954397981076" lon="7.483162923008255">
      <ele>1994.0</ele></trkpt>
      <trkpt lat="46.015847563294976" lon="7.483176354293556">
      <ele>1994.5</ele></trkpt>
      <trkpt lat="46.015699888605496" lon="7.483192024666356">
      <ele>1995.0</ele></trkpt>
      <trkpt lat="46.01550821832751" lon="7.483205386715493">
      <ele>1995.4</ele></trkpt>
      <trkpt lat="46.0152772732501" lon="7.483220989047709">
      <ele>1995.9</ele></trkpt>
      <trkpt lat="46.015148451132966" lon="7.483241180530175">
      <ele>1996.4</ele></trkpt>
      <trkpt lat="46.0150557419623" lon="7.483270413407447">
      <ele>1996.9</ele></trkpt>
      <trkpt lat="46.01496302299184" lon="7.483347017362361">
      <ele>1997.4</ele></trkpt>
      <trkpt lat="46.014886005461854" lon="7.4834348795497965">
      <ele>1997.9</ele></trkpt>
      <trkpt lat="46.01479168972416" lon="7.483590394672563">
      <ele>1998.4</ele></trkpt>
      <trkpt lat="46.01470208107375" lon="7.483739147705265">
      <ele>1998.9</ele></trkpt>
      <trkpt lat="46.01465020270467" lon="7.4838112522947835">
      <ele>1999.4</ele></trkpt>
      <trkpt lat="46.01458891329057" lon="7.483887867852136">
      <ele>1999.8</ele></trkpt>
      <trkpt lat="46.01452290222218" lon="7.483939677114004">
      <ele>2000.3</ele></trkpt>
      <trkpt lat="46.014400339719096" lon="7.48400721668752">
      <ele>2000.8</ele></trkpt>
      <trkpt lat="46.01431706288644" lon="7.4840454934265965">
      <ele>2001.3</ele></trkpt>
      <trkpt lat="46.01421021446934" lon="7.484092762359083">
      <ele>2001.8</ele></trkpt>
      <trkpt lat="46.01409707370471" lon="7.484151284259492">
      <ele>2002.3</ele></trkpt>
      <trkpt lat="46.01399494874248" lon="7.484196297309641">
      <ele>2003.1</ele></trkpt>
      <trkpt lat="46.013878664879684" lon="7.484263840893214">
      <ele>2004.0</ele></trkpt>
      <trkpt lat="46.01375765290181" lon="7.484344923788667">
      <ele>2004.8</ele></trkpt>
      <trkpt lat="46.01363194436348" lon="7.484428235977289">
      <ele>2005.7</ele></trkpt>
      <trkpt lat="46.0135775243393" lon="7.484467232899403">
      <ele>2006.5</ele></trkpt>
      <trkpt lat="46.01353696314372" lon="7.484491665001569">
      <ele>2007.4</ele></trkpt>
      <trkpt lat="46.01349652040784" lon="7.484512353019832">
      <ele>2008.2</ele></trkpt>
      <trkpt lat="46.013466200027764" lon="7.48452681356167">
      <ele>2009.1</ele></trkpt>
      <trkpt lat="46.01342488970371" lon="7.48453530006012">
      <ele>2009.9</ele></trkpt>
      <trkpt lat="46.01337268809721" lon="7.484538522701617">
      <ele>2010.8</ele></trkpt>
      <trkpt lat="46.01320614625433" lon="7.484563171669135">
      <ele>2011.6</ele></trkpt>
      <trkpt lat="46.012858937022656" lon="7.484619248312025">
      <ele>2012.4</ele></trkpt>
      <trkpt lat="46.01257925689409" lon="7.484695689500861">
      <ele>2013.3</ele></trkpt>
      <trkpt lat="46.01239386575767" lon="7.484751901061884">
      <ele>2014.1</ele></trkpt>
      <trkpt lat="46.01223831416925" lon="7.484803618731074">
      <ele>2015.0</ele></trkpt>
      <trkpt lat="46.012140887340585" lon="7.484841867884291">
      <ele>2015.8</ele></trkpt>
      <trkpt lat="46.01205917982055" lon="7.484891401065899">
      <ele>2016.7</ele></trkpt>
      <trkpt lat="46.011955467418275" lon="7.48496797585825">
      <ele>2017.5</ele></trkpt>
      <trkpt lat="46.01184389113578" lon="7.485049049440767">
      <ele>2018.4</ele></trkpt>
      <trkpt lat="46.01162230419694" lon="7.485231505020983">
      <ele>2019.2</ele></trkpt>
      <trkpt lat="46.01140856470304" lon="7.485404928581801">
      <ele>2020.4</ele></trkpt>
      <trkpt lat="46.011301711628995" lon="7.485483758109528">
      <ele>2021.6</ele></trkpt>
      <trkpt lat="46.011135149505975" lon="7.4855783254054336">
      <ele>2022.8</ele></trkpt>
      <trkpt lat="46.01086486112081" lon="7.485738167446605">
      <ele>2024.0</ele></trkpt>
      <trkpt lat="46.010625587148546" lon="7.48588011537846">
      <ele>2025.2</ele></trkpt>
      <trkpt lat="46.01047195962662" lon="7.48595435802343">
      <ele>2026.5</ele></trkpt>
      <trkpt lat="46.01031515756131" lon="7.486005126937668">
      <ele>2027.7</ele></trkpt>
      <trkpt lat="46.01017466336097" lon="7.48603633803237">
      <ele>2028.9</ele></trkpt>
      <trkpt lat="46.01007281684805" lon="7.486059281313863">
      <ele>2030.1</ele></trkpt>
      <trkpt lat="46.01001055319837" lon="7.486053417831084">
      <ele>2031.3</ele></trkpt>
      <trkpt lat="46.00981438615635" lon="7.485957120083532">
      <ele>2032.5</ele></trkpt>
      <trkpt lat="46.00977318731004" lon="7.485935563524389">
      <ele>2033.7</ele></trkpt>
      <trkpt lat="46.00962052665105" lon="7.485849386814002">
      <ele>2034.9</ele></trkpt>
      <trkpt lat="46.00942450257694" lon="7.48575498836178">
      <ele>2036.1</ele></trkpt>
      <trkpt lat="46.009332553531706" lon="7.485707491223768">
      <ele>2037.4</ele></trkpt>
      <trkpt lat="46.00918015638355" lon="7.485614577137347">
      <ele>2038.6</ele></trkpt>
      <trkpt lat="46.00910346078989" lon="7.485573509709793">
      <ele>2039.8</ele></trkpt>
      <trkpt lat="46.00901855292068" lon="7.48555276828568">
      <ele>2041.0</ele></trkpt>
      <trkpt lat="46.00893483011444" lon="7.485559215928729">
      <ele>2042.2</ele></trkpt>
      <trkpt lat="46.008655683542194" lon="7.4855845248401165">
      <ele>2043.4</ele></trkpt>
      <trkpt lat="46.00841519056418" lon="7.485608898455317">
      <ele>2044.0</ele></trkpt>
      <trkpt lat="46.00828438606307" lon="7.485614905316577">
      <ele>2044.5</ele></trkpt>
      <trkpt lat="46.00814353549009" lon="7.485595071435117">
      <ele>2045.1</ele></trkpt>
      <trkpt lat="46.00799034396523" lon="7.4855518995068735">
      <ele>2045.7</ele></trkpt>
      <trkpt lat="46.00788848223947" lon="7.485503659620966">
      <ele>2046.2</ele></trkpt>
      <trkpt lat="46.007818956114285" lon="7.485462186350206">
      <ele>2046.8</ele></trkpt>
      <trkpt lat="46.00780041973113" lon="7.485454682971518">
      <ele>2047.4</ele></trkpt>
      <trkpt lat="46.00777145044586" lon="7.485442962174621">
      <ele>2047.9</ele></trkpt>
      <trkpt lat="46.007749794780096" lon="7.485430356890045">
      <ele>2048.5</ele></trkpt>
      <trkpt lat="46.007727976863606" lon="7.485418551865196">
      <ele>2049.1</ele></trkpt>
      <trkpt lat="46.00759491957656" lon="7.485369085233357">
      <ele>2049.6</ele></trkpt>
      <trkpt lat="46.0074233654785" lon="7.485332921425194">
      <ele>2050.2</ele></trkpt>
      <trkpt lat="46.00732243857636" lon="7.485329582119643">
      <ele>2050.7</ele></trkpt>
      <trkpt lat="46.007248177375516" lon="7.485339833337171">
      <ele>2051.3</ele></trkpt>
      <trkpt lat="46.007173825063674" lon="7.485374560595436">
      <ele>2051.9</ele></trkpt>
      <trkpt lat="46.00709338836499" lon="7.485417699448299">
      <ele>2052.4</ele></trkpt>
      <trkpt lat="46.00698054634269" lon="7.485470247150581">
      <ele>2053.0</ele></trkpt>
      <trkpt lat="46.006829019838186" lon="7.485511465867436">
      <ele>2053.6</ele></trkpt>
      <trkpt lat="46.00667752599514" lon="7.48553902640517">
      <ele>2054.1</ele></trkpt>
      <trkpt lat="46.006604851846284" lon="7.485561568161277">
      <ele>2054.7</ele></trkpt>
      <trkpt lat="46.006564144661844" lon="7.485590462802524">
      <ele>2055.1</ele></trkpt>
      <trkpt lat="46.006517452340205" lon="7.485648578701598">
      <ele>2055.5</ele></trkpt>
      <trkpt lat="46.006385777216046" lon="7.4858650815028005">
      <ele>2055.9</ele></trkpt>
      <trkpt lat="46.00622377148749" lon="7.4860975642899446">
      <ele>2056.3</ele></trkpt>
      <trkpt lat="46.00620266802454" lon="7.486140907754672">
      <ele>2056.8</ele></trkpt>
      <trkpt lat="46.00615373667161" lon="7.486260287534048">
      <ele>2057.2</ele></trkpt>
      <trkpt lat="46.006106164143745" lon="7.486356909528159">
      <ele>2057.6</ele></trkpt>
      <trkpt lat="46.00602445163751" lon="7.486480352423186">
      <ele>2058.0</ele></trkpt>
      <trkpt lat="46.00591897606705" lon="7.486639248224808">
      <ele>2058.4</ele></trkpt>
      <trkpt lat="46.00590696755643" lon="7.486659569460708">
      <ele>2058.8</ele></trkpt>
      <trkpt lat="46.00588525499532" lon="7.4866963412132606">
      <ele>2059.2</ele></trkpt>
      <trkpt lat="46.00587560496252" lon="7.48671268850807">
      <ele>2059.6</ele></trkpt>
      <trkpt lat="46.0058414580808" lon="7.48677677773426">
      <ele>2060.0</ele></trkpt>
      <trkpt lat="46.0056666152946" lon="7.487027329676945">
      <ele>2060.4</ele></trkpt>
      <trkpt lat="46.005559456965045" lon="7.487185886259009">
      <ele>2060.8</ele></trkpt>
      <trkpt lat="46.00552191793119" lon="7.487230569623577">
      <ele>2061.3</ele></trkpt>
      <trkpt lat="46.00546047482893" lon="7.487324543888803">
      <ele>2061.7</ele></trkpt>
      <trkpt lat="46.00542896783512" lon="7.487378036352728">
      <ele>2062.1</ele></trkpt>
      <trkpt lat="46.00539547214811" lon="7.487433114781234">
      <ele>2062.5</ele></trkpt>
      <trkpt lat="46.00536479523519" lon="7.487501453133452">
      <ele>2062.9</ele></trkpt>
      <trkpt lat="46.00532552592554" lon="7.4876152360461266">
      <ele>2063.9</ele></trkpt>
      <trkpt lat="46.00524603529083" lon="7.487817989609785">
      <ele>2065.0</ele></trkpt>
      <trkpt lat="46.00520691372279" lon="7.48790175899837">
      <ele>2066.0</ele></trkpt>
      <trkpt lat="46.0051764139673" lon="7.48795518724566">
      <ele>2067.0</ele></trkpt>
      <trkpt lat="46.00514574358547" lon="7.488007905290999">
      <ele>2068.1</ele></trkpt>
      <trkpt lat="46.005114765758876" lon="7.488043712374166">
      <ele>2069.1</ele></trkpt>
      <trkpt lat="46.00509914182561" lon="7.4880618094115965">
      <ele>2070.1</ele></trkpt>
      <trkpt lat="46.005053658104515" lon="7.4880892254709135">
      <ele>2071.1</ele></trkpt>
      <trkpt lat="46.004945917268" lon="7.488116701364692">
      <ele>2072.2</ele></trkpt>
      <trkpt lat="46.00491727792626" lon="7.488132682412372">
      <ele>2073.2</ele></trkpt>
      <trkpt lat="46.004876850616654" lon="7.488157779310963">
      <ele>2074.2</ele></trkpt>
      <trkpt lat="46.00475048624632" lon="7.488233103903653">
      <ele>2075.3</ele></trkpt>
      <trkpt lat="46.00459886372227" lon="7.488326684012815">
      <ele>2076.3</ele></trkpt>
      <trkpt lat="46.004437038206525" lon="7.4884658091736185">
      <ele>2077.3</ele></trkpt>
      <trkpt lat="46.004317365113856" lon="7.4885638965664105">
      <ele>2078.3</ele></trkpt>
      <trkpt lat="46.004221282918394" lon="7.488650555113793">
      <ele>2079.4</ele></trkpt>
      <trkpt lat="46.004126871772044" lon="7.4887417716373745">
      <ele>2080.4</ele></trkpt>
      <trkpt lat="46.00406620760557" lon="7.488780571053586">
      <ele>2081.4</ele></trkpt>
      <trkpt lat="46.0039567052733" lon="7.488844484456434">
      <ele>2082.5</ele></trkpt>
      <trkpt lat="46.00385900690018" lon="7.488903812994678">
      <ele>2083.5</ele></trkpt>
      <trkpt lat="46.00377303238008" lon="7.4889767964498315">
      <ele>2083.8</ele></trkpt>
      <trkpt lat="46.0036668590763" lon="7.4890589261241125">
      <ele>2084.1</ele></trkpt>
      <trkpt lat="46.003565744192386" lon="7.4891342057303625">
      <ele>2084.4</ele></trkpt>
      <trkpt lat="46.00348310967665" lon="7.489220848701278">
      <ele>2084.7</ele></trkpt>
      <trkpt lat="46.003418961430846" lon="7.489325670753045">
      <ele>2085.1</ele></trkpt>
      <trkpt lat="46.00335485831104" lon="7.489409993967726">
      <ele>2085.4</ele></trkpt>
      <trkpt lat="46.00323691281239" lon="7.489485308489433">
      <ele>2085.7</ele></trkpt>
      <trkpt lat="46.0031728478812" lon="7.489544588944503">
      <ele>2086.0</ele></trkpt>
      <trkpt lat="46.003130648655706" lon="7.489608394661565">
      <ele>2086.3</ele></trkpt>
      <trkpt lat="46.00305639822024" lon="7.489713244879351">
      <ele>2086.6</ele></trkpt>
      <trkpt lat="46.002958531373096" lon="7.489845425549869">
      <ele>2086.9</ele></trkpt>
      <trkpt lat="46.00293147018429" lon="7.489911491024429">
      <ele>2087.2</ele></trkpt>
      <trkpt lat="46.002926238357624" lon="7.490002554588874">
      <ele>2087.5</ele></trkpt>
      <trkpt lat="46.002932769303634" lon="7.490100444811627">
      <ele>2087.8</ele></trkpt>
      <trkpt lat="46.002935015765466" lon="7.490125347151487">
      <ele>2088.1</ele></trkpt>
      <trkpt lat="46.00296916144274" lon="7.490245052764785">
      <ele>2088.5</ele></trkpt>
      <trkpt lat="46.0029999586122" lon="7.490369324927061">
      <ele>2088.8</ele></trkpt>
      <trkpt lat="46.00301635759555" lon="7.49046630817813">
      <ele>2089.1</ele></trkpt>
      <trkpt lat="46.003023787304016" lon="7.490584517262827">
      <ele>2089.4</ele></trkpt>
      <trkpt lat="46.00302354684155" lon="7.490657255762702">
      <ele>2089.7</ele></trkpt>
      <trkpt lat="46.00301894719292" lon="7.490702701796279">
      <ele>2090.8</ele></trkpt>
      <trkpt lat="46.00282781910083" lon="7.490826078515166">
      <ele>2092.0</ele></trkpt>
      <trkpt lat="46.00274047406038" lon="7.4909033418271775">
      <ele>2093.1</ele></trkpt>
      <trkpt lat="46.002661156018775" lon="7.490993146526384">
      <ele>2094.2</ele></trkpt>
      <trkpt lat="46.0025715176491" lon="7.491127048647921">
      <ele>2095.3</ele></trkpt>
      <trkpt lat="46.00252093014711" lon="7.491237288316851">
      <ele>2096.5</ele></trkpt>
      <trkpt lat="46.00251058317559" lon="7.491319155465266">
      <ele>2097.6</ele></trkpt>
      <trkpt lat="46.00252320359711" lon="7.491396255764225">
      <ele>2098.7</ele></trkpt>
      <trkpt lat="46.00255422189187" lon="7.49148749551198">
      <ele>2099.9</ele></trkpt>
      <trkpt lat="46.00256675402146" lon="7.491560813701842">
      <ele>2101.0</ele></trkpt>
      <trkpt lat="46.0025487233065" lon="7.491626641344065">
      <ele>2102.1</ele></trkpt>
      <trkpt lat="46.00252365983489" lon="7.491650703891843">
      <ele>2103.3</ele></trkpt>
      <trkpt lat="46.002491317422006" lon="7.491659204913952">
      <ele>2104.4</ele></trkpt>
      <trkpt lat="46.00242549500329" lon="7.4916277353833385">
      <ele>2105.5</ele></trkpt>
      <trkpt lat="46.00233472893898" lon="7.491575924250232">
      <ele>2106.7</ele></trkpt>
      <trkpt lat="46.00226348937477" lon="7.491491022623925">
      <ele>2107.8</ele></trkpt>
      <trkpt lat="46.00220258337296" lon="7.491429740259379">
      <ele>2108.9</ele></trkpt>
      <trkpt lat="46.00215777054936" lon="7.491425075896327">
      <ele>2110.0</ele></trkpt>
      <trkpt lat="46.002087660021395" lon="7.491464507230641">
      <ele>2111.2</ele></trkpt>
      <trkpt lat="46.002016404227426" lon="7.491529146962045">
      <ele>2112.3</ele></trkpt>
      <trkpt lat="46.0019646831951" lon="7.491562270865564">
      <ele>2113.2</ele></trkpt>
      <trkpt lat="46.00185207274092" lon="7.491537223487594">
      <ele>2114.1</ele></trkpt>
      <trkpt lat="46.001790017482705" lon="7.491567213529145">
      <ele>2115.0</ele></trkpt>
      <trkpt lat="46.001761267928494" lon="7.4916443760589795">
      <ele>2115.9</ele></trkpt>
      <trkpt lat="46.00177504805358" lon="7.491779717790057">
      <ele>2116.8</ele></trkpt>
      <trkpt lat="46.0017807764054" lon="7.491916626536427">
      <ele>2117.7</ele></trkpt>
      <trkpt lat="46.00167740249298" lon="7.492368901886069">
      <ele>2118.6</ele></trkpt>
      <trkpt lat="46.001535728811" lon="7.492587140827355">
      <ele>2119.5</ele></trkpt>
      <trkpt lat="46.001427459358695" lon="7.492701799151411">
      <ele>2120.4</ele></trkpt>
      <trkpt lat="46.001311616734895" lon="7.492701929946332">
      <ele>2121.3</ele></trkpt>
      <trkpt lat="46.001212871341004" lon="7.492670814568139">
      <ele>2122.2</ele></trkpt>
      <trkpt lat="46.00113692275727" lon="7.492634455362367">
      <ele>2123.1</ele></trkpt>
      <trkpt lat="46.001068560813785" lon="7.4926657670568755">
      <ele>2124.0</ele></trkpt>
      <trkpt lat="46.00103815464685" lon="7.492725681382942">
      <ele>2124.9</ele></trkpt>
      <trkpt lat="46.001011544978326" lon="7.492822012604439">
      <ele>2125.8</ele></trkpt>
      <trkpt lat="46.00087858441747" lon="7.49295231502504">
      <ele>2126.7</ele></trkpt>
      <trkpt lat="46.00069433721913" lon="7.493090491192088">
      <ele>2127.6</ele></trkpt>
      <trkpt lat="46.000578476243135" lon="7.493184344714024">
      <ele>2128.5</ele></trkpt>
      <trkpt lat="46.00041893107513" lon="7.493283420586583">
      <ele>2129.4</ele></trkpt>
      <trkpt lat="46.000374503144066" lon="7.493412505415694">
      <ele>2130.3</ele></trkpt>
      <trkpt lat="46.00031721475191" lon="7.4934798652119">
      <ele>2131.6</ele></trkpt>
      <trkpt lat="46.000254904024374" lon="7.4935162025560125">
      <ele>2132.9</ele></trkpt>
      <trkpt lat="46.00025100599647" lon="7.493559323364163">
      <ele>2134.2</ele></trkpt>
      <trkpt lat="46.00026486711606" lon="7.493616208738128">
      <ele>2135.6</ele></trkpt>
      <trkpt lat="46.00021135891939" lon="7.49369735743186">
      <ele>2136.9</ele></trkpt>
      <trkpt lat="46.00017449720431" lon="7.493712964485193">
      <ele>2138.2</ele></trkpt>
      <trkpt lat="46.00016293389401" lon="7.493776794364255">
      <ele>2139.5</ele></trkpt>
      <trkpt lat="46.0001298533248" lon="7.493804448044533">
      <ele>2140.8</ele></trkpt>
      <trkpt lat="46.00010698366456" lon="7.493811382235015">
      <ele>2142.1</ele></trkpt>
      <trkpt lat="46.000076380436916" lon="7.493868351720901">
      <ele>2143.4</ele></trkpt>
      <trkpt lat="45.99994296610971" lon="7.493894445416759">
      <ele>2144.8</ele></trkpt>
      <trkpt lat="45.99990103521235" lon="7.493901411926026">
      <ele>2146.1</ele></trkpt>
      <trkpt lat="45.99985782442478" lon="7.493913566001006">
      <ele>2147.4</ele></trkpt>
      <trkpt lat="45.99981333629242" lon="7.4939257187662065">
      <ele>2148.7</ele></trkpt>
      <trkpt lat="45.999857681751365" lon="7.493984286787606">
      <ele>2150.0</ele></trkpt>
      <trkpt lat="45.999713982962824" lon="7.494070764354011">
      <ele>2151.3</ele></trkpt>
      <trkpt lat="45.9996300865175" lon="7.494100224818228">
      <ele>2152.7</ele></trkpt>
      <trkpt lat="45.999631307841895" lon="7.494122646524987">
      <ele>2154.0</ele></trkpt>
      <trkpt lat="45.99969474092229" lon="7.494163937706863">
      <ele>2155.3</ele></trkpt>
      <trkpt lat="45.9996946682422" lon="7.494201873058667">
      <ele>2156.6</ele></trkpt>
      <trkpt lat="45.99963610373519" lon="7.494265796477823">
      <ele>2157.7</ele></trkpt>
      <trkpt lat="45.99959415615662" lon="7.494288277548765">
      <ele>2158.8</ele></trkpt>
      <trkpt lat="45.999553493578766" lon="7.494295257909461">
      <ele>2159.9</ele></trkpt>
      <trkpt lat="45.99953688391585" lon="7.494340120598466">
      <ele>2161.0</ele></trkpt>
      <trkpt lat="45.999501350804955" lon="7.494324659904755">
      <ele>2162.2</ele></trkpt>
      <trkpt lat="45.99944417913488" lon="7.494336825161415">
      <ele>2163.3</ele></trkpt>
      <trkpt lat="45.999421278193076" lon="7.494352381241953">
      <ele>2164.4</ele></trkpt>
      <trkpt lat="45.99938436932024" lon="7.49439039504095">
      <ele>2165.5</ele></trkpt>
      <trkpt lat="45.99931575550441" lon="7.494402587265051">
      <ele>2166.6</ele></trkpt>
      <trkpt lat="45.999306787159654" lon="7.494438809491718">
      <ele>2167.7</ele></trkpt>
      <trkpt lat="45.99927371884324" lon="7.4944595697483845">
      <ele>2168.8</ele></trkpt>
      <trkpt lat="45.9992038323982" lon="7.494480382759597">
      <ele>2169.9</ele></trkpt>
      <trkpt lat="45.99914285180009" lon="7.494482205019196">
      <ele>2171.0</ele></trkpt>
      <trkpt lat="45.999097090121836" lon="7.494504720550117">
      <ele>2172.1</ele></trkpt>
      <trkpt lat="45.99908299223182" lon="7.494563383434139">
      <ele>2173.2</ele></trkpt>
      <trkpt lat="45.998986307212625" lon="7.494641142234436">
      <ele>2174.4</ele></trkpt>
      <trkpt lat="45.998972289380625" lon="7.494665316404457">
      <ele>2175.5</ele></trkpt>
      <trkpt lat="45.9989074334509" lon="7.494699919305423">
      <ele>2176.6</ele></trkpt>
      <trkpt lat="45.998809541285475" lon="7.494744930334363">
      <ele>2177.7</ele></trkpt>
      <trkpt lat="45.99873831957212" lon="7.4947916207135155">
      <ele>2178.8</ele></trkpt>
      <trkpt lat="45.99864800915748" lon="7.494857303892392">
      <ele>2180.4</ele></trkpt>
      <trkpt lat="45.99860353078924" lon="7.49486772604845">
      <ele>2182.1</ele></trkpt>
      <trkpt lat="45.99849919171285" lon="7.49496104197533">
      <ele>2183.7</ele></trkpt>
      <trkpt lat="45.99843682259933" lon="7.495023242594684">
      <ele>2185.3</ele></trkpt>
      <trkpt lat="45.99834648714605" lon="7.495102722884401">
      <ele>2187.0</ele></trkpt>
      <trkpt lat="45.998366771227566" lon="7.495121665891746">
      <ele>2188.6</ele></trkpt>
      <trkpt lat="45.998403633116126" lon="7.495106086117392">
      <ele>2190.2</ele></trkpt>
      <trkpt lat="45.99845947337649" lon="7.495130138420014">
      <ele>2191.9</ele></trkpt>
      <trkpt lat="45.99851661588909" lon="7.495140394193148">
      <ele>2193.5</ele></trkpt>
      <trkpt lat="45.998541969042975" lon="7.495167938787306">
      <ele>2195.2</ele></trkpt>
      <trkpt lat="45.998588923576406" lon="7.495188561586634">
      <ele>2196.8</ele></trkpt>
      <trkpt lat="45.99855458505231" lon="7.49521275315405">
      <ele>2198.4</ele></trkpt>
      <trkpt lat="45.99863056843951" lon="7.495321292134662">
      <ele>2200.1</ele></trkpt>
      <trkpt lat="45.99854027018524" lon="7.495380081811853">
      <ele>2201.7</ele></trkpt>
      <trkpt lat="45.998608802877634" lon="7.495404121806213">
      <ele>2203.3</ele></trkpt>
      <trkpt lat="45.9986113128907" lon="7.495421368617461">
      <ele>2205.0</ele></trkpt>
      <trkpt lat="45.99855920116432" lon="7.495442146970545">
      <ele>2206.6</ele></trkpt>
      <trkpt lat="45.9985731361855" lon="7.495457650234211">
      <ele>2208.2</ele></trkpt>
      <trkpt lat="45.99865178461799" lon="7.49550752845656">
      <ele>2209.9</ele></trkpt>
      <trkpt lat="45.99852201618332" lon="7.495616421725089">
      <ele>2211.5</ele></trkpt>
      <trkpt lat="45.998426513971225" lon="7.49573730238222">
      <ele>2213.4</ele></trkpt>
      <trkpt lat="45.99834901607463" lon="7.495742603852457">
      <ele>2215.3</ele></trkpt>
      <trkpt lat="45.99831468992381" lon="7.495759902496456">
      <ele>2217.3</ele></trkpt>
      <trkpt lat="45.99827533047719" lon="7.495751342617952">
      <ele>2219.2</ele></trkpt>
      <trkpt lat="45.99821158271297" lon="7.495870461599962">
      <ele>2221.1</ele></trkpt>
      <trkpt lat="45.99825348872727" lon="7.495877281738339">
      <ele>2223.1</ele></trkpt>
      <trkpt lat="45.99834224273572" lon="7.495954753704298">
      <ele>2225.0</ele></trkpt>
      <trkpt lat="45.99845774131906" lon="7.495994241959931">
      <ele>2226.9</ele></trkpt>
      <trkpt lat="45.99846786682095" lon="7.496018376329979">
      <ele>2228.8</ele></trkpt>
      <trkpt lat="45.99831906171265" lon="7.496113475962844">
      <ele>2230.8</ele></trkpt>
      <trkpt lat="45.99817538547643" lon="7.496187877264469">
      <ele>2232.7</ele></trkpt>
      <trkpt lat="45.998104189985206" lon="7.496217308297822">
      <ele>2234.6</ele></trkpt>
      <trkpt lat="45.99804172984702" lon="7.496332955684043">
      <ele>2236.5</ele></trkpt>
      <trkpt lat="45.99799604563917" lon="7.49630888722638">
      <ele>2238.4</ele></trkpt>
      <trkpt lat="45.99798071339408" lon="7.496352045626052">
      <ele>2240.4</ele></trkpt>
      <trkpt lat="45.99793504895319" lon="7.496324518075552">
      <ele>2242.3</ele></trkpt>
      <trkpt lat="45.997905820286476" lon="7.496329740483564">
      <ele>2244.2</ele></trkpt>
      <trkpt lat="45.997905771932466" lon="7.49635388975626">
      <ele>2246.2</ele></trkpt>
      <trkpt lat="45.997931114905455" lon="7.496383164156918">
      <ele>2248.1</ele></trkpt>
      <trkpt lat="45.99795891847272" lon="7.4964555511875695">
      <ele>2250.0</ele></trkpt>
      <trkpt lat="45.99799568023637" lon="7.496495176398454">
      <ele>2251.8</ele></trkpt>
      <trkpt lat="45.998033775713026" lon="7.496495100511609">
      <ele>2253.7</ele></trkpt>
      <trkpt lat="45.998132779223056" lon="7.496529435156437">
      <ele>2255.5</ele></trkpt>
      <trkpt lat="45.99817209020455" lon="7.496562157869517">
      <ele>2257.3</ele></trkpt>
      <trkpt lat="45.998282599449425" lon="7.496560235498289">
      <ele>2259.2</ele></trkpt>
      <trkpt lat="45.99840062019936" lon="7.496610066400889">
      <ele>2261.0</ele></trkpt>
      <trkpt lat="45.99830516357377" lon="7.496710254753219">
      <ele>2262.8</ele></trkpt>
      <trkpt lat="45.998240221798106" lon="7.496787977852311">
      <ele>2264.7</ele></trkpt>
      <trkpt lat="45.998367209788704" lon="7.496805021337431">
      <ele>2266.5</ele></trkpt>
      <trkpt lat="45.998470325547686" lon="7.496801723416463">
      <ele>2268.3</ele></trkpt>
      <trkpt lat="45.998429594795795" lon="7.496853309316467">
      <ele>2270.2</ele></trkpt>
      <trkpt lat="45.998352426048044" lon="7.496900416236694">
      <ele>2272.0</ele></trkpt>
      <trkpt lat="45.99832027998788" lon="7.496945931775078">
      <ele>2273.9</ele></trkpt>
      <trkpt lat="45.99828381854062" lon="7.496952049689003">
      <ele>2275.7</ele></trkpt>
      <trkpt lat="45.99822487826729" lon="7.497026397175428">
      <ele>2277.5</ele></trkpt>
      <trkpt lat="45.99816807185978" lon="7.497079540191907">
      <ele>2279.4</ele></trkpt>
      <trkpt lat="45.99814771215583" lon="7.497085623568911">
      <ele>2281.2</ele></trkpt>
      <trkpt lat="45.99810484115382" lon="7.497135709427923">
      <ele>2283.0</ele></trkpt>
      <trkpt lat="45.99804373457172" lon="7.497172184408813">
      <ele>2284.9</ele></trkpt>
      <trkpt lat="45.99795904600917" lon="7.497201122084759">
      <ele>2286.7</ele></trkpt>
      <trkpt lat="45.997914047633536" lon="7.497276968126662">
      <ele>2287.6</ele></trkpt>
      <trkpt lat="45.99787654789893" lon="7.497342186583306">
      <ele>2288.6</ele></trkpt>
      <trkpt lat="45.997828560481835" lon="7.4974055479639565">
      <ele>2289.5</ele></trkpt>
      <trkpt lat="45.99780093371285" lon="7.4974437621803345">
      <ele>2290.4</ele></trkpt>
      <trkpt lat="45.99777711982321" lon="7.497466956542145">
      <ele>2291.3</ele></trkpt>
      <trkpt lat="45.99775522222056" lon="7.497472405628255">
      <ele>2292.3</ele></trkpt>
      <trkpt lat="45.99773237539612" lon="7.4974696447522895">
      <ele>2293.2</ele></trkpt>
      <trkpt lat="45.997704765022064" lon="7.497476442938914">
      <ele>2294.1</ele></trkpt>
      <trkpt lat="45.99767619328738" lon="7.4974982639732515">
      <ele>2295.1</ele></trkpt>
      <trkpt lat="45.997640946682345" lon="7.497537850896172">
      <ele>2296.0</ele></trkpt>
      <trkpt lat="45.99761428010333" lon="7.49754601820621">
      <ele>2296.9</ele></trkpt>
      <trkpt lat="45.99758287397006" lon="7.497535052085471">
      <ele>2297.9</ele></trkpt>
      <trkpt lat="45.99755717304285" lon="7.49752000056826">
      <ele>2298.8</ele></trkpt>
      <trkpt lat="45.99752956623621" lon="7.497519970863079">
      <ele>2299.7</ele></trkpt>
      <trkpt lat="45.997490528878565" lon="7.497532216395659">
      <ele>2300.7</ele></trkpt>
      <trkpt lat="45.997445773738306" lon="7.497555388041004">
      <ele>2301.6</ele></trkpt>
      <trkpt lat="45.99743909887342" lon="7.497573140975437">
      <ele>2302.5</ele></trkpt>
      <trkpt lat="45.99744574371181" lon="7.497612759918084">
      <ele>2303.4</ele></trkpt>
      <trkpt lat="45.997463809078155" lon="7.497659231933901">
      <ele>2304.4</ele></trkpt>
      <trkpt lat="45.9974742574951" lon="7.497701591309481">
      <ele>2305.3</ele></trkpt>
      <trkpt lat="45.99747614803553" lon="7.497733009166696">
      <ele>2305.9</ele></trkpt>
      <trkpt lat="45.99747042092085" lon="7.497761682496129">
      <ele>2306.6</ele></trkpt>
      <trkpt lat="45.997452326200396" lon="7.4977712270834">
      <ele>2307.2</ele></trkpt>
      <trkpt lat="45.99742851726743" lon="7.497784857027294">
      <ele>2307.9</ele></trkpt>
      <trkpt lat="45.9974123259782" lon="7.497801231491177">
      <ele>2308.5</ele></trkpt>
      <trkpt lat="45.997391362831095" lon="7.497825796763717">
      <ele>2309.1</ele></trkpt>
      <trkpt lat="45.9973580317505" lon="7.497848993395081">
      <ele>2309.8</ele></trkpt>
      <trkpt lat="45.99734659541479" lon="7.49787220079088">
      <ele>2310.4</ele></trkpt>
      <trkpt lat="45.99736087216789" lon="7.497887240046484">
      <ele>2311.1</ele></trkpt>
      <trkpt lat="45.997367521209895" lon="7.497918662999918">
      <ele>2311.7</ele></trkpt>
      <trkpt lat="45.99737510612405" lon="7.497966478928358">
      <ele>2312.3</ele></trkpt>
      <trkpt lat="45.99738841639013" lon="7.498006118010851">
      <ele>2313.0</ele></trkpt>
      <trkpt lat="45.997404586106505" lon="7.498030723496004">
      <ele>2313.6</ele></trkpt>
      <trkpt lat="45.99740457530304" lon="7.498051206983025">
      <ele>2314.3</ele></trkpt>
      <trkpt lat="45.997384584699525" lon="7.498056644961908">
      <ele>2314.9</ele></trkpt>
      <trkpt lat="45.997355073032594" lon="7.498052521384578">
      <ele>2315.5</ele></trkpt>
      <trkpt lat="45.997319844263934" lon="7.498057942811913">
      <ele>2316.2</ele></trkpt>
      <trkpt lat="45.99730841653539" lon="7.498064758224211">
      <ele>2316.8</ele></trkpt>
      <trkpt lat="45.99730077582299" lon="7.498105729753632">
      <ele>2317.5</ele></trkpt>
      <trkpt lat="45.99731312603738" lon="7.498157655269553">
      <ele>2318.1</ele></trkpt>
      <trkpt lat="45.99733785458745" lon="7.498208226137709">
      <ele>2319.0</ele></trkpt>
      <trkpt lat="45.99736069416883" lon="7.498224642949236">
      <ele>2319.8</ele></trkpt>
      <trkpt lat="45.99739496799525" lon="7.498221943973892">
      <ele>2320.7</ele></trkpt>
      <trkpt lat="45.99743209913145" lon="7.498208328730773">
      <ele>2321.5</ele></trkpt>
      <trkpt lat="45.99748826770083" lon="7.498205653574972">
      <ele>2322.4</ele></trkpt>
      <trkpt lat="45.99754444092425" lon="7.498211187327685">
      <ele>2323.3</ele></trkpt>
      <trkpt lat="45.997605354316605" lon="7.498234473520515">
      <ele>2324.1</ele></trkpt>
      <trkpt lat="45.99767769472127" lon="7.498252312502718">
      <ele>2325.0</ele></trkpt>
      <trkpt lat="45.997701490704344" lon="7.4982632578550845">
      <ele>2325.8</ele></trkpt>
      <trkpt lat="45.997720326126945" lon="7.498281954996703">
      <ele>2326.7</ele></trkpt>
      <trkpt lat="45.99765279711849" lon="7.498300235312194">
      <ele>2327.6</ele></trkpt>
      <trkpt lat="45.99761420063483" lon="7.498329105149188">
      <ele>2328.4</ele></trkpt>
      <trkpt lat="45.997486641825134" lon="7.498405091942917">
      <ele>2329.3</ele></trkpt>
      <trkpt lat="45.997436269701325" lon="7.498452147711351">
      <ele>2330.1</ele></trkpt>
      <trkpt lat="45.99740518769624" lon="7.498491596424131">
      <ele>2331.0</ele></trkpt>
      <trkpt lat="45.9973515961212" lon="7.498553814295736">
      <ele>2331.9</ele></trkpt>
      <trkpt lat="45.99733018331182" lon="7.49859477070005">
      <ele>2332.7</ele></trkpt>
      <trkpt lat="45.997328034466605" lon="7.498626584195787">
      <ele>2333.6</ele></trkpt>
      <trkpt lat="45.99726695035604" lon="7.498670633442539">
      <ele>2334.4</ele></trkpt>
      <trkpt lat="45.99722941513667" lon="7.498682815208844">
      <ele>2335.3</ele></trkpt>
      <trkpt lat="45.99717858902344" lon="7.498720706029666">
      <ele>2335.9</ele></trkpt>
      <trkpt lat="45.99713396769259" lon="7.498711802840928">
      <ele>2336.6</ele></trkpt>
      <trkpt lat="45.997076673330085" lon="7.498784444958951">
      <ele>2337.2</ele></trkpt>
      <trkpt lat="45.997042766436806" lon="7.498756941656751">
      <ele>2337.9</ele></trkpt>
      <trkpt lat="45.99700535074042" lon="7.498696831548322">
      <ele>2338.5</ele></trkpt>
      <trkpt lat="45.996945295696484" lon="7.498666627913497">
      <ele>2339.1</ele></trkpt>
      <trkpt lat="45.99686487843293" lon="7.4986470631435225">
      <ele>2339.8</ele></trkpt>
      <trkpt lat="45.99683164301392" lon="7.498659236645638">
      <ele>2340.4</ele></trkpt>
      <trkpt lat="45.99676518277784" lon="7.498680563401204">
      <ele>2341.1</ele></trkpt>
      <trkpt lat="45.99666977296012" lon="7.498706478994486">
      <ele>2341.7</ele></trkpt>
      <trkpt lat="45.99659470299775" lon="7.4986793438020545">
      <ele>2342.3</ele></trkpt>
      <trkpt lat="45.9964649755675" lon="7.4986719736410885">
      <ele>2343.0</ele></trkpt>
      <trkpt lat="45.996417797290604" lon="7.498684183367508">
      <ele>2343.6</ele></trkpt>
      <trkpt lat="45.99635668586564" lon="7.4986782179005855">
      <ele>2344.3</ele></trkpt>
      <trkpt lat="45.996164767676994" lon="7.498681556698634">
      <ele>2344.9</ele></trkpt>
      <trkpt lat="45.99608114423564" lon="7.49870292886281">
      <ele>2345.5</ele></trkpt>
      <trkpt lat="45.99601682227139" lon="7.498695449800796">
      <ele>2346.2</ele></trkpt>
      <trkpt lat="45.99598465487019" lon="7.498712180330045">
      <ele>2346.8</ele></trkpt>
      <trkpt lat="45.99592568688001" lon="7.498718336630516">
      <ele>2347.5</ele></trkpt>
      <trkpt lat="45.9958281311078" lon="7.498720010649391">
      <ele>2348.1</ele></trkpt>
      <trkpt lat="45.99567482475018" lon="7.498783910938737">
      <ele>2349.3</ele></trkpt>
      <trkpt lat="45.995605139202105" lon="7.498797670259593">
      <ele>2350.5</ele></trkpt>
      <trkpt lat="45.995553685680626" lon="7.49881443102205">
      <ele>2351.6</ele></trkpt>
      <trkpt lat="45.99543577620331" lon="7.498894928848859">
      <ele>2352.8</ele></trkpt>
      <trkpt lat="45.995418639331774" lon="7.498929809394379">
      <ele>2354.0</ele></trkpt>
      <trkpt lat="45.99535753556965" lon="7.498993552176158">
      <ele>2355.2</ele></trkpt>
      <trkpt lat="45.99524927221229" lon="7.4990513186432475">
      <ele>2356.4</ele></trkpt>
      <trkpt lat="45.99519675889005" lon="7.499081694283427">
      <ele>2357.5</ele></trkpt>
      <trkpt lat="45.9951259881192" lon="7.49908939874859">
      <ele>2358.7</ele></trkpt>
      <trkpt lat="45.99509385596335" lon="7.499157638701252">
      <ele>2359.9</ele></trkpt>
      <trkpt lat="45.995032757781374" lon="7.4992107717158785">
      <ele>2361.1</ele></trkpt>
      <trkpt lat="45.9949309121166" lon="7.499260929701549">
      <ele>2362.3</ele></trkpt>
      <trkpt lat="45.99482585749569" lon="7.49928990446082">
      <ele>2363.4</ele></trkpt>
      <trkpt lat="45.994790781780694" lon="7.499311690377143">
      <ele>2364.6</ele></trkpt>
      <trkpt lat="45.994747598504944" lon="7.499338526594146">
      <ele>2365.8</ele></trkpt>
      <trkpt lat="45.99470364462042" lon="7.499359799246779">
      <ele>2367.0</ele></trkpt>
      <trkpt lat="45.99463823996949" lon="7.4993417480548015">
      <ele>2368.2</ele></trkpt>
      <trkpt lat="45.99459642777649" lon="7.499328175773862">
      <ele>2369.3</ele></trkpt>
      <trkpt lat="45.99453852858505" lon="7.499337352533091">
      <ele>2370.5</ele></trkpt>
      <trkpt lat="45.99447206905897" lon="7.4993738425516305">
      <ele>2371.7</ele></trkpt>
      <trkpt lat="45.99435308139055" lon="7.499417979233237">
      <ele>2372.8</ele></trkpt>
      <trkpt lat="45.994280173802125" lon="7.499418091855239">
      <ele>2373.8</ele></trkpt>
      <trkpt lat="45.994167603109986" lon="7.499439481622805">
      <ele>2374.9</ele></trkpt>
      <trkpt lat="45.9941075744356" lon="7.499477475547487">
      <ele>2375.9</ele></trkpt>
      <trkpt lat="45.99402075908852" lon="7.499562469998157">
      <ele>2377.0</ele></trkpt>
      <trkpt lat="45.99395753039342" lon="7.499645915912017">
      <ele>2378.1</ele></trkpt>
      <trkpt lat="45.99388252570936" lon="7.499780895954775">
      <ele>2379.1</ele></trkpt>
      <trkpt lat="45.99384608365324" lon="7.49981731530463">
      <ele>2380.2</ele></trkpt>
      <trkpt lat="45.99370671722233" lon="7.499852393390191">
      <ele>2381.2</ele></trkpt>
      <trkpt lat="45.993600583783774" lon="7.499896504084244">
      <ele>2382.3</ele></trkpt>
      <trkpt lat="45.99352554818838" lon="7.499939061986241">
      <ele>2383.4</ele></trkpt>
      <trkpt lat="45.99345694667508" lon="7.4999937200234115">
      <ele>2384.4</ele></trkpt>
      <trkpt lat="45.993401212659954" lon="7.500040790662096">
      <ele>2385.5</ele></trkpt>
      <trkpt lat="45.99336154686328" lon="7.5000832846742505">
      <ele>2386.5</ele></trkpt>
      <trkpt lat="45.993332041317124" lon="7.500166973393636">
      <ele>2387.6</ele></trkpt>
      <trkpt lat="45.99327156827918" lon="7.500243993433023">
      <ele>2388.7</ele></trkpt>
      <trkpt lat="45.993250212978694" lon="7.500277383227011">
      <ele>2389.7</ele></trkpt>
      <trkpt lat="45.993254652312466" lon="7.5003018194329485">
      <ele>2390.8</ele></trkpt>
      <trkpt lat="45.99327687156862" lon="7.5003005796723095">
      <ele>2391.8</ele></trkpt>
      <trkpt lat="45.99332133510899" lon="7.500285245706738">
      <ele>2392.9</ele></trkpt>
      <trkpt lat="45.99334089228792" lon="7.500299425726924">
      <ele>2393.8</ele></trkpt>
      <trkpt lat="45.993301749447774" lon="7.500355923201301">
      <ele>2394.6</ele></trkpt>
      <trkpt lat="45.99324305524661" lon="7.500436803914487">
      <ele>2395.5</ele></trkpt>
      <trkpt lat="45.9932163633334" lon="7.500490759860674">
      <ele>2396.4</ele></trkpt>
      <trkpt lat="45.9932039077232" lon="7.500534445723399">
      <ele>2397.2</ele></trkpt>
      <trkpt lat="45.993206549657074" lon="7.50058844769493">
      <ele>2398.1</ele></trkpt>
      <trkpt lat="45.993294561016036" lon="7.500587347056506">
      <ele>2399.0</ele></trkpt>
      <trkpt lat="45.993346130030744" lon="7.500590025369257">
      <ele>2399.8</ele></trkpt>
      <trkpt lat="45.993405709043564" lon="7.5005361452582555">
      <ele>2400.7</ele></trkpt>
      <trkpt lat="45.99344216853365" lon="7.500484781409863">
      <ele>2401.6</ele></trkpt>
      <trkpt lat="45.99347862357354" lon="7.500457874606138">
      <ele>2402.4</ele></trkpt>
      <trkpt lat="45.99351952162605" lon="7.50043223758508">
      <ele>2403.3</ele></trkpt>
      <trkpt lat="45.993572865725945" lon="7.500413067649796">
      <ele>2404.1</ele></trkpt>
      <trkpt lat="45.99364486992961" lon="7.500436354221339">
      <ele>2405.0</ele></trkpt>
      <trkpt lat="45.99371241719101" lon="7.5004673408125955">
      <ele>2405.9</ele></trkpt>
      <trkpt lat="45.9937630845486" lon="7.500473889873408">
      <ele>2406.7</ele></trkpt>
      <trkpt lat="45.99385553556932" lon="7.500463798420757">
      <ele>2407.6</ele></trkpt>
      <trkpt lat="45.99393197429132" lon="7.50050381667537">
      <ele>2408.5</ele></trkpt>
      <trkpt lat="45.993962202969215" lon="7.500496145819252">
      <ele>2409.3</ele></trkpt>
      <trkpt lat="45.99399246215063" lon="7.500416509727302">
      <ele>2410.2</ele></trkpt>
      <trkpt lat="45.99401380286626" lon="7.50039339289896">
      <ele>2411.2</ele></trkpt>
      <trkpt lat="45.99404225380164" lon="7.500396019163192">
      <ele>2412.1</ele></trkpt>
      <trkpt lat="45.994085788906354" lon="7.500433406143117">
      <ele>2413.1</ele></trkpt>
      <trkpt lat="45.99411600609875" lon="7.500463047272758">
      <ele>2414.0</ele></trkpt>
      <trkpt lat="45.99420311280228" lon="7.500487667652013">
      <ele>2415.0</ele></trkpt>
      <trkpt lat="45.994238679783464" lon="7.500489011385962">
      <ele>2416.0</ele></trkpt>
      <trkpt lat="45.99429468299195" lon="7.50047628451388">
      <ele>2416.9</ele></trkpt>
      <trkpt lat="45.99434358551674" lon="7.500453237432307">
      <ele>2417.9</ele></trkpt>
      <trkpt lat="45.99436847940544" lon="7.500430137388248">
      <ele>2418.8</ele></trkpt>
      <trkpt lat="45.99438804361559" lon="7.500431475925775">
      <ele>2419.8</ele></trkpt>
      <trkpt lat="45.99444851170164" lon="7.500380151078813">
      <ele>2420.8</ele></trkpt>
      <trkpt lat="45.99449118658854" lon="7.500362246464612">
      <ele>2421.7</ele></trkpt>
      <trkpt lat="45.994533850199126" lon="7.500364914579237">
      <ele>2422.7</ele></trkpt>
      <trkpt lat="45.99458453801449" lon="7.500334151288123">
      <ele>2423.6</ele></trkpt>
      <trkpt lat="45.99461742773133" lon="7.500345791220157">
      <ele>2424.6</ele></trkpt>
      <trkpt lat="45.99462455465404" lon="7.500291798873819">
      <ele>2425.6</ele></trkpt>
      <trkpt lat="45.99460412888709" lon="7.500221035903825">
      <ele>2426.5</ele></trkpt>
      <trkpt lat="45.99462281184404" lon="7.500188932896338">
      <ele>2427.5</ele></trkpt>
      <trkpt lat="45.9947072686473" lon="7.50019038306063">
      <ele>2428.4</ele></trkpt>
      <trkpt lat="45.994739274296506" lon="7.500173743953553">
      <ele>2429.4</ele></trkpt>
      <trkpt lat="45.99480505025028" lon="7.50020345110967">
      <ele>2431.1</ele></trkpt>
      <trkpt lat="45.99483613272595" lon="7.500279376009358">
      <ele>2432.7</ele></trkpt>
      <trkpt lat="45.99486100921364" lon="7.500337289488974">
      <ele>2434.4</ele></trkpt>
      <trkpt lat="45.99490279426112" lon="7.500318093056848">
      <ele>2436.0</ele></trkpt>
      <trkpt lat="45.99500412675491" lon="7.500351725423523">
      <ele>2437.7</ele></trkpt>
      <trkpt lat="45.99504234085115" lon="7.500381388934447">
      <ele>2439.3</ele></trkpt>
      <trkpt lat="45.99509390917514" lon="7.50038535778917">
      <ele>2441.0</ele></trkpt>
      <trkpt lat="45.995165013161085" lon="7.5004099217019125">
      <ele>2442.6</ele></trkpt>
      <trkpt lat="45.99522811036887" lon="7.50045249417191">
      <ele>2444.3</ele></trkpt>
      <trkpt lat="45.995238779402406" lon="7.500467942452133">
      <ele>2445.9</ele></trkpt>
      <trkpt lat="45.99518988463663" lon="7.500476844344411">
      <ele>2447.6</ele></trkpt>
      <trkpt lat="45.99515254326724" lon="7.5004960586854725">
      <ele>2449.3</ele></trkpt>
      <trkpt lat="45.9951222988563" lon="7.5005487218144316">
      <ele>2450.9</ele></trkpt>
      <trkpt lat="45.99507159895907" lon="7.5006013359111865">
      <ele>2452.6</ele></trkpt>
      <trkpt lat="45.99504788584998" lon="7.5006527156554155">
      <ele>2454.2</ele></trkpt>
      <trkpt lat="45.99502978464872" lon="7.500771499446098">
      <ele>2455.9</ele></trkpt>
      <trkpt lat="45.99501569846406" lon="7.500835641632177">
      <ele>2457.5</ele></trkpt>
      <trkpt lat="45.9950077305156" lon="7.500897222354242">
      <ele>2459.2</ele></trkpt>
      <trkpt lat="45.99501079121583" lon="7.5009093837520915">
      <ele>2460.8</ele></trkpt>
      <trkpt lat="45.99503711078456" lon="7.500894751918531">
      <ele>2462.5</ele></trkpt>
      <trkpt lat="45.99507872497043" lon="7.500859357987843">
      <ele>2463.3</ele></trkpt>
      <trkpt lat="45.995125856173225" lon="7.500818781851745">
      <ele>2464.1</ele></trkpt>
      <trkpt lat="45.99514482689992" lon="7.500819732676727">
      <ele>2464.9</ele></trkpt>
      <trkpt lat="45.99515431784563" lon="7.500834534339838">
      <ele>2465.8</ele></trkpt>
      <trkpt lat="45.99513589815767" lon="7.500861952670852">
      <ele>2466.6</ele></trkpt>
      <trkpt lat="45.99512299913163" lon="7.500877606518107">
      <ele>2467.4</ele></trkpt>
      <trkpt lat="45.99511006798511" lon="7.500935077432522">
      <ele>2468.2</ele></trkpt>
      <trkpt lat="45.9950943752372" lon="7.500992532266723">
      <ele>2469.0</ele></trkpt>
      <trkpt lat="45.99506393749048" lon="7.501085230823246">
      <ele>2469.8</ele></trkpt>
      <trkpt lat="45.99502521709441" lon="7.501174022049643">
      <ele>2470.7</ele></trkpt>
      <trkpt lat="45.99500953757393" lon="7.501223642500793">
      <ele>2471.5</ele></trkpt>
      <trkpt lat="45.99498279109668" lon="7.501294145857449">
      <ele>2472.3</ele></trkpt>
      <trkpt lat="45.99496897665901" lon="7.501305887846581">
      <ele>2473.1</ele></trkpt>
      <trkpt lat="45.99494963470153" lon="7.501325457730985">
      <ele>2473.9</ele></trkpt>
      <trkpt lat="45.99493856947189" lon="7.501359414899044">
      <ele>2474.7</ele></trkpt>
      <trkpt lat="45.99494866499251" lon="7.501386852734843">
      <ele>2475.5</ele></trkpt>
      <trkpt lat="45.99495691307469" lon="7.501436487606609">
      <ele>2476.4</ele></trkpt>
      <trkpt lat="45.99496885335493" lon="7.50146262402893">
      <ele>2477.2</ele></trkpt>
      <trkpt lat="45.99497247947825" lon="7.501525327887943">
      <ele>2478.0</ele></trkpt>
      <trkpt lat="45.99493288014068" lon="7.50156055577616">
      <ele>2478.8</ele></trkpt>
      <trkpt lat="45.994904349975585" lon="7.501570977211127">
      <ele>2480.4</ele></trkpt>
      <trkpt lat="45.99487582856532" lon="7.501565730202127">
      <ele>2482.0</ele></trkpt>
      <trkpt lat="45.99486845113585" lon="7.501584010171143">
      <ele>2483.6</ele></trkpt>
      <trkpt lat="45.9948923308996" lon="7.501637573652652">
      <ele>2485.2</ele></trkpt>
      <trkpt lat="45.99490796800266" lon="7.501648045893254">
      <ele>2486.8</ele></trkpt>
      <trkpt lat="45.9949309265439" lon="7.501708151961935">
      <ele>2488.3</ele></trkpt>
      <trkpt lat="45.99495942065997" lon="7.501746052414237">
      <ele>2489.9</ele></trkpt>
      <trkpt lat="45.99499526564634" lon="7.501797035661102">
      <ele>2491.5</ele></trkpt>
      <trkpt lat="45.995007169727316" lon="7.501871494043227">
      <ele>2493.1</ele></trkpt>
      <trkpt lat="45.99503193823801" lon="7.501976013665871">
      <ele>2494.7</ele></trkpt>
      <trkpt lat="45.995040151155045" lon="7.5020556949921335">
      <ele>2496.3</ele></trkpt>
      <trkpt lat="45.995052044753386" lon="7.5021484419932385">
      <ele>2497.9</ele></trkpt>
      <trkpt lat="45.995071301649695" lon="7.502232059785832">
      <ele>2499.5</ele></trkpt>
      <trkpt lat="45.9950785782583" lon="7.502328725083781">
      <ele>2501.1</ele></trkpt>
      <trkpt lat="45.99507941421776" lon="7.502441051401892">
      <ele>2502.7</ele></trkpt>
      <trkpt lat="45.995076560475795" lon="7.502555993435394">
      <ele>2504.2</ele></trkpt>
      <trkpt lat="45.995088423052216" lon="7.502670939769804">
      <ele>2505.8</ele></trkpt>
      <trkpt lat="45.99509480126727" lon="7.502749315575828">
      <ele>2507.4</ele></trkpt>
      <trkpt lat="45.995108432706495" lon="7.502747713439498">
      <ele>2509.0</ele></trkpt>
      <trkpt lat="45.99512334786729" lon="7.502725833340851">
      <ele>2510.6</ele></trkpt>
      <trkpt lat="45.995138119517264" lon="7.502676212153833">
      <ele>2511.9</ele></trkpt>
      <trkpt lat="45.995191548621584" lon="7.502603120434092">
      <ele>2513.2</ele></trkpt>
      <trkpt lat="45.9952403788178" lon="7.502533946792578">
      <ele>2514.4</ele></trkpt>
      <trkpt lat="45.99528642507525" lon="7.502488272621974">
      <ele>2515.7</ele></trkpt>
      <trkpt lat="45.99531406307566" lon="7.502449120540098">
      <ele>2517.0</ele></trkpt>
      <trkpt lat="45.99536289466094" lon="7.502377326573198">
      <ele>2518.3</ele></trkpt>
      <trkpt lat="45.995406191227744" lon="7.502326421801097">
      <ele>2519.6</ele></trkpt>
      <trkpt lat="45.99544486502072" lon="7.5022898895195125">
      <ele>2520.8</ele></trkpt>
      <trkpt lat="45.995502895820294" lon="7.502223333103299">
      <ele>2522.1</ele></trkpt>
      <trkpt lat="45.99553330047152" lon="7.502175033154911">
      <ele>2523.4</ele></trkpt>
      <trkpt lat="45.99556278315756" lon="7.502134566403241">
      <ele>2524.7</ele></trkpt>
      <trkpt lat="45.99560055865999" lon="7.502079744143018">
      <ele>2526.0</ele></trkpt>
      <trkpt lat="45.99561348744229" lon="7.502027513074271">
      <ele>2527.2</ele></trkpt>
      <trkpt lat="45.99564665799518" lon="7.5019713817890255">
      <ele>2528.5</ele></trkpt>
      <trkpt lat="45.99566409909713" lon="7.501957049782842">
      <ele>2529.8</ele></trkpt>
      <trkpt lat="45.995662272888445" lon="7.5020052927130285">
      <ele>2531.1</ele></trkpt>
      <trkpt lat="45.99566765652915" lon="7.50206139123643">
      <ele>2532.4</ele></trkpt>
      <trkpt lat="45.99566762364245" lon="7.502135720580625">
      <ele>2533.6</ele></trkpt>
      <trkpt lat="45.995662175906695" lon="7.502177428539791">
      <ele>2534.9</ele></trkpt>
      <trkpt lat="45.995656730527045" lon="7.5022308686335935">
      <ele>2536.2</ele></trkpt>
      <trkpt lat="45.99565936294214" lon="7.50236390048742">
      <ele>2537.5</ele></trkpt>
      <trkpt lat="45.99565570929234" lon="7.502446034119158">
      <ele>2538.8</ele></trkpt>
      <trkpt lat="45.99565835034047" lon="7.502563410230454">
      <ele>2540.1</ele></trkpt>
      <trkpt lat="45.99565013924617" lon="7.502702921453301">
      <ele>2541.4</ele></trkpt>
      <trkpt lat="45.99564194069723" lon="7.502835901888553">
      <ele>2542.7</ele></trkpt>
      <trkpt lat="45.99563645847627" lon="7.502937586874972">
      <ele>2544.0</ele></trkpt>
      <trkpt lat="45.99562920913492" lon="7.502983203324116">
      <ele>2545.3</ele></trkpt>
      <trkpt lat="45.99562104085535" lon="7.503062711507488">
      <ele>2546.6</ele></trkpt>
      <trkpt lat="45.99561464169591" lon="7.503194403277815">
      <ele>2547.9</ele></trkpt>
      <trkpt lat="45.9956100512085" lon="7.503324780678814">
      <ele>2549.1</ele></trkpt>
      <trkpt lat="45.99560912094659" lon="7.503378251762811">
      <ele>2550.4</ele></trkpt>
      <trkpt lat="45.995618136539" lon="7.5034056761230294">
      <ele>2551.7</ele></trkpt>
      <trkpt lat="45.995620811132184" lon="7.503463062194389">
      <ele>2553.0</ele></trkpt>
      <trkpt lat="45.99562532229211" lon="7.503470914773849">
      <ele>2554.3</ele></trkpt>
      <trkpt lat="45.9956343648777" lon="7.503467040588109">
      <ele>2555.6</ele></trkpt>
      <trkpt lat="45.99564341272846" lon="7.503438385655">
      <ele>2556.9</ele></trkpt>
      <trkpt lat="45.99566331047512" lon="7.503391519369446">
      <ele>2558.2</ele></trkpt>
      <trkpt lat="45.99568140013244" lon="7.503344650911864">
      <ele>2559.5</ele></trkpt>
      <trkpt lat="45.995701298594895" lon="7.5033121367614735">
      <ele>2560.8</ele></trkpt>
      <trkpt lat="45.99574018694383" lon="7.503231451532776">
      <ele>2562.1</ele></trkpt>
      <trkpt lat="45.99576460474917" lon="7.5031767947915675">
      <ele>2563.0</ele></trkpt>
      <trkpt lat="45.995784508358504" lon="7.50311949972063">
      <ele>2564.0</ele></trkpt>
      <trkpt lat="45.99582339656987" lon="7.503038814232407">
      <ele>2564.9</ele></trkpt>
      <trkpt lat="45.99583514599526" lon="7.5030362596286455">
      <ele>2565.9</ele></trkpt>
      <trkpt lat="45.99583965197386" lon="7.50305322431928">
      <ele>2566.8</ele></trkpt>
      <trkpt lat="45.99583149479893" lon="7.503097536277882">
      <ele>2567.8</ele></trkpt>
      <trkpt lat="45.99583418750439" lon="7.503139279674716">
      <ele>2568.8</ele></trkpt>
      <trkpt lat="45.99583685849704" lon="7.50320318383242">
      <ele>2569.7</ele></trkpt>
      <trkpt lat="45.99582958136042" lon="7.503297045571969">
      <ele>2570.7</ele></trkpt>
      <trkpt lat="45.995835872141384" lon="7.503354449042839">
      <ele>2571.6</ele></trkpt>
      <trkpt lat="45.99583852949839" lon="7.503441843368855">
      <ele>2572.5</ele></trkpt>
      <trkpt lat="45.995832185501534" lon="7.503477019483494">
      <ele>2573.5</ele></trkpt>
      <trkpt lat="45.99583488107007" lon="7.503513548601483">
      <ele>2574.4</ele></trkpt>
      <trkpt lat="45.99582397550131" lon="7.5036282631910165">
      <ele>2575.4</ele></trkpt>
      <trkpt lat="45.99582845427895" lon="7.503692182416687">
      <ele>2576.3</ele></trkpt>
      <trkpt lat="45.9958292987328" lon="7.503803026037526">
      <ele>2577.3</ele></trkpt>
      <trkpt lat="45.995837425247174" lon="7.503812199462647">
      <ele>2578.2</ele></trkpt>
      <trkpt lat="45.99584555183281" lon="7.503805704169532">
      <ele>2579.2</ele></trkpt>
      <trkpt lat="45.995858227209766" lon="7.503757512767068">
      <ele>2580.2</ele></trkpt>
      <trkpt lat="45.99587634334179" lon="7.503680649131515">
      <ele>2581.1</ele></trkpt>
      <trkpt lat="45.995896251720495" lon="7.503615532671154">
      <ele>2582.8</ele></trkpt>
      <trkpt lat="45.995937844882846" lon="7.503540077796089">
      <ele>2584.5</ele></trkpt>
      <trkpt lat="45.995955040327075" lon="7.5034840701382155">
      <ele>2586.3</ele></trkpt>
      <trkpt lat="45.99599211698225" lon="7.503409900409058">
      <ele>2588.0</ele></trkpt>
      <trkpt lat="45.99602016449565" lon="7.503331783351888">
      <ele>2589.7</ele></trkpt>
      <trkpt lat="45.996048210466554" lon="7.503256260467108">
      <ele>2591.4</ele></trkpt>
      <trkpt lat="45.99606812610129" lon="7.50319375081855">
      <ele>2593.2</ele></trkpt>
      <trkpt lat="45.99609073358708" lon="7.503142989436932">
      <ele>2594.9</ele></trkpt>
      <trkpt lat="45.99614382527076" lon="7.503015546137432">
      <ele>2596.6</ele></trkpt>
      <trkpt lat="45.99617546037451" lon="7.502971196980405">
      <ele>2598.3</ele></trkpt>
      <trkpt lat="45.996203144464246" lon="7.50294615166413">
      <ele>2600.1</ele></trkpt>
      <trkpt lat="45.99635602657807" lon="7.502952023224919">
      <ele>2601.8</ele></trkpt>
      <trkpt lat="45.996403472958136" lon="7.5029752080094845">
      <ele>2603.5</ele></trkpt>
      <trkpt lat="45.996518139232506" lon="7.5029714062308175">
      <ele>2605.2</ele></trkpt>
      <trkpt lat="45.996553729338814" lon="7.502963729770572">
      <ele>2607.0</ele></trkpt>
      <trkpt lat="45.996574810831405" lon="7.50293866361243">
      <ele>2608.7</ele></trkpt>
      <trkpt lat="45.996610421571525" lon="7.5027843651057395">
      <ele>2610.4</ele></trkpt>
      <trkpt lat="45.99665130512008" lon="7.502595353058633">
      <ele>2612.2</ele></trkpt>
      <trkpt lat="45.99670008764054" lon="7.502419850541846">
      <ele>2613.9</ele></trkpt>
      <trkpt lat="45.99672118075404" lon="7.502358141443374">
      <ele>2615.6</ele></trkpt>
      <trkpt lat="45.996756779840155" lon="7.502286781900531">
      <ele>2617.0</ele></trkpt>
      <trkpt lat="45.99680161139877" lon="7.502209650693228">
      <ele>2618.4</ele></trkpt>
      <trkpt lat="45.99682797220079" lon="7.502201962977523">
      <ele>2619.8</ele></trkpt>
      <trkpt lat="45.99680818951081" lon="7.502284879843826">
      <ele>2621.2</ele></trkpt>
      <trkpt lat="45.99682663357392" lon="7.502294542765268">
      <ele>2622.6</ele></trkpt>
      <trkpt lat="45.99686749547792" lon="7.502254049629219">
      <ele>2623.9</ele></trkpt>
      <trkpt lat="45.996950525257965" lon="7.502265684965047">
      <ele>2625.3</ele></trkpt>
      <trkpt lat="45.996968978875344" lon="7.502306195537138">
      <ele>2626.7</ele></trkpt>
      <trkpt lat="45.996934706202346" lon="7.502354401827481">
      <ele>2628.1</ele></trkpt>
      <trkpt lat="45.996924153743024" lon="7.502435406426944">
      <ele>2629.5</ele></trkpt>
      <trkpt lat="45.99695578526822" lon="7.502460508602876">
      <ele>2630.9</ele></trkpt>
      <trkpt lat="45.99697027014664" lon="7.5025357472280945">
      <ele>2632.3</ele></trkpt>
      <trkpt lat="45.99696630085093" lon="7.50260324596142">
      <ele>2633.7</ele></trkpt>
      <trkpt lat="45.99698870221517" lon="7.502724791165396">
      <ele>2635.1</ele></trkpt>
      <trkpt lat="45.99712971208906" lon="7.502854129482696">
      <ele>2636.4</ele></trkpt>
      <trkpt lat="45.9972852261702" lon="7.502834938524535">
      <ele>2637.8</ele></trkpt>
      <trkpt lat="45.997310270599435" lon="7.502848455756358">
      <ele>2639.2</ele></trkpt>
      <trkpt lat="45.99726412216464" lon="7.5029467918511115">
      <ele>2640.6</ele></trkpt>
      <trkpt lat="45.99734057167824" lon="7.502950689269899">
      <ele>2642.0</ele></trkpt>
      <trkpt lat="45.997364293944116" lon="7.502979654750247">
      <ele>2643.4</ele></trkpt>
      <trkpt lat="45.997347148697216" lon="7.503074152871758">
      <ele>2644.3</ele></trkpt>
      <trkpt lat="45.997327364086665" lon="7.503143595259098">
      <ele>2645.2</ele></trkpt>
      <trkpt lat="45.99734976068427" lon="7.50317831579449">
      <ele>2646.1</ele></trkpt>
      <trkpt lat="45.99742358243185" lon="7.503184146502717">
      <ele>2647.1</ele></trkpt>
      <trkpt lat="45.997492111875275" lon="7.503226627084846">
      <ele>2648.0</ele></trkpt>
      <trkpt lat="45.99756459344451" lon="7.503247906084137">
      <ele>2648.9</ele></trkpt>
      <trkpt lat="45.99757117529626" lon="7.503315417969814">
      <ele>2649.8</ele></trkpt>
      <trkpt lat="45.99755271422296" lon="7.5034137740068125">
      <ele>2650.7</ele></trkpt>
      <trkpt lat="45.99755138569688" lon="7.503487084715903">
      <ele>2651.6</ele></trkpt>
      <trkpt lat="45.99756059860106" lon="7.5035623181777">
      <ele>2652.6</ele></trkpt>
      <trkpt lat="45.99759353141269" lon="7.503685787864637">
      <ele>2653.5</ele></trkpt>
      <trkpt lat="45.99760669781895" lon="7.503799618366601">
      <ele>2654.4</ele></trkpt>
      <trkpt lat="45.9976831131726" lon="7.504017633223701">
      <ele>2655.3</ele></trkpt>
      <trkpt lat="45.9976936324383" lon="7.504197029021488">
      <ele>2656.2</ele></trkpt>
      <trkpt lat="45.99770809814876" lon="7.504334016803837">
      <ele>2657.1</ele></trkpt>
      <trkpt lat="45.9977225783185" lon="7.504476761257242">
      <ele>2658.0</ele></trkpt>
      <trkpt lat="45.9977225783185" lon="7.504476761257242">
      <ele>2659.0</ele></trkpt>
      <trkpt lat="45.99779910374467" lon="7.504443036594113">
      <ele>2659.9</ele></trkpt>
      <trkpt lat="45.997928089517075" lon="7.504579749676385">
      <ele>2660.8</ele></trkpt>
      <trkpt lat="45.99797780086775" lon="7.504651625199453">
      <ele>2661.7</ele></trkpt>
      <trkpt lat="45.99801612743068" lon="7.5047789880712195">
      <ele>2661.4</ele></trkpt>
      <trkpt lat="45.99804519632731" lon="7.504832033111175">
      <ele>2661.1</ele></trkpt>
      <trkpt lat="45.99809629849604" lon="7.504985923181071">
      <ele>2660.8</ele></trkpt>
      <trkpt lat="45.99814042735142" lon="7.505127427029641">
      <ele>2660.5</ele></trkpt>
      <trkpt lat="45.998185796118015" lon="7.505164564659958">
      <ele>2660.2</ele></trkpt>
      <trkpt lat="45.99825323220603" lon="7.505290156816481">
      <ele>2659.9</ele></trkpt>
      <trkpt lat="45.99829622962815" lon="7.505382147656472">
      <ele>2659.6</ele></trkpt>
      <trkpt lat="45.99832179229469" lon="7.505461726363698">
      <ele>2659.3</ele></trkpt>
      <trkpt lat="45.99836828983641" lon="7.505551940528627">
      <ele>2659.0</ele></trkpt>
      <trkpt lat="45.99840317884418" lon="7.505589078751228">
      <ele>2658.7</ele></trkpt>
      <trkpt lat="45.99845544411168" lon="7.5057518134664685">
      <ele>2658.4</ele></trkpt>
      <trkpt lat="45.9985170394371" lon="7.5058809363951">
      <ele>2658.1</ele></trkpt>
      <trkpt lat="45.998550722471926" lon="7.505994136328916">
      <ele>2657.8</ele></trkpt>
      <trkpt lat="45.998589062900585" lon="7.506080804659912">
      <ele>2657.5</ele></trkpt>
      <trkpt lat="45.99860646732101" lon="7.506158618654853">
      <ele>2657.2</ele></trkpt>
      <trkpt lat="45.99861918976656" lon="7.506273600066532">
      <ele>2656.9</ele></trkpt>
      <trkpt lat="45.99867493527247" lon="7.506436314576334">
      <ele>2656.6</ele></trkpt>
      <trkpt lat="45.99870981272963" lon="7.50650707724392">
      <ele>2656.3</ele></trkpt>
      <trkpt lat="45.99871440422472" lon="7.506590206379266">
      <ele>2656.0</ele></trkpt>
      <trkpt lat="45.99874807969717" lon="7.506699857621358">
      <ele>2655.7</ele></trkpt>
      <trkpt lat="45.99878867999119" lon="7.50687143434708">
      <ele>2657.5</ele></trkpt>
      <trkpt lat="45.99877928529925" lon="7.506981083749316">
      <ele>2659.3</ele></trkpt>
      <trkpt lat="45.99875826942181" lon="7.5070447424999465">
      <ele>2661.1</ele></trkpt>
      <trkpt lat="45.998753549904315" lon="7.507113726524086">
      <ele>2663.0</ele></trkpt>
      <trkpt lat="45.9987324779434" lon="7.5072693630488025">
      <ele>2664.8</ele></trkpt>
      <trkpt lat="45.998745136644565" lon="7.5074426862348265">
      <ele>2666.6</ele></trkpt>
      <trkpt lat="45.998721779143146" lon="7.507539952609166">
      <ele>2668.4</ele></trkpt>
      <trkpt lat="45.99871003924981" lon="7.507644306785758">
      <ele>2670.2</ele></trkpt>
      <trkpt lat="45.99871113319897" lon="7.507738028549361">
      <ele>2672.0</ele></trkpt>
      <trkpt lat="45.99874015988428" lon="7.507828249016877">
      <ele>2673.8</ele></trkpt>
      <trkpt lat="45.99875524772803" lon="7.507897219298657">
      <ele>2675.7</ele></trkpt>
      <trkpt lat="45.99875170144875" lon="7.507959118583315">
      <ele>2677.5</ele></trkpt>
      <trkpt lat="45.998794744911315" lon="7.50798744028554">
      <ele>2679.3</ele></trkpt>
      <trkpt lat="45.99882036375741" lon="7.507987446938112">
      <ele>2681.1</ele></trkpt>
      <trkpt lat="45.998856409370404" lon="7.508044052847394">
      <ele>2682.9</ele></trkpt>
      <trkpt lat="45.998928490687405" lon="7.50817317972268">
      <ele>2684.7</ele></trkpt>
      <trkpt lat="45.99902744368296" lon="7.508196190356511">
      <ele>2686.6</ele></trkpt>
      <trkpt lat="45.99913099211949" lon="7.508279355704044">
      <ele>2688.4</ele></trkpt>
      <trkpt lat="45.99917290597412" lon="7.508272297027639">
      <ele>2690.2</ele></trkpt>
      <trkpt lat="45.999204372422504" lon="7.5082422239134825">
      <ele>2692.0</ele></trkpt>
      <trkpt lat="45.999254374610565" lon="7.508320055167981">
      <ele>2693.6</ele></trkpt>
      <trkpt lat="45.999311309803836" lon="7.50845979980961">
      <ele>2695.2</ele></trkpt>
      <trkpt lat="45.99940897941564" lon="7.508608399758007">
      <ele>2696.7</ele></trkpt>
      <trkpt lat="45.99949731439219" lon="7.50879589163602">
      <ele>2698.3</ele></trkpt>
      <trkpt lat="45.99955657312302" lon="7.508930322461903">
      <ele>2699.9</ele></trkpt>
      <trkpt lat="45.999610088399535" lon="7.508985170967754">
      <ele>2701.5</ele></trkpt>
      <trkpt lat="45.999682180814254" lon="7.509094849130938">
      <ele>2703.1</ele></trkpt>
      <trkpt lat="45.999689148093026" lon="7.509130224917182">
      <ele>2704.6</ele></trkpt>
      <trkpt lat="45.99975538572981" lon="7.5092664339273325">
      <ele>2706.2</ele></trkpt>
      <trkpt lat="45.99984263265294" lon="7.509351349687797">
      <ele>2707.8</ele></trkpt>
      <trkpt lat="45.999915939900404" lon="7.509416808762164">
      <ele>2709.4</ele></trkpt>
      <trkpt lat="46.000031083976594" lon="7.509554798786119">
      <ele>2711.0</ele></trkpt>
      <trkpt lat="46.00017301613504" lon="7.509692798360514">
      <ele>2712.5</ele></trkpt>
      <trkpt lat="46.00031718266182" lon="7.5099245376026715">
      <ele>2714.1</ele></trkpt>
      <trkpt lat="46.000447426077706" lon="7.510124442201658">
      <ele>2715.7</ele></trkpt>
      <trkpt lat="46.00055440598689" lon="7.510283644794713">
      <ele>2717.3</ele></trkpt>
      <trkpt lat="46.000664838683534" lon="7.510487074757208">
      <ele>2718.9</ele></trkpt>
      <trkpt lat="46.00069733756583" lon="7.510602061699012">
      <ele>2720.4</ele></trkpt>
      <trkpt lat="46.00070537104032" lon="7.510741786689177">
      <ele>2722.0</ele></trkpt>
      <trkpt lat="46.000711030445245" lon="7.510922194091912">
      <ele>2723.6</ele></trkpt>
      <trkpt lat="46.00077614510876" lon="7.511024807188729">
      <ele>2725.1</ele></trkpt>
      <trkpt lat="46.000856358044416" lon="7.5111769293142725">
      <ele>2726.6</ele></trkpt>
      <trkpt lat="46.00090751190375" lon="7.511251230370751">
      <ele>2728.1</ele></trkpt>
      <trkpt lat="46.00096335129864" lon="7.51131315911645">
      <ele>2729.6</ele></trkpt>
      <trkpt lat="46.001001763728226" lon="7.511323794617577">
      <ele>2731.2</ele></trkpt>
      <trkpt lat="46.00099590389342" lon="7.511371546083554">
      <ele>2732.7</ele></trkpt>
      <trkpt lat="46.00101450721076" lon="7.511398070750199">
      <ele>2734.2</ele></trkpt>
      <trkpt lat="46.00105643369307" lon="7.511385709081371">
      <ele>2735.7</ele></trkpt>
      <trkpt lat="46.00110302549781" lon="7.511364498754637">
      <ele>2737.2</ele></trkpt>
      <trkpt lat="46.00113676133586" lon="7.511387493907609">
      <ele>2738.7</ele></trkpt>
      <trkpt lat="46.001194944028136" lon="7.511442352612152">
      <ele>2740.2</ele></trkpt>
      <trkpt lat="46.001211191359516" lon="7.5114954259294064">
      <ele>2741.7</ele></trkpt>
      <trkpt lat="46.00115871687612" lon="7.511585608403345">
      <ele>2743.2</ele></trkpt>
      <trkpt lat="46.00112140659688" lon="7.5116510406180605">
      <ele>2744.7</ele></trkpt>
      <trkpt lat="46.001127214003894" lon="7.511670487719247">
      <ele>2746.2</ele></trkpt>
      <trkpt lat="46.00115515710486" lon="7.511665194034102">
      <ele>2747.8</ele></trkpt>
      <trkpt lat="46.00129363323551" lon="7.511746608734324">
      <ele>2749.3</ele></trkpt>
      <trkpt lat="46.001329632352814" lon="7.511858039827422">
      <ele>2750.8</ele></trkpt>
      <trkpt lat="46.00140516173383" lon="7.512031392097738">
      <ele>2752.3</ele></trkpt>
      <trkpt lat="46.00147370348781" lon="7.512215371659353">
      <ele>2753.8</ele></trkpt>
      <trkpt lat="46.00157840361925" lon="7.512307378986384">
      <ele>2755.4</ele></trkpt>
      <trkpt lat="46.001570222559366" lon="7.51235512772362">
      <ele>2757.0</ele></trkpt>
      <trkpt lat="46.00159579331464" lon="7.512401127728249">
      <ele>2758.7</ele></trkpt>
      <trkpt lat="46.0015864451334" lon="7.512445338088053">
      <ele>2760.3</ele></trkpt>
      <trkpt lat="46.00160036103878" lon="7.512500164430954">
      <ele>2761.9</ele></trkpt>
      <trkpt lat="46.00158749967351" lon="7.5125656166746335">
      <ele>2763.5</ele></trkpt>
      <trkpt lat="46.00160490775303" lon="7.5126310581873526">
      <ele>2765.1</ele></trkpt>
      <trkpt lat="46.00163977001048" lon="7.512705365384464">
      <ele>2766.8</ele></trkpt>
      <trkpt lat="46.001621088524445" lon="7.5127707968339585">
      <ele>2768.4</ele></trkpt>
      <trkpt lat="46.001658296809325" lon="7.51282033675317">
      <ele>2770.0</ele></trkpt>
      <trkpt lat="46.00168028919586" lon="7.5129724494143595">
      <ele>2771.6</ele></trkpt>
      <trkpt lat="46.00167551030323" lon="7.513112172735977">
      <ele>2773.2</ele></trkpt>
      <trkpt lat="46.00168242789866" lon="7.513193541701081">
      <ele>2774.9</ele></trkpt>
      <trkpt lat="46.00171500880749" lon="7.513207707528102">
      <ele>2776.5</ele></trkpt>
      <trkpt lat="46.00175810642987" lon="7.513179433013834">
      <ele>2778.1</ele></trkpt>
      <trkpt lat="46.001808231354545" lon="7.513121066341763">
      <ele>2779.7</ele></trkpt>
      <trkpt lat="46.001845549500665" lon="7.513045023854638">
      <ele>2781.3</ele></trkpt>
      <trkpt lat="46.0018666162838" lon="7.512922993404156">
      <ele>2783.0</ele></trkpt>
      <trkpt lat="46.00195289312595" lon="7.512783302562925">
      <ele>2784.6</ele></trkpt>
      <trkpt lat="46.00200069734787" lon="7.512710784854032">
      <ele>2786.2</ele></trkpt>
      <trkpt lat="46.00205196645019" lon="7.512663055361401">
      <ele>2787.9</ele></trkpt>
      <trkpt lat="46.00211252950422" lon="7.512640070396283">
      <ele>2789.7</ele></trkpt>
      <trkpt lat="46.00215678244703" lon="7.512633017838592">
      <ele>2791.4</ele></trkpt>
      <trkpt lat="46.00218825151822" lon="7.512587042708325">
      <ele>2793.2</ele></trkpt>
      <trkpt lat="46.002230266624025" lon="7.512480929572234">
      <ele>2794.9</ele></trkpt>
      <trkpt lat="46.002260756469795" lon="7.512446647804939">
      <ele>2796.6</ele></trkpt>
      <trkpt lat="46.00229714518785" lon="7.512484195247059">
      <ele>2798.4</ele></trkpt>
      <trkpt lat="46.00228715751367" lon="7.5125296057592585">
      <ele>2800.1</ele></trkpt>
      <trkpt lat="46.00232845855011" lon="7.512620638666776">
      <ele>2801.9</ele></trkpt>
      <trkpt lat="46.00232177780481" lon="7.512684783478927">
      <ele>2803.6</ele></trkpt>
      <trkpt lat="46.002356514624374" lon="7.512703586139888">
      <ele>2805.3</ele></trkpt>
      <trkpt lat="46.002381320741044" lon="7.512735748307847">
      <ele>2807.1</ele></trkpt>
      <trkpt lat="46.00239281643316" lon="7.512832033492604">
      <ele>2808.8</ele></trkpt>
      <trkpt lat="46.002440728652914" lon="7.51290970283657">
      <ele>2810.6</ele></trkpt>
      <trkpt lat="46.00235464333397" lon="7.512936164024865">
      <ele>2812.3</ele></trkpt>
      <trkpt lat="46.00236945975038" lon="7.513016408790447">
      <ele>2814.0</ele></trkpt>
      <trkpt lat="46.00236608907076" lon="7.513080571014192">
      <ele>2815.8</ele></trkpt>
      <trkpt lat="46.00233786446017" lon="7.513171380682708">
      <ele>2817.5</ele></trkpt>
      <trkpt lat="46.00234935447707" lon="7.513275668974696">
      <ele>2819.3</ele></trkpt>
      <trkpt lat="46.00238078266093" lon="7.513291808410216">
      <ele>2821.0</ele></trkpt>
      <trkpt lat="46.00241874250523" lon="7.513414901556833">
      <ele>2822.7</ele></trkpt>
      <trkpt lat="46.00244677299755" lon="7.513521923422169">
      <ele>2824.5</ele></trkpt>
      <trkpt lat="46.0024781387082" lon="7.513604876072059">
      <ele>2826.2</ele></trkpt>
      <trkpt lat="46.00251277713453" lon="7.513730637107823">
      <ele>2827.9</ele></trkpt>
      <trkpt lat="46.00253752572897" lon="7.513821609829997">
      <ele>2829.7</ele></trkpt>
      <trkpt lat="46.00259528759825" lon="7.513992891754835">
      <ele>2831.4</ele></trkpt>
      <trkpt lat="46.00260842121066" lon="7.5140998679010425">
      <ele>2833.1</ele></trkpt>
      <trkpt lat="46.00267440452016" lon="7.514337987984423">
      <ele>2834.8</ele></trkpt>
      <trkpt lat="46.002725631394384" lon="7.514421020588827">
      <ele>2836.6</ele></trkpt>
      <trkpt lat="46.00276194205853" lon="7.514533424917409">
      <ele>2838.3</ele></trkpt>
      <trkpt lat="46.00285114164565" lon="7.514718150862316">
      <ele>2840.0</ele></trkpt>
      <trkpt lat="46.00291064035922" lon="7.51480656548188">
      <ele>2841.8</ele></trkpt>
      <trkpt lat="46.00297593239667" lon="7.51485457225204">
      <ele>2843.5</ele></trkpt>
      <trkpt lat="46.00302530740705" lon="7.515001667528754">
      <ele>2845.2</ele></trkpt>
      <trkpt lat="46.003077938177576" lon="7.515056562943446">
      <ele>2846.9</ele></trkpt>
      <trkpt lat="46.00312893498105" lon="7.515172938932703">
      <ele>2848.7</ele></trkpt>
      <trkpt lat="46.00319156144279" lon="7.5152779462008725">
      <ele>2850.4</ele></trkpt>
      <trkpt lat="46.003232729622624" lon="7.515494633197065">
      <ele>2852.1</ele></trkpt>
      <trkpt lat="46.003303762905716" lon="7.515631188202024">
      <ele>2853.9</ele></trkpt>
      <trkpt lat="46.00335660567862" lon="7.515730760990672">
      <ele>2855.6</ele></trkpt>
      <trkpt lat="46.003385092199984" lon="7.515825446026113">
      <ele>2856.7</ele></trkpt>
      <trkpt lat="46.00345751130039" lon="7.515829498183426">
      <ele>2857.9</ele></trkpt>
      <trkpt lat="46.003515666757195" lon="7.515855358502147">
      <ele>2859.0</ele></trkpt>
      <trkpt lat="46.003537794329496" lon="7.515896296783743">
      <ele>2860.1</ele></trkpt>
      <trkpt lat="46.00354159898252" lon="7.515949317392344">
      <ele>2861.2</ele></trkpt>
      <trkpt lat="46.00353507166217" lon="7.516062335039698">
      <ele>2862.4</ele></trkpt>
      <trkpt lat="46.00356174878147" lon="7.5161193251403215">
      <ele>2863.5</ele></trkpt>
      <trkpt lat="46.00358427022175" lon="7.516189063022043">
      <ele>2864.6</ele></trkpt>
      <trkpt lat="46.00366365102802" lon="7.516298601185849">
      <ele>2865.8</ele></trkpt>
      <trkpt lat="46.00370250483793" lon="7.516320742852295">
      <ele>2866.9</ele></trkpt>
      <trkpt lat="46.003732350499504" lon="7.516374407348945">
      <ele>2868.0</ele></trkpt>
      <trkpt lat="46.00375908414878" lon="7.516362311285657">
      <ele>2869.2</ele></trkpt>
      <trkpt lat="46.00377739514844" lon="7.516393614742875">
      <ele>2870.3</ele></trkpt>
      <trkpt lat="46.003807182394496" lon="7.516375494715823">
      <ele>2871.4</ele></trkpt>
      <trkpt lat="46.00385374595894" lon="7.516435676129256">
      <ele>2872.5</ele></trkpt>
      <trkpt lat="46.00388064631986" lon="7.516429673158894">
      <ele>2873.7</ele></trkpt>
      <trkpt lat="46.00395011500929" lon="7.51647265430454">
      <ele>2874.8</ele></trkpt>
      <trkpt lat="46.004001481368334" lon="7.516416678167602">
      <ele>2875.9</ele></trkpt>
      <trkpt lat="46.00405275241691" lon="7.51645962060075">
      <ele>2877.1</ele></trkpt>
      <trkpt lat="46.0040675462421" lon="7.5165559013012615">
      <ele>2878.2</ele></trkpt>
      <trkpt lat="46.00417335619653" lon="7.5166899018313655">
      <ele>2879.9</ele></trkpt>
      <trkpt lat="46.00427754265373" lon="7.51676508861252">
      <ele>2881.6</ele></trkpt>
      <trkpt lat="46.004298985933104" lon="7.516845359619266">
      <ele>2883.3</ele></trkpt>
      <trkpt lat="46.004333144439414" lon="7.516892834983436">
      <ele>2885.0</ele></trkpt>
      <trkpt lat="46.004322413896" lon="7.516982044508176">
      <ele>2886.7</ele></trkpt>
      <trkpt lat="46.004367456316054" lon="7.517030168097928">
      <ele>2888.4</ele></trkpt>
      <trkpt lat="46.0044071336113" lon="7.5171096522430885">
      <ele>2890.1</ele></trkpt>
      <trkpt lat="46.00443763201999" lon="7.517245779690056">
      <ele>2891.8</ele></trkpt>
      <trkpt lat="46.00448492804324" lon="7.517377064872513">
      <ele>2893.5</ele></trkpt>
      <trkpt lat="46.00456202203415" lon="7.517449245353719">
      <ele>2895.2</ele></trkpt>
      <trkpt lat="46.0046062824752" lon="7.517534739266462">
      <ele>2897.0</ele></trkpt>
      <trkpt lat="46.00466046646815" lon="7.517617807884794">
      <ele>2898.7</ele></trkpt>
      <trkpt lat="46.004660456565944" lon="7.517657579793305">
      <ele>2900.4</ele></trkpt>
      <trkpt lat="46.00473174664771" lon="7.517744997790108">
      <ele>2902.1</ele></trkpt>
      <trkpt lat="46.004849220497746" lon="7.517804690181854">
      <ele>2903.8</ele></trkpt>
      <trkpt lat="46.004916896526936" lon="7.517914538986026">
      <ele>2905.5</ele></trkpt>
      <trkpt lat="46.00503938857449" lon="7.51812641919205">
      <ele>2907.2</ele></trkpt>
      <trkpt lat="46.00536402082087" lon="7.518425051111255">
      <ele>2908.9</ele></trkpt>
      <trkpt lat="46.00562112470906" lon="7.518612367682666">
      <ele>2910.6</ele></trkpt>
      <trkpt lat="46.00567052577604" lon="7.518707093910674">
      <ele>2912.3</ele></trkpt>
      <trkpt lat="46.00567038768323" lon="7.518901135481018">
      <ele>2918.2</ele></trkpt>
      <trkpt lat="46.00567189641971" lon="7.519097545693959">
      <ele>2924.1</ele></trkpt>
      <trkpt lat="46.00570307920076" lon="7.519303464553112">
      <ele>2930.0</ele></trkpt>
      <trkpt lat="46.005779159088185" lon="7.519508574776323">
      <ele>2935.9</ele></trkpt>
      <trkpt lat="46.005636910952234" lon="7.519596795057909">
      <ele>2941.8</ele></trkpt>
      <trkpt lat="46.00556757291209" lon="7.519710277329633">
      <ele>2947.6</ele></trkpt>
      <trkpt lat="46.0055341480983" lon="7.519826065219115">
      <ele>2953.5</ele></trkpt>
      <trkpt lat="46.00550114215177" lon="7.519878542839801">
      <ele>2959.4</ele></trkpt>
      <trkpt lat="46.00542972805368" lon="7.519915511315015">
      <ele>2965.3</ele></trkpt>
      <trkpt lat="46.00539681425702" lon="7.5200271635219575">
      <ele>2971.2</ele></trkpt>
      <trkpt lat="46.00541561844476" lon="7.520196001824235">
      <ele>2977.1</ele></trkpt>
      <trkpt lat="46.00544238112304" lon="7.520380239605732">
      <ele>2983.0</ele></trkpt>
      <trkpt lat="46.005412180188706" lon="7.520533539886216">
      <ele>2988.9</ele></trkpt>
      <trkpt lat="46.00538874683864" lon="7.520781111248772">
      <ele>2994.8</ele></trkpt>
      <trkpt lat="46.00536391054247" lon="7.520978270887379">
      <ele>3000.7</ele></trkpt>
      <trkpt lat="46.00535764065132" lon="7.521199623883065">
      <ele>3006.5</ele></trkpt>
      <trkpt lat="46.00534603163288" lon="7.521390271307521">
      <ele>3012.4</ele></trkpt>
      <trkpt lat="46.005342458165316" lon="7.521637923768972">
      <ele>3018.3</ele></trkpt>
      <trkpt lat="46.00534268592438" lon="7.521780400001175">
      <ele>3024.2</ele></trkpt>
      <trkpt lat="46.005342893016405" lon="7.521914085220342">
      <ele>3030.1</ele></trkpt>
      <trkpt lat="46.005369573291745" lon="7.522047901160617">
      <ele>3034.4</ele></trkpt>
      <trkpt lat="46.00543320926981" lon="7.522105146109826">
      <ele>3038.6</ele></trkpt>
      <trkpt lat="46.005515310088725" lon="7.522129591861064">
      <ele>3042.9</ele></trkpt>
      <trkpt lat="46.00560668100852" lon="7.522147494066315">
      <ele>3047.2</ele></trkpt>
      <trkpt lat="46.005692779121965" lon="7.522191683945469">
      <ele>3051.4</ele></trkpt>
      <trkpt lat="46.00573266256239" lon="7.5223036273666635">
      <ele>3055.7</ele></trkpt>
      <trkpt lat="46.00577519542076" lon="7.522409004309362">
      <ele>3060.0</ele></trkpt>
      <trkpt lat="46.00584018876726" lon="7.522503520609894">
      <ele>3064.2</ele></trkpt>
      <trkpt lat="46.00589857698091" lon="7.522589235926901">
      <ele>3068.5</ele></trkpt>
      <trkpt lat="46.00594238364365" lon="7.522674890303422">
      <ele>3072.8</ele></trkpt>
      <trkpt lat="46.00597289258853" lon="7.522775886178542">
      <ele>3077.0</ele></trkpt>
      <trkpt lat="46.005989841928695" lon="7.522905558186128">
      <ele>3081.3</ele></trkpt>
      <trkpt lat="46.00600300560154" lon="7.523045177341945">
      <ele>3085.5</ele></trkpt>
      <trkpt lat="46.00602369776807" lon="7.523221379660034">
      <ele>3089.8</ele></trkpt>
      <trkpt lat="46.00602737793241" lon="7.5233875383005095">
      <ele>3094.1</ele></trkpt>
      <trkpt lat="46.00601778318743" lon="7.523550332906191">
      <ele>3098.3</ele></trkpt>
      <trkpt lat="46.006021446343865" lon="7.523726457344754">
      <ele>3102.6</ele></trkpt>
      <trkpt lat="46.006044037981624" lon="7.523899345303227">
      <ele>3106.9</ele></trkpt>
      <trkpt lat="46.00604544154376" lon="7.524088917602699">
      <ele>3111.1</ele></trkpt>
      <trkpt lat="46.00604945989199" lon="7.5244662232947315">
      <ele>3115.4</ele></trkpt>
      <trkpt lat="46.00606897466479" lon="7.524823576620993">
      <ele>3124.9</ele></trkpt>
      <trkpt lat="46.006088488304016" lon="7.52518093020201">
      <ele>3134.5</ele></trkpt>
      <trkpt lat="46.00608492738738" lon="7.525521683714165">
      <ele>3144.0</ele></trkpt>
      <trkpt lat="46.00598744405283" lon="7.52577473029145">
      <ele>3153.5</ele></trkpt>
      <trkpt lat="46.00582407397067" lon="7.525935382667179">
      <ele>3163.1</ele></trkpt>
      <trkpt lat="46.00572995726886" lon="7.5260985122976605">
      <ele>3172.6</ele></trkpt>
      <trkpt lat="46.005703376940176" lon="7.526351669874123">
      <ele>3182.1</ele></trkpt>
      <trkpt lat="46.005721402736896" lon="7.5264960461705925">
      <ele>3191.6</ele></trkpt>
      <trkpt lat="46.00577898134231" lon="7.5266688834773525">
      <ele>3201.2</ele></trkpt>
      <trkpt lat="46.00580353543029" lon="7.526898461239845">
      <ele>3210.7</ele></trkpt>
      <trkpt lat="46.00584104136763" lon="7.5272887274387426">
      <ele>3220.2</ele></trkpt>
      <trkpt lat="46.00582799094517" lon="7.527466804483353">
      <ele>3229.8</ele></trkpt>
      <trkpt lat="46.00581966074918" lon="7.527525772172266">
      <ele>3239.3</ele></trkpt>
      <trkpt lat="46.00580655003782" lon="7.527586560946121">
      <ele>3248.8</ele></trkpt>
      <trkpt lat="46.00578356188767" lon="7.527648248058949">
      <ele>3258.3</ele></trkpt>
      <trkpt lat="46.00578895464612" lon="7.527677976031362">
      <ele>3267.9</ele></trkpt>
      <trkpt lat="46.00582016216792" lon="7.5276976872222905">
      <ele>3277.4</ele></trkpt>
      <trkpt lat="46.0058877189514" lon="7.527681337293014">
      <ele>3286.9</ele></trkpt>
      <trkpt lat="46.00595463852769" lon="7.5276649862865765">
      <ele>3296.5</ele></trkpt>
      <trkpt lat="46.0060049531781" lon="7.527696159133098">
      <ele>3306.0</ele></trkpt>
      </trkseg>
  </trk>
</gpx>