<?xml version="1.0" encoding="UTF-8"?>
<gpx version="1.1" creator="hike-planner" xmlns="http://www.topografix.com/GPX/1/1">
  <metadata><name>Brülisau -> Hoher Kasten</name>
    <desc>Routed from OSM (ODbL); elevations from SwissTopo / Open-Elevation</desc>
  </metadata>
  <wpt lat="47.257817" lon="9.412599">
    <ele>1637.4</ele>
    <name>Brülisau</name>
  </wpt>
  <wpt lat="47.260498" lon="9.453312">
    <ele>1747.1</ele>
    <name>Staubern</name>
  </wpt>
  <wpt lat="47.276871" lon="9.426345">
    <ele>1085.1</ele>
    <name>Hoher Kasten</name>
  </wpt>
  <trk>
    <name>Brülisau -> Hoher Kasten</name>
    <trkseg>
      <trkpt lat="47.257817" lon="9.412599">
        <ele>1637.4</ele>
      </trkpt>
      <trkpt lat="47.257664" lon="9.412740">
        <ele>1632.5</ele>
      </trkpt>
      <trkpt lat="47.257565" lon="9.412900">
        <ele>1627.7</ele>
      </trkpt>
      <trkpt lat="47.257525" lon="9.413086">
        <ele>1622.6</ele>
      </trkpt>
      <trkpt lat="47.257564" lon="9.413175">
        <ele>1619.0</ele>
      </trkpt>
      <trkpt lat="47.257659" lon="9.413426">
        <ele>1613.7</ele>
      </trkpt>
      <trkpt lat="47.257739" lon="9.413708">
        <ele>1608.3</ele>
      </trkpt>
      <trkpt lat="47.257841" lon="9.413726">
        <ele>1606.1</ele>
      </trkpt>
      <trkpt lat="47.257920" lon="9.413692">
        <ele>1602.9</ele>
      </trkpt>
      <trkpt lat="47.257906" lon="9.413870">
        <ele>1598.5</ele>
      </trkpt>
      <trkpt lat="47.257827" lon="9.414078">
        <ele>1595.3</ele>
      </trkpt>
      <trkpt lat="47.257869" lon="9.414328">
        <ele>1589.0</ele>
      </trkpt>
      <trkpt lat="47.257920" lon="9.414370">
        <ele>1586.5</ele>
      </trkpt>
      <trkpt lat="47.257940" lon="9.414424">
        <ele>1583.2</ele>
      </trkpt>
      <trkpt lat="47.257914" lon="9.414616">
        <ele>1579.2</ele>
      </trkpt>
      <trkpt lat="47.257924" lon="9.414820">
        <ele>1574.9</ele>
      </trkpt>
      <trkpt lat="47.257996" lon="9.414968">
        <ele>1572.5</ele>
      </trkpt>
      <trkpt lat="47.258053" lon="9.415039">
        <ele>1570.7</ele>
      </trkpt>
      <trkpt lat="47.258004" lon="9.415448">
        <ele>1563.2</ele>
      </trkpt>
      <trkpt lat="47.257903" lon="9.415509">
        <ele>1561.0</ele>
      </trkpt>
      <trkpt lat="47.257907" lon="9.415583">
        <ele>1558.4</ele>
      </trkpt>
      <trkpt lat="47.257998" lon="9.415778">
        <ele>1552.8</ele>
      </trkpt>
      <trkpt lat="47.258165" lon="9.415837">
        <ele>1547.8</ele>
      </trkpt>
      <trkpt lat="47.258184" lon="9.416228">
        <ele>1540.1</ele>
      </trkpt>
      <trkpt lat="47.258221" lon="9.416325">
        <ele>1537.1</ele>
      </trkpt>
      <trkpt lat="47.258174" lon="9.416473">
        <ele>1533.0</ele>
      </trkpt>
      <trkpt lat="47.258128" lon="9.416703">
        <ele>1528.5</ele>
      </trkpt>
      <trkpt lat="47.258081" lon="9.416872">
        <ele>1525.0</ele>
      </trkpt>
      <trkpt lat="47.258071" lon="9.417069">
        <ele>1521.3</ele>
      </trkpt>
      <trkpt lat="47.258053" lon="9.417451">
        <ele>1513.3</ele>
      </trkpt>
      <trkpt lat="47.258000" lon="9.417568">
        <ele>1510.3</ele>
      </trkpt>
      <trkpt lat="47.258016" lon="9.417714">
        <ele>1506.2</ele>
      </trkpt>
      <trkpt lat="47.257948" lon="9.417803">
        <ele>1503.7</ele>
      </trkpt>
      <trkpt lat="47.258005" lon="9.417947">
        <ele>1496.7</ele>
      </trkpt>
      <trkpt lat="47.258004" lon="9.418028">
        <ele>1494.2</ele>
      </trkpt>
      <trkpt lat="47.257798" lon="9.418153">
        <ele>1486.0</ele>
      </trkpt>
      <trkpt lat="47.257807" lon="9.418296">
        <ele>1481.0</ele>
      </trkpt>
      <trkpt lat="47.257746" lon="9.418317">
        <ele>1478.5</ele>
      </trkpt>
      <trkpt lat="47.257781" lon="9.418496">
        <ele>1472.8</ele>
      </trkpt>
      <trkpt lat="47.257647" lon="9.418362">
        <ele>1470.7</ele>
      </trkpt>
      <trkpt lat="47.257408" lon="9.419150">
        <ele>1460.7</ele>
      </trkpt>
      <trkpt lat="47.257588" lon="9.418940">
        <ele>1455.2</ele>
      </trkpt>
      <trkpt lat="47.257617" lon="9.419000">
        <ele>1453.3</ele>
      </trkpt>
      <trkpt lat="47.257546" lon="9.419359">
        <ele>1445.0</ele>
      </trkpt>
      <trkpt lat="47.257626" lon="9.419302">
        <ele>1442.4</ele>
      </trkpt>
      <trkpt lat="47.257588" lon="9.419703">
        <ele>1434.4</ele>
      </trkpt>
      <trkpt lat="47.257522" lon="9.419824">
        <ele>1433.2</ele>
      </trkpt>
      <trkpt lat="47.257340" lon="9.420166">
        <ele>1431.2</ele>
      </trkpt>
      <trkpt lat="47.257223" lon="9.420539">
        <ele>1430.8</ele>
      </trkpt>
      <trkpt lat="47.257064" lon="9.421119">
        <ele>1432.0</ele>
      </trkpt>
      <trkpt lat="47.256879" lon="9.421792">
        <ele>1424.4</ele>
      </trkpt>
      <trkpt lat="47.256710" lon="9.422430">
        <ele>1412.5</ele>
      </trkpt>
      <trkpt lat="47.256479" lon="9.422928">
        <ele>1404.6</ele>
      </trkpt>
      <trkpt lat="47.256524" lon="9.423832">
        <ele>1400.3</ele>
      </trkpt>
      <trkpt lat="47.256587" lon="9.424492">
        <ele>1403.0</ele>
      </trkpt>
      <trkpt lat="47.256611" lon="9.424804">
        <ele>1405.1</ele>
      </trkpt>
      <trkpt lat="47.256525" lon="9.424942">
        <ele>1414.0</ele>
      </trkpt>
      <trkpt lat="47.256194" lon="9.424911">
        <ele>1431.3</ele>
      </trkpt>
      <trkpt lat="47.255727" lon="9.424885">
        <ele>1449.6</ele>
      </trkpt>
      <trkpt lat="47.255533" lon="9.424953">
        <ele>1460.6</ele>
      </trkpt>
      <trkpt lat="47.255426" lon="9.424886">
        <ele>1465.5</ele>
      </trkpt>
      <trkpt lat="47.255079" lon="9.424856">
        <ele>1469.7</ele>
      </trkpt>
      <trkpt lat="47.254654" lon="9.424638">
        <ele>1478.0</ele>
      </trkpt>
      <trkpt lat="47.254364" lon="9.424599">
        <ele>1472.6</ele>
      </trkpt>
      <trkpt lat="47.254021" lon="9.424749">
        <ele>1468.6</ele>
      </trkpt>
      <trkpt lat="47.253733" lon="9.424721">
        <ele>1466.5</ele>
      </trkpt>
      <trkpt lat="47.253489" lon="9.424695">
        <ele>1471.4</ele>
      </trkpt>
      <trkpt lat="47.253163" lon="9.424405">
        <ele>1476.9</ele>
      </trkpt>
      <trkpt lat="47.252952" lon="9.424532">
        <ele>1476.8</ele>
      </trkpt>
      <trkpt lat="47.252811" lon="9.424839">
        <ele>1475.0</ele>
      </trkpt>
      <trkpt lat="47.252822" lon="9.425391">
        <ele>1473.8</ele>
      </trkpt>
      <trkpt lat="47.252931" lon="9.426756">
        <ele>1471.6</ele>
      </trkpt>
      <trkpt lat="47.253051" lon="9.427138">
        <ele>1470.3</ele>
      </trkpt>
      <trkpt lat="47.253344" lon="9.427779">
        <ele>1462.7</ele>
      </trkpt>
      <trkpt lat="47.253524" lon="9.428073">
        <ele>1459.1</ele>
      </trkpt>
      <trkpt lat="47.254244" lon="9.429614">
        <ele>1466.6</ele>
      </trkpt>
      <trkpt lat="47.254493" lon="9.430049">
        <ele>1470.1</ele>
      </trkpt>
      <trkpt lat="47.254742" lon="9.430508">
        <ele>1471.9</ele>
      </trkpt>
      <trkpt lat="47.254553" lon="9.430923">
        <ele>1471.0</ele>
      </trkpt>
      <trkpt lat="47.254648" lon="9.431226">
        <ele>1471.5</ele>
      </trkpt>
      <trkpt lat="47.254967" lon="9.432142">
        <ele>1475.3</ele>
      </trkpt>
      <trkpt lat="47.255066" lon="9.432510">
        <ele>1476.8</ele>
      </trkpt>
      <trkpt lat="47.255426" lon="9.433209">
        <ele>1477.4</ele>
      </trkpt>
      <trkpt lat="47.255486" lon="9.433429">
        <ele>1476.0</ele>
      </trkpt>
      <trkpt lat="47.255672" lon="9.433894">
        <ele>1474.5</ele>
      </trkpt>
      <trkpt lat="47.255714" lon="9.434221">
        <ele>1472.6</ele>
      </trkpt>
      <trkpt lat="47.255566" lon="9.434559">
        <ele>1472.3</ele>
      </trkpt>
      <trkpt lat="47.255753" lon="9.435122">
        <ele>1472.0</ele>
      </trkpt>
      <trkpt lat="47.256202" lon="9.436091">
        <ele>1472.8</ele>
      </trkpt>
      <trkpt lat="47.256315" lon="9.436510">
        <ele>1473.2</ele>
      </trkpt>
      <trkpt lat="47.256550" lon="9.436926">
        <ele>1474.1</ele>
      </trkpt>
      <trkpt lat="47.256787" lon="9.436822">
        <ele>1474.4</ele>
      </trkpt>
      <trkpt lat="47.257080" lon="9.437084">
        <ele>1476.9</ele>
      </trkpt>
      <trkpt lat="47.257214" lon="9.437480">
        <ele>1480.5</ele>
      </trkpt>
      <trkpt lat="47.257351" lon="9.437853">
        <ele>1480.8</ele>
      </trkpt>
      <trkpt lat="47.257556" lon="9.438466">
        <ele>1482.4</ele>
      </trkpt>
      <trkpt lat="47.257805" lon="9.438729">
        <ele>1480.6</ele>
      </trkpt>
      <trkpt lat="47.258095" lon="9.439269">
        <ele>1476.3</ele>
      </trkpt>
      <trkpt lat="47.258294" lon="9.439442">
        <ele>1473.6</ele>
      </trkpt>
      <trkpt lat="47.258638" lon="9.440042">
        <ele>1474.2</ele>
      </trkpt>
      <trkpt lat="47.259116" lon="9.440881">
        <ele>1477.4</ele>
      </trkpt>
      <trkpt lat="47.259203" lon="9.441067">
        <ele>1478.7</ele>
      </trkpt>
      <trkpt lat="47.259442" lon="9.441396">
        <ele>1479.2</ele>
      </trkpt>
      <trkpt lat="47.259584" lon="9.441551">
        <ele>1477.2</ele>
      </trkpt>
      <trkpt lat="47.259601" lon="9.441840">
        <ele>1474.8</ele>
      </trkpt>
      <trkpt lat="47.259779" lon="9.442426">
        <ele>1471.8</ele>
      </trkpt>
      <trkpt lat="47.259927" lon="9.442636">
        <ele>1469.2</ele>
      </trkpt>
      <trkpt lat="47.260080" lon="9.442808">
        <ele>1465.6</ele>
      </trkpt>
      <trkpt lat="47.260258" lon="9.442705">
        <ele>1462.5</ele>
      </trkpt>
      <trkpt lat="47.260608" lon="9.442887">
        <ele>1461.3</ele>
      </trkpt>
      <trkpt lat="47.260971" lon="9.443222">
        <ele>1457.1</ele>
      </trkpt>
      <trkpt lat="47.261183" lon="9.443426">
        <ele>1454.4</ele>
      </trkpt>
      <trkpt lat="47.261464" lon="9.443819">
        <ele>1449.9</ele>
      </trkpt>
      <trkpt lat="47.261601" lon="9.444181">
        <ele>1447.5</ele>
      </trkpt>
      <trkpt lat="47.261920" lon="9.444591">
        <ele>1439.8</ele>
      </trkpt>
      <trkpt lat="47.262100" lon="9.444883">
        <ele>1436.4</ele>
      </trkpt>
      <trkpt lat="47.262400" lon="9.445456">
        <ele>1432.9</ele>
      </trkpt>
      <trkpt lat="47.262528" lon="9.445950">
        <ele>1432.7</ele>
      </trkpt>
      <trkpt lat="47.262629" lon="9.446261">
        <ele>1431.8</ele>
      </trkpt>
      <trkpt lat="47.262751" lon="9.446805">
        <ele>1431.9</ele>
      </trkpt>
      <trkpt lat="47.262891" lon="9.447664">
        <ele>1433.4</ele>
      </trkpt>
      <trkpt lat="47.263227" lon="9.448324">
        <ele>1435.0</ele>
      </trkpt>
      <trkpt lat="47.263413" lon="9.448764">
        <ele>1437.1</ele>
      </trkpt>
      <trkpt lat="47.263569" lon="9.449324">
        <ele>1438.0</ele>
      </trkpt>
      <trkpt lat="47.263618" lon="9.449627">
        <ele>1438.3</ele>
      </trkpt>
      <trkpt lat="47.263807" lon="9.449958">
        <ele>1436.7</ele>
      </trkpt>
      <trkpt lat="47.264197" lon="9.450919">
        <ele>1429.6</ele>
      </trkpt>
      <trkpt lat="47.264041" lon="9.451461">
        <ele>1435.5</ele>
      </trkpt>
      <trkpt lat="47.263843" lon="9.451725">
        <ele>1449.2</ele>
      </trkpt>
      <trkpt lat="47.263600" lon="9.451553">
        <ele>1460.7</ele>
      </trkpt>
      <trkpt lat="47.263422" lon="9.451642">
        <ele>1473.1</ele>
      </trkpt>
      <trkpt lat="47.263342" lon="9.451916">
        <ele>1483.8</ele>
      </trkpt>
      <trkpt lat="47.263130" lon="9.451973">
        <ele>1500.5</ele>
      </trkpt>
      <trkpt lat="47.262920" lon="9.452180">
        <ele>1523.4</ele>
      </trkpt>
      <trkpt lat="47.262913" lon="9.452540">
        <ele>1547.6</ele>
      </trkpt>
      <trkpt lat="47.263078" lon="9.453184">
        <ele>1561.7</ele>
      </trkpt>
      <trkpt lat="47.263259" lon="9.453683">
        <ele>1570.2</ele>
      </trkpt>
      <trkpt lat="47.263208" lon="9.453923">
        <ele>1578.7</ele>
      </trkpt>
      <trkpt lat="47.263201" lon="9.453833">
        <ele>1582.1</ele>
      </trkpt>
      <trkpt lat="47.263182" lon="9.453822">
        <ele>1583.9</ele>
      </trkpt>
      <trkpt lat="47.263132" lon="9.453879">
        <ele>1588.3</ele>
      </trkpt>
      <trkpt lat="47.263075" lon="9.453966">
        <ele>1591.7</ele>
      </trkpt>
      <trkpt lat="47.262996" lon="9.454023">
        <ele>1596.7</ele>
      </trkpt>
      <trkpt lat="47.262962" lon="9.453970">
        <ele>1601.1</ele>
      </trkpt>
      <trkpt lat="47.262946" lon="9.454159">
        <ele>1606.2</ele>
      </trkpt>
      <trkpt lat="47.262835" lon="9.454078">
        <ele>1611.6</ele>
      </trkpt>
      <trkpt lat="47.262803" lon="9.454301">
        <ele>1622.5</ele>
      </trkpt>
      <trkpt lat="47.262930" lon="9.454415">
        <ele>1621.2</ele>
      </trkpt>
      <trkpt lat="47.262947" lon="9.454487">
        <ele>1626.5</ele>
      </trkpt>
      <trkpt lat="47.262787" lon="9.454519">
        <ele>1630.5</ele>
      </trkpt>
      <trkpt lat="47.262722" lon="9.454481">
        <ele>1633.4</ele>
      </trkpt>
      <trkpt lat="47.262748" lon="9.454572">
        <ele>1634.8</ele>
      </trkpt>
      <trkpt lat="47.262634" lon="9.454464">
        <ele>1640.2</ele>
      </trkpt>
      <trkpt lat="47.262623" lon="9.454660">
        <ele>1644.1</ele>
      </trkpt>
      <trkpt lat="47.262728" lon="9.455125">
        <ele>1664.4</ele>
      </trkpt>
      <trkpt lat="47.262691" lon="9.455364">
        <ele>1673.9</ele>
      </trkpt>
      <trkpt lat="47.262612" lon="9.455475">
        <ele>1679.8</ele>
      </trkpt>
      <trkpt lat="47.262476" lon="9.455446">
        <ele>1689.0</ele>
      </trkpt>
      <trkpt lat="47.262452" lon="9.455637">
        <ele>1694.1</ele>
      </trkpt>
      <trkpt lat="47.262222" lon="9.455373">
        <ele>1704.3</ele>
      </trkpt>
      <trkpt lat="47.261994" lon="9.455378">
        <ele>1719.5</ele>
      </trkpt>
      <trkpt lat="47.261795" lon="9.454991">
        <ele>1725.0</ele>
      </trkpt>
      <trkpt lat="47.261382" lon="9.454264">
        <ele>1730.7</ele>
      </trkpt>
      <trkpt lat="47.261186" lon="9.454021">
        <ele>1735.5</ele>
      </trkpt>
      <trkpt lat="47.261045" lon="9.453843">
        <ele>1738.2</ele>
      </trkpt>
      <trkpt lat="47.260944" lon="9.453753">
        <ele>1740.5</ele>
      </trkpt>
      <trkpt lat="47.260918" lon="9.453833">
        <ele>1742.9</ele>
      </trkpt>
      <trkpt lat="47.260812" lon="9.453607">
        <ele>1745.0</ele>
      </trkpt>
      <trkpt lat="47.260759" lon="9.453549">
        <ele>1746.9</ele>
      </trkpt>
      <trkpt lat="47.260500" lon="9.453357">
        <ele>1743.3</ele>
      </trkpt>
      <trkpt lat="47.260498" lon="9.453312">
        <ele>1747.1</ele>
      </trkpt>
      <trkpt lat="47.260685" lon="9.453563">
        <ele>1746.3</ele>
      </trkpt>
      <trkpt lat="47.260802" lon="9.453566">
        <ele>1745.7</ele>
      </trkpt>
      <trkpt lat="47.260847" lon="9.453706">
        <ele>1745.3</ele>
      </trkpt>
      <trkpt lat="47.260924" lon="9.453757">
        <ele>1741.6</ele>
      </trkpt>
      <trkpt lat="47.261004" lon="9.453788">
        <ele>1739.2</ele>
      </trkpt>
      <trkpt lat="47.261090" lon="9.453883">
        <ele>1736.7</ele>
      </trkpt>
      <trkpt lat="47.261310" lon="9.454158">
        <ele>1732.6</ele>
      </trkpt>
      <trkpt lat="47.261722" lon="9.454840">
        <ele>1725.5</ele>
      </trkpt>
      <trkpt lat="47.261875" lon="9.455156">
        <ele>1722.0</ele>
      </trkpt>
      <trkpt lat="47.262278" lon="9.455703">
        <ele>1710.1</ele>
      </trkpt>
      <trkpt lat="47.262227" lon="9.455358">
        <ele>1702.3</ele>
      </trkpt>
      <trkpt lat="47.262463" lon="9.455447">
        <ele>1689.0</ele>
      </trkpt>
      <trkpt lat="47.262570" lon="9.455626">
        <ele>1683.0</ele>
      </trkpt>
      <trkpt lat="47.262622" lon="9.455310">
        <ele>1675.0</ele>
      </trkpt>
      <trkpt lat="47.262829" lon="9.455225">
        <ele>1666.7</ele>
      </trkpt>
      <trkpt lat="47.262633" lon="9.454975">
        <ele>1659.2</ele>
      </trkpt>
      <trkpt lat="47.262623" lon="9.454465">
        <ele>1640.2</ele>
      </trkpt>
      <trkpt lat="47.262691" lon="9.454542">
        <ele>1636.4</ele>
      </trkpt>
      <trkpt lat="47.262733" lon="9.454530">
        <ele>1633.2</ele>
      </trkpt>
      <trkpt lat="47.262742" lon="9.454485">
        <ele>1632.0</ele>
      </trkpt>
      <trkpt lat="47.262844" lon="9.454526">
        <ele>1629.6</ele>
      </trkpt>
      <trkpt lat="47.262946" lon="9.454434">
        <ele>1624.1</ele>
      </trkpt>
      <trkpt lat="47.262873" lon="9.454438">
        <ele>1622.8</ele>
      </trkpt>
      <trkpt lat="47.262864" lon="9.454190">
        <ele>1614.2</ele>
      </trkpt>
      <trkpt lat="47.262911" lon="9.454152">
        <ele>1607.8</ele>
      </trkpt>
      <trkpt lat="47.262941" lon="9.454101">
        <ele>1602.7</ele>
      </trkpt>
      <trkpt lat="47.262981" lon="9.454028">
        <ele>1598.6</ele>
      </trkpt>
      <trkpt lat="47.263074" lon="9.453898">
        <ele>1592.2</ele>
      </trkpt>
      <trkpt lat="47.263097" lon="9.453922">
        <ele>1589.1</ele>
      </trkpt>
      <trkpt lat="47.263172" lon="9.453799">
        <ele>1585.0</ele>
      </trkpt>
      <trkpt lat="47.263165" lon="9.453865">
        <ele>1585.7</ele>
      </trkpt>
      <trkpt lat="47.263190" lon="9.453899">
        <ele>1580.3</ele>
      </trkpt>
      <trkpt lat="47.263292" lon="9.453780">
        <ele>1573.7</ele>
      </trkpt>
      <trkpt lat="47.263186" lon="9.453516">
        <ele>1566.5</ele>
      </trkpt>
      <trkpt lat="47.262996" lon="9.452890">
        <ele>1555.5</ele>
      </trkpt>
      <trkpt lat="47.262909" lon="9.452403">
        <ele>1543.9</ele>
      </trkpt>
      <trkpt lat="47.263055" lon="9.451899">
        <ele>1503.7</ele>
      </trkpt>
      <trkpt lat="47.263219" lon="9.451981">
        <ele>1494.2</ele>
      </trkpt>
      <trkpt lat="47.263431" lon="9.451899">
        <ele>1477.3</ele>
      </trkpt>
      <trkpt lat="47.263582" lon="9.451891">
        <ele>1466.6</ele>
      </trkpt>
      <trkpt lat="47.263585" lon="9.451415">
        <ele>1459.0</ele>
      </trkpt>
      <trkpt lat="47.264010" lon="9.451649">
        <ele>1439.4</ele>
      </trkpt>
      <trkpt lat="47.264001" lon="9.451101">
        <ele>1429.7</ele>
      </trkpt>
      <trkpt lat="47.264432" lon="9.450850">
        <ele>1425.3</ele>
      </trkpt>
      <trkpt lat="47.264722" lon="9.451066">
        <ele>1416.1</ele>
      </trkpt>
      <trkpt lat="47.264845" lon="9.451156">
        <ele>1409.0</ele>
      </trkpt>
      <trkpt lat="47.265161" lon="9.451680">
        <ele>1394.0</ele>
      </trkpt>
      <trkpt lat="47.265362" lon="9.451744">
        <ele>1383.9</ele>
      </trkpt>
      <trkpt lat="47.265570" lon="9.451736">
        <ele>1372.0</ele>
      </trkpt>
      <trkpt lat="47.265800" lon="9.452076">
        <ele>1353.0</ele>
      </trkpt>
      <trkpt lat="47.265999" lon="9.452509">
        <ele>1344.8</ele>
      </trkpt>
      <trkpt lat="47.266451" lon="9.452492">
        <ele>1316.9</ele>
      </trkpt>
      <trkpt lat="47.266577" lon="9.452409">
        <ele>1312.1</ele>
      </trkpt>
      <trkpt lat="47.266972" lon="9.452867">
        <ele>1291.6</ele>
      </trkpt>
      <trkpt lat="47.267057" lon="9.452977">
        <ele>1282.8</ele>
      </trkpt>
      <trkpt lat="47.267237" lon="9.452977">
        <ele>1270.1</ele>
      </trkpt>
      <trkpt lat="47.267400" lon="9.452514">
        <ele>1253.6</ele>
      </trkpt>
      <trkpt lat="47.267462" lon="9.452473">
        <ele>1250.0</ele>
      </trkpt>
      <trkpt lat="47.267724" lon="9.452051">
        <ele>1238.0</ele>
      </trkpt>
      <trkpt lat="47.267857" lon="9.451954">
        <ele>1232.0</ele>
      </trkpt>
      <trkpt lat="47.267950" lon="9.451931">
        <ele>1228.4</ele>
      </trkpt>
      <trkpt lat="47.268080" lon="9.451906">
        <ele>1224.2</ele>
      </trkpt>
      <trkpt lat="47.268216" lon="9.451956">
        <ele>1220.3</ele>
      </trkpt>
      <trkpt lat="47.268515" lon="9.451687">
        <ele>1211.7</ele>
      </trkpt>
      <trkpt lat="47.269368" lon="9.451125">
        <ele>1211.6</ele>
      </trkpt>
      <trkpt lat="47.269788" lon="9.450833">
        <ele>1211.9</ele>
      </trkpt>
      <trkpt lat="47.270257" lon="9.451711">
        <ele>1211.3</ele>
      </trkpt>
      <trkpt lat="47.270546" lon="9.452661">
        <ele>1211.5</ele>
      </trkpt>
      <trkpt lat="47.270700" lon="9.453302">
        <ele>1209.7</ele>
      </trkpt>
      <trkpt lat="47.270822" lon="9.453715">
        <ele>1209.9</ele>
      </trkpt>
      <trkpt lat="47.271189" lon="9.454754">
        <ele>1208.9</ele>
      </trkpt>
      <trkpt lat="47.271349" lon="9.455094">
        <ele>1210.5</ele>
      </trkpt>
      <trkpt lat="47.271539" lon="9.455646">
        <ele>1208.5</ele>
      </trkpt>
      <trkpt lat="47.271788" lon="9.456246">
        <ele>1208.0</ele>
      </trkpt>
      <trkpt lat="47.272005" lon="9.456507">
        <ele>1208.8</ele>
      </trkpt>
      <trkpt lat="47.272247" lon="9.456471">
        <ele>1216.4</ele>
      </trkpt>
      <trkpt lat="47.272596" lon="9.456389">
        <ele>1232.5</ele>
      </trkpt>
      <trkpt lat="47.272735" lon="9.456518">
        <ele>1241.0</ele>
      </trkpt>
      <trkpt lat="47.273153" lon="9.456261">
        <ele>1251.2</ele>
      </trkpt>
      <trkpt lat="47.273320" lon="9.456339">
        <ele>1258.7</ele>
      </trkpt>
      <trkpt lat="47.273674" lon="9.456610">
        <ele>1267.9</ele>
      </trkpt>
      <trkpt lat="47.273881" lon="9.456729">
        <ele>1271.7</ele>
      </trkpt>
      <trkpt lat="47.274202" lon="9.456777">
        <ele>1280.2</ele>
      </trkpt>
      <trkpt lat="47.274335" lon="9.456348">
        <ele>1298.3</ele>
      </trkpt>
      <trkpt lat="47.274152" lon="9.454951">
        <ele>1313.9</ele>
      </trkpt>
      <trkpt lat="47.274621" lon="9.454914">
        <ele>1343.7</ele>
      </trkpt>
      <trkpt lat="47.274796" lon="9.454405">
        <ele>1360.5</ele>
      </trkpt>
      <trkpt lat="47.274844" lon="9.454148">
        <ele>1368.2</ele>
      </trkpt>
      <trkpt lat="47.275045" lon="9.454113">
        <ele>1377.7</ele>
      </trkpt>
      <trkpt lat="47.275271" lon="9.453681">
        <ele>1400.8</ele>
      </trkpt>
      <trkpt lat="47.275987" lon="9.453373">
        <ele>1446.6</ele>
      </trkpt>
      <trkpt lat="47.276184" lon="9.453259">
        <ele>1459.2</ele>
      </trkpt>
      <trkpt lat="47.276325" lon="9.452821">
        <ele>1477.5</ele>
      </trkpt>
      <trkpt lat="47.276394" lon="9.452441">
        <ele>1493.5</ele>
      </trkpt>
      <trkpt lat="47.276217" lon="9.452070">
        <ele>1500.3</ele>
      </trkpt>
      <trkpt lat="47.276166" lon="9.451307">
        <ele>1514.4</ele>
      </trkpt>
      <trkpt lat="47.276000" lon="9.450661">
        <ele>1525.0</ele>
      </trkpt>
      <trkpt lat="47.276103" lon="9.450615">
        <ele>1530.2</ele>
      </trkpt>
      <trkpt lat="47.276261" lon="9.450057">
        <ele>1549.2</ele>
      </trkpt>
      <trkpt lat="47.275708" lon="9.449537">
        <ele>1566.9</ele>
      </trkpt>
      <trkpt lat="47.275416" lon="9.448330">
        <ele>1578.1</ele>
      </trkpt>
      <trkpt lat="47.274976" lon="9.447509">
        <ele>1579.0</ele>
      </trkpt>
      <trkpt lat="47.274863" lon="9.446949">
        <ele>1582.4</ele>
      </trkpt>
      <trkpt lat="47.274598" lon="9.445577">
        <ele>1593.8</ele>
      </trkpt>
      <trkpt lat="47.274383" lon="9.444851">
        <ele>1592.8</ele>
      </trkpt>
      <trkpt lat="47.274092" lon="9.443755">
        <ele>1584.3</ele>
      </trkpt>
      <trkpt lat="47.273928" lon="9.443148">
        <ele>1577.2</ele>
      </trkpt>
      <trkpt lat="47.273444" lon="9.441835">
        <ele>1575.1</ele>
      </trkpt>
      <trkpt lat="47.273053" lon="9.440813">
        <ele>1570.8</ele>
      </trkpt>
      <trkpt lat="47.272655" lon="9.440371">
        <ele>1568.7</ele>
      </trkpt>
      <trkpt lat="47.272374" lon="9.440116">
        <ele>1566.4</ele>
      </trkpt>
      <trkpt lat="47.272110" lon="9.439708">
        <ele>1569.6</ele>
      </trkpt>
      <trkpt lat="47.271670" lon="9.439025">
        <ele>1574.2</ele>
      </trkpt>
      <trkpt lat="47.271054" lon="9.437386">
        <ele>1579.6</ele>
      </trkpt>
      <trkpt lat="47.270795" lon="9.437152">
        <ele>1585.2</ele>
      </trkpt>
      <trkpt lat="47.270608" lon="9.436929">
        <ele>1589.7</ele>
      </trkpt>
      <trkpt lat="47.270396" lon="9.436530">
        <ele>1593.8</ele>
      </trkpt>
      <trkpt lat="47.269968" lon="9.436336">
        <ele>1585.9</ele>
      </trkpt>
      <trkpt lat="47.269619" lon="9.436148">
        <ele>1574.5</ele>
      </trkpt>
      <trkpt lat="47.269516" lon="9.436005">
        <ele>1571.9</ele>
      </trkpt>
      <trkpt lat="47.269302" lon="9.435638">
        <ele>1567.2</ele>
      </trkpt>
      <trkpt lat="47.269152" lon="9.435358">
        <ele>1561.0</ele>
      </trkpt>
      <trkpt lat="47.269115" lon="9.435196">
        <ele>1562.0</ele>
      </trkpt>
      <trkpt lat="47.269016" lon="9.434885">
        <ele>1558.6</ele>
      </trkpt>
      <trkpt lat="47.269047" lon="9.434734">
        <ele>1559.1</ele>
      </trkpt>
      <trkpt lat="47.269073" lon="9.434430">
        <ele>1561.5</ele>
      </trkpt>
      <trkpt lat="47.269312" lon="9.433719">
        <ele>1558.2</ele>
      </trkpt>
      <trkpt lat="47.269573" lon="9.433093">
        <ele>1553.3</ele>
      </trkpt>
      <trkpt lat="47.270112" lon="9.432321">
        <ele>1556.6</ele>
      </trkpt>
      <trkpt lat="47.270230" lon="9.431983">
        <ele>1552.9</ele>
      </trkpt>
      <trkpt lat="47.270181" lon="9.431161">
        <ele>1548.7</ele>
      </trkpt>
      <trkpt lat="47.270578" lon="9.430300">
        <ele>1546.7</ele>
      </trkpt>
      <trkpt lat="47.270928" lon="9.430131">
        <ele>1547.1</ele>
      </trkpt>
      <trkpt lat="47.270984" lon="9.429513">
        <ele>1536.1</ele>
      </trkpt>
      <trkpt lat="47.271043" lon="9.428791">
        <ele>1524.4</ele>
      </trkpt>
      <trkpt lat="47.271222" lon="9.428460">
        <ele>1516.9</ele>
      </trkpt>
      <trkpt lat="47.270927" lon="9.428467">
        <ele>1509.2</ele>
      </trkpt>
      <trkpt lat="47.271029" lon="9.428127">
        <ele>1502.7</ele>
      </trkpt>
      <trkpt lat="47.270846" lon="9.428075">
        <ele>1495.7</ele>
      </trkpt>
      <trkpt lat="47.270729" lon="9.428079">
        <ele>1493.9</ele>
      </trkpt>
      <trkpt lat="47.270582" lon="9.428136">
        <ele>1487.2</ele>
      </trkpt>
      <trkpt lat="47.270259" lon="9.428027">
        <ele>1481.6</ele>
      </trkpt>
      <trkpt lat="47.269959" lon="9.427917">
        <ele>1474.4</ele>
      </trkpt>
      <trkpt lat="47.269778" lon="9.427446">
        <ele>1463.6</ele>
      </trkpt>
      <trkpt lat="47.269861" lon="9.427343">
        <ele>1460.5</ele>
      </trkpt>
      <trkpt lat="47.269894" lon="9.427160">
        <ele>1454.9</ele>
      </trkpt>
      <trkpt lat="47.269995" lon="9.427143">
        <ele>1451.3</ele>
      </trkpt>
      <trkpt lat="47.269980" lon="9.427013">
        <ele>1448.4</ele>
      </trkpt>
      <trkpt lat="47.270038" lon="9.426890">
        <ele>1445.0</ele>
      </trkpt>
      <trkpt lat="47.270181" lon="9.426775">
        <ele>1440.7</ele>
      </trkpt>
      <trkpt lat="47.270103" lon="9.426347">
        <ele>1434.1</ele>
      </trkpt>
      <trkpt lat="47.270175" lon="9.426253">
        <ele>1430.7</ele>
      </trkpt>
      <trkpt lat="47.270360" lon="9.426436">
        <ele>1423.5</ele>
      </trkpt>
      <trkpt lat="47.270612" lon="9.426462">
        <ele>1421.2</ele>
      </trkpt>
      <trkpt lat="47.270894" lon="9.426306">
        <ele>1416.0</ele>
      </trkpt>
      <trkpt lat="47.271097" lon="9.426217">
        <ele>1411.0</ele>
      </trkpt>
      <trkpt lat="47.271103" lon="9.426049">
        <ele>1405.7</ele>
      </trkpt>
      <trkpt lat="47.271162" lon="9.426019">
        <ele>1403.5</ele>
      </trkpt>
      <trkpt lat="47.271227" lon="9.425904">
        <ele>1397.9</ele>
      </trkpt>
      <trkpt lat="47.271343" lon="9.425966">
        <ele>1394.8</ele>
      </trkpt>
      <trkpt lat="47.271242" lon="9.425692">
        <ele>1388.9</ele>
      </trkpt>
      <trkpt lat="47.271332" lon="9.425674">
        <ele>1386.1</ele>
      </trkpt>
      <trkpt lat="47.271396" lon="9.425690">
        <ele>1382.3</ele>
      </trkpt>
      <trkpt lat="47.271430" lon="9.425641">
        <ele>1379.4</ele>
      </trkpt>
      <trkpt lat="47.271480" lon="9.425624">
        <ele>1376.8</ele>
      </trkpt>
      <trkpt lat="47.271811" lon="9.425621">
        <ele>1366.9</ele>
      </trkpt>
      <trkpt lat="47.271891" lon="9.425627">
        <ele>1363.3</ele>
      </trkpt>
      <trkpt lat="47.272112" lon="9.425722">
        <ele>1353.4</ele>
      </trkpt>
      <trkpt lat="47.272165" lon="9.425790">
        <ele>1351.0</ele>
      </trkpt>
      <trkpt lat="47.272459" lon="9.426006">
        <ele>1343.4</ele>
      </trkpt>
      <trkpt lat="47.272448" lon="9.425871">
        <ele>1338.6</ele>
      </trkpt>
      <trkpt lat="47.272706" lon="9.425864">
        <ele>1331.6</ele>
      </trkpt>
      <trkpt lat="47.272516" lon="9.425568">
        <ele>1323.5</ele>
      </trkpt>
      <trkpt lat="47.272472" lon="9.425291">
        <ele>1317.7</ele>
      </trkpt>
      <trkpt lat="47.272545" lon="9.425256">
        <ele>1314.6</ele>
      </trkpt>
      <trkpt lat="47.272647" lon="9.425086">
        <ele>1310.4</ele>
      </trkpt>
      <trkpt lat="47.272776" lon="9.425156">
        <ele>1306.3</ele>
      </trkpt>
      <trkpt lat="47.272855" lon="9.424917">
        <ele>1299.8</ele>
      </trkpt>
      <trkpt lat="47.272996" lon="9.425064">
        <ele>1295.2</ele>
      </trkpt>
      <trkpt lat="47.273034" lon="9.424883">
        <ele>1290.9</ele>
      </trkpt>
      <trkpt lat="47.273118" lon="9.424807">
        <ele>1285.2</ele>
      </trkpt>
      <trkpt lat="47.273258" lon="9.424980">
        <ele>1278.6</ele>
      </trkpt>
      <trkpt lat="47.273380" lon="9.424639">
        <ele>1269.1</ele>
      </trkpt>
      <trkpt lat="47.273465" lon="9.424485">
        <ele>1264.3</ele>
      </trkpt>
      <trkpt lat="47.273672" lon="9.424593">
        <ele>1258.9</ele>
      </trkpt>
      <trkpt lat="47.273766" lon="9.424511">
        <ele>1254.8</ele>
      </trkpt>
      <trkpt lat="47.273851" lon="9.424546">
        <ele>1252.2</ele>
      </trkpt>
      <trkpt lat="47.273761" lon="9.424152">
        <ele>1247.5</ele>
      </trkpt>
      <trkpt lat="47.273836" lon="9.424111">
        <ele>1244.1</ele>
      </trkpt>
      <trkpt lat="47.273918" lon="9.424175">
        <ele>1242.1</ele>
      </trkpt>
      <trkpt lat="47.274239" lon="9.424299">
        <ele>1234.0</ele>
      </trkpt>
      <trkpt lat="47.274273" lon="9.424222">
        <ele>1231.7</ele>
      </trkpt>
      <trkpt lat="47.274351" lon="9.424098">
        <ele>1225.9</ele>
      </trkpt>
      <trkpt lat="47.274353" lon="9.423883">
        <ele>1221.6</ele>
      </trkpt>
      <trkpt lat="47.274392" lon="9.423799">
        <ele>1217.5</ele>
      </trkpt>
      <trkpt lat="47.274666" lon="9.423987">
        <ele>1205.6</ele>
      </trkpt>
      <trkpt lat="47.274811" lon="9.424001">
        <ele>1201.9</ele>
      </trkpt>
      <trkpt lat="47.274895" lon="9.423662">
        <ele>1193.6</ele>
      </trkpt>
      <trkpt lat="47.275298" lon="9.423720">
        <ele>1182.5</ele>
      </trkpt>
      <trkpt lat="47.275552" lon="9.423683">
        <ele>1175.1</ele>
      </trkpt>
      <trkpt lat="47.275669" lon="9.423809">
        <ele>1171.7</ele>
      </trkpt>
      <trkpt lat="47.275728" lon="9.423783">
        <ele>1170.0</ele>
      </trkpt>
      <trkpt lat="47.275798" lon="9.423958">
        <ele>1166.6</ele>
      </trkpt>
      <trkpt lat="47.275853" lon="9.424040">
        <ele>1164.3</ele>
      </trkpt>
      <trkpt lat="47.275954" lon="9.424088">
        <ele>1162.0</ele>
      </trkpt>
      <trkpt lat="47.276058" lon="9.424282">
        <ele>1158.7</ele>
      </trkpt>
      <trkpt lat="47.276097" lon="9.424376">
        <ele>1157.4</ele>
      </trkpt>
      <trkpt lat="47.276179" lon="9.424310">
        <ele>1155.0</ele>
      </trkpt>
      <trkpt lat="47.276238" lon="9.424275">
        <ele>1154.1</ele>
      </trkpt>
      <trkpt lat="47.276263" lon="9.424397">
        <ele>1152.0</ele>
      </trkpt>
      <trkpt lat="47.276295" lon="9.424510">
        <ele>1149.9</ele>
      </trkpt>
      <trkpt lat="47.276344" lon="9.424532">
        <ele>1148.6</ele>
      </trkpt>
      <trkpt lat="47.276386" lon="9.424647">
        <ele>1145.7</ele>
      </trkpt>
      <trkpt lat="47.276415" lon="9.424708">
        <ele>1144.5</ele>
      </trkpt>
      <trkpt lat="47.276434" lon="9.424843">
        <ele>1141.8</ele>
      </trkpt>
      <trkpt lat="47.276536" lon="9.424806">
        <ele>1139.5</ele>
      </trkpt>
      <trkpt lat="47.276559" lon="9.424951">
        <ele>1136.1</ele>
      </trkpt>
      <trkpt lat="47.276329" lon="9.425576">
        <ele>1125.3</ele>
      </trkpt>
      <trkpt lat="47.276400" lon="9.425833">
        <ele>1120.8</ele>
      </trkpt>
      <trkpt lat="47.276427" lon="9.426004">
        <ele>1117.6</ele>
      </trkpt>
      <trkpt lat="47.276479" lon="9.426043">
        <ele>1112.6</ele>
      </trkpt>
      <trkpt lat="47.276493" lon="9.426250">
        <ele>1109.3</ele>
      </trkpt>
      <trkpt lat="47.276558" lon="9.426287">
        <ele>1106.4</ele>
      </trkpt>
      <trkpt lat="47.276586" lon="9.426250">
        <ele>1104.8</ele>
      </trkpt>
      <trkpt lat="47.276646" lon="9.426320">
        <ele>1100.7</ele>
      </trkpt>
      <trkpt lat="47.276721" lon="9.426275">
        <ele>1095.1</ele>
      </trkpt>
      <trkpt lat="47.276782" lon="9.426226">
        <ele>1091.6</ele>
      </trkpt>
      <trkpt lat="47.276871" lon="9.426345">
        <ele>1085.1</ele>
      </trkpt>
      <trkpt lat="47.276970" lon="9.426300">
        <ele>1081.0</ele>
      </trkpt>
    </trkseg>
  </trk>
</gpx>
