<?xml version="1.0" encoding="UTF-8"?>
<gpx version="1.1" creator="hike-planner" xmlns="http://www.topografix.com/GPX/1/1">
  <metadata><name>Andermatt -> Spannort</name>
    <desc>Routed from OSM (ODbL); elevations from SwissTopo / Open-Elevation</desc>
  </metadata>
  <wpt lat="46.660806" lon="8.641702">
    <ele>2292.0</ele>
    <name>Andermatt</name>
  </wpt>
  <wpt lat="46.655912" lon="8.649008">
    <ele>2012.5</ele>
    <name>Spannort</name>
  </wpt>
  <trk>
    <name>Andermatt -> Spannort</name>
    <trkseg>
      <trkpt lat="46.660806" lon="8.641702">
        <ele>2292.0</ele>
      </trkpt>
      <trkpt lat="46.661646" lon="8.642989">
        <ele>2304.7</ele>
      </trkpt>
      <trkpt lat="46.661773" lon="8.643104">
        <ele>2306.3</ele>
      </trkpt>
      <trkpt lat="46.662196" lon="8.643355">
        <ele>2314.0</ele>
      </trkpt>
      <trkpt lat="46.662287" lon="8.643424">
        <ele>2315.8</ele>
      </trkpt>
      <trkpt lat="46.662408" lon="8.643613">
        <ele>2317.0</ele>
      </trkpt>
      <trkpt lat="46.662590" lon="8.643834">
        <ele>2320.5</ele>
      </trkpt>
      <trkpt lat="46.662698" lon="8.643624">
        <ele>2323.7</ele>
      </trkpt>
      <trkpt lat="46.662756" lon="8.643515">
        <ele>2326.8</ele>
      </trkpt>
      <trkpt lat="46.662738" lon="8.643125">
        <ele>2335.3</ele>
      </trkpt>
      <trkpt lat="46.662742" lon="8.642833">
        <ele>2338.9</ele>
      </trkpt>
      <trkpt lat="46.662692" lon="8.642554">
        <ele>2339.7</ele>
      </trkpt>
      <trkpt lat="46.662496" lon="8.642003">
        <ele>2343.9</ele>
      </trkpt>
      <trkpt lat="46.662517" lon="8.641697">
        <ele>2345.1</ele>
      </trkpt>
      <trkpt lat="46.662534" lon="8.641446">
        <ele>2347.1</ele>
      </trkpt>
      <trkpt lat="46.662488" lon="8.641086">
        <ele>2351.4</ele>
      </trkpt>
      <trkpt lat="46.662518" lon="8.640999">
        <ele>2353.3</ele>
      </trkpt>
      <trkpt lat="46.662574" lon="8.640809">
        <ele>2356.3</ele>
      </trkpt>
      <trkpt lat="46.662689" lon="8.640159">
        <ele>2364.9</ele>
      </trkpt>
      <trkpt lat="46.662755" lon="8.639853">
        <ele>2372.4</ele>
      </trkpt>
      <trkpt lat="46.662857" lon="8.639566">
        <ele>2378.0</ele>
      </trkpt>
      <trkpt lat="46.662957" lon="8.639444">
        <ele>2378.4</ele>
      </trkpt>
      <trkpt lat="46.663003" lon="8.639588">
        <ele>2376.5</ele>
      </trkpt>
      <trkpt lat="46.663059" lon="8.639857">
        <ele>2373.5</ele>
      </trkpt>
      <trkpt lat="46.663251" lon="8.640635">
        <ele>2370.4</ele>
      </trkpt>
      <trkpt lat="46.663345" lon="8.640997">
        <ele>2372.7</ele>
      </trkpt>
      <trkpt lat="46.663361" lon="8.641201">
        <ele>2375.2</ele>
      </trkpt>
      <trkpt lat="46.663290" lon="8.641585">
        <ele>2386.0</ele>
      </trkpt>
      <trkpt lat="46.663298" lon="8.641725">
        <ele>2386.5</ele>
      </trkpt>
      <trkpt lat="46.663294" lon="8.641867">
        <ele>2383.8</ele>
      </trkpt>
      <trkpt lat="46.663317" lon="8.642093">
        <ele>2379.8</ele>
      </trkpt>
      <trkpt lat="46.663332" lon="8.642159">
        <ele>2378.7</ele>
      </trkpt>
      <trkpt lat="46.663379" lon="8.642234">
        <ele>2377.6</ele>
      </trkpt>
      <trkpt lat="46.663491" lon="8.642375">
        <ele>2377.6</ele>
      </trkpt>
      <trkpt lat="46.663530" lon="8.642439">
        <ele>2376.9</ele>
      </trkpt>
      <trkpt lat="46.663563" lon="8.642486">
        <ele>2376.1</ele>
      </trkpt>
      <trkpt lat="46.663599" lon="8.642601">
        <ele>2373.4</ele>
      </trkpt>
      <trkpt lat="46.663677" lon="8.642710">
        <ele>2370.9</ele>
      </trkpt>
      <trkpt lat="46.663730" lon="8.642887">
        <ele>2369.1</ele>
      </trkpt>
      <trkpt lat="46.663829" lon="8.643301">
        <ele>2364.9</ele>
      </trkpt>
      <trkpt lat="46.663857" lon="8.643457">
        <ele>2364.7</ele>
      </trkpt>
      <trkpt lat="46.663842" lon="8.643568">
        <ele>2363.5</ele>
      </trkpt>
      <trkpt lat="46.663857" lon="8.643734">
        <ele>2359.7</ele>
      </trkpt>
      <trkpt lat="46.663842" lon="8.643757">
        <ele>2358.9</ele>
      </trkpt>
      <trkpt lat="46.663843" lon="8.643817">
        <ele>2357.7</ele>
      </trkpt>
      <trkpt lat="46.663862" lon="8.643988">
        <ele>2357.3</ele>
      </trkpt>
      <trkpt lat="46.663854" lon="8.644064">
        <ele>2356.8</ele>
      </trkpt>
      <trkpt lat="46.663855" lon="8.644132">
        <ele>2356.4</ele>
      </trkpt>
      <trkpt lat="46.663860" lon="8.644266">
        <ele>2357.9</ele>
      </trkpt>
      <trkpt lat="46.663918" lon="8.644390">
        <ele>2357.6</ele>
      </trkpt>
      <trkpt lat="46.663974" lon="8.644478">
        <ele>2357.8</ele>
      </trkpt>
      <trkpt lat="46.664009" lon="8.644717">
        <ele>2360.1</ele>
      </trkpt>
      <trkpt lat="46.664055" lon="8.644815">
        <ele>2360.0</ele>
      </trkpt>
      <trkpt lat="46.664082" lon="8.644899">
        <ele>2360.3</ele>
      </trkpt>
      <trkpt lat="46.664165" lon="8.645212">
        <ele>2360.7</ele>
      </trkpt>
      <trkpt lat="46.664223" lon="8.645421">
        <ele>2361.6</ele>
      </trkpt>
      <trkpt lat="46.664238" lon="8.645509">
        <ele>2361.8</ele>
      </trkpt>
      <trkpt lat="46.664268" lon="8.645776">
        <ele>2362.0</ele>
      </trkpt>
      <trkpt lat="46.664294" lon="8.645874">
        <ele>2361.2</ele>
      </trkpt>
      <trkpt lat="46.664321" lon="8.645953">
        <ele>2361.1</ele>
      </trkpt>
      <trkpt lat="46.664383" lon="8.646125">
        <ele>2361.4</ele>
      </trkpt>
      <trkpt lat="46.664407" lon="8.646208">
        <ele>2361.5</ele>
      </trkpt>
      <trkpt lat="46.664443" lon="8.646295">
        <ele>2361.4</ele>
      </trkpt>
      <trkpt lat="46.664505" lon="8.646592">
        <ele>2359.8</ele>
      </trkpt>
      <trkpt lat="46.664529" lon="8.646721">
        <ele>2359.3</ele>
      </trkpt>
      <trkpt lat="46.664565" lon="8.646831">
        <ele>2358.4</ele>
      </trkpt>
      <trkpt lat="46.664624" lon="8.646960">
        <ele>2358.4</ele>
      </trkpt>
      <trkpt lat="46.664783" lon="8.647184">
        <ele>2360.8</ele>
      </trkpt>
      <trkpt lat="46.664908" lon="8.647460">
        <ele>2361.9</ele>
      </trkpt>
      <trkpt lat="46.665084" lon="8.647879">
        <ele>2361.3</ele>
      </trkpt>
      <trkpt lat="46.665191" lon="8.648163">
        <ele>2361.0</ele>
      </trkpt>
      <trkpt lat="46.665273" lon="8.648365">
        <ele>2362.5</ele>
      </trkpt>
      <trkpt lat="46.665435" lon="8.648570">
        <ele>2364.4</ele>
      </trkpt>
      <trkpt lat="46.665611" lon="8.648838">
        <ele>2365.1</ele>
      </trkpt>
      <trkpt lat="46.665741" lon="8.649061">
        <ele>2367.5</ele>
      </trkpt>
      <trkpt lat="46.665978" lon="8.649324">
        <ele>2370.4</ele>
      </trkpt>
      <trkpt lat="46.666037" lon="8.649369">
        <ele>2371.6</ele>
      </trkpt>
      <trkpt lat="46.666282" lon="8.649650">
        <ele>2378.2</ele>
      </trkpt>
      <trkpt lat="46.666528" lon="8.650011">
        <ele>2389.8</ele>
      </trkpt>
      <trkpt lat="46.666538" lon="8.650068">
        <ele>2390.3</ele>
      </trkpt>
      <trkpt lat="46.666527" lon="8.650578">
        <ele>2393.3</ele>
      </trkpt>
      <trkpt lat="46.666344" lon="8.650939">
        <ele>2396.1</ele>
      </trkpt>
      <trkpt lat="46.666224" lon="8.651166">
        <ele>2398.4</ele>
      </trkpt>
      <trkpt lat="46.666122" lon="8.651398">
        <ele>2399.6</ele>
      </trkpt>
      <trkpt lat="46.665987" lon="8.651560">
        <ele>2400.8</ele>
      </trkpt>
      <trkpt lat="46.665979" lon="8.651674">
        <ele>2400.8</ele>
      </trkpt>
      <trkpt lat="46.665964" lon="8.651765">
        <ele>2401.3</ele>
      </trkpt>
      <trkpt lat="46.665916" lon="8.652354">
        <ele>2403.3</ele>
      </trkpt>
      <trkpt lat="46.665889" lon="8.652516">
        <ele>2403.5</ele>
      </trkpt>
      <trkpt lat="46.665856" lon="8.652702">
        <ele>2403.7</ele>
      </trkpt>
      <trkpt lat="46.665862" lon="8.652869">
        <ele>2404.7</ele>
      </trkpt>
      <trkpt lat="46.666001" lon="8.653421">
        <ele>2405.4</ele>
      </trkpt>
      <trkpt lat="46.666014" lon="8.653516">
        <ele>2405.4</ele>
      </trkpt>
      <trkpt lat="46.665959" lon="8.653955">
        <ele>2405.9</ele>
      </trkpt>
      <trkpt lat="46.665843" lon="8.654391">
        <ele>2406.5</ele>
      </trkpt>
      <trkpt lat="46.665569" lon="8.654944">
        <ele>2406.6</ele>
      </trkpt>
      <trkpt lat="46.665453" lon="8.655129">
        <ele>2406.9</ele>
      </trkpt>
      <trkpt lat="46.665453" lon="8.655345">
        <ele>2407.4</ele>
      </trkpt>
      <trkpt lat="46.665396" lon="8.655733">
        <ele>2408.8</ele>
      </trkpt>
      <trkpt lat="46.665339" lon="8.655927">
        <ele>2409.8</ele>
      </trkpt>
      <trkpt lat="46.665374" lon="8.656261">
        <ele>2412.1</ele>
      </trkpt>
      <trkpt lat="46.665365" lon="8.656377">
        <ele>2412.7</ele>
      </trkpt>
      <trkpt lat="46.665320" lon="8.656717">
        <ele>2415.0</ele>
      </trkpt>
      <trkpt lat="46.665402" lon="8.657039">
        <ele>2416.5</ele>
      </trkpt>
      <trkpt lat="46.665515" lon="8.657491">
        <ele>2414.8</ele>
      </trkpt>
      <trkpt lat="46.665576" lon="8.657679">
        <ele>2413.5</ele>
      </trkpt>
      <trkpt lat="46.665593" lon="8.657955">
        <ele>2411.9</ele>
      </trkpt>
      <trkpt lat="46.665625" lon="8.658120">
        <ele>2410.9</ele>
      </trkpt>
      <trkpt lat="46.665873" lon="8.658808">
        <ele>2410.9</ele>
      </trkpt>
      <trkpt lat="46.665964" lon="8.659228">
        <ele>2411.5</ele>
      </trkpt>
      <trkpt lat="46.665972" lon="8.659464">
        <ele>2411.9</ele>
      </trkpt>
      <trkpt lat="46.666117" lon="8.659717">
        <ele>2413.3</ele>
      </trkpt>
      <trkpt lat="46.666140" lon="8.659795">
        <ele>2413.6</ele>
      </trkpt>
      <trkpt lat="46.666258" lon="8.660208">
        <ele>2415.3</ele>
      </trkpt>
      <trkpt lat="46.666294" lon="8.660485">
        <ele>2415.8</ele>
      </trkpt>
      <trkpt lat="46.666343" lon="8.660672">
        <ele>2416.6</ele>
      </trkpt>
      <trkpt lat="46.666354" lon="8.660793">
        <ele>2416.8</ele>
      </trkpt>
      <trkpt lat="46.666285" lon="8.660994">
        <ele>2416.3</ele>
      </trkpt>
      <trkpt lat="46.666396" lon="8.661132">
        <ele>2415.8</ele>
      </trkpt>
      <trkpt lat="46.666520" lon="8.661309">
        <ele>2415.2</ele>
      </trkpt>
      <trkpt lat="46.666790" lon="8.661663">
        <ele>2414.2</ele>
      </trkpt>
      <trkpt lat="46.666831" lon="8.661747">
        <ele>2413.7</ele>
      </trkpt>
      <trkpt lat="46.666870" lon="8.661806">
        <ele>2413.2</ele>
      </trkpt>
      <trkpt lat="46.667002" lon="8.662022">
        <ele>2412.5</ele>
      </trkpt>
      <trkpt lat="46.667076" lon="8.662157">
        <ele>2412.2</ele>
      </trkpt>
      <trkpt lat="46.667121" lon="8.662256">
        <ele>2411.6</ele>
      </trkpt>
      <trkpt lat="46.667186" lon="8.662368">
        <ele>2410.8</ele>
      </trkpt>
      <trkpt lat="46.667231" lon="8.662429">
        <ele>2411.5</ele>
      </trkpt>
      <trkpt lat="46.667325" lon="8.662606">
        <ele>2411.0</ele>
      </trkpt>
      <trkpt lat="46.667396" lon="8.662788">
        <ele>2410.7</ele>
      </trkpt>
      <trkpt lat="46.667446" lon="8.662866">
        <ele>2410.2</ele>
      </trkpt>
      <trkpt lat="46.667469" lon="8.662937">
        <ele>2409.6</ele>
      </trkpt>
      <trkpt lat="46.667538" lon="8.663052">
        <ele>2409.1</ele>
      </trkpt>
      <trkpt lat="46.667612" lon="8.663098">
        <ele>2409.0</ele>
      </trkpt>
      <trkpt lat="46.667650" lon="8.663207">
        <ele>2408.0</ele>
      </trkpt>
      <trkpt lat="46.667786" lon="8.663350">
        <ele>2407.3</ele>
      </trkpt>
      <trkpt lat="46.667835" lon="8.663368">
        <ele>2407.4</ele>
      </trkpt>
      <trkpt lat="46.667912" lon="8.663377">
        <ele>2406.9</ele>
      </trkpt>
      <trkpt lat="46.668073" lon="8.663486">
        <ele>2406.8</ele>
      </trkpt>
      <trkpt lat="46.668117" lon="8.663506">
        <ele>2408.2</ele>
      </trkpt>
      <trkpt lat="46.668265" lon="8.663534">
        <ele>2411.5</ele>
      </trkpt>
      <trkpt lat="46.668489" lon="8.663623">
        <ele>2414.5</ele>
      </trkpt>
      <trkpt lat="46.668560" lon="8.663664">
        <ele>2415.7</ele>
      </trkpt>
      <trkpt lat="46.668604" lon="8.663658">
        <ele>2416.7</ele>
      </trkpt>
      <trkpt lat="46.668997" lon="8.663934">
        <ele>2422.0</ele>
      </trkpt>
      <trkpt lat="46.669032" lon="8.663929">
        <ele>2422.8</ele>
      </trkpt>
      <trkpt lat="46.669066" lon="8.663965">
        <ele>2423.6</ele>
      </trkpt>
      <trkpt lat="46.669172" lon="8.664032">
        <ele>2424.9</ele>
      </trkpt>
      <trkpt lat="46.669284" lon="8.664070">
        <ele>2427.4</ele>
      </trkpt>
      <trkpt lat="46.669370" lon="8.664219">
        <ele>2428.6</ele>
      </trkpt>
      <trkpt lat="46.669501" lon="8.664415">
        <ele>2430.0</ele>
      </trkpt>
      <trkpt lat="46.669541" lon="8.664434">
        <ele>2430.8</ele>
      </trkpt>
      <trkpt lat="46.669630" lon="8.664508">
        <ele>2431.4</ele>
      </trkpt>
      <trkpt lat="46.669751" lon="8.664706">
        <ele>2433.3</ele>
      </trkpt>
      <trkpt lat="46.669840" lon="8.664740">
        <ele>2434.0</ele>
      </trkpt>
      <trkpt lat="46.669853" lon="8.664803">
        <ele>2432.1</ele>
      </trkpt>
      <trkpt lat="46.669936" lon="8.664878">
        <ele>2434.2</ele>
      </trkpt>
      <trkpt lat="46.670004" lon="8.664855">
        <ele>2436.8</ele>
      </trkpt>
      <trkpt lat="46.670072" lon="8.664941">
        <ele>2437.4</ele>
      </trkpt>
      <trkpt lat="46.670181" lon="8.665100">
        <ele>2436.2</ele>
      </trkpt>
      <trkpt lat="46.670247" lon="8.665157">
        <ele>2435.1</ele>
      </trkpt>
      <trkpt lat="46.670291" lon="8.665152">
        <ele>2435.5</ele>
      </trkpt>
      <trkpt lat="46.670446" lon="8.665193">
        <ele>2436.0</ele>
      </trkpt>
      <trkpt lat="46.670585" lon="8.665243">
        <ele>2439.1</ele>
      </trkpt>
      <trkpt lat="46.670610" lon="8.665179">
        <ele>2440.9</ele>
      </trkpt>
      <trkpt lat="46.670732" lon="8.665179">
        <ele>2443.9</ele>
      </trkpt>
      <trkpt lat="46.670886" lon="8.665229">
        <ele>2444.2</ele>
      </trkpt>
      <trkpt lat="46.671152" lon="8.665222">
        <ele>2445.0</ele>
      </trkpt>
      <trkpt lat="46.671394" lon="8.665022">
        <ele>2448.6</ele>
      </trkpt>
      <trkpt lat="46.671451" lon="8.664920">
        <ele>2450.1</ele>
      </trkpt>
      <trkpt lat="46.671517" lon="8.664958">
        <ele>2449.9</ele>
      </trkpt>
      <trkpt lat="46.671813" lon="8.664877">
        <ele>2451.2</ele>
      </trkpt>
      <trkpt lat="46.671933" lon="8.664916">
        <ele>2448.9</ele>
      </trkpt>
      <trkpt lat="46.672025" lon="8.664924">
        <ele>2448.5</ele>
      </trkpt>
      <trkpt lat="46.672400" lon="8.665130">
        <ele>2443.1</ele>
      </trkpt>
      <trkpt lat="46.672487" lon="8.665241">
        <ele>2440.4</ele>
      </trkpt>
      <trkpt lat="46.672501" lon="8.665307">
        <ele>2438.4</ele>
      </trkpt>
      <trkpt lat="46.672539" lon="8.665486">
        <ele>2437.7</ele>
      </trkpt>
      <trkpt lat="46.672536" lon="8.665812">
        <ele>2431.0</ele>
      </trkpt>
      <trkpt lat="46.672388" lon="8.666069">
        <ele>2422.1</ele>
      </trkpt>
      <trkpt lat="46.672133" lon="8.666339">
        <ele>2411.9</ele>
      </trkpt>
      <trkpt lat="46.672096" lon="8.666402">
        <ele>2409.5</ele>
      </trkpt>
      <trkpt lat="46.672060" lon="8.666508">
        <ele>2406.2</ele>
      </trkpt>
      <trkpt lat="46.671970" lon="8.666649">
        <ele>2401.7</ele>
      </trkpt>
      <trkpt lat="46.671881" lon="8.666550">
        <ele>2398.2</ele>
      </trkpt>
      <trkpt lat="46.671737" lon="8.666808">
        <ele>2388.7</ele>
      </trkpt>
      <trkpt lat="46.671618" lon="8.666904">
        <ele>2381.4</ele>
      </trkpt>
      <trkpt lat="46.671479" lon="8.666975">
        <ele>2373.3</ele>
      </trkpt>
      <trkpt lat="46.671378" lon="8.666928">
        <ele>2369.8</ele>
      </trkpt>
      <trkpt lat="46.670912" lon="8.667214">
        <ele>2355.4</ele>
      </trkpt>
      <trkpt lat="46.670864" lon="8.667589">
        <ele>2348.0</ele>
      </trkpt>
      <trkpt lat="46.670733" lon="8.667787">
        <ele>2344.6</ele>
      </trkpt>
      <trkpt lat="46.670553" lon="8.667997">
        <ele>2342.8</ele>
      </trkpt>
      <trkpt lat="46.670495" lon="8.668076">
        <ele>2341.9</ele>
      </trkpt>
      <trkpt lat="46.670470" lon="8.668103">
        <ele>2341.4</ele>
      </trkpt>
      <trkpt lat="46.670093" lon="8.668330">
        <ele>2338.5</ele>
      </trkpt>
      <trkpt lat="46.670048" lon="8.668355">
        <ele>2338.0</ele>
      </trkpt>
      <trkpt lat="46.669984" lon="8.668334">
        <ele>2337.7</ele>
      </trkpt>
      <trkpt lat="46.669800" lon="8.668313">
        <ele>2330.5</ele>
      </trkpt>
      <trkpt lat="46.669771" lon="8.668274">
        <ele>2329.5</ele>
      </trkpt>
      <trkpt lat="46.669698" lon="8.668321">
        <ele>2327.4</ele>
      </trkpt>
      <trkpt lat="46.669658" lon="8.668527">
        <ele>2323.0</ele>
      </trkpt>
      <trkpt lat="46.669612" lon="8.668555">
        <ele>2321.6</ele>
      </trkpt>
      <trkpt lat="46.669552" lon="8.668488">
        <ele>2318.7</ele>
      </trkpt>
      <trkpt lat="46.669482" lon="8.668409">
        <ele>2315.5</ele>
      </trkpt>
      <trkpt lat="46.669422" lon="8.668300">
        <ele>2312.3</ele>
      </trkpt>
      <trkpt lat="46.669292" lon="8.668118">
        <ele>2307.6</ele>
      </trkpt>
      <trkpt lat="46.669236" lon="8.668047">
        <ele>2306.1</ele>
      </trkpt>
      <trkpt lat="46.669204" lon="8.667979">
        <ele>2304.8</ele>
      </trkpt>
      <trkpt lat="46.669136" lon="8.667933">
        <ele>2302.8</ele>
      </trkpt>
      <trkpt lat="46.669114" lon="8.667936">
        <ele>2302.3</ele>
      </trkpt>
      <trkpt lat="46.669089" lon="8.667885">
        <ele>2300.0</ele>
      </trkpt>
      <trkpt lat="46.669012" lon="8.667955">
        <ele>2297.2</ele>
      </trkpt>
      <trkpt lat="46.668979" lon="8.667996">
        <ele>2295.9</ele>
      </trkpt>
      <trkpt lat="46.668941" lon="8.667991">
        <ele>2294.5</ele>
      </trkpt>
      <trkpt lat="46.668822" lon="8.668057">
        <ele>2292.8</ele>
      </trkpt>
      <trkpt lat="46.668766" lon="8.668063">
        <ele>2292.6</ele>
      </trkpt>
      <trkpt lat="46.668733" lon="8.668022">
        <ele>2292.5</ele>
      </trkpt>
      <trkpt lat="46.668556" lon="8.668265">
        <ele>2288.3</ele>
      </trkpt>
      <trkpt lat="46.668426" lon="8.668371">
        <ele>2283.6</ele>
      </trkpt>
      <trkpt lat="46.668352" lon="8.668429">
        <ele>2281.8</ele>
      </trkpt>
      <trkpt lat="46.668292" lon="8.668509">
        <ele>2280.5</ele>
      </trkpt>
      <trkpt lat="46.668266" lon="8.668516">
        <ele>2280.0</ele>
      </trkpt>
      <trkpt lat="46.668257" lon="8.668542">
        <ele>2278.7</ele>
      </trkpt>
      <trkpt lat="46.668265" lon="8.668642">
        <ele>2276.1</ele>
      </trkpt>
      <trkpt lat="46.668244" lon="8.668684">
        <ele>2275.3</ele>
      </trkpt>
      <trkpt lat="46.668199" lon="8.668759">
        <ele>2274.4</ele>
      </trkpt>
      <trkpt lat="46.668069" lon="8.668735">
        <ele>2273.2</ele>
      </trkpt>
      <trkpt lat="46.667974" lon="8.668723">
        <ele>2272.4</ele>
      </trkpt>
      <trkpt lat="46.667897" lon="8.668760">
        <ele>2271.6</ele>
      </trkpt>
      <trkpt lat="46.667808" lon="8.668921">
        <ele>2269.6</ele>
      </trkpt>
      <trkpt lat="46.667740" lon="8.668976">
        <ele>2268.5</ele>
      </trkpt>
      <trkpt lat="46.667699" lon="8.669041">
        <ele>2269.2</ele>
      </trkpt>
      <trkpt lat="46.667636" lon="8.668955">
        <ele>2263.8</ele>
      </trkpt>
      <trkpt lat="46.667523" lon="8.668906">
        <ele>2261.8</ele>
      </trkpt>
      <trkpt lat="46.667504" lon="8.668862">
        <ele>2260.5</ele>
      </trkpt>
      <trkpt lat="46.667347" lon="8.668782">
        <ele>2258.4</ele>
      </trkpt>
      <trkpt lat="46.667322" lon="8.668793">
        <ele>2258.0</ele>
      </trkpt>
      <trkpt lat="46.667279" lon="8.668780">
        <ele>2258.1</ele>
      </trkpt>
      <trkpt lat="46.667108" lon="8.668858">
        <ele>2258.1</ele>
      </trkpt>
      <trkpt lat="46.667067" lon="8.668817">
        <ele>2257.9</ele>
      </trkpt>
      <trkpt lat="46.667032" lon="8.668826">
        <ele>2257.9</ele>
      </trkpt>
      <trkpt lat="46.666921" lon="8.668966">
        <ele>2256.0</ele>
      </trkpt>
      <trkpt lat="46.666865" lon="8.669013">
        <ele>2255.9</ele>
      </trkpt>
      <trkpt lat="46.666857" lon="8.669048">
        <ele>2255.8</ele>
      </trkpt>
      <trkpt lat="46.666834" lon="8.669089">
        <ele>2254.0</ele>
      </trkpt>
      <trkpt lat="46.666796" lon="8.669107">
        <ele>2252.9</ele>
      </trkpt>
      <trkpt lat="46.666774" lon="8.669131">
        <ele>2252.9</ele>
      </trkpt>
      <trkpt lat="46.666676" lon="8.669181">
        <ele>2251.0</ele>
      </trkpt>
      <trkpt lat="46.666643" lon="8.669155">
        <ele>2248.9</ele>
      </trkpt>
      <trkpt lat="46.666566" lon="8.669148">
        <ele>2247.8</ele>
      </trkpt>
      <trkpt lat="46.666484" lon="8.669095">
        <ele>2241.3</ele>
      </trkpt>
      <trkpt lat="46.666489" lon="8.669055">
        <ele>2238.7</ele>
      </trkpt>
      <trkpt lat="46.666460" lon="8.669067">
        <ele>2238.9</ele>
      </trkpt>
      <trkpt lat="46.666378" lon="8.668995">
        <ele>2230.9</ele>
      </trkpt>
      <trkpt lat="46.666374" lon="8.668959">
        <ele>2230.1</ele>
      </trkpt>
      <trkpt lat="46.666331" lon="8.668935">
        <ele>2228.2</ele>
      </trkpt>
      <trkpt lat="46.666371" lon="8.668877">
        <ele>2225.1</ele>
      </trkpt>
      <trkpt lat="46.666410" lon="8.668808">
        <ele>2222.4</ele>
      </trkpt>
      <trkpt lat="46.666411" lon="8.668780">
        <ele>2221.7</ele>
      </trkpt>
      <trkpt lat="46.666306" lon="8.668756">
        <ele>2218.7</ele>
      </trkpt>
      <trkpt lat="46.666265" lon="8.668775">
        <ele>2218.3</ele>
      </trkpt>
      <trkpt lat="46.666241" lon="8.668820">
        <ele>2218.3</ele>
      </trkpt>
      <trkpt lat="46.666168" lon="8.668811">
        <ele>2215.3</ele>
      </trkpt>
      <trkpt lat="46.666084" lon="8.668835">
        <ele>2213.4</ele>
      </trkpt>
      <trkpt lat="46.666058" lon="8.668859">
        <ele>2212.5</ele>
      </trkpt>
      <trkpt lat="46.665974" lon="8.668817">
        <ele>2210.9</ele>
      </trkpt>
      <trkpt lat="46.665954" lon="8.668752">
        <ele>2210.1</ele>
      </trkpt>
      <trkpt lat="46.665932" lon="8.668583">
        <ele>2209.2</ele>
      </trkpt>
      <trkpt lat="46.665963" lon="8.668346">
        <ele>2206.0</ele>
      </trkpt>
      <trkpt lat="46.665950" lon="8.668283">
        <ele>2205.2</ele>
      </trkpt>
      <trkpt lat="46.665960" lon="8.668218">
        <ele>2204.2</ele>
      </trkpt>
      <trkpt lat="46.665887" lon="8.668062">
        <ele>2200.6</ele>
      </trkpt>
      <trkpt lat="46.665837" lon="8.667957">
        <ele>2197.9</ele>
      </trkpt>
      <trkpt lat="46.665784" lon="8.667904">
        <ele>2196.3</ele>
      </trkpt>
      <trkpt lat="46.665628" lon="8.667852">
        <ele>2192.9</ele>
      </trkpt>
      <trkpt lat="46.665526" lon="8.667850">
        <ele>2191.7</ele>
      </trkpt>
      <trkpt lat="46.665405" lon="8.667959">
        <ele>2190.7</ele>
      </trkpt>
      <trkpt lat="46.665344" lon="8.668071">
        <ele>2187.4</ele>
      </trkpt>
      <trkpt lat="46.665317" lon="8.668162">
        <ele>2186.2</ele>
      </trkpt>
      <trkpt lat="46.665299" lon="8.668203">
        <ele>2185.7</ele>
      </trkpt>
      <trkpt lat="46.665213" lon="8.668293">
        <ele>2184.7</ele>
      </trkpt>
      <trkpt lat="46.665160" lon="8.668257">
        <ele>2183.5</ele>
      </trkpt>
      <trkpt lat="46.665117" lon="8.668256">
        <ele>2181.9</ele>
      </trkpt>
      <trkpt lat="46.664985" lon="8.668283">
        <ele>2178.5</ele>
      </trkpt>
      <trkpt lat="46.664907" lon="8.668245">
        <ele>2176.6</ele>
      </trkpt>
      <trkpt lat="46.664894" lon="8.668151">
        <ele>2174.9</ele>
      </trkpt>
      <trkpt lat="46.664737" lon="8.668024">
        <ele>2170.5</ele>
      </trkpt>
      <trkpt lat="46.664730" lon="8.668002">
        <ele>2170.0</ele>
      </trkpt>
      <trkpt lat="46.664736" lon="8.667928">
        <ele>2169.1</ele>
      </trkpt>
      <trkpt lat="46.664669" lon="8.667888">
        <ele>2166.7</ele>
      </trkpt>
      <trkpt lat="46.664636" lon="8.667971">
        <ele>2165.2</ele>
      </trkpt>
      <trkpt lat="46.664561" lon="8.668021">
        <ele>2162.5</ele>
      </trkpt>
      <trkpt lat="46.664488" lon="8.668036">
        <ele>2159.9</ele>
      </trkpt>
      <trkpt lat="46.664429" lon="8.668075">
        <ele>2158.3</ele>
      </trkpt>
      <trkpt lat="46.664381" lon="8.668070">
        <ele>2157.4</ele>
      </trkpt>
      <trkpt lat="46.664319" lon="8.668168">
        <ele>2153.5</ele>
      </trkpt>
      <trkpt lat="46.664287" lon="8.668301">
        <ele>2150.3</ele>
      </trkpt>
      <trkpt lat="46.664280" lon="8.668472">
        <ele>2147.8</ele>
      </trkpt>
      <trkpt lat="46.664235" lon="8.668603">
        <ele>2145.5</ele>
      </trkpt>
      <trkpt lat="46.664275" lon="8.668678">
        <ele>2145.5</ele>
      </trkpt>
      <trkpt lat="46.664261" lon="8.668755">
        <ele>2144.3</ele>
      </trkpt>
      <trkpt lat="46.664216" lon="8.668847">
        <ele>2142.5</ele>
      </trkpt>
      <trkpt lat="46.664152" lon="8.669026">
        <ele>2139.4</ele>
      </trkpt>
      <trkpt lat="46.664096" lon="8.669046">
        <ele>2137.4</ele>
      </trkpt>
      <trkpt lat="46.664000" lon="8.669283">
        <ele>2133.2</ele>
      </trkpt>
      <trkpt lat="46.663929" lon="8.669526">
        <ele>2128.8</ele>
      </trkpt>
      <trkpt lat="46.663857" lon="8.669575">
        <ele>2125.6</ele>
      </trkpt>
      <trkpt lat="46.663759" lon="8.669738">
        <ele>2122.0</ele>
      </trkpt>
      <trkpt lat="46.663750" lon="8.670045">
        <ele>2120.2</ele>
      </trkpt>
      <trkpt lat="46.663730" lon="8.670567">
        <ele>2114.3</ele>
      </trkpt>
      <trkpt lat="46.663642" lon="8.671427">
        <ele>2105.2</ele>
      </trkpt>
      <trkpt lat="46.663593" lon="8.671630">
        <ele>2104.0</ele>
      </trkpt>
      <trkpt lat="46.663583" lon="8.671731">
        <ele>2103.8</ele>
      </trkpt>
      <trkpt lat="46.663449" lon="8.671765">
        <ele>2096.0</ele>
      </trkpt>
      <trkpt lat="46.663445" lon="8.671660">
        <ele>2095.7</ele>
      </trkpt>
      <trkpt lat="46.663420" lon="8.671575">
        <ele>2093.2</ele>
      </trkpt>
      <trkpt lat="46.663359" lon="8.671537">
        <ele>2090.1</ele>
      </trkpt>
      <trkpt lat="46.663350" lon="8.671415">
        <ele>2087.5</ele>
      </trkpt>
      <trkpt lat="46.663314" lon="8.671419">
        <ele>2085.7</ele>
      </trkpt>
      <trkpt lat="46.663038" lon="8.671997">
        <ele>2070.8</ele>
      </trkpt>
      <trkpt lat="46.663003" lon="8.672017">
        <ele>2069.1</ele>
      </trkpt>
      <trkpt lat="46.662970" lon="8.671993">
        <ele>2068.4</ele>
      </trkpt>
      <trkpt lat="46.662925" lon="8.671901">
        <ele>2065.3</ele>
      </trkpt>
      <trkpt lat="46.662884" lon="8.671981">
        <ele>2063.8</ele>
      </trkpt>
      <trkpt lat="46.662852" lon="8.671841">
        <ele>2062.3</ele>
      </trkpt>
      <trkpt lat="46.662805" lon="8.671936">
        <ele>2060.0</ele>
      </trkpt>
      <trkpt lat="46.662642" lon="8.671994">
        <ele>2054.8</ele>
      </trkpt>
      <trkpt lat="46.662548" lon="8.672027">
        <ele>2052.2</ele>
      </trkpt>
      <trkpt lat="46.662446" lon="8.672085">
        <ele>2049.3</ele>
      </trkpt>
      <trkpt lat="46.662379" lon="8.672096">
        <ele>2048.6</ele>
      </trkpt>
      <trkpt lat="46.662309" lon="8.672183">
        <ele>2046.8</ele>
      </trkpt>
      <trkpt lat="46.662133" lon="8.671991">
        <ele>2041.8</ele>
      </trkpt>
      <trkpt lat="46.662015" lon="8.671965">
        <ele>2039.9</ele>
      </trkpt>
      <trkpt lat="46.661993" lon="8.671912">
        <ele>2038.1</ele>
      </trkpt>
      <trkpt lat="46.662023" lon="8.671822">
        <ele>2037.9</ele>
      </trkpt>
      <trkpt lat="46.662093" lon="8.671619">
        <ele>2037.4</ele>
      </trkpt>
      <trkpt lat="46.662134" lon="8.671520">
        <ele>2037.2</ele>
      </trkpt>
      <trkpt lat="46.662263" lon="8.671179">
        <ele>2036.6</ele>
      </trkpt>
      <trkpt lat="46.662394" lon="8.670744">
        <ele>2036.3</ele>
      </trkpt>
      <trkpt lat="46.662558" lon="8.670162">
        <ele>2035.6</ele>
      </trkpt>
      <trkpt lat="46.662620" lon="8.669741">
        <ele>2035.2</ele>
      </trkpt>
      <trkpt lat="46.662627" lon="8.669410">
        <ele>2034.9</ele>
      </trkpt>
      <trkpt lat="46.662612" lon="8.669209">
        <ele>2035.0</ele>
      </trkpt>
      <trkpt lat="46.662560" lon="8.668857">
        <ele>2035.1</ele>
      </trkpt>
      <trkpt lat="46.662545" lon="8.668785">
        <ele>2035.0</ele>
      </trkpt>
      <trkpt lat="46.662500" lon="8.668651">
        <ele>2035.0</ele>
      </trkpt>
      <trkpt lat="46.662197" lon="8.667949">
        <ele>2035.1</ele>
      </trkpt>
      <trkpt lat="46.662049" lon="8.667572">
        <ele>2035.1</ele>
      </trkpt>
      <trkpt lat="46.661865" lon="8.667008">
        <ele>2034.1</ele>
      </trkpt>
      <trkpt lat="46.661774" lon="8.666901">
        <ele>2033.3</ele>
      </trkpt>
      <trkpt lat="46.661773" lon="8.666988">
        <ele>2031.8</ele>
      </trkpt>
      <trkpt lat="46.661775" lon="8.667061">
        <ele>2030.8</ele>
      </trkpt>
      <trkpt lat="46.661636" lon="8.666617">
        <ele>2030.5</ele>
      </trkpt>
      <trkpt lat="46.661558" lon="8.666186">
        <ele>2030.3</ele>
      </trkpt>
      <trkpt lat="46.661583" lon="8.665897">
        <ele>2030.0</ele>
      </trkpt>
      <trkpt lat="46.661600" lon="8.665236">
        <ele>2029.7</ele>
      </trkpt>
      <trkpt lat="46.661557" lon="8.664882">
        <ele>2029.2</ele>
      </trkpt>
      <trkpt lat="46.661500" lon="8.664383">
        <ele>2029.0</ele>
      </trkpt>
      <trkpt lat="46.661327" lon="8.663799">
        <ele>2029.1</ele>
      </trkpt>
      <trkpt lat="46.661184" lon="8.663400">
        <ele>2029.4</ele>
      </trkpt>
      <trkpt lat="46.661101" lon="8.662911">
        <ele>2029.4</ele>
      </trkpt>
      <trkpt lat="46.660967" lon="8.662083">
        <ele>2029.2</ele>
      </trkpt>
      <trkpt lat="46.660895" lon="8.661812">
        <ele>2029.1</ele>
      </trkpt>
      <trkpt lat="46.660772" lon="8.661489">
        <ele>2028.9</ele>
      </trkpt>
      <trkpt lat="46.660575" lon="8.661208">
        <ele>2028.9</ele>
      </trkpt>
      <trkpt lat="46.660479" lon="8.660940">
        <ele>2029.1</ele>
      </trkpt>
      <trkpt lat="46.660444" lon="8.660633">
        <ele>2029.1</ele>
      </trkpt>
      <trkpt lat="46.660453" lon="8.660141">
        <ele>2029.1</ele>
      </trkpt>
      <trkpt lat="46.660423" lon="8.659793">
        <ele>2028.8</ele>
      </trkpt>
      <trkpt lat="46.660388" lon="8.659515">
        <ele>2028.9</ele>
      </trkpt>
      <trkpt lat="46.660063" lon="8.657980">
        <ele>2029.2</ele>
      </trkpt>
      <trkpt lat="46.659948" lon="8.657465">
        <ele>2028.8</ele>
      </trkpt>
      <trkpt lat="46.659775" lon="8.656628">
        <ele>2028.8</ele>
      </trkpt>
      <trkpt lat="46.659548" lon="8.655762">
        <ele>2027.7</ele>
      </trkpt>
      <trkpt lat="46.659394" lon="8.655311">
        <ele>2027.2</ele>
      </trkpt>
      <trkpt lat="46.658866" lon="8.653958">
        <ele>2027.6</ele>
      </trkpt>
      <trkpt lat="46.658618" lon="8.653240">
        <ele>2027.2</ele>
      </trkpt>
      <trkpt lat="46.658502" lon="8.653193">
        <ele>2025.1</ele>
      </trkpt>
      <trkpt lat="46.658387" lon="8.653209">
        <ele>2024.5</ele>
      </trkpt>
      <trkpt lat="46.658141" lon="8.653153">
        <ele>2028.5</ele>
      </trkpt>
      <trkpt lat="46.657911" lon="8.653252">
        <ele>2030.3</ele>
      </trkpt>
      <trkpt lat="46.657835" lon="8.653293">
        <ele>2031.2</ele>
      </trkpt>
      <trkpt lat="46.657665" lon="8.653089">
        <ele>2027.7</ele>
      </trkpt>
      <trkpt lat="46.657640" lon="8.652835">
        <ele>2025.0</ele>
      </trkpt>
      <trkpt lat="46.657607" lon="8.652788">
        <ele>2025.0</ele>
      </trkpt>
      <trkpt lat="46.657497" lon="8.652563">
        <ele>2023.4</ele>
      </trkpt>
      <trkpt lat="46.657362" lon="8.652304">
        <ele>2020.3</ele>
      </trkpt>
      <trkpt lat="46.657294" lon="8.652179">
        <ele>2019.2</ele>
      </trkpt>
      <trkpt lat="46.657031" lon="8.651743">
        <ele>2018.0</ele>
      </trkpt>
      <trkpt lat="46.657013" lon="8.651690">
        <ele>2018.2</ele>
      </trkpt>
      <trkpt lat="46.656941" lon="8.651528">
        <ele>2017.8</ele>
      </trkpt>
      <trkpt lat="46.656763" lon="8.651208">
        <ele>2017.2</ele>
      </trkpt>
      <trkpt lat="46.656571" lon="8.650844">
        <ele>2015.3</ele>
      </trkpt>
      <trkpt lat="46.656531" lon="8.650766">
        <ele>2014.9</ele>
      </trkpt>
      <trkpt lat="46.656258" lon="8.650454">
        <ele>2015.5</ele>
      </trkpt>
      <trkpt lat="46.656268" lon="8.650271">
        <ele>2013.6</ele>
      </trkpt>
      <trkpt lat="46.656252" lon="8.650029">
        <ele>2012.6</ele>
      </trkpt>
      <trkpt lat="46.656081" lon="8.649356">
        <ele>2012.8</ele>
      </trkpt>
      <trkpt lat="46.655912" lon="8.649008">
        <ele>2012.5</ele>
      </trkpt>
    </trkseg>
  </trk>
</gpx>
