<?xml version='1.0' encoding='utf-8'?>
<gpx xmlns="http://www.topografix.com/GPX/1/1" xmlns:xsi="http://www.w3.org/2001/XMLSchema-instance" xsi:schemaLocation="http://www.topografix.com/GPX/1/1 http://www.topografix.com/GPX/1/1/gpx.xsd" version="1.1" creator="gpx.py -- https://github.com/tkrajina/gpxpy">
  <trk>
    <name>piz-d-agnel</name>
    <trkseg>
      <trkpt lat="46.5217263230152" lon="9.65527636372702">
      <ele>1975.7</ele></trkpt>
      <trkpt lat="46.52166397294953" lon="9.655360049815911">
      <ele>1976.1</ele></trkpt>
      <trkpt lat="46.52162251827659" lon="9.655410095697382">
      <ele>1976.5</ele></trkpt>
      <trkpt lat="46.52158874149132" lon="9.655432843617447">
      <ele>1976.8</ele></trkpt>
      <trkpt lat="46.52156016836628" lon="9.655493768444662">
      <ele>1977.2</ele></trkpt>
      <trkpt lat="46.52154243912984" lon="9.65554824085921">
      <ele>1977.6</ele></trkpt>
      <trkpt lat="46.52145544557664" lon="9.655613655819367">
      <ele>1978.0</ele></trkpt>
      <trkpt lat="46.52136519477958" lon="9.655723784285193">
      <ele>1978.3</ele></trkpt>
      <trkpt lat="46.52133143109198" lon="9.65577122443539">
      <ele>1978.7</ele></trkpt>
      <trkpt lat="46.521308234524845" lon="9.6558300876153">
      <ele>1979.1</ele></trkpt>
      <trkpt lat="46.521289790829435" lon="9.655927161216146">
      <ele>1979.5</ele></trkpt>
      <trkpt lat="46.52128909833844" lon="9.655985707846062">
      <ele>1979.8</ele></trkpt>
      <trkpt lat="46.52128269925322" lon="9.656053993914522">
      <ele>1980.2</ele></trkpt>
      <trkpt lat="46.521270123133874" lon="9.656074963494143">
      <ele>1980.6</ele></trkpt>
      <trkpt lat="46.5212342916222" lon="9.656097391997683">
      <ele>1981.0</ele></trkpt>
      <trkpt lat="46.521217504393555" lon="9.656108189669473">
      <ele>1981.3</ele></trkpt>
      <trkpt lat="46.52116264861605" lon="9.656183185657163">
      <ele>1981.7</ele></trkpt>
      <trkpt lat="46.52109845937869" lon="9.656354154772574">
      <ele>1982.1</ele></trkpt>
      <trkpt lat="46.52107282897219" lon="9.656471766272611">
      <ele>1982.5</ele></trkpt>
      <trkpt lat="46.521034339983146" lon="9.656565332118031">
      <ele>1982.8</ele></trkpt>
      <trkpt lat="46.52102134765365" lon="9.656722415587973">
      <ele>1983.2</ele></trkpt>
      <trkpt lat="46.521006526159425" lon="9.656788791604221">
      <ele>1984.6</ele></trkpt>
      <trkpt lat="46.52098573190036" lon="9.656815381915605">
      <ele>1985.9</ele></trkpt>
      <trkpt lat="46.5208376495764" lon="9.656791438742534">
      <ele>1987.3</ele></trkpt>
      <trkpt lat="46.52078147930169" lon="9.656786229225508">
      <ele>1988.6</ele></trkpt>
      <trkpt lat="46.520649380483945" lon="9.65675071282922">
      <ele>1990.0</ele></trkpt>
      <trkpt lat="46.520599100160396" lon="9.656736514740869">
      <ele>1991.3</ele></trkpt>
      <trkpt lat="46.52056654013874" lon="9.65671489498704">
      <ele>1992.7</ele></trkpt>
      <trkpt lat="46.52051993362106" lon="9.656720871999791">
      <ele>1994.0</ele></trkpt>
      <trkpt lat="46.52046584581639" lon="9.656740830650659">
      <ele>1995.4</ele></trkpt>
      <trkpt lat="46.52043234858224" lon="9.656799491914757">
      <ele>1996.8</ele></trkpt>
      <trkpt lat="46.52042221724376" lon="9.6568505717838">
      <ele>1998.1</ele></trkpt>
      <trkpt lat="46.520420102884735" lon="9.656881434343395">
      <ele>1999.5</ele></trkpt>
      <trkpt lat="46.52043015069666" lon="9.656912078406274">
      <ele>2000.8</ele></trkpt>
      <trkpt lat="46.520469191004935" lon="9.656932269076952">
      <ele>2002.2</ele></trkpt>
      <trkpt lat="46.52051450805934" lon="9.656940253918297">
      <ele>2003.5</ele></trkpt>
      <trkpt lat="46.52056136347146" lon="9.656969929842855">
      <ele>2004.9</ele></trkpt>
      <trkpt lat="46.52060415493086" lon="9.657006791978723">
      <ele>2006.2</ele></trkpt>
      <trkpt lat="46.52063464490472" lon="9.657056538692437">
      <ele>2007.6</ele></trkpt>
      <trkpt lat="46.52065578985197" lon="9.657123997453915">
      <ele>2008.9</ele></trkpt>
      <trkpt lat="46.52066181936396" lon="9.657196820500442">
      <ele>2010.3</ele></trkpt>
      <trkpt lat="46.52064395678608" lon="9.657264531403511">
      <ele>2011.8</ele></trkpt>
      <trkpt lat="46.52061035641805" lon="9.657295276552482">
      <ele>2013.3</ele></trkpt>
      <trkpt lat="46.52057515779938" lon="9.657329984504411">
      <ele>2014.8</ele></trkpt>
      <trkpt lat="46.520562100685076" lon="9.657372809515955">
      <ele>2016.3</ele></trkpt>
      <trkpt lat="46.52054835885744" lon="9.65737880361896">
      <ele>2017.8</ele></trkpt>
      <trkpt lat="46.52052113307037" lon="9.657406159701333">
      <ele>2019.4</ele></trkpt>
      <trkpt lat="46.52048222195482" lon="9.657402400278574">
      <ele>2020.9</ele></trkpt>
      <trkpt lat="46.520427026395744" lon="9.65738783062851">
      <ele>2022.4</ele></trkpt>
      <trkpt lat="46.52038952010847" lon="9.657388170209954">
      <ele>2023.9</ele></trkpt>
      <trkpt lat="46.52036202614709" lon="9.65741312949077">
      <ele>2025.4</ele></trkpt>
      <trkpt lat="46.52035570708212" lon="9.657503540863361">
      <ele>2026.9</ele></trkpt>
      <trkpt lat="46.52035351160578" lon="9.65761228145845">
      <ele>2028.4</ele></trkpt>
      <trkpt lat="46.52034573914159" lon="9.657700612511182">
      <ele>2029.9</ele></trkpt>
      <trkpt lat="46.52033658324265" lon="9.657782824734648">
      <ele>2031.4</ele></trkpt>
      <trkpt lat="46.52035465506494" lon="9.657854172718181">
      <ele>2033.0</ele></trkpt>
      <trkpt lat="46.52036419830718" lon="9.657900961792814">
      <ele>2034.5</ele></trkpt>
      <trkpt lat="46.52037318222014" lon="9.657975926405685">
      <ele>2036.0</ele></trkpt>
      <trkpt lat="46.52038825084858" lon="9.658047138306559">
      <ele>2037.5</ele></trkpt>
      <trkpt lat="46.520394730046824" lon="9.658097830138708">
      <ele>2039.0</ele></trkpt>
      <trkpt lat="46.52039294562015" lon="9.658186419831182">
      <ele>2040.5</ele></trkpt>
      <trkpt lat="46.520395652569825" lon="9.658252392472948">
      <ele>2041.4</ele></trkpt>
      <trkpt lat="46.52040646487414" lon="9.658340625376752">
      <ele>2042.4</ele></trkpt>
      <trkpt lat="46.52038306456671" lon="9.658396949015811">
      <ele>2043.3</ele></trkpt>
      <trkpt lat="46.52037732499673" lon="9.658429096852023">
      <ele>2044.2</ele></trkpt>
      <trkpt lat="46.52038699295961" lon="9.6584805452898">
      <ele>2045.2</ele></trkpt>
      <trkpt lat="46.52039341478896" lon="9.658531860590918">
      <ele>2046.1</ele></trkpt>
      <trkpt lat="46.52040785627314" lon="9.658553624655099">
      <ele>2047.0</ele></trkpt>
      <trkpt lat="46.520411526944066" lon="9.658602962875205">
      <ele>2047.9</ele></trkpt>
      <trkpt lat="46.520401538912594" lon="9.658662326631212">
      <ele>2048.9</ele></trkpt>
      <trkpt lat="46.520409060441025" lon="9.658681303803753">
      <ele>2049.8</ele></trkpt>
      <trkpt lat="46.52040375197939" lon="9.658715333568617">
      <ele>2050.7</ele></trkpt>
      <trkpt lat="46.52040236900044" lon="9.658761244400575">
      <ele>2051.7</ele></trkpt>
      <trkpt lat="46.52040443129322" lon="9.658807687675548">
      <ele>2052.6</ele></trkpt>
      <trkpt lat="46.52043006195096" lon="9.658875343945336">
      <ele>2053.5</ele></trkpt>
      <trkpt lat="46.520440595074376" lon="9.65894836473752">
      <ele>2054.4</ele></trkpt>
      <trkpt lat="46.52043397641316" lon="9.658983122949351">
      <ele>2055.4</ele></trkpt>
      <trkpt lat="46.52043022649575" lon="9.659025351583717">
      <ele>2056.3</ele></trkpt>
      <trkpt lat="46.52043398731895" lon="9.659089868346488">
      <ele>2057.2</ele></trkpt>
      <trkpt lat="46.5204347162912" lon="9.659151575146877">
      <ele>2058.2</ele></trkpt>
      <trkpt lat="46.52044423298611" lon="9.659178052182947">
      <ele>2059.1</ele></trkpt>
      <trkpt lat="46.52044859783882" lon="9.659221787093772">
      <ele>2059.9</ele></trkpt>
      <trkpt lat="46.520477261432504" lon="9.659276987598881">
      <ele>2060.8</ele></trkpt>
      <trkpt lat="46.5204922691017" lon="9.659323649292416">
      <ele>2061.6</ele></trkpt>
      <trkpt lat="46.520481965919686" lon="9.659355375175123">
      <ele>2062.5</ele></trkpt>
      <trkpt lat="46.52048185631831" lon="9.65937894115427">
      <ele>2063.3</ele></trkpt>
      <trkpt lat="46.52049998208431" lon="9.659409721680708">
      <ele>2064.1</ele></trkpt>
      <trkpt lat="46.520527555881095" lon="9.659482920522365">
      <ele>2065.0</ele></trkpt>
      <trkpt lat="46.5205268834018" lon="9.659516866772918">
      <ele>2065.8</ele></trkpt>
      <trkpt lat="46.52051356661201" lon="9.659544388455352">
      <ele>2066.7</ele></trkpt>
      <trkpt lat="46.52051681859004" lon="9.659608219607017">
      <ele>2067.5</ele></trkpt>
      <trkpt lat="46.520511361026315" lon="9.659688536834203">
      <ele>2068.3</ele></trkpt>
      <trkpt lat="46.520516788111195" lon="9.659722576971534">
      <ele>2069.2</ele></trkpt>
      <trkpt lat="46.520508055288595" lon="9.659745319726063">
      <ele>2070.0</ele></trkpt>
      <trkpt lat="46.520485506608466" lon="9.659790726957052">
      <ele>2070.9</ele></trkpt>
      <trkpt lat="46.520480089706616" lon="9.659864814217357">
      <ele>2071.7</ele></trkpt>
      <trkpt lat="46.52046520687073" lon="9.659899246185196">
      <ele>2072.5</ele></trkpt>
      <trkpt lat="46.520426070919" lon="9.659912514781077">
      <ele>2073.4</ele></trkpt>
      <trkpt lat="46.520417260412216" lon="9.659951198231223">
      <ele>2074.2</ele></trkpt>
      <trkpt lat="46.52041856614483" lon="9.659996267743642">
      <ele>2075.1</ele></trkpt>
      <trkpt lat="46.520395646506834" lon="9.660014152028575">
      <ele>2075.9</ele></trkpt>
      <trkpt lat="46.52036327422459" lon="9.660071801457047">
      <ele>2077.4</ele></trkpt>
      <trkpt lat="46.52035944076785" lon="9.6601445194874">
      <ele>2078.8</ele></trkpt>
      <trkpt lat="46.52033928321436" lon="9.660165658928225">
      <ele>2080.3</ele></trkpt>
      <trkpt lat="46.52032955798248" lon="9.660210158222386">
      <ele>2081.8</ele></trkpt>
      <trkpt lat="46.520300360377405" lon="9.660221879032488">
      <ele>2083.2</ele></trkpt>
      <trkpt lat="46.52029497652924" lon="9.660245932405244">
      <ele>2084.7</ele></trkpt>
      <trkpt lat="46.520297453338095" lon="9.660332819579256">
      <ele>2086.2</ele></trkpt>
      <trkpt lat="46.52026543332274" lon="9.66037198407425">
      <ele>2087.7</ele></trkpt>
      <trkpt lat="46.5202317540651" lon="9.660542946754516">
      <ele>2089.1</ele></trkpt>
      <trkpt lat="46.52022225721442" lon="9.660657214716831">
      <ele>2090.6</ele></trkpt>
      <trkpt lat="46.52023688086357" lon="9.660770882581776">
      <ele>2092.1</ele></trkpt>
      <trkpt lat="46.52022957697893" lon="9.660822703457221">
      <ele>2093.5</ele></trkpt>
      <trkpt lat="46.52022652266705" lon="9.660918137149897">
      <ele>2095.0</ele></trkpt>
      <trkpt lat="46.52021509175004" lon="9.661054892173501">
      <ele>2096.5</ele></trkpt>
      <trkpt lat="46.52022929883232" lon="9.661171893475103">
      <ele>2098.0</ele></trkpt>
      <trkpt lat="46.52021513937596" lon="9.66131608465683">
      <ele>2099.4</ele></trkpt>
      <trkpt lat="46.520186634661826" lon="9.661494794404895">
      <ele>2100.9</ele></trkpt>
      <trkpt lat="46.52018897697115" lon="9.661604607544653">
      <ele>2102.4</ele></trkpt>
      <trkpt lat="46.52017154766277" lon="9.661683154766447">
      <ele>2103.8</ele></trkpt>
      <trkpt lat="46.520169297936846" lon="9.66179584287523">
      <ele>2105.3</ele></trkpt>
      <trkpt lat="46.520189750321286" lon="9.661906373932819">
      <ele>2106.5</ele></trkpt>
      <trkpt lat="46.520196543563166" lon="9.661978641733214">
      <ele>2107.8</ele></trkpt>
      <trkpt lat="46.52020565179169" lon="9.66204757600887">
      <ele>2109.0</ele></trkpt>
      <trkpt lat="46.520198918301816" lon="9.66208355446145">
      <ele>2110.3</ele></trkpt>
      <trkpt lat="46.520175958044945" lon="9.66210671599927">
      <ele>2111.5</ele></trkpt>
      <trkpt lat="46.52016798640037" lon="9.662130545491543">
      <ele>2112.8</ele></trkpt>
      <trkpt lat="46.52016684720416" lon="9.662186921545347">
      <ele>2114.0</ele></trkpt>
      <trkpt lat="46.5201755827327" lon="9.662273974569821">
      <ele>2115.3</ele></trkpt>
      <trkpt lat="46.52017845732222" lon="9.662354711689282">
      <ele>2116.5</ele></trkpt>
      <trkpt lat="46.52019688088611" lon="9.662407941493996">
      <ele>2117.8</ele></trkpt>
      <trkpt lat="46.52021012097347" lon="9.662495192752578">
      <ele>2119.0</ele></trkpt>
      <trkpt lat="46.52022513825861" lon="9.662568424394687">
      <ele>2120.2</ele></trkpt>
      <trkpt lat="46.52021848146115" lon="9.66267496068059">
      <ele>2121.5</ele></trkpt>
      <trkpt lat="46.52022706828823" lon="9.66277005142855">
      <ele>2122.7</ele></trkpt>
      <trkpt lat="46.520243499020104" lon="9.662847382654611">
      <ele>2124.0</ele></trkpt>
      <trkpt lat="46.520249573122896" lon="9.662918200108559">
      <ele>2125.2</ele></trkpt>
      <trkpt lat="46.520227505291054" lon="9.662971617124922">
      <ele>2126.5</ele></trkpt>
      <trkpt lat="46.52020716649123" lon="9.663013020128723">
      <ele>2127.7</ele></trkpt>
      <trkpt lat="46.520201294472415" lon="9.663081286722864">
      <ele>2129.0</ele></trkpt>
      <trkpt lat="46.520205976105196" lon="9.663145997878162">
      <ele>2130.2</ele></trkpt>
      <trkpt lat="46.52021363048547" lon="9.663212851936898">
      <ele>2131.3</ele></trkpt>
      <trkpt lat="46.520196215859386" lon="9.663258416429722">
      <ele>2132.5</ele></trkpt>
      <trkpt lat="46.52018486791462" lon="9.663300241048887">
      <ele>2133.6</ele></trkpt>
      <trkpt lat="46.52019402411972" lon="9.66336714380919">
      <ele>2134.7</ele></trkpt>
      <trkpt lat="46.52020818790467" lon="9.663408100795992">
      <ele>2135.8</ele></trkpt>
      <trkpt lat="46.52021470449839" lon="9.663456761007119">
      <ele>2137.0</ele></trkpt>
      <trkpt lat="46.52020814839375" lon="9.663505718138312">
      <ele>2138.1</ele></trkpt>
      <trkpt lat="46.52017617988011" lon="9.663537139042337">
      <ele>2139.2</ele></trkpt>
      <trkpt lat="46.520138734048246" lon="9.66354541619398">
      <ele>2140.4</ele></trkpt>
      <trkpt lat="46.52013137831259" lon="9.663555699583892">
      <ele>2141.5</ele></trkpt>
      <trkpt lat="46.52012811801103" lon="9.663567780934006">
      <ele>2142.6</ele></trkpt>
      <trkpt lat="46.52013305120592" lon="9.663591136937354">
      <ele>2143.8</ele></trkpt>
      <trkpt lat="46.520150323529435" lon="9.663639248530323">
      <ele>2144.9</ele></trkpt>
      <trkpt lat="46.520169216637456" lon="9.663708911296252">
      <ele>2146.0</ele></trkpt>
      <trkpt lat="46.520186742535955" lon="9.663757398415287">
      <ele>2147.2</ele></trkpt>
      <trkpt lat="46.52018652430726" lon="9.663767623265464">
      <ele>2148.3</ele></trkpt>
      <trkpt lat="46.52016158744852" lon="9.663779113187978">
      <ele>2149.4</ele></trkpt>
      <trkpt lat="46.520159353483955" lon="9.663794847901151">
      <ele>2150.5</ele></trkpt>
      <trkpt lat="46.520172698817" lon="9.663879887568028">
      <ele>2151.7</ele></trkpt>
      <trkpt lat="46.52018535976876" lon="9.663945187620257">
      <ele>2152.8</ele></trkpt>
      <trkpt lat="46.520182433977794" lon="9.663957647743805">
      <ele>2153.8</ele></trkpt>
      <trkpt lat="46.52015594474694" lon="9.663964771629892">
      <ele>2154.7</ele></trkpt>
      <trkpt lat="46.52014865796755" lon="9.663979803165123">
      <ele>2155.7</ele></trkpt>
      <trkpt lat="46.520155728482386" lon="9.664037846537997">
      <ele>2156.6</ele></trkpt>
      <trkpt lat="46.52016830635919" lon="9.66406005685351">
      <ele>2157.6</ele></trkpt>
      <trkpt lat="46.520161480266324" lon="9.664073621139131">
      <ele>2158.5</ele></trkpt>
      <trkpt lat="46.52016451320512" lon="9.664132424107768">
      <ele>2159.5</ele></trkpt>
      <trkpt lat="46.52016255500002" lon="9.66415107733652">
      <ele>2160.4</ele></trkpt>
      <trkpt lat="46.52017612964481" lon="9.664167423040734">
      <ele>2161.4</ele></trkpt>
      <trkpt lat="46.52018598654983" lon="9.664210471504788">
      <ele>2162.4</ele></trkpt>
      <trkpt lat="46.520202882032066" lon="9.664226810397478">
      <ele>2163.3</ele></trkpt>
      <trkpt lat="46.520232948324136" lon="9.66426173379205">
      <ele>2164.3</ele></trkpt>
      <trkpt lat="46.52023039475428" lon="9.664313997319454">
      <ele>2165.2</ele></trkpt>
      <trkpt lat="46.52019411377583" lon="9.66432850125629">
      <ele>2166.2</ele></trkpt>
      <trkpt lat="46.52015915878524" lon="9.664351116396922">
      <ele>2167.1</ele></trkpt>
      <trkpt lat="46.52012923936554" lon="9.664347747868078">
      <ele>2168.1</ele></trkpt>
      <trkpt lat="46.52011971730431" lon="9.66437352091533">
      <ele>2169.0</ele></trkpt>
      <trkpt lat="46.520092414699796" lon="9.664390466881146">
      <ele>2170.0</ele></trkpt>
      <trkpt lat="46.520048821604945" lon="9.664375350485907">
      <ele>2170.9</ele></trkpt>
      <trkpt lat="46.52001512873479" lon="9.664385906370065">
      <ele>2171.9</ele></trkpt>
      <trkpt lat="46.51999201740793" lon="9.664391487221213">
      <ele>2173.2</ele></trkpt>
      <trkpt lat="46.51996800652725" lon="9.66442691111249">
      <ele>2174.5</ele></trkpt>
      <trkpt lat="46.51992522262883" lon="9.664449503942889">
      <ele>2175.7</ele></trkpt>
      <trkpt lat="46.51992674372279" lon="9.664473840760813">
      <ele>2177.0</ele></trkpt>
      <trkpt lat="46.51994020106669" lon="9.664506738211722">
      <ele>2178.3</ele></trkpt>
      <trkpt lat="46.52004741250792" lon="9.66458923760225">
      <ele>2179.6</ele></trkpt>
      <trkpt lat="46.52006637493743" lon="9.664649360583788">
      <ele>2180.9</ele></trkpt>
      <trkpt lat="46.520075013225494" lon="9.664730256600798">
      <ele>2182.1</ele></trkpt>
      <trkpt lat="46.520085503027126" lon="9.664805297112315">
      <ele>2183.4</ele></trkpt>
      <trkpt lat="46.520073338665426" lon="9.664887384183636">
      <ele>2184.7</ele></trkpt>
      <trkpt lat="46.52006681661349" lon="9.66498785041639">
      <ele>2186.0</ele></trkpt>
      <trkpt lat="46.520088800072266" lon="9.66508759905391">
      <ele>2187.3</ele></trkpt>
      <trkpt lat="46.52010361837764" lon="9.665170900504952">
      <ele>2188.5</ele></trkpt>
      <trkpt lat="46.52009185737355" lon="9.665232849387921">
      <ele>2189.8</ele></trkpt>
      <trkpt lat="46.520090471015024" lon="9.66530130021155">
      <ele>2191.1</ele></trkpt>
      <trkpt lat="46.52007136530363" lon="9.665356884783602">
      <ele>2192.4</ele></trkpt>
      <trkpt lat="46.52006872310161" lon="9.665413185852294">
      <ele>2193.7</ele></trkpt>
      <trkpt lat="46.52005612784494" lon="9.665442847539975">
      <ele>2194.9</ele></trkpt>
      <trkpt lat="46.52003559055203" lon="9.665494331748341">
      <ele>2196.2</ele></trkpt>
      <trkpt lat="46.520032662805676" lon="9.665564739759283">
      <ele>2197.5</ele></trkpt>
      <trkpt lat="46.52001796481581" lon="9.665624546937869">
      <ele>2198.4</ele></trkpt>
      <trkpt lat="46.52000438634118" lon="9.665702534180404">
      <ele>2199.2</ele></trkpt>
      <trkpt lat="46.51999539142945" lon="9.665776694719435">
      <ele>2200.1</ele></trkpt>
      <trkpt lat="46.5200055073923" lon="9.665869853992424">
      <ele>2200.9</ele></trkpt>
      <trkpt lat="46.5200152157868" lon="9.665952123932888">
      <ele>2201.8</ele></trkpt>
      <trkpt lat="46.52002104087491" lon="9.66599147373853">
      <ele>2202.6</ele></trkpt>
      <trkpt lat="46.52003650240457" lon="9.666021729462999">
      <ele>2203.5</ele></trkpt>
      <trkpt lat="46.52003489173036" lon="9.66604880556134">
      <ele>2204.3</ele></trkpt>
      <trkpt lat="46.520028651867285" lon="9.666055406034829">
      <ele>2205.2</ele></trkpt>
      <trkpt lat="46.52000362930991" lon="9.666054728124372">
      <ele>2206.1</ele></trkpt>
      <trkpt lat="46.520000274462454" lon="9.66607115966654">
      <ele>2206.9</ele></trkpt>
      <trkpt lat="46.52000719987369" lon="9.66609982557346">
      <ele>2207.8</ele></trkpt>
      <trkpt lat="46.52000956531063" lon="9.666126061488375">
      <ele>2208.6</ele></trkpt>
      <trkpt lat="46.520003642297524" lon="9.666222080572313">
      <ele>2209.5</ele></trkpt>
      <trkpt lat="46.52000384702958" lon="9.666282787803203">
      <ele>2210.3</ele></trkpt>
      <trkpt lat="46.5200090713728" lon="9.666311461939255">
      <ele>2211.2</ele></trkpt>
      <trkpt lat="46.520015519727636" lon="9.666367211520667">
      <ele>2212.0</ele></trkpt>
      <trkpt lat="46.52002291301012" lon="9.666418828274258">
      <ele>2212.9</ele></trkpt>
      <trkpt lat="46.520035337280945" lon="9.666471799380696">
      <ele>2213.7</ele></trkpt>
      <trkpt lat="46.52002407631994" lon="9.666509585455247">
      <ele>2214.6</ele></trkpt>
      <trkpt lat="46.520006660371095" lon="9.66655514872496">
      <ele>2217.6</ele></trkpt>
      <trkpt lat="46.51998971365984" lon="9.66665113110046">
      <ele>2220.5</ele></trkpt>
      <trkpt lat="46.51997917713385" lon="9.666727235665116">
      <ele>2223.5</ele></trkpt>
      <trkpt lat="46.51997836520688" lon="9.66684206843307">
      <ele>2226.5</ele></trkpt>
      <trkpt lat="46.51998419102372" lon="9.666924960871238">
      <ele>2229.4</ele></trkpt>
      <trkpt lat="46.519997703793805" lon="9.666998131603115">
      <ele>2232.4</ele></trkpt>
      <trkpt lat="46.52002216190997" lon="9.667049616773511">
      <ele>2235.4</ele></trkpt>
      <trkpt lat="46.52003296619975" lon="9.667108544281449">
      <ele>2238.3</ele></trkpt>
      <trkpt lat="46.52003473041145" lon="9.667169094162622">
      <ele>2241.3</ele></trkpt>
      <trkpt lat="46.52003775941265" lon="9.667241781152493">
      <ele>2244.2</ele></trkpt>
      <trkpt lat="46.520060321020196" lon="9.66731333008042">
      <ele>2247.2</ele></trkpt>
      <trkpt lat="46.520068082508814" lon="9.667374140028091">
      <ele>2250.2</ele></trkpt>
      <trkpt lat="46.520068314563915" lon="9.66743663451464">
      <ele>2253.1</ele></trkpt>
      <trkpt lat="46.52008791233731" lon="9.667506040811132">
      <ele>2256.1</ele></trkpt>
      <trkpt lat="46.520086691259905" lon="9.667566454783776">
      <ele>2259.1</ele></trkpt>
      <trkpt lat="46.52008867099274" lon="9.667616923212194">
      <ele>2262.0</ele></trkpt>
      <trkpt lat="46.520108624109085" lon="9.667668210168221">
      <ele>2265.0</ele></trkpt>
      <trkpt lat="46.52013467153419" lon="9.667715732875857">
      <ele>2268.0</ele></trkpt>
      <trkpt lat="46.52012805869888" lon="9.668158353806895">
      <ele>2270.9</ele></trkpt>
      <trkpt lat="46.52012144413846" lon="9.66860097462834">
      <ele>2273.9</ele></trkpt>
      <trkpt lat="46.5201584445024" lon="9.668741974064863">
      <ele>2280.3</ele></trkpt>
      <trkpt lat="46.5200444452166" lon="9.668853971773052">
      <ele>2286.7</ele></trkpt>
      <trkpt lat="46.52014144508581" lon="9.669016971699532">
      <ele>2293.1</ele></trkpt>
      <trkpt lat="46.52003644555667" lon="9.66912296869782">
      <ele>2299.5</ele></trkpt>
      <trkpt lat="46.52001544680099" lon="9.669451965663493">
      <ele>2305.9</ele></trkpt>
      <trkpt lat="46.520095446920465" lon="9.669536967160951">
      <ele>2312.3</ele></trkpt>
      <trkpt lat="46.52013044814768" lon="9.669731965073064">
      <ele>2318.7</ele></trkpt>
      <trkpt lat="46.52003544847396" lon="9.669863962727458">
      <ele>2325.1</ele></trkpt>
      <trkpt lat="46.52002044972448" lon="9.670207960540854">
      <ele>2331.5</ele></trkpt>
      <trkpt lat="46.52020278108782" lon="9.670614845704689">
      <ele>2337.9</ele></trkpt>
      <trkpt lat="46.52049901040903" lon="9.670791339028435">
      <ele>2344.3</ele></trkpt>
      <trkpt lat="46.52059096323919" lon="9.671264491601248">
      <ele>2350.7</ele></trkpt>
      <trkpt lat="46.52068291409773" lon="9.671737645782834">
      <ele>2357.1</ele></trkpt>
      <trkpt lat="46.52029981286873" lon="9.671757039273846">
      <ele>2363.5</ele></trkpt>
      <trkpt lat="46.51991671163236" lon="9.671776432491432">
      <ele>2369.9</ele></trkpt>
      <trkpt lat="46.519533610388685" lon="9.671795825435588">
      <ele>2376.3</ele></trkpt>
      <trkpt lat="46.5191505091377" lon="9.671815218106335">
      <ele>2382.7</ele></trkpt>
      <trkpt lat="46.518887144159876" lon="9.672027289224568">
      <ele>2389.1</ele></trkpt>
      <trkpt lat="46.518623778784224" lon="9.672239358276325">
      <ele>2395.5</ele></trkpt>
      <trkpt lat="46.51861123013188" lon="9.672683086651666">
      <ele>2401.9</ele></trkpt>
      <trkpt lat="46.51859867974573" lon="9.673126814819653">
      <ele>2407.1</ele></trkpt>
      <trkpt lat="46.51858612762577" lon="9.673570542780253">
      <ele>2412.3</ele></trkpt>
      <trkpt lat="46.51870053552879" lon="9.673999632465925">
      <ele>2417.5</ele></trkpt>
      <trkpt lat="46.51881494181015" lon="9.674428723967257">
      <ele>2422.7</ele></trkpt>
      <trkpt lat="46.518578638317784" lon="9.67491177195585">
      <ele>2427.9</ele></trkpt>
      <trkpt lat="46.51873742401388" lon="9.675429488732497">
      <ele>2433.1</ele></trkpt>
      <trkpt lat="46.518896207348945" lon="9.67594720854988">
      <ele>2438.3</ele></trkpt>
      <trkpt lat="46.51892981284064" lon="9.676411392589687">
      <ele>2443.5</ele></trkpt>
      <trkpt lat="46.51896341643491" lon="9.676875577205372">
      <ele>2448.7</ele></trkpt>
      <trkpt lat="46.51858478041874" lon="9.676953728038567">
      <ele>2453.9</ele></trkpt>
      <trkpt lat="46.518206144344965" lon="9.677031877778168">
      <ele>2459.2</ele></trkpt>
      <trkpt lat="46.51812926939303" lon="9.67757626120649">
      <ele>2464.4</ele></trkpt>
      <trkpt lat="46.518052391831326" lon="9.678120643084188">
      <ele>2469.6</ele></trkpt>
      <trkpt lat="46.518197196278805" lon="9.678565108742003">
      <ele>2474.8</ele></trkpt>
      <trkpt lat="46.518341998986045" lon="9.679009576780556">
      <ele>2480.0</ele></trkpt>
      <trkpt lat="46.518328408883484" lon="9.679063493049222">
      <ele>2485.2</ele></trkpt>
      <trkpt lat="46.51833494064951" lon="9.679121084249541">
      <ele>2490.4</ele></trkpt>
      <trkpt lat="46.51834459484245" lon="9.679165911790681">
      <ele>2495.6</ele></trkpt>
      <trkpt lat="46.51835236550889" lon="9.679256510199561">
      <ele>2500.8</ele></trkpt>
      <trkpt lat="46.5183597629715" lon="9.67941303103941">
      <ele>2506.0</ele></trkpt>
      <trkpt lat="46.51833582825261" lon="9.679409211136557">
      <ele>2509.1</ele></trkpt>
      <trkpt lat="46.518333719369465" lon="9.679465036694207">
      <ele>2512.2</ele></trkpt>
      <trkpt lat="46.51834461101261" lon="9.67954430542137">
      <ele>2515.3</ele></trkpt>
      <trkpt lat="46.51831005124033" lon="9.679637518206654">
      <ele>2518.4</ele></trkpt>
      <trkpt lat="46.51828517056072" lon="9.679726829705205">
      <ele>2521.4</ele></trkpt>
      <trkpt lat="46.51826012367521" lon="9.679730120556048">
      <ele>2524.5</ele></trkpt>
      <trkpt lat="46.518247560625454" lon="9.679781224152888">
      <ele>2527.6</ele></trkpt>
      <trkpt lat="46.51822096811928" lon="9.679813143904576">
      <ele>2530.7</ele></trkpt>
      <trkpt lat="46.518168714722485" lon="9.679831121065282">
      <ele>2533.8</ele></trkpt>
      <trkpt lat="46.518116421055026" lon="9.679803234846547">
      <ele>2536.9</ele></trkpt>
      <trkpt lat="46.518092176751274" lon="9.67981374188232">
      <ele>2540.0</ele></trkpt>
      <trkpt lat="46.518058375058644" lon="9.679822432160298">
      <ele>2543.1</ele></trkpt>
      <trkpt lat="46.51803267941623" lon="9.679857243865905">
      <ele>2546.2</ele></trkpt>
      <trkpt lat="46.517999751200335" lon="9.679877311830857">
      <ele>2549.3</ele></trkpt>
      <trkpt lat="46.51798186467267" lon="9.679899006494926">
      <ele>2552.4</ele></trkpt>
      <trkpt lat="46.5179525810303" lon="9.679908131500744">
      <ele>2555.4</ele></trkpt>
      <trkpt lat="46.51787302041822" lon="9.679927193736912">
      <ele>2558.5</ele></trkpt>
      <trkpt lat="46.51776599991369" lon="9.680436039309463">
      <ele>2561.6</ele></trkpt>
      <trkpt lat="46.51765897712884" lon="9.68094488286512">
      <ele>2564.7</ele></trkpt>
      <trkpt lat="46.517551952063656" lon="9.681453724403864">
      <ele>2567.8</ele></trkpt>
      <trkpt lat="46.517346915502216" lon="9.681787449423485">
      <ele>2567.5</ele></trkpt>
      <trkpt lat="46.517141877958956" lon="9.682121171910588">
      <ele>2567.1</ele></trkpt>
      <trkpt lat="46.51700212461945" lon="9.682498665378954">
      <ele>2566.8</ele></trkpt>
      <trkpt lat="46.516862370024626" lon="9.682876156894261">
      <ele>2566.4</ele></trkpt>
      <trkpt lat="46.51646363682497" lon="9.682969131818433">
      <ele>2566.1</ele></trkpt>
      <trkpt lat="46.51606490354505" lon="9.683062105372358">
      <ele>2565.7</ele></trkpt>
      <trkpt lat="46.51586283509168" lon="9.683245364893764">
      <ele>2565.4</ele></trkpt>
      <trkpt lat="46.51566076634154" lon="9.683428623045021">
      <ele>2565.0</ele></trkpt>
      <trkpt lat="46.51567127275887" lon="9.68385340150925">
      <ele>2564.7</ele></trkpt>
      <trkpt lat="46.5156817775872" lon="9.684278180137426">
      <ele>2564.3</ele></trkpt>
      <trkpt lat="46.51549529233606" lon="9.684755593489655">
      <ele>2564.0</ele></trkpt>
      <trkpt lat="46.51530880507695" lon="9.685233003546081">
      <ele>2563.6</ele></trkpt>
      <trkpt lat="46.51512231580984" lon="9.685710410306697">
      <ele>2563.2</ele></trkpt>
      <trkpt lat="46.51509370048696" lon="9.685723483161857">
      <ele>2562.9</ele></trkpt>
      <trkpt lat="46.51505996695275" lon="9.685789215822517">
      <ele>2562.6</ele></trkpt>
      <trkpt lat="46.51501235261823" lon="9.685874707541005">
      <ele>2562.2</ele></trkpt>
      <trkpt lat="46.51495008402875" lon="9.68594944895077">
      <ele>2561.9</ele></trkpt>
      <trkpt lat="46.51489762786983" lon="9.686006282707917">
      <ele>2561.5</ele></trkpt>
      <trkpt lat="46.514858538963296" lon="9.686069772067363">
      <ele>2561.2</ele></trkpt>
      <trkpt lat="46.514809727417365" lon="9.686147079344773">
      <ele>2560.8</ele></trkpt>
      <trkpt lat="46.514764144666934" lon="9.68619809758472">
      <ele>2560.4</ele></trkpt>
      <trkpt lat="46.5146780216377" lon="9.686249491761943">
      <ele>2560.0</ele></trkpt>
      <trkpt lat="46.51459611472282" lon="9.68629292673439">
      <ele>2559.6</ele></trkpt>
      <trkpt lat="46.514547070787664" lon="9.686313284891702">
      <ele>2559.2</ele></trkpt>
      <trkpt lat="46.514464779549755" lon="9.68630791204218">
      <ele>2558.8</ele></trkpt>
      <trkpt lat="46.51434711100665" lon="9.686315330751961">
      <ele>2558.4</ele></trkpt>
      <trkpt lat="46.51427571296444" lon="9.686373436451227">
      <ele>2558.0</ele></trkpt>
      <trkpt lat="46.51423727629036" lon="9.686404402548513">
      <ele>2557.6</ele></trkpt>
      <trkpt lat="46.51420075991807" lon="9.686406992123572">
      <ele>2557.2</ele></trkpt>
      <trkpt lat="46.51418050089722" lon="9.686406163776537">
      <ele>2556.8</ele></trkpt>
      <trkpt lat="46.51413674946995" lon="9.686432842031884">
      <ele>2556.3</ele></trkpt>
      <trkpt lat="46.51410223853656" lon="9.686470071599105">
      <ele>2555.9</ele></trkpt>
      <trkpt lat="46.51407636089745" lon="9.686481223997886">
      <ele>2555.5</ele></trkpt>
      <trkpt lat="46.513928861969674" lon="9.686493529943126">
      <ele>2555.1</ele></trkpt>
      <trkpt lat="46.51356819778291" lon="9.686754136263948">
      <ele>2554.7</ele></trkpt>
      <trkpt lat="46.51320753299483" lon="9.687014739107639">
      <ele>2554.3</ele></trkpt>
      <trkpt lat="46.513132560174945" lon="9.687090889897364">
      <ele>2553.9</ele></trkpt>
      <trkpt lat="46.513132560174945" lon="9.687090889897364">
      <ele>2553.5</ele></trkpt>
      <trkpt lat="46.51280925412588" lon="9.687320283955096">
      <ele>2553.1</ele></trkpt>
      <trkpt lat="46.51248594761085" lon="9.687549675269246">
      <ele>2552.7</ele></trkpt>
      <trkpt lat="46.51216264062987" lon="9.687779063839844">
      <ele>2553.9</ele></trkpt>
      <trkpt lat="46.51215248070105" lon="9.687794505105984">
      <ele>2555.0</ele></trkpt>
      <trkpt lat="46.51214449833982" lon="9.687824505583967">
      <ele>2556.2</ele></trkpt>
      <trkpt lat="46.512140603522205" lon="9.687849866043303">
      <ele>2557.4</ele></trkpt>
      <trkpt lat="46.51213135041056" lon="9.687866322591013">
      <ele>2558.5</ele></trkpt>
      <trkpt lat="46.512111325089855" lon="9.687866872103148">
      <ele>2559.7</ele></trkpt>
      <trkpt lat="46.51210567210727" lon="9.687872398601217">
      <ele>2560.9</ele></trkpt>
      <trkpt lat="46.51210634161389" lon="9.687900855498368">
      <ele>2562.1</ele></trkpt>
      <trkpt lat="46.512100040369404" lon="9.68793912473887">
      <ele>2563.2</ele></trkpt>
      <trkpt lat="46.51208648185981" lon="9.687970314232901">
      <ele>2564.4</ele></trkpt>
      <trkpt lat="46.51207236925478" lon="9.688014489487166">
      <ele>2565.6</ele></trkpt>
      <trkpt lat="46.51206331846478" lon="9.688067087057751">
      <ele>2566.7</ele></trkpt>
      <trkpt lat="46.5120465316303" lon="9.688090425686463">
      <ele>2567.9</ele></trkpt>
      <trkpt lat="46.51206228037393" lon="9.688134968627203">
      <ele>2569.1</ele></trkpt>
      <trkpt lat="46.51205997954504" lon="9.688157996861607">
      <ele>2570.2</ele></trkpt>
      <trkpt lat="46.512060707129294" lon="9.688198969631294">
      <ele>2571.4</ele></trkpt>
      <trkpt lat="46.51205222961394" lon="9.688269422691825">
      <ele>2572.6</ele></trkpt>
      <trkpt lat="46.51203629248835" lon="9.688280752356473">
      <ele>2573.8</ele></trkpt>
      <trkpt lat="46.51202676221686" lon="9.68829575041138">
      <ele>2574.9</ele></trkpt>
      <trkpt lat="46.51201820787335" lon="9.688338722733361">
      <ele>2576.1</ele></trkpt>
      <trkpt lat="46.51197983720708" lon="9.688332695995403">
      <ele>2578.0</ele></trkpt>
      <trkpt lat="46.511936750519126" lon="9.688328506679719">
      <ele>2579.9</ele></trkpt>
      <trkpt lat="46.5119022224248" lon="9.688316578476877">
      <ele>2581.8</ele></trkpt>
      <trkpt lat="46.5118514558508" lon="9.688305748079578">
      <ele>2583.7</ele></trkpt>
      <trkpt lat="46.5118191075736" lon="9.688267814816863">
      <ele>2585.6</ele></trkpt>
      <trkpt lat="46.51180619519707" lon="9.688195925579631">
      <ele>2587.5</ele></trkpt>
      <trkpt lat="46.51175124237586" lon="9.688148814939785">
      <ele>2589.4</ele></trkpt>
      <trkpt lat="46.51167867202802" lon="9.688139724597004">
      <ele>2591.3</ele></trkpt>
      <trkpt lat="46.5116221008227" lon="9.688176164883194">
      <ele>2593.2</ele></trkpt>
      <trkpt lat="46.51158489478732" lon="9.688152224815568">
      <ele>2595.1</ele></trkpt>
      <trkpt lat="46.51154481653134" lon="9.688209710782926">
      <ele>2597.0</ele></trkpt>
      <trkpt lat="46.51149088489533" lon="9.688176928866886">
      <ele>2598.9</ele></trkpt>
      <trkpt lat="46.51144889941653" lon="9.688154393487341">
      <ele>2600.8</ele></trkpt>
      <trkpt lat="46.51140942110921" lon="9.688159765388072">
      <ele>2602.7</ele></trkpt>
      <trkpt lat="46.51137494518071" lon="9.688205648497743">
      <ele>2604.6</ele></trkpt>
      <trkpt lat="46.51134274997986" lon="9.688246334256549">
      <ele>2606.5</ele></trkpt>
      <trkpt lat="46.511298930854416" lon="9.688228232675032">
      <ele>2608.4</ele></trkpt>
      <trkpt lat="46.51128917202096" lon="9.688262499334154">
      <ele>2610.3</ele></trkpt>
      <trkpt lat="46.51123654375107" lon="9.6882970566716">
      <ele>2612.2</ele></trkpt>
      <trkpt lat="46.51118533946534" lon="9.688392857826909">
      <ele>2614.1</ele></trkpt>
      <trkpt lat="46.511157801764256" lon="9.688473284071671">
      <ele>2616.1</ele></trkpt>
      <trkpt lat="46.51116158214426" lon="9.688546865426892">
      <ele>2618.1</ele></trkpt>
      <trkpt lat="46.51113974805867" lon="9.688601029216118">
      <ele>2620.0</ele></trkpt>
      <trkpt lat="46.51109250997925" lon="9.688625604080647">
      <ele>2622.0</ele></trkpt>
      <trkpt lat="46.51106128978197" lon="9.688628412169447">
      <ele>2624.0</ele></trkpt>
      <trkpt lat="46.51106380699215" lon="9.688699881424599">
      <ele>2626.0</ele></trkpt>
      <trkpt lat="46.51100857993023" lon="9.688734330160957">
      <ele>2628.0</ele></trkpt>
      <trkpt lat="46.511003978019886" lon="9.688770844337661">
      <ele>2629.9</ele></trkpt>
      <trkpt lat="46.510958814653414" lon="9.688754732991583">
      <ele>2631.9</ele></trkpt>
      <trkpt lat="46.51094556482217" lon="9.688835752724732">
      <ele>2633.9</ele></trkpt>
      <trkpt lat="46.510884119856655" lon="9.688788385312426">
      <ele>2635.9</ele></trkpt>
      <trkpt lat="46.510857643617044" lon="9.688787036965268">
      <ele>2637.9</ele></trkpt>
      <trkpt lat="46.51083068064138" lon="9.688803447547885">
      <ele>2639.8</ele></trkpt>
      <trkpt lat="46.51082636998658" lon="9.688847064517526">
      <ele>2641.8</ele></trkpt>
      <trkpt lat="46.510809499885596" lon="9.688881413128742">
      <ele>2643.8</ele></trkpt>
      <trkpt lat="46.510798645583584" lon="9.688903733261075">
      <ele>2645.8</ele></trkpt>
      <trkpt lat="46.51079440428619" lon="9.688943846782928">
      <ele>2647.8</ele></trkpt>
      <trkpt lat="46.51077937779223" lon="9.689002790013207">
      <ele>2649.7</ele></trkpt>
      <trkpt lat="46.510776356821616" lon="9.689039447954285">
      <ele>2651.7</ele></trkpt>
      <trkpt lat="46.51076419588136" lon="9.689070485976018">
      <ele>2653.7</ele></trkpt>
      <trkpt lat="46.51076695667889" lon="9.68910738430168">
      <ele>2655.3</ele></trkpt>
      <trkpt lat="46.51076159018486" lon="9.689145691336133">
      <ele>2656.8</ele></trkpt>
      <trkpt lat="46.51073232523161" lon="9.68916200599758">
      <ele>2658.4</ele></trkpt>
      <trkpt lat="46.51070385636385" lon="9.689136317324175">
      <ele>2659.9</ele></trkpt>
      <trkpt lat="46.510689357503814" lon="9.689167258073676">
      <ele>2661.5</ele></trkpt>
      <trkpt lat="46.510667034292" lon="9.689183861338872">
      <ele>2663.1</ele></trkpt>
      <trkpt lat="46.510616969422394" lon="9.68919757749481">
      <ele>2664.6</ele></trkpt>
      <trkpt lat="46.510586630500256" lon="9.689208594517138">
      <ele>2666.2</ele></trkpt>
      <trkpt lat="46.510539837535894" lon="9.689232952491878">
      <ele>2667.7</ele></trkpt>
      <trkpt lat="46.5104948272561" lon="9.689224107476525">
      <ele>2669.3</ele></trkpt>
      <trkpt lat="46.51047283514476" lon="9.689210823299412">
      <ele>2670.9</ele></trkpt>
      <trkpt lat="46.51047045249575" lon="9.689226613274407">
      <ele>2672.4</ele></trkpt>
      <trkpt lat="46.51045813522515" lon="9.689264631066509">
      <ele>2674.0</ele></trkpt>
      <trkpt lat="46.51045194503632" lon="9.68929363609668">
      <ele>2675.5</ele></trkpt>
      <trkpt lat="46.5104318477801" lon="9.689327341798345">
      <ele>2677.1</ele></trkpt>
      <trkpt lat="46.51038804506782" lon="9.68931159956106">
      <ele>2678.7</ele></trkpt>
      <trkpt lat="46.5103598141999" lon="9.689318415791538">
      <ele>2680.2</ele></trkpt>
      <trkpt lat="46.51031450097224" lon="9.689325316793465">
      <ele>2681.8</ele></trkpt>
      <trkpt lat="46.51031340159406" lon="9.689383078887218">
      <ele>2683.3</ele></trkpt>
      <trkpt lat="46.510316850262974" lon="9.689423407522774">
      <ele>2684.9</ele></trkpt>
      <trkpt lat="46.51030973279208" lon="9.689446977635695">
      <ele>2686.5</ele></trkpt>
      <trkpt lat="46.51028428340774" lon="9.68945194125114">
      <ele>2688.2</ele></trkpt>
      <trkpt lat="46.51025062114607" lon="9.689455820369192">
      <ele>2689.8</ele></trkpt>
      <trkpt lat="46.51021383039969" lon="9.689460442692292">
      <ele>2691.4</ele></trkpt>
      <trkpt lat="46.510203209727834" lon="9.689539550156567">
      <ele>2693.1</ele></trkpt>
      <trkpt lat="46.51019833473028" lon="9.689549410002847">
      <ele>2694.7</ele></trkpt>
      <trkpt lat="46.51015395861158" lon="9.689548529111637">
      <ele>2696.3</ele></trkpt>
      <trkpt lat="46.51013469300746" lon="9.68955161218225">
      <ele>2698.0</ele></trkpt>
      <trkpt lat="46.51012393518614" lon="9.689553159068995">
      <ele>2699.6</ele></trkpt>
      <trkpt lat="46.51012628756962" lon="9.689607936250363">
      <ele>2701.2</ele></trkpt>
      <trkpt lat="46.51012457797022" lon="9.689644257227732">
      <ele>2702.9</ele></trkpt>
      <trkpt lat="46.51010964057047" lon="9.689676430580061">
      <ele>2704.5</ele></trkpt>
      <trkpt lat="46.510092882227305" lon="9.68973691711452">
      <ele>2706.2</ele></trkpt>
      <trkpt lat="46.51003282089801" lon="9.689752810707077">
      <ele>2707.8</ele></trkpt>
      <trkpt lat="46.51001980344015" lon="9.68982161224697">
      <ele>2709.4</ele></trkpt>
      <trkpt lat="46.510004703234436" lon="9.689863815193515">
      <ele>2711.1</ele></trkpt>
      <trkpt lat="46.509985400783435" lon="9.689905087340149">
      <ele>2712.7</ele></trkpt>
      <trkpt lat="46.50997050345655" lon="9.689916615757152">
      <ele>2714.3</ele></trkpt>
      <trkpt lat="46.50995321501185" lon="9.689973873562323">
      <ele>2716.0</ele></trkpt>
      <trkpt lat="46.50992765175465" lon="9.69000183781592">
      <ele>2717.6</ele></trkpt>
      <trkpt lat="46.50992142513546" lon="9.69002540563967">
      <ele>2718.9</ele></trkpt>
      <trkpt lat="46.50985824282175" lon="9.690032579409483">
      <ele>2720.2</ele></trkpt>
      <trkpt lat="46.509835880482484" lon="9.690057053183153">
      <ele>2721.4</ele></trkpt>
      <trkpt lat="46.50979850605843" lon="9.690047078398694">
      <ele>2722.7</ele></trkpt>
      <trkpt lat="46.5097825944132" lon="9.69008117910966">
      <ele>2724.0</ele></trkpt>
      <trkpt lat="46.50974693315435" lon="9.690112359761336">
      <ele>2725.2</ele></trkpt>
      <trkpt lat="46.509698646247905" lon="9.690173489402232">
      <ele>2726.5</ele></trkpt>
      <trkpt lat="46.50966431442184" lon="9.69017210038828">
      <ele>2727.8</ele></trkpt>
      <trkpt lat="46.50967211073773" lon="9.690273662138402">
      <ele>2729.1</ele></trkpt>
      <trkpt lat="46.50966217489858" lon="9.69032590739636">
      <ele>2730.3</ele></trkpt>
      <trkpt lat="46.509673088138975" lon="9.690360107206853">
      <ele>2731.6</ele></trkpt>
      <trkpt lat="46.50967237510835" lon="9.690396534496102">
      <ele>2732.9</ele></trkpt>
      <trkpt lat="46.509653167593484" lon="9.690428920763031">
      <ele>2734.2</ele></trkpt>
      <trkpt lat="46.509648260909245" lon="9.690476695892078">
      <ele>2735.4</ele></trkpt>
      <trkpt lat="46.509641717882694" lon="9.690500784785945">
      <ele>2736.7</ele></trkpt>
      <trkpt lat="46.50963833885339" lon="9.69054231485652">
      <ele>2738.0</ele></trkpt>
      <trkpt lat="46.50966568481574" lon="9.690601481290091">
      <ele>2739.3</ele></trkpt>
      <trkpt lat="46.50968551554417" lon="9.690626185210705">
      <ele>2740.5</ele></trkpt>
      <trkpt lat="46.50970547725227" lon="9.690659262629305">
      <ele>2741.8</ele></trkpt>
      <trkpt lat="46.50969922796176" lon="9.690679427386998">
      <ele>2743.1</ele></trkpt>
      <trkpt lat="46.50969893895408" lon="9.690729414987944">
      <ele>2744.4</ele></trkpt>
      <trkpt lat="46.50970281453995" lon="9.69074455266967">
      <ele>2745.7</ele></trkpt>
      <trkpt lat="46.50972663577197" lon="9.690735924497293">
      <ele>2747.0</ele></trkpt>
      <trkpt lat="46.50974650233357" lon="9.690727496733343">
      <ele>2748.3</ele></trkpt>
      <trkpt lat="46.50981439407601" lon="9.690734257932975">
      <ele>2749.6</ele></trkpt>
      <trkpt lat="46.50983231523651" lon="9.690755415381432">
      <ele>2750.9</ele></trkpt>
      <trkpt lat="46.50986616460383" lon="9.690777509318837">
      <ele>2752.2</ele></trkpt>
      <trkpt lat="46.509866990151714" lon="9.690808044057775">
      <ele>2753.5</ele></trkpt>
      <trkpt lat="46.509874405984846" lon="9.690836167941914">
      <ele>2754.8</ele></trkpt>
      <trkpt lat="46.50985102949921" lon="9.690860038721441">
      <ele>2756.1</ele></trkpt>
      <trkpt lat="46.50984601378316" lon="9.690870635491631">
      <ele>2757.4</ele></trkpt>
      <trkpt lat="46.50985913267388" lon="9.69089479962266">
      <ele>2758.7</ele></trkpt>
      <trkpt lat="46.50991332249319" lon="9.690899087876964">
      <ele>2760.0</ele></trkpt>
      <trkpt lat="46.50991045123102" lon="9.690927709176004">
      <ele>2761.3</ele></trkpt>
      <trkpt lat="46.50989755874809" lon="9.690977915471523">
      <ele>2762.6</ele></trkpt>
      <trkpt lat="46.509937682983605" lon="9.690986271777028">
      <ele>2763.9</ele></trkpt>
      <trkpt lat="46.50994584552548" lon="9.691007596785093">
      <ele>2765.2</ele></trkpt>
      <trkpt lat="46.50993684156719" lon="9.691040511888733">
      <ele>2766.5</ele></trkpt>
      <trkpt lat="46.50993960012631" lon="9.691057519229963">
      <ele>2767.8</ele></trkpt>
      <trkpt lat="46.50996686603868" lon="9.691072144458326">
      <ele>2769.1</ele></trkpt>
      <trkpt lat="46.509959278707534" lon="9.691122571549675">
      <ele>2770.5</ele></trkpt>
      <trkpt lat="46.50996924559684" lon="9.691135499329734">
      <ele>2771.9</ele></trkpt>
      <trkpt lat="46.50996408302731" lon="9.691175286996854">
      <ele>2773.3</ele></trkpt>
      <trkpt lat="46.50996576490983" lon="9.691191676034062">
      <ele>2774.7</ele></trkpt>
      <trkpt lat="46.509967523241656" lon="9.691196493724211">
      <ele>2776.1</ele></trkpt>
      <trkpt lat="46.50999126150198" lon="9.69119568288604">
      <ele>2777.4</ele></trkpt>
      <trkpt lat="46.50999479339818" lon="9.691222250574093">
      <ele>2778.8</ele></trkpt>
      <trkpt lat="46.509998326109454" lon="9.691248322993063">
      <ele>2780.2</ele></trkpt>
      <trkpt lat="46.509999805776395" lon="9.691274909553727">
      <ele>2781.6</ele></trkpt>
      <trkpt lat="46.51002771420841" lon="9.691274376579402">
      <ele>2783.0</ele></trkpt>
      <trkpt lat="46.51006685342651" lon="9.69129019994842">
      <ele>2784.4</ele></trkpt>
      <trkpt lat="46.5100602110578" lon="9.691379196131752">
      <ele>2785.8</ele></trkpt>
      <trkpt lat="46.51005881094883" lon="9.691457969930799">
      <ele>2787.2</ele></trkpt>
      <trkpt lat="46.51007701956957" lon="9.691532241864028">
      <ele>2788.6</ele></trkpt>
      <trkpt lat="46.51007410143756" lon="9.691555504130124">
      <ele>2789.9</ele></trkpt>
      <trkpt lat="46.51008582461319" lon="9.691552929001869">
      <ele>2791.3</ele></trkpt>
      <trkpt lat="46.510110146746655" lon="9.691560341269073">
      <ele>2792.7</ele></trkpt>
      <trkpt lat="46.51010753403498" lon="9.69159134566962">
      <ele>2794.1</ele></trkpt>
      <trkpt lat="46.51010813698744" lon="9.691620841581896">
      <ele>2795.5</ele></trkpt>
      <trkpt lat="46.510115768131314" lon="9.691644451730532">
      <ele>2796.9</ele></trkpt>
      <trkpt lat="46.51012866406755" lon="9.691647178307427">
      <ele>2798.1</ele></trkpt>
      <trkpt lat="46.51013745953048" lon="9.691661087185597">
      <ele>2799.2</ele></trkpt>
      <trkpt lat="46.51013308287801" lon="9.691684380000698">
      <ele>2800.4</ele></trkpt>
      <trkpt lat="46.51014511790312" lon="9.691720986327152">
      <ele>2801.6</ele></trkpt>
      <trkpt lat="46.51018349833639" lon="9.691715623582905">
      <ele>2802.8</ele></trkpt>
      <trkpt lat="46.51020724276551" lon="9.69173174496452">
      <ele>2803.9</ele></trkpt>
      <trkpt lat="46.510214884005705" lon="9.691761651229108">
      <ele>2805.1</ele></trkpt>
      <trkpt lat="46.510222224860186" lon="9.691787191493582">
      <ele>2806.3</ele></trkpt>
      <trkpt lat="46.51024977498281" lon="9.691884128527903">
      <ele>2807.4</ele></trkpt>
      <trkpt lat="46.51027470279698" lon="9.691928153904817">
      <ele>2808.6</ele></trkpt>
      <trkpt lat="46.510309465353245" lon="9.691996754656733">
      <ele>2809.8</ele></trkpt>
      <trkpt lat="46.510334850052445" lon="9.692105306764338">
      <ele>2810.9</ele></trkpt>
      <trkpt lat="46.51033955915471" lon="9.692197278557153">
      <ele>2812.1</ele></trkpt>
      <trkpt lat="46.510337003991054" lon="9.69227073874465">
      <ele>2813.3</ele></trkpt>
      <trkpt lat="46.510309268887184" lon="9.692327404843354">
      <ele>2814.5</ele></trkpt>
      <trkpt lat="46.51030390104837" lon="9.692365724256605">
      <ele>2815.6</ele></trkpt>
      <trkpt lat="46.510297113474024" lon="9.692417996596404">
      <ele>2816.8</ele></trkpt>
      <trkpt lat="46.51030870167683" lon="9.692478020575699">
      <ele>2818.0</ele></trkpt>
      <trkpt lat="46.51030204407172" lon="9.69252328577697">
      <ele>2819.1</ele></trkpt>
      <trkpt lat="46.51031150342015" lon="9.692574488040801">
      <ele>2820.3</ele></trkpt>
      <trkpt lat="46.51032891719873" lon="9.69263299501663">
      <ele>2822.3</ele></trkpt>
      <trkpt lat="46.510325531116194" lon="9.69268890224445">
      <ele>2824.4</ele></trkpt>
      <trkpt lat="46.51033110295899" lon="9.692760954239654">
      <ele>2826.4</ele></trkpt>
      <trkpt lat="46.51034348670973" lon="9.692840289463764">
      <ele>2828.4</ele></trkpt>
      <trkpt lat="46.51034696786225" lon="9.692891164639505">
      <ele>2830.5</ele></trkpt>
      <trkpt lat="46.51036237313271" lon="9.692950200730001">
      <ele>2832.5</ele></trkpt>
      <trkpt lat="46.510358636425" lon="9.69300426854759">
      <ele>2834.5</ele></trkpt>
      <trkpt lat="46.51035894322493" lon="9.693030076568308">
      <ele>2836.6</ele></trkpt>
      <trkpt lat="46.51034940312364" lon="9.693099048723466">
      <ele>2838.6</ele></trkpt>
      <trkpt lat="46.51035177725835" lon="9.693189828503572">
      <ele>2840.7</ele></trkpt>
      <trkpt lat="46.51034543197466" lon="9.693242014949341">
      <ele>2842.7</ele></trkpt>
      <trkpt lat="46.510336728712396" lon="9.693249316690334">
      <ele>2844.7</ele></trkpt>
      <trkpt lat="46.51033356786714" lon="9.693294766596242">
      <ele>2846.8</ele></trkpt>
      <trkpt lat="46.51032373734167" lon="9.69334843713987">
      <ele>2848.8</ele></trkpt>
      <trkpt lat="46.510315916231306" lon="9.69337341125276">
      <ele>2850.8</ele></trkpt>
      <trkpt lat="46.51031564087408" lon="9.69339635349182">
      <ele>2852.9</ele></trkpt>
      <trkpt lat="46.510328128189" lon="9.693421026571233">
      <ele>2854.9</ele></trkpt>
      <trkpt lat="46.51052841024252" lon="9.693733752244478">
      <ele>2856.9</ele></trkpt>
      <trkpt lat="46.51053434377777" lon="9.69374085562191">
      <ele>2859.0</ele></trkpt>
      <trkpt lat="46.510539606006645" lon="9.693754122433255">
      <ele>2861.0</ele></trkpt>
      <trkpt lat="46.51056762246364" lon="9.693785777506413">
      <ele>2862.1</ele></trkpt>
      <trkpt lat="46.51057534541153" lon="9.693794767251989">
      <ele>2863.1</ele></trkpt>
      <trkpt lat="46.5106030806015" lon="9.693819736960874">
      <ele>2864.2</ele></trkpt>
      <trkpt lat="46.510617089950195" lon="9.693842987751822">
      <ele>2865.3</ele></trkpt>
      <trkpt lat="46.510624239823514" lon="9.693849112103955">
      <ele>2866.3</ele></trkpt>
      <trkpt lat="46.51063051910234" lon="9.693836078494442">
      <ele>2867.4</ele></trkpt>
      <trkpt lat="46.51064021731921" lon="9.693790444533084">
      <ele>2868.5</ele></trkpt>
      <trkpt lat="46.51066106762354" lon="9.693754686152824">
      <ele>2869.6</ele></trkpt>
      <trkpt lat="46.510673928932455" lon="9.693748274591737">
      <ele>2870.6</ele></trkpt>
      <trkpt lat="46.5107045179631" lon="9.693764577926691">
      <ele>2871.7</ele></trkpt>
      <trkpt lat="46.51072510328319" lon="9.693783423323353">
      <ele>2872.8</ele></trkpt>
      <trkpt lat="46.51073166936216" lon="9.693779969010984">
      <ele>2873.8</ele></trkpt>
      <trkpt lat="46.51076652046024" lon="9.693732984567648">
      <ele>2874.9</ele></trkpt>
      <trkpt lat="46.51077279173713" lon="9.693693151468027">
      <ele>2876.0</ele></trkpt>
      <trkpt lat="46.51078507794914" lon="9.693669014946686">
      <ele>2877.1</ele></trkpt>
      <trkpt lat="46.510801653226004" lon="9.693666368667873">
      <ele>2878.1</ele></trkpt>
      <trkpt lat="46.51082223049494" lon="9.693675646329902">
      <ele>2879.2</ele></trkpt>
      <trkpt lat="46.51084310582608" lon="9.693701190567472">
      <ele>2880.3</ele></trkpt>
      <trkpt lat="46.51086513790112" lon="9.693765026561922">
      <ele>2881.3</ele></trkpt>
      <trkpt lat="46.510888286758416" lon="9.693777135652626">
      <ele>2882.4</ele></trkpt>
      <trkpt lat="46.510902598293534" lon="9.693812364925115">
      <ele>2883.3</ele></trkpt>
      <trkpt lat="46.51090688989529" lon="9.693840072853956">
      <ele>2884.2</ele></trkpt>
      <trkpt lat="46.51093947895023" lon="9.693846292636902">
      <ele>2885.2</ele></trkpt>
      <trkpt lat="46.51094606747174" lon="9.693881148027593">
      <ele>2886.1</ele></trkpt>
      <trkpt lat="46.51094408807643" lon="9.69393960406883">
      <ele>2887.0</ele></trkpt>
      <trkpt lat="46.51094924568318" lon="9.69396539292113">
      <ele>2887.9</ele></trkpt>
      <trkpt lat="46.51096296904334" lon="9.693986728926621">
      <ele>2888.8</ele></trkpt>
      <trkpt lat="46.51097126472533" lon="9.6939990534302">
      <ele>2889.8</ele></trkpt>
      <trkpt lat="46.51099727952333" lon="9.694016391648113">
      <ele>2890.7</ele></trkpt>
      <trkpt lat="46.5110181575817" lon="9.694056300397953">
      <ele>2891.6</ele></trkpt>
      <trkpt lat="46.51104045509571" lon="9.694081825934411">
      <ele>2892.5</ele></trkpt>
      <trkpt lat="46.51104446367727" lon="9.694096135574846">
      <ele>2893.4</ele></trkpt>
      <trkpt lat="46.51106161858173" lon="9.694115516070136">
      <ele>2894.4</ele></trkpt>
      <trkpt lat="46.51106621053884" lon="9.694148489591655">
      <ele>2895.3</ele></trkpt>
      <trkpt lat="46.5110779395956" lon="9.69418279028029">
      <ele>2896.2</ele></trkpt>
      <trkpt lat="46.51106595035051" lon="9.694232304642817">
      <ele>2897.1</ele></trkpt>
      <trkpt lat="46.51108053741902" lon="9.694245490990124">
      <ele>2898.0</ele></trkpt>
      <trkpt lat="46.511089689465855" lon="9.69426499424631">
      <ele>2899.0</ele></trkpt>
      <trkpt lat="46.51110254974857" lon="9.694276766074488">
      <ele>2899.9</ele></trkpt>
      <trkpt lat="46.511111711357906" lon="9.694295787459835">
      <ele>2900.8</ele></trkpt>
      <trkpt lat="46.51112115039897" lon="9.694338908489899">
      <ele>2901.7</ele></trkpt>
      <trkpt lat="46.51114841848933" lon="9.69438105201125">
      <ele>2902.5</ele></trkpt>
      <trkpt lat="46.51117248272396" lon="9.694416401323018">
      <ele>2903.4</ele></trkpt>
      <trkpt lat="46.51118509095708" lon="9.694455822311546">
      <ele>2904.2</ele></trkpt>
      <trkpt lat="46.51120899456783" lon="9.694534609626423">
      <ele>2905.1</ele></trkpt>
      <trkpt lat="46.51121633081107" lon="9.69460612394834">
      <ele>2906.0</ele></trkpt>
      <trkpt lat="46.51121510474084" lon="9.694740825547695">
      <ele>2906.8</ele></trkpt>
      <trkpt lat="46.51121591656825" lon="9.694789218117409">
      <ele>2907.7</ele></trkpt>
      <trkpt lat="46.51122119439132" lon="9.694802146951012">
      <ele>2908.5</ele></trkpt>
      <trkpt lat="46.511222329770135" lon="9.694826543098038">
      <ele>2909.4</ele></trkpt>
      <trkpt lat="46.511246647082665" lon="9.694864549257202">
      <ele>2910.3</ele></trkpt>
      <trkpt lat="46.51126889580064" lon="9.694894335559106">
      <ele>2911.1</ele></trkpt>
      <trkpt lat="46.5112790761996" lon="9.694917336065362">
      <ele>2912.0</ele></trkpt>
      <trkpt lat="46.51128680903693" lon="9.694964791954074">
      <ele>2912.8</ele></trkpt>
      <trkpt lat="46.511289639446396" lon="9.695008511074908">
      <ele>2913.7</ele></trkpt>
      <trkpt lat="46.511302641395694" lon="9.695062534561211">
      <ele>2914.6</ele></trkpt>
      <trkpt lat="46.51131037851616" lon="9.695089382776233">
      <ele>2915.4</ele></trkpt>
      <trkpt lat="46.51133431685154" lon="9.69511565509864">
      <ele>2916.3</ele></trkpt>
      <trkpt lat="46.51135825961291" lon="9.695124487154755">
      <ele>2917.1</ele></trkpt>
      <trkpt lat="46.51138032082515" lon="9.6951365255301">
      <ele>2918.0</ele></trkpt>
      <trkpt lat="46.51140764582645" lon="9.695222455754063">
      <ele>2918.5</ele></trkpt>
      <trkpt lat="46.51142028292698" lon="9.695270376974047">
      <ele>2919.1</ele></trkpt>
      <trkpt lat="46.51142821011641" lon="9.69531211889061">
      <ele>2919.6</ele></trkpt>
      <trkpt lat="46.511438954086614" lon="9.69533891008866">
      <ele>2920.2</ele></trkpt>
      <trkpt lat="46.51144837831254" lon="9.695384116521687">
      <ele>2920.7</ele></trkpt>
      <trkpt lat="46.5114555455328" lon="9.695420169705168">
      <ele>2921.2</ele></trkpt>
      <trkpt lat="46.5114668548266" lon="9.695432998211892">
      <ele>2921.8</ele></trkpt>
      <trkpt lat="46.51147062396232" lon="9.695451651699113">
      <ele>2922.3</ele></trkpt>
      <trkpt lat="46.511481560600835" lon="9.695474631794706">
      <ele>2922.9</ele></trkpt>
      <trkpt lat="46.51149249539801" lon="9.695486832069669">
      <ele>2923.4</ele></trkpt>
      <trkpt lat="46.51149305689705" lon="9.695511569403614">
      <ele>2923.9</ele></trkpt>
      <trkpt lat="46.51151436202425" lon="9.69554898121545">
      <ele>2924.5</ele></trkpt>
      <trkpt lat="46.51152379249626" lon="9.695587527241395">
      <ele>2925.0</ele></trkpt>
      <trkpt lat="46.51153755107025" lon="9.695612058887582">
      <ele>2925.6</ele></trkpt>
      <trkpt lat="46.511550000890644" lon="9.695627724458168">
      <ele>2926.1</ele></trkpt>
      <trkpt lat="46.511558855327245" lon="9.69565358972703">
      <ele>2926.6</ele></trkpt>
      <trkpt lat="46.51158403318851" lon="9.695690394087071">
      <ele>2927.2</ele></trkpt>
      <trkpt lat="46.511602770205805" lon="9.695740199309332">
      <ele>2927.7</ele></trkpt>
      <trkpt lat="46.511627028199094" lon="9.695822847883319">
      <ele>2928.3</ele></trkpt>
      <trkpt lat="46.51163253631991" lon="9.695848638841792">
      <ele>2928.8</ele></trkpt>
      <trkpt lat="46.51164946909401" lon="9.695877826063054">
      <ele>2933.2</ele></trkpt>
      <trkpt lat="46.51167062585606" lon="9.695942174904003">
      <ele>2937.6</ele></trkpt>
      <trkpt lat="46.51168629392942" lon="9.695967073114426">
      <ele>2942.0</ele></trkpt>
      <trkpt lat="46.51169263733511" lon="9.696002909695187">
      <ele>2946.5</ele></trkpt>
      <trkpt lat="46.511876561263875" lon="9.696517802407476">
      <ele>2950.9</ele></trkpt>
      <trkpt lat="46.512196569628514" lon="9.696300650070022">
      <ele>2955.3</ele></trkpt>
      <trkpt lat="46.512244570494765" lon="9.69670264684794">
      <ele>2959.7</ele></trkpt>
      <trkpt lat="46.5123805711258" lon="9.696919648006995">
      <ele>2964.1</ele></trkpt>
      <trkpt lat="46.51230557230999" lon="9.697091644867818">
      <ele>2968.5</ele></trkpt>
      <trkpt lat="46.51233257260819" lon="9.697327643598394">
      <ele>2972.9</ele></trkpt>
      <trkpt lat="46.51239642977969" lon="9.697435023820574">
      <ele>2977.4</ele></trkpt>
      <trkpt lat="46.51236652444785" lon="9.697480766883068">
      <ele>2981.8</ele></trkpt>
      <trkpt lat="46.512365699922974" lon="9.697522235874361">
      <ele>2986.2</ele></trkpt>
      <trkpt lat="46.512372708407696" lon="9.697547229684396">
      <ele>2990.6</ele></trkpt>
      <trkpt lat="46.512390470485364" lon="9.697546002720701">
      <ele>2995.0</ele></trkpt>
      <trkpt lat="46.51242158973411" lon="9.697559150334733">
      <ele>2999.4</ele></trkpt>
      <trkpt lat="46.512441146876505" lon="9.697570837775068">
      <ele>3003.9</ele></trkpt>
      <trkpt lat="46.51245711049083" lon="9.69759126511867">
      <ele>3008.3</ele></trkpt>
      <trkpt lat="46.51243868078503" lon="9.697626068450697">
      <ele>3012.7</ele></trkpt>
      <trkpt lat="46.512473459094025" lon="9.697661124284512">
      <ele>3017.1</ele></trkpt>
      <trkpt lat="46.512489399313594" lon="9.697717123258263">
      <ele>3018.4</ele></trkpt>
      <trkpt lat="46.51245146054426" lon="9.69773827277696">
      <ele>3019.7</ele></trkpt>
      <trkpt lat="46.51242942656045" lon="9.697782806147025">
      <ele>3021.0</ele></trkpt>
      <trkpt lat="46.512427333320595" lon="9.69781928196191">
      <ele>3022.3</ele></trkpt>
      <trkpt lat="46.51245695723811" lon="9.697839288917592">
      <ele>3023.6</ele></trkpt>
      <trkpt lat="46.512450772680154" lon="9.697875593968723">
      <ele>3024.8</ele></trkpt>
      <trkpt lat="46.512468259959796" lon="9.69788818579108">
      <ele>3026.1</ele></trkpt>
      <trkpt lat="46.51242585714808" lon="9.697927906212673">
      <ele>3027.4</ele></trkpt>
      <trkpt lat="46.51240067029891" lon="9.697959468400192">
      <ele>3028.7</ele></trkpt>
      <trkpt lat="46.512428244045864" lon="9.697979389841182">
      <ele>3030.0</ele></trkpt>
      <trkpt lat="46.51243168728881" lon="9.698012147162864">
      <ele>3031.3</ele></trkpt>
      <trkpt lat="46.51247879843461" lon="9.69804474610125">
      <ele>3032.6</ele></trkpt>
      <trkpt lat="46.51246464342417" lon="9.698104429103289">
      <ele>3033.9</ele></trkpt>
      <trkpt lat="46.51245196205309" lon="9.698159246361621">
      <ele>3035.2</ele></trkpt>
      <trkpt lat="46.512460284946336" lon="9.698220858389233">
      <ele>3036.4</ele></trkpt>
      <trkpt lat="46.512470720882135" lon="9.698245004771763">
      <ele>3037.7</ele></trkpt>
      <trkpt lat="46.512508655625844" lon="9.698258450388966">
      <ele>3039.0</ele></trkpt>
      <trkpt lat="46.51250021373209" lon="9.698305532398829">
      <ele>3040.3</ele></trkpt>
      <trkpt lat="46.5125269205498" lon="9.698300716476943">
      <ele>3041.6</ele></trkpt>
      <trkpt lat="46.51255346139086" lon="9.698303792853435">
      <ele>3042.9</ele></trkpt>
      <trkpt lat="46.51253089689462" lon="9.698374986647503">
      <ele>3045.3</ele></trkpt>
      <trkpt lat="46.5125597979549" lon="9.698396945095409">
      <ele>3047.6</ele></trkpt>
      <trkpt lat="46.51257971515657" lon="9.698424459414207">
      <ele>3050.0</ele></trkpt>
      <trkpt lat="46.512579263345486" lon="9.698447173667022">
      <ele>3052.3</ele></trkpt>
      <trkpt lat="46.51258422148115" lon="9.69847208209511">
      <ele>3054.7</ele></trkpt>
      <trkpt lat="46.512618999787875" lon="9.698507125543308">
      <ele>3057.1</ele></trkpt>
      <trkpt lat="46.512635664579875" lon="9.698541608237642">
      <ele>3059.4</ele></trkpt>
      <trkpt lat="46.5125975267815" lon="9.698592208141898">
      <ele>3061.8</ele></trkpt>
      <trkpt lat="46.51261446419908" lon="9.698632437657276">
      <ele>3064.1</ele></trkpt>
      <trkpt lat="46.51261698835635" lon="9.698677005627298">
      <ele>3066.5</ele></trkpt>
      <trkpt lat="46.5125961634947" lon="9.698729501531812">
      <ele>3068.9</ele></trkpt>
      <trkpt lat="46.51260311289734" lon="9.6987574521054">
      <ele>3071.2</ele></trkpt>
      <trkpt lat="46.51262518476891" lon="9.698813720650389">
      <ele>3073.6</ele></trkpt>
      <trkpt lat="46.512661901866565" lon="9.698888367634748">
      <ele>3075.9</ele></trkpt>
      <trkpt lat="46.51270955553517" lon="9.69888961471065">
      <ele>3078.3</ele></trkpt>
      <trkpt lat="46.51273802309164" lon="9.698903955952256">
      <ele>3080.7</ele></trkpt>
      <trkpt lat="46.51276696577139" lon="9.698928341036641">
      <ele>3083.0</ele></trkpt>
      <trkpt lat="46.512819809835406" lon="9.698961362900217">
      <ele>3085.4</ele></trkpt>
      <trkpt lat="46.512922676926095" lon="9.6990190247324">
      <ele>3087.7</ele></trkpt>
      <trkpt lat="46.51302495996384" lon="9.69906352295653">
      <ele>3090.1</ele></trkpt>
      <trkpt lat="46.513093712223615" lon="9.699063656992509">
      <ele>3091.6</ele></trkpt>
      <trkpt lat="46.513110277414995" lon="9.699170077142394">
      <ele>3093.1</ele></trkpt>
      <trkpt lat="46.51315937060344" lon="9.699174056815016">
      <ele>3094.6</ele></trkpt>
      <trkpt lat="46.51319045013941" lon="9.69920637867496">
      <ele>3096.2</ele></trkpt>
      <trkpt lat="46.51321314649025" lon="9.699203663753504">
      <ele>3097.7</ele></trkpt>
      <trkpt lat="46.513245087104686" lon="9.699212610394202">
      <ele>3099.2</ele></trkpt>
      <trkpt lat="46.51328640115222" lon="9.699208183362874">
      <ele>3100.7</ele></trkpt>
      <trkpt lat="46.513319667347446" lon="9.699190762981063">
      <ele>3102.2</ele></trkpt>
      <trkpt lat="46.51335713160128" lon="9.699172670627997">
      <ele>3103.7</ele></trkpt>
      <trkpt lat="46.513386804863366" lon="9.699185211546817">
      <ele>3105.2</ele></trkpt>
      <trkpt lat="46.513419725661414" lon="9.699183340781488">
      <ele>3106.8</ele></trkpt>
      <trkpt lat="46.51343938129203" lon="9.69917559758057">
      <ele>3108.3</ele></trkpt>
      <trkpt lat="46.5134812532973" lon="9.699172979640801">
      <ele>3109.8</ele></trkpt>
      <trkpt lat="46.51350437902131" lon="9.699156373990567">
      <ele>3111.3</ele></trkpt>
      <trkpt lat="46.51351183977267" lon="9.699196612642384">
      <ele>3112.8</ele></trkpt>
      <trkpt lat="46.51349924945857" lon="9.699222404985427">
      <ele>3114.3</ele></trkpt>
      <trkpt lat="46.51348666930149" lon="9.699245877463404">
      <ele>3115.9</ele></trkpt>
      <trkpt lat="46.51346173835191" lon="9.699261847152195">
      <ele>3117.4</ele></trkpt>
      <trkpt lat="46.513442412348745" lon="9.6993140803882">
      <ele>3118.9</ele></trkpt>
      <trkpt lat="46.513440888729" lon="9.699334117112137">
      <ele>3120.4</ele></trkpt>
      <trkpt lat="46.51340327050837" lon="9.699382105808489">
      <ele>3121.3</ele></trkpt>
      <trkpt lat="46.51339629778536" lon="9.699422719152889">
      <ele>3122.2</ele></trkpt>
      <trkpt lat="46.51337073520432" lon="9.699477663787768">
      <ele>3123.1</ele></trkpt>
      <trkpt lat="46.513350046445346" lon="9.699532798933896">
      <ele>3124.0</ele></trkpt>
      <trkpt lat="46.51333969823533" lon="9.699565306684777">
      <ele>3124.9</ele></trkpt>
      <trkpt lat="46.51334486572844" lon="9.699591892831814">
      <ele>3125.8</ele></trkpt>
      <trkpt lat="46.513330118555" lon="9.69961617406336">
      <ele>3126.7</ele></trkpt>
      <trkpt lat="46.51332966148196" lon="9.69963823664999">
      <ele>3127.6</ele></trkpt>
      <trkpt lat="46.5133051638932" lon="9.699660011857675">
      <ele>3128.5</ele></trkpt>
      <trkpt lat="46.51329256956786" lon="9.699684643696122">
      <ele>3129.4</ele></trkpt>
      <trkpt lat="46.51327458462738" lon="9.699696614722463">
      <ele>3130.4</ele></trkpt>
      <trkpt lat="46.513252881290704" lon="9.699735348112347">
      <ele>3131.3</ele></trkpt>
      <trkpt lat="46.51323162020855" lon="9.699769042287496">
      <ele>3132.2</ele></trkpt>
      <trkpt lat="46.513228232362" lon="9.699812203708245">
      <ele>3133.1</ele></trkpt>
      <trkpt lat="46.513226980283584" lon="9.699859286706525">
      <ele>3134.0</ele></trkpt>
      <trkpt lat="46.51323453842871" lon="9.699879246542828">
      <ele>3134.9</ele></trkpt>
      <trkpt lat="46.5132314870637" lon="9.69990097910129">
      <ele>3135.8</ele></trkpt>
      <trkpt lat="46.51321046046699" lon="9.699916107832138">
      <ele>3136.7</ele></trkpt>
      <trkpt lat="46.513188771944435" lon="9.699940529062197">
      <ele>3137.6</ele></trkpt>
      <trkpt lat="46.513178759652135" lon="9.699985994627701">
      <ele>3138.5</ele></trkpt>
      <trkpt lat="46.513160552368504" lon="9.700004160991194">
      <ele>3139.3</ele></trkpt>
      <trkpt lat="46.5131490662461" lon="9.700031889224583">
      <ele>3140.2</ele></trkpt>
      <trkpt lat="46.51312647957416" lon="9.700067522217598">
      <ele>3141.0</ele></trkpt>
      <trkpt lat="46.513120381729806" lon="9.700096270709999">
      <ele>3141.8</ele></trkpt>
      <trkpt lat="46.5130915225097" lon="9.700149082627622">
      <ele>3142.7</ele></trkpt>
      <trkpt lat="46.51306594654369" lon="9.700186598042235">
      <ele>3143.5</ele></trkpt>
      <trkpt lat="46.51304227732392" lon="9.70022010005595">
      <ele>3144.3</ele></trkpt>
      <trkpt lat="46.513037048810446" lon="9.700250383858162">
      <ele>3145.2</ele></trkpt>
      <trkpt lat="46.513038091838276" lon="9.700290210761853">
      <ele>3146.0</ele></trkpt>
      <trkpt lat="46.51303221385985" lon="9.700314692838969">
      <ele>3146.8</ele></trkpt>
      <trkpt lat="46.513015949925716" lon="9.700337854508494">
      <ele>3147.7</ele></trkpt>
      <trkpt lat="46.51297194065862" lon="9.700372787589762">
      <ele>3148.5</ele></trkpt>
      <trkpt lat="46.51295936169856" lon="9.700391215029674">
      <ele>3149.4</ele></trkpt>
      <trkpt lat="46.51294136142211" lon="9.700409376801245">
      <ele>3150.2</ele></trkpt>
      <trkpt lat="46.512921826294956" lon="9.700453101497432">
      <ele>3151.0</ele></trkpt>
      <trkpt lat="46.5129049188908" lon="9.700461571664217">
      <ele>3151.9</ele></trkpt>
      <trkpt lat="46.512902731929294" lon="9.70048327501039">
      <ele>3152.7</ele></trkpt>
      <trkpt lat="46.51288148679769" lon="9.700503047833333">
      <ele>3153.5</ele></trkpt>
      <trkpt lat="46.51288318391547" lon="9.70053126159788">
      <ele>3154.4</ele></trkpt>
      <trkpt lat="46.5128634553794" lon="9.700552153621905">
      <ele>3155.2</ele></trkpt>
      <trkpt lat="46.51285888485684" lon="9.700571984556792">
      <ele>3155.8</ele></trkpt>
      <trkpt lat="46.512858869888184" lon="9.700586296494876">
      <ele>3156.5</ele></trkpt>
      <trkpt lat="46.51284748394452" lon="9.70060220578938">
      <ele>3157.1</ele></trkpt>
      <trkpt lat="46.512827266123985" lon="9.700606991994356">
      <ele>3157.8</ele></trkpt>
      <trkpt lat="46.51281482165737" lon="9.70060781451762">
      <ele>3158.4</ele></trkpt>
      <trkpt lat="46.512729065709635" lon="9.700661663122247">
      <ele>3159.1</ele></trkpt>
      <trkpt lat="46.51270739797693" lon="9.700713054303664">
      <ele>3159.7</ele></trkpt>
      <trkpt lat="46.512673163720734" lon="9.700779080010719">
      <ele>3160.4</ele></trkpt>
      <trkpt lat="46.51262900727648" lon="9.700822752895643">
      <ele>3161.0</ele></trkpt>
      <trkpt lat="46.512593385292774" lon="9.70086446219068">
      <ele>3161.6</ele></trkpt>
      <trkpt lat="46.51257871735636" lon="9.700875711005066">
      <ele>3162.3</ele></trkpt>
      <trkpt lat="46.512566568473034" lon="9.700901912030062">
      <ele>3162.9</ele></trkpt>
      <trkpt lat="46.51254808546748" lon="9.70090860855304">
      <ele>3163.6</ele></trkpt>
      <trkpt lat="46.51252416769346" lon="9.700929273067127">
      <ele>3164.2</ele></trkpt>
      <trkpt lat="46.512514260096516" lon="9.700951383490526">
      <ele>3164.9</ele></trkpt>
      <trkpt lat="46.51247948821667" lon="9.700986102266283">
      <ele>3165.5</ele></trkpt>
      <trkpt lat="46.51246160811885" lon="9.70100952182218">
      <ele>3166.2</ele></trkpt>
      <trkpt lat="46.51244084597576" lon="9.701052034515266">
      <ele>3166.8</ele></trkpt>
      <trkpt lat="46.51242329829994" lon="9.701071414037983">
      <ele>3167.5</ele></trkpt>
      <trkpt lat="46.512397629510346" lon="9.701099565545496">
      <ele>3168.1</ele></trkpt>
      <trkpt lat="46.51237176185225" lon="9.701120982649837">
      <ele>3169.0</ele></trkpt>
      <trkpt lat="46.51233174533499" lon="9.701167800058462">
      <ele>3169.9</ele></trkpt>
      <trkpt lat="46.51230314949711" lon="9.70120555321527">
      <ele>3170.8</ele></trkpt>
      <trkpt lat="46.51228370865232" lon="9.70124633515465">
      <ele>3171.7</ele></trkpt>
      <trkpt lat="46.512255768336104" lon="9.701276477143608">
      <ele>3172.6</ele></trkpt>
      <trkpt lat="46.51221313833747" lon="9.70131172734215">
      <ele>3173.5</ele></trkpt>
      <trkpt lat="46.512189687805204" lon="9.701333779757638">
      <ele>3174.4</ele></trkpt>
      <trkpt lat="46.51217708568524" lon="9.70135562090525">
      <ele>3175.3</ele></trkpt>
      <trkpt lat="46.51216574378574" lon="9.701387838415698">
      <ele>3176.2</ele></trkpt>
      <trkpt lat="46.51214571361738" lon="9.701402629922548">
      <ele>3177.1</ele></trkpt>
      <trkpt lat="46.5121254757773" lon="9.701413841160276">
      <ele>3178.1</ele></trkpt>
      <trkpt lat="46.5120964882294" lon="9.701436013948879">
      <ele>3179.0</ele></trkpt>
      <trkpt lat="46.51206359063377" lon="9.701445301145823">
      <ele>3179.9</ele></trkpt>
      <trkpt lat="46.5120517922612" lon="9.701452993815609">
      <ele>3180.8</ele></trkpt>
      <trkpt lat="46.512019577305495" lon="9.701480871265751">
      <ele>3181.7</ele></trkpt>
      <trkpt lat="46.51200420816017" lon="9.701506989392719">
      <ele>3182.6</ele></trkpt>
      <trkpt lat="46.51192409483414" lon="9.70157030040972">
      <ele>3183.5</ele></trkpt>
      <trkpt lat="46.51186822106278" lon="9.701598153114388">
      <ele>3184.4</ele></trkpt>
      <trkpt lat="46.511834610678015" lon="9.701629217725271">
      <ele>3185.3</ele></trkpt>
      <trkpt lat="46.51179886644956" lon="9.701659880241035">
      <ele>3186.2</ele></trkpt>
      <trkpt lat="46.5117471838863" lon="9.701690567144809">
      <ele>3187.3</ele></trkpt>
      <trkpt lat="46.51172481603" lon="9.701710670146">
      <ele>3188.3</ele></trkpt>
      <trkpt lat="46.51167051240251" lon="9.70177715835065">
      <ele>3189.4</ele></trkpt>
      <trkpt lat="46.51162125415659" lon="9.701851938990522">
      <ele>3190.5</ele></trkpt>
      <trkpt lat="46.511619881973644" lon="9.701890099730957">
      <ele>3191.5</ele></trkpt>
      <trkpt lat="46.51157531320246" lon="9.70192101861532">
      <ele>3192.6</ele></trkpt>
      <trkpt lat="46.511548709323705" lon="9.701959505894473">
      <ele>3193.7</ele></trkpt>
      <trkpt lat="46.51154825355072" lon="9.701977865920501">
      <ele>3194.7</ele></trkpt>
      <trkpt lat="46.511564655555084" lon="9.701991156479044">
      <ele>3195.8</ele></trkpt>
      <trkpt lat="46.51156612083033" lon="9.70201020948146">
      <ele>3196.8</ele></trkpt>
      <trkpt lat="46.51156184138583" lon="9.702023547626972">
      <ele>3197.9</ele></trkpt>
      <trkpt lat="46.51156778656437" lon="9.702045851155376">
      <ele>3199.0</ele></trkpt>
      <trkpt lat="46.511505854409386" lon="9.702106310569894">
      <ele>3200.0</ele></trkpt>
      <trkpt lat="46.51146972329161" lon="9.702169934438297">
      <ele>3201.1</ele></trkpt>
      <trkpt lat="46.511441847596835" lon="9.702207208237544">
      <ele>3202.2</ele></trkpt>
      <trkpt lat="46.51139534497153" lon="9.70223807195369">
      <ele>3203.2</ele></trkpt>
      <trkpt lat="46.51133547501926" lon="9.702256905968083">
      <ele>3204.3</ele></trkpt>
    </trkseg>
  </trk>
</gpx>