<?xml version='1.0' encoding='utf-8'?>
<gpx xmlns="http://www.topografix.com/GPX/1/1" xmlns:xsi="http://www.w3.org/2001/XMLSchema-instance" xsi:schemaLocation="http://www.topografix.com/GPX/1/1 http://www.topografix.com/GPX/1/1/gpx.xsd" version="1.1" creator="gpx.py -- https://github.com/tkrajina/gpxpy">
  <trk>
    <name>capanna-monte-bar</name>
    <trkseg>
      <trkpt lat="46.08696612231872" lon="9.016837444251816">
      <ele>1008.1</ele></trkpt>
      <trkpt lat="46.086975229837975" lon="9.016873926248806">
      <ele>1009.1</ele></trkpt>
      <trkpt lat="46.08701190834906" lon="9.016850379481586">
      <ele>1010.2</ele></trkpt>
      <trkpt lat="46.087097781533416" lon="9.016795501317624">
      <ele>1011.2</ele></trkpt>
      <trkpt lat="46.08704705062351" lon="9.016638285111776">
      <ele>1012.2</ele></trkpt>
      <trkpt lat="46.087044675571924" lon="9.016619622178375">
      <ele>1013.3</ele></trkpt>
      <trkpt lat="46.0871111064052" lon="9.01668363528746">
      <ele>1014.3</ele></trkpt>
      <trkpt lat="46.087147912402145" lon="9.016711413904302">
      <ele>1015.3</ele></trkpt>
      <trkpt lat="46.08715495736385" lon="9.016692118058241">
      <ele>1016.4</ele></trkpt>
      <trkpt lat="46.087121908000995" lon="9.016643422747661">
      <ele>1017.4</ele></trkpt>
      <trkpt lat="46.08713786339169" lon="9.016616186383523">
      <ele>1018.5</ele></trkpt>
      <trkpt lat="46.087141170422775" lon="9.016582390646553">
      <ele>1019.5</ele></trkpt>
      <trkpt lat="46.0871480182591" lon="9.01656496403873">
      <ele>1020.5</ele></trkpt>
      <trkpt lat="46.08717648359902" lon="9.016552248293642">
      <ele>1021.6</ele></trkpt>
      <trkpt lat="46.08718856256109" lon="9.016564778102586">
      <ele>1022.6</ele></trkpt>
      <trkpt lat="46.08720833855821" lon="9.01656670737983">
      <ele>1023.6</ele></trkpt>
      <trkpt lat="46.087229519369934" lon="9.016603913425408">
      <ele>1024.7</ele></trkpt>
      <trkpt lat="46.08727735922055" lon="9.016689332813819">
      <ele>1025.7</ele></trkpt>
      <trkpt lat="46.087352812606" lon="9.016799756864053">
      <ele>1026.7</ele></trkpt>
      <trkpt lat="46.08736496538549" lon="9.016817939634466">
      <ele>1027.8</ele></trkpt>
      <trkpt lat="46.08739143369811" lon="9.016854703917456">
      <ele>1028.8</ele></trkpt>
      <trkpt lat="46.087396908118" lon="9.016843483111272">
      <ele>1029.5</ele></trkpt>
      <trkpt lat="46.08743099126948" lon="9.01688580795329">
      <ele>1030.1</ele></trkpt>
      <trkpt lat="46.08744805244976" lon="9.01686249562676">
      <ele>1030.8</ele></trkpt>
      <trkpt lat="46.08740262098713" lon="9.016794007121872">
      <ele>1031.4</ele></trkpt>
      <trkpt lat="46.087377173104876" lon="9.016761474846938">
      <ele>1032.1</ele></trkpt>
      <trkpt lat="46.08732063322794" lon="9.016673463314929">
      <ele>1032.8</ele></trkpt>
      <trkpt lat="46.08730408350923" lon="9.016619076795727">
      <ele>1033.4</ele></trkpt>
      <trkpt lat="46.08729205362907" lon="9.016550312674884">
      <ele>1034.1</ele></trkpt>
      <trkpt lat="46.08728425170851" lon="9.016489959361827">
      <ele>1034.7</ele></trkpt>
      <trkpt lat="46.087270637914386" lon="9.016431507023867">
      <ele>1035.4</ele></trkpt>
      <trkpt lat="46.08724717405569" lon="9.016356192903908">
      <ele>1036.1</ele></trkpt>
      <trkpt lat="46.087227998159136" lon="9.016283071668205">
      <ele>1036.7</ele></trkpt>
      <trkpt lat="46.087215823239305" lon="9.016224661021505">
      <ele>1037.4</ele></trkpt>
      <trkpt lat="46.08719362428472" lon="9.016161822944643">
      <ele>1038.0</ele></trkpt>
      <trkpt lat="46.08716721525175" lon="9.016090574708542">
      <ele>1038.7</ele></trkpt>
      <trkpt lat="46.08716476312113" lon="9.01605940555994">
      <ele>1039.4</ele></trkpt>
      <trkpt lat="46.087169552804106" lon="9.016026376731519">
      <ele>1040.0</ele></trkpt>
      <trkpt lat="46.087185794530626" lon="9.015999885489071">
      <ele>1040.7</ele></trkpt>
      <trkpt lat="46.08722084583202" lon="9.015969799826529">
      <ele>1041.3</ele></trkpt>
      <trkpt lat="46.0873183539613" lon="9.015908351201116">
      <ele>1042.0</ele></trkpt>
      <trkpt lat="46.087413927565045" lon="9.015833398497868">
      <ele>1042.6</ele></trkpt>
      <trkpt lat="46.08745390999595" lon="9.015793614748725">
      <ele>1043.2</ele></trkpt>
      <trkpt lat="46.087495272945034" lon="9.015740681441617">
      <ele>1043.7</ele></trkpt>
      <trkpt lat="46.087531010886046" lon="9.01569816294507">
      <ele>1044.3</ele></trkpt>
      <trkpt lat="46.08756509783135" lon="9.015659825069406">
      <ele>1044.9</ele></trkpt>
      <trkpt lat="46.087574948984255" lon="9.015638010913595">
      <ele>1045.5</ele></trkpt>
      <trkpt lat="46.087579271262186" lon="9.01559657622466">
      <ele>1046.1</ele></trkpt>
      <trkpt lat="46.08757387660652" lon="9.015573791538547">
      <ele>1046.6</ele></trkpt>
      <trkpt lat="46.08756407365492" lon="9.015547763214451">
      <ele>1047.2</ele></trkpt>
      <trkpt lat="46.087538426495286" lon="9.015509510276855">
      <ele>1047.8</ele></trkpt>
      <trkpt lat="46.087485888176225" lon="9.01545955422604">
      <ele>1048.4</ele></trkpt>
      <trkpt lat="46.08742224417107" lon="9.015416893745016">
      <ele>1049.0</ele></trkpt>
      <trkpt lat="46.08728681620407" lon="9.015333316409913">
      <ele>1049.5</ele></trkpt>
      <trkpt lat="46.087258451537" lon="9.015277063334828">
      <ele>1050.1</ele></trkpt>
      <trkpt lat="46.087218173987054" lon="9.01515391202124">
      <ele>1050.7</ele></trkpt>
      <trkpt lat="46.087193157002645" lon="9.015060916240223">
      <ele>1051.3</ele></trkpt>
      <trkpt lat="46.087180932584616" lon="9.015013081793143">
      <ele>1051.9</ele></trkpt>
      <trkpt lat="46.087188780961434" lon="9.014996149375214">
      <ele>1052.4</ele></trkpt>
      <trkpt lat="46.08719676606435" lon="9.014958493003586">
      <ele>1053.0</ele></trkpt>
      <trkpt lat="46.08720324832452" lon="9.014944029685257">
      <ele>1053.6</ele></trkpt>
      <trkpt lat="46.08721498961765" lon="9.01494275233933">
      <ele>1054.2</ele></trkpt>
      <trkpt lat="46.087229757334896" lon="9.014957971426503">
      <ele>1054.8</ele></trkpt>
      <trkpt lat="46.08724444876413" lon="9.014967705701876">
      <ele>1055.4</ele></trkpt>
      <trkpt lat="46.08727405001648" lon="9.014972193882754">
      <ele>1056.0</ele></trkpt>
      <trkpt lat="46.087314653254104" lon="9.014955560590815">
      <ele>1056.6</ele></trkpt>
      <trkpt lat="46.08734654661497" lon="9.014942826568577">
      <ele>1057.2</ele></trkpt>
      <trkpt lat="46.08738992611906" lon="9.01494191957817">
      <ele>1057.8</ele></trkpt>
      <trkpt lat="46.087410357793175" lon="9.014934919131607">
      <ele>1058.4</ele></trkpt>
      <trkpt lat="46.087431976688194" lon="9.014929879637778">
      <ele>1059.0</ele></trkpt>
      <trkpt lat="46.08744296103901" lon="9.014908731730582">
      <ele>1059.7</ele></trkpt>
      <trkpt lat="46.08744712636711" lon="9.01489395576518">
      <ele>1060.3</ele></trkpt>
      <trkpt lat="46.08743740770968" lon="9.014845792622788">
      <ele>1060.9</ele></trkpt>
      <trkpt lat="46.08744131237107" lon="9.014828422979365">
      <ele>1061.5</ele></trkpt>
      <trkpt lat="46.08744496188917" lon="9.014794546332489">
      <ele>1062.1</ele></trkpt>
      <trkpt lat="46.08745877760137" lon="9.014761364017026">
      <ele>1062.7</ele></trkpt>
      <trkpt lat="46.08745513490677" lon="9.01470269548782">
      <ele>1063.3</ele></trkpt>
      <trkpt lat="46.087446655844325" lon="9.01467591682325">
      <ele>1063.9</ele></trkpt>
      <trkpt lat="46.08744092321433" lon="9.014631592838512">
      <ele>1064.5</ele></trkpt>
      <trkpt lat="46.08744597221093" lon="9.014598648798527">
      <ele>1065.1</ele></trkpt>
      <trkpt lat="46.087442463220185" lon="9.014440908771858">
      <ele>1065.7</ele></trkpt>
      <trkpt lat="46.08744554475501" lon="9.014260290519145">
      <ele>1066.4</ele></trkpt>
      <trkpt lat="46.08743528248007" lon="9.014082933675242">
      <ele>1067.1</ele></trkpt>
      <trkpt lat="46.087434997185824" lon="9.014033155009466">
      <ele>1067.8</ele></trkpt>
      <trkpt lat="46.08744686712137" lon="9.013946667554876">
      <ele>1068.5</ele></trkpt>
      <trkpt lat="46.08748308155326" lon="9.013825542698392">
      <ele>1069.2</ele></trkpt>
      <trkpt lat="46.08750036006185" lon="9.013757637493482">
      <ele>1070.0</ele></trkpt>
      <trkpt lat="46.08752935334053" lon="9.013649765009601">
      <ele>1070.7</ele></trkpt>
      <trkpt lat="46.087551352123214" lon="9.013614943461713">
      <ele>1071.4</ele></trkpt>
      <trkpt lat="46.08761473754784" lon="9.01358339761859">
      <ele>1072.1</ele></trkpt>
      <trkpt lat="46.08762914172505" lon="9.013562813534952">
      <ele>1072.8</ele></trkpt>
      <trkpt lat="46.08765472529051" lon="9.013521914375897">
      <ele>1073.5</ele></trkpt>
      <trkpt lat="46.087700009746605" lon="9.013511518267164">
      <ele>1074.2</ele></trkpt>
      <trkpt lat="46.08774344201668" lon="9.013538399977964">
      <ele>1074.9</ele></trkpt>
      <trkpt lat="46.087758113813884" lon="9.013499940231501">
      <ele>1075.6</ele></trkpt>
      <trkpt lat="46.08777681481162" lon="9.013445484880656">
      <ele>1076.4</ele></trkpt>
      <trkpt lat="46.087794766145265" lon="9.013374482273214">
      <ele>1077.1</ele></trkpt>
      <trkpt lat="46.08781332427644" lon="9.013342496508749">
      <ele>1077.8</ele></trkpt>
      <trkpt lat="46.08787369365798" lon="9.013311729577827">
      <ele>1078.5</ele></trkpt>
      <trkpt lat="46.087901183408036" lon="9.013301841557093">
      <ele>1079.2</ele></trkpt>
      <trkpt lat="46.087933974006226" lon="9.01331504575785">
      <ele>1079.9</ele></trkpt>
      <trkpt lat="46.08795759062088" lon="9.01331126576502">
      <ele>1080.5</ele></trkpt>
      <trkpt lat="46.08795111173832" lon="9.013250756420216">
      <ele>1081.2</ele></trkpt>
      <trkpt lat="46.08792908922941" lon="9.013226069871461">
      <ele>1081.8</ele></trkpt>
      <trkpt lat="46.08790995433529" lon="9.013198841658607">
      <ele>1082.5</ele></trkpt>
      <trkpt lat="46.087887300273096" lon="9.013127236749149">
      <ele>1083.1</ele></trkpt>
      <trkpt lat="46.08785834331047" lon="9.013057907000846">
      <ele>1083.8</ele></trkpt>
      <trkpt lat="46.087809851814654" lon="9.013018970432228">
      <ele>1084.4</ele></trkpt>
      <trkpt lat="46.08769217078803" lon="9.012912402040055">
      <ele>1085.1</ele></trkpt>
      <trkpt lat="46.087642157022785" lon="9.012843293088824">
      <ele>1085.7</ele></trkpt>
      <trkpt lat="46.087585731089604" lon="9.012740456957214">
      <ele>1086.3</ele></trkpt>
      <trkpt lat="46.087548183231824" lon="9.012621368222396">
      <ele>1087.0</ele></trkpt>
      <trkpt lat="46.087538546393496" lon="9.012549867751613">
      <ele>1087.6</ele></trkpt>
      <trkpt lat="46.087530657545805" lon="9.012504615419363">
      <ele>1088.3</ele></trkpt>
      <trkpt lat="46.08751829002599" lon="9.012459221066441">
      <ele>1088.9</ele></trkpt>
      <trkpt lat="46.08750919110877" lon="9.012391718844787">
      <ele>1089.6</ele></trkpt>
      <trkpt lat="46.087504258930544" lon="9.01230028554374">
      <ele>1090.2</ele></trkpt>
      <trkpt lat="46.08749194480993" lon="9.01223429411277">
      <ele>1090.9</ele></trkpt>
      <trkpt lat="46.08750111497261" lon="9.012150974023731">
      <ele>1091.5</ele></trkpt>
      <trkpt lat="46.08751748662184" lon="9.01206351671432">
      <ele>1092.2</ele></trkpt>
      <trkpt lat="46.0875166691172" lon="9.012007968483843">
      <ele>1092.8</ele></trkpt>
      <trkpt lat="46.08752094268969" lon="9.011942843035467">
      <ele>1094.2</ele></trkpt>
      <trkpt lat="46.0875552793258" lon="9.011739461758463">
      <ele>1095.5</ele></trkpt>
      <trkpt lat="46.08759270531585" lon="9.011574521912278">
      <ele>1096.9</ele></trkpt>
      <trkpt lat="46.087608935499965" lon="9.011550071897615">
      <ele>1098.3</ele></trkpt>
      <trkpt lat="46.08762156971146" lon="9.01154669888961">
      <ele>1099.7</ele></trkpt>
      <trkpt lat="46.08767719415013" lon="9.01157096909126">
      <ele>1101.0</ele></trkpt>
      <trkpt lat="46.08775668954437" lon="9.011572574031177">
      <ele>1102.4</ele></trkpt>
      <trkpt lat="46.087849267525804" lon="9.011578008421395">
      <ele>1103.8</ele></trkpt>
      <trkpt lat="46.087912986899" lon="9.011604399882374">
      <ele>1105.2</ele></trkpt>
      <trkpt lat="46.08794447979969" lon="9.011637763671217">
      <ele>1106.5</ele></trkpt>
      <trkpt lat="46.0879720907433" lon="9.011701739384268">
      <ele>1107.9</ele></trkpt>
      <trkpt lat="46.08800264509694" lon="9.011765618941864">
      <ele>1109.3</ele></trkpt>
      <trkpt lat="46.088044761407716" lon="9.011826236945133">
      <ele>1110.7</ele></trkpt>
      <trkpt lat="46.088063646673845" lon="9.01189331053313">
      <ele>1112.0</ele></trkpt>
      <trkpt lat="46.08806933800259" lon="9.01194583169994">
      <ele>1113.4</ele></trkpt>
      <trkpt lat="46.08807271732154" lon="9.012010583525749">
      <ele>1114.8</ele></trkpt>
      <trkpt lat="46.088084667366346" lon="9.012075595296112">
      <ele>1116.2</ele></trkpt>
      <trkpt lat="46.08810286714219" lon="9.012153097431316">
      <ele>1117.5</ele></trkpt>
      <trkpt lat="46.08811905515417" lon="9.012221308972865">
      <ele>1118.9</ele></trkpt>
      <trkpt lat="46.08812864995294" lon="9.012301640736016">
      <ele>1120.3</ele></trkpt>
      <trkpt lat="46.088172673203566" lon="9.012370654707539">
      <ele>1121.5</ele></trkpt>
      <trkpt lat="46.08822299807298" lon="9.012449083125105">
      <ele>1122.7</ele></trkpt>
      <trkpt lat="46.08826925676198" lon="9.012511993723386">
      <ele>1123.9</ele></trkpt>
      <trkpt lat="46.088311320131275" lon="9.01256864128317">
      <ele>1125.2</ele></trkpt>
      <trkpt lat="46.088363914342075" lon="9.012637889876034">
      <ele>1126.4</ele></trkpt>
      <trkpt lat="46.08841637933327" lon="9.012716393454262">
      <ele>1127.6</ele></trkpt>
      <trkpt lat="46.088442727602825" lon="9.012670963659552">
      <ele>1128.8</ele></trkpt>
      <trkpt lat="46.08845390270969" lon="9.012637406675168">
      <ele>1130.0</ele></trkpt>
      <trkpt lat="46.08845878497186" lon="9.012594448467787">
      <ele>1131.2</ele></trkpt>
      <trkpt lat="46.088456222257896" lon="9.012471206989876">
      <ele>1132.4</ele></trkpt>
      <trkpt lat="46.08845348769289" lon="9.012360270866676">
      <ele>1133.7</ele></trkpt>
      <trkpt lat="46.0884676710992" lon="9.012265223184679">
      <ele>1134.9</ele></trkpt>
      <trkpt lat="46.08850074130583" lon="9.012198430915259">
      <ele>1136.1</ele></trkpt>
      <trkpt lat="46.088533158263914" lon="9.01217780926489">
      <ele>1137.3</ele></trkpt>
      <trkpt lat="46.08858674935011" lon="9.012176276271903">
      <ele>1138.5</ele></trkpt>
      <trkpt lat="46.08864872151514" lon="9.012187308100636">
      <ele>1139.7</ele></trkpt>
      <trkpt lat="46.08869142947222" lon="9.012197771787392">
      <ele>1141.0</ele></trkpt>
      <trkpt lat="46.08873455786216" lon="9.012177458787487">
      <ele>1142.2</ele></trkpt>
      <trkpt lat="46.08876921014573" lon="9.012150746280035">
      <ele>1143.4</ele></trkpt>
      <trkpt lat="46.088795515266085" lon="9.01210839227354">
      <ele>1144.6</ele></trkpt>
      <trkpt lat="46.088841385205875" lon="9.01204505891678">
      <ele>1145.4</ele></trkpt>
      <trkpt lat="46.08889150234066" lon="9.011984912518109">
      <ele>1146.3</ele></trkpt>
      <trkpt lat="46.08891146277793" lon="9.011936220302385">
      <ele>1147.1</ele></trkpt>
      <trkpt lat="46.08893150902674" lon="9.011881375324599">
      <ele>1148.0</ele></trkpt>
      <trkpt lat="46.08895623162739" lon="9.011798953716571">
      <ele>1148.8</ele></trkpt>
      <trkpt lat="46.08896338315674" lon="9.011746801767359">
      <ele>1149.7</ele></trkpt>
      <trkpt lat="46.08895606617408" lon="9.011657301709482">
      <ele>1150.5</ele></trkpt>
      <trkpt lat="46.08895932283664" lon="9.011577339115837">
      <ele>1151.4</ele></trkpt>
      <trkpt lat="46.08895165347942" lon="9.01151244974513">
      <ele>1152.2</ele></trkpt>
      <trkpt lat="46.08894455100835" lon="9.01140755499008">
      <ele>1153.0</ele></trkpt>
      <trkpt lat="46.08893341605107" lon="9.011284065577275">
      <ele>1153.9</ele></trkpt>
      <trkpt lat="46.08892853982984" lon="9.011173066887302">
      <ele>1154.7</ele></trkpt>
      <trkpt lat="46.08893410839542" lon="9.011080847572913">
      <ele>1155.6</ele></trkpt>
      <trkpt lat="46.08895201373997" lon="9.011025940609493">
      <ele>1156.4</ele></trkpt>
      <trkpt lat="46.088980845128816" lon="9.010955947337763">
      <ele>1157.3</ele></trkpt>
      <trkpt lat="46.08898795319851" lon="9.010906884546891">
      <ele>1158.1</ele></trkpt>
      <trkpt lat="46.0889885109365" lon="9.010866878847098">
      <ele>1159.0</ele></trkpt>
      <trkpt lat="46.08897621691681" lon="9.01082649012152">
      <ele>1159.8</ele></trkpt>
      <trkpt lat="46.08895763007618" lon="9.010776687402126">
      <ele>1160.7</ele></trkpt>
      <trkpt lat="46.088968856498724" lon="9.01074005360485">
      <ele>1161.5</ele></trkpt>
      <trkpt lat="46.0889971637523" lon="9.01070700216785">
      <ele>1162.2</ele></trkpt>
      <trkpt lat="46.08900214021889" lon="9.01065787795515">
      <ele>1162.8</ele></trkpt>
      <trkpt lat="46.088972970511755" lon="9.010598537753516">
      <ele>1163.5</ele></trkpt>
      <trkpt lat="46.088941445886036" lon="9.010554517811025">
      <ele>1164.2</ele></trkpt>
      <trkpt lat="46.088933604246385" lon="9.010501946988006">
      <ele>1164.8</ele></trkpt>
      <trkpt lat="46.08893862350078" lon="9.010449746448877">
      <ele>1165.5</ele></trkpt>
      <trkpt lat="46.08895614265393" lon="9.01042252656558">
      <ele>1166.2</ele></trkpt>
      <trkpt lat="46.08898230932585" lon="9.010389413348413">
      <ele>1166.8</ele></trkpt>
      <trkpt lat="46.0890002572078" lon="9.010331429740518">
      <ele>1167.5</ele></trkpt>
      <trkpt lat="46.089016107623735" lon="9.010270295180895">
      <ele>1168.2</ele></trkpt>
      <trkpt lat="46.08902763397841" lon="9.010212126649893">
      <ele>1168.8</ele></trkpt>
      <trkpt lat="46.08903363061531" lon="9.010089130438153">
      <ele>1169.5</ele></trkpt>
      <trkpt lat="46.089041295918406" lon="9.01000004881225">
      <ele>1170.1</ele></trkpt>
      <trkpt lat="46.08903376323585" lon="9.00992593071106">
      <ele>1170.8</ele></trkpt>
      <trkpt lat="46.089000783994" lon="9.009832601752366">
      <ele>1171.5</ele></trkpt>
      <trkpt lat="46.08899307059393" lon="9.009770801870001">
      <ele>1172.1</ele></trkpt>
      <trkpt lat="46.088995854312664" lon="9.009724692087936">
      <ele>1172.8</ele></trkpt>
      <trkpt lat="46.089007423421634" lon="9.009663434167434">
      <ele>1173.5</ele></trkpt>
      <trkpt lat="46.08902528522194" lon="9.009611603034042">
      <ele>1174.1</ele></trkpt>
      <trkpt lat="46.089038866020346" lon="9.009559648685924">
      <ele>1174.8</ele></trkpt>
      <trkpt lat="46.08905266123096" lon="9.009492299525911">
      <ele>1175.9</ele></trkpt>
      <trkpt lat="46.089049743168474" lon="9.009393680488339">
      <ele>1177.0</ele></trkpt>
      <trkpt lat="46.089057502427316" lon="9.009298459177053">
      <ele>1178.1</ele></trkpt>
      <trkpt lat="46.08905403604243" lon="9.009239846165876">
      <ele>1179.2</ele></trkpt>
      <trkpt lat="46.08903806043523" lon="9.009156252478547">
      <ele>1180.2</ele></trkpt>
      <trkpt lat="46.08900674443137" lon="9.009057799397205">
      <ele>1181.3</ele></trkpt>
      <trkpt lat="46.08898405290323" lon="9.009019064604608">
      <ele>1182.4</ele></trkpt>
      <trkpt lat="46.088963260115" lon="9.008958336949327">
      <ele>1183.5</ele></trkpt>
      <trkpt lat="46.088958438469895" lon="9.008889779871772">
      <ele>1184.6</ele></trkpt>
      <trkpt lat="46.088963967536" lon="9.00880284800368">
      <ele>1185.7</ele></trkpt>
      <trkpt lat="46.088959385923594" lon="9.008707349455417">
      <ele>1186.8</ele></trkpt>
      <trkpt lat="46.088990282560275" lon="9.008582612393855">
      <ele>1187.9</ele></trkpt>
      <trkpt lat="46.08904123247407" lon="9.008437943065685">
      <ele>1189.0</ele></trkpt>
      <trkpt lat="46.089096501874366" lon="9.008346854911485">
      <ele>1190.1</ele></trkpt>
      <trkpt lat="46.08913695402747" lon="9.008233047310016">
      <ele>1191.1</ele></trkpt>
      <trkpt lat="46.08919907778872" lon="9.00803409027475">
      <ele>1192.2</ele></trkpt>
      <trkpt lat="46.08924255596407" lon="9.007881899034555">
      <ele>1193.3</ele></trkpt>
      <trkpt lat="46.08927018675995" lon="9.007732510747166">
      <ele>1194.4</ele></trkpt>
      <trkpt lat="46.089287812441476" lon="9.007696939373572">
      <ele>1195.5</ele></trkpt>
      <trkpt lat="46.08936048386196" lon="9.007691721832671">
      <ele>1196.6</ele></trkpt>
      <trkpt lat="46.08941616952842" lon="9.007695481744248">
      <ele>1197.7</ele></trkpt>
      <trkpt lat="46.08947804474454" lon="9.007674708012306">
      <ele>1198.8</ele></trkpt>
      <trkpt lat="46.089504863649466" lon="9.00767613827069">
      <ele>1199.9</ele></trkpt>
      <trkpt lat="46.08955003565656" lon="9.007720988869663">
      <ele>1201.0</ele></trkpt>
      <trkpt lat="46.0896047711853" lon="9.007791097565969">
      <ele>1202.1</ele></trkpt>
      <trkpt lat="46.08963936035111" lon="9.007869718000892">
      <ele>1203.2</ele></trkpt>
      <trkpt lat="46.08966601093018" lon="9.007920101248187">
      <ele>1204.3</ele></trkpt>
      <trkpt lat="46.08969324013596" lon="9.007954763834105">
      <ele>1205.4</ele></trkpt>
      <trkpt lat="46.08973035929075" lon="9.008012560300038">
      <ele>1206.5</ele></trkpt>
      <trkpt lat="46.08976705678938" lon="9.008075439647747">
      <ele>1207.7</ele></trkpt>
      <trkpt lat="46.089776961632396" lon="9.008123363222076">
      <ele>1208.8</ele></trkpt>
      <trkpt lat="46.08977598103355" lon="9.008193823442655">
      <ele>1209.9</ele></trkpt>
      <trkpt lat="46.089774740605556" lon="9.008282948960968">
      <ele>1211.0</ele></trkpt>
      <trkpt lat="46.08978778163502" lon="9.008382855996238">
      <ele>1212.1</ele></trkpt>
      <trkpt lat="46.08980361435853" lon="9.008489037442871">
      <ele>1213.2</ele></trkpt>
      <trkpt lat="46.089822420317844" lon="9.008589097433687">
      <ele>1214.3</ele></trkpt>
      <trkpt lat="46.089850446015824" lon="9.008647964894061">
      <ele>1215.4</ele></trkpt>
      <trkpt lat="46.08989105469423" lon="9.008736212146204">
      <ele>1216.5</ele></trkpt>
      <trkpt lat="46.089931922998545" lon="9.00880580710442">
      <ele>1217.6</ele></trkpt>
      <trkpt lat="46.089968753811405" lon="9.008854557122438">
      <ele>1218.7</ele></trkpt>
      <trkpt lat="46.08999115878243" lon="9.008902892284045">
      <ele>1220.2</ele></trkpt>
      <trkpt lat="46.090006090445776" lon="9.00896261193833">
      <ele>1221.6</ele></trkpt>
      <trkpt lat="46.09002426564758" lon="9.00901166604887">
      <ele>1223.1</ele></trkpt>
      <trkpt lat="46.090051595473646" lon="9.009060401618314">
      <ele>1224.5</ele></trkpt>
      <trkpt lat="46.090093402285696" lon="9.009134950875277">
      <ele>1226.0</ele></trkpt>
      <trkpt lat="46.09015803597081" lon="9.009263059188623">
      <ele>1227.4</ele></trkpt>
      <trkpt lat="46.090199577825665" lon="9.009356623194021">
      <ele>1228.9</ele></trkpt>
      <trkpt lat="46.0902341923839" lon="9.009486958880911">
      <ele>1230.3</ele></trkpt>
      <trkpt lat="46.09024995330073" lon="9.009585949621723">
      <ele>1231.8</ele></trkpt>
      <trkpt lat="46.09027025242538" lon="9.009666592043741">
      <ele>1233.2</ele></trkpt>
      <trkpt lat="46.09029496104449" lon="9.009738128398594">
      <ele>1234.7</ele></trkpt>
      <trkpt lat="46.09033291645473" lon="9.009782334024441">
      <ele>1236.2</ele></trkpt>
      <trkpt lat="46.0903774130819" lon="9.009817481994764">
      <ele>1237.6</ele></trkpt>
      <trkpt lat="46.090409452687425" lon="9.009824559441022">
      <ele>1239.1</ele></trkpt>
      <trkpt lat="46.090443932801804" lon="9.009810163347034">
      <ele>1240.5</ele></trkpt>
      <trkpt lat="46.09046346353543" lon="9.009792246388946">
      <ele>1242.0</ele></trkpt>
      <trkpt lat="46.09045995436922" lon="9.009736721213601">
      <ele>1243.4</ele></trkpt>
      <trkpt lat="46.090441838819174" lon="9.009653050704411">
      <ele>1244.9</ele></trkpt>
      <trkpt lat="46.09043845814577" lon="9.009588296209682">
      <ele>1246.3</ele></trkpt>
      <trkpt lat="46.09044338227987" lon="9.009542246788053">
      <ele>1247.8</ele></trkpt>
      <trkpt lat="46.09046526789885" lon="9.009508996140319">
      <ele>1248.8</ele></trkpt>
      <trkpt lat="46.090503994342" lon="9.009473307522137">
      <ele>1249.7</ele></trkpt>
      <trkpt lat="46.09056608937913" lon="9.009435485099193">
      <ele>1250.7</ele></trkpt>
      <trkpt lat="46.090619154441" lon="9.009409700622815">
      <ele>1251.6</ele></trkpt>
      <trkpt lat="46.09068329091641" lon="9.009365483965368">
      <ele>1252.6</ele></trkpt>
      <trkpt lat="46.09073209088932" lon="9.009348124384445">
      <ele>1253.5</ele></trkpt>
      <trkpt lat="46.09076879552978" lon="9.009325813159954">
      <ele>1254.5</ele></trkpt>
      <trkpt lat="46.09081002983107" lon="9.009310317825802">
      <ele>1255.4</ele></trkpt>
      <trkpt lat="46.09085878091889" lon="9.009304220121281">
      <ele>1256.4</ele></trkpt>
      <trkpt lat="46.090934072633665" lon="9.009252345306633">
      <ele>1257.3</ele></trkpt>
      <trkpt lat="46.09099932839891" lon="9.009224661099958">
      <ele>1258.3</ele></trkpt>
      <trkpt lat="46.09102992174325" lon="9.009242559198976">
      <ele>1259.3</ele></trkpt>
      <trkpt lat="46.09105692073231" lon="9.009287264544005">
      <ele>1260.2</ele></trkpt>
      <trkpt lat="46.09109833077875" lon="9.009347010190577">
      <ele>1261.2</ele></trkpt>
      <trkpt lat="46.091148051892645" lon="9.009358475658324">
      <ele>1262.1</ele></trkpt>
      <trkpt lat="46.09114308955696" lon="9.009429883474574">
      <ele>1263.1</ele></trkpt>
      <trkpt lat="46.091147648233886" lon="9.009486939586667">
      <ele>1264.0</ele></trkpt>
      <trkpt lat="46.091227749561966" lon="9.009497365474182">
      <ele>1265.0</ele></trkpt>
      <trkpt lat="46.0912965669365" lon="9.009478823110749">
      <ele>1265.9</ele></trkpt>
      <trkpt lat="46.09139086492579" lon="9.009476402550668">
      <ele>1266.9</ele></trkpt>
      <trkpt lat="46.09144497941505" lon="9.009488964489638">
      <ele>1268.2</ele></trkpt>
      <trkpt lat="46.09148443233124" lon="9.009561961109968">
      <ele>1269.6</ele></trkpt>
      <trkpt lat="46.09152635495793" lon="9.009628175106414">
      <ele>1270.9</ele></trkpt>
      <trkpt lat="46.091556745370994" lon="9.009668387894047">
      <ele>1272.2</ele></trkpt>
      <trkpt lat="46.09157442203747" lon="9.009680871347237">
      <ele>1273.6</ele></trkpt>
      <trkpt lat="46.091596984364564" lon="9.009684947542459">
      <ele>1274.9</ele></trkpt>
      <trkpt lat="46.091616761219065" lon="9.009686176192876">
      <ele>1276.2</ele></trkpt>
      <trkpt lat="46.09164357313551" lon="9.009672606493137">
      <ele>1277.6</ele></trkpt>
      <trkpt lat="46.091678653490675" lon="9.00963255775612">
      <ele>1278.9</ele></trkpt>
      <trkpt lat="46.091719955573446" lon="9.009572152392533">
      <ele>1280.2</ele></trkpt>
      <trkpt lat="46.091779523766995" lon="9.009483201943134">
      <ele>1281.6</ele></trkpt>
      <trkpt lat="46.09181612465079" lon="9.00941924710255">
      <ele>1282.9</ele></trkpt>
      <trkpt lat="46.09186637404247" lon="9.009314613536857">
      <ele>1284.3</ele></trkpt>
      <trkpt lat="46.09190299859344" lon="9.00924895216889">
      <ele>1285.6</ele></trkpt>
      <trkpt lat="46.09193233939498" lon="9.009193336083312">
      <ele>1286.9</ele></trkpt>
      <trkpt lat="46.091960445305155" lon="9.009141111340876">
      <ele>1288.3</ele></trkpt>
      <trkpt lat="46.091982406770384" lon="9.009102404571292">
      <ele>1289.6</ele></trkpt>
      <trkpt lat="46.09202036127572" lon="9.009026513320817">
      <ele>1290.9</ele></trkpt>
      <trkpt lat="46.09207307388894" lon="9.008916828860052">
      <ele>1292.3</ele></trkpt>
      <trkpt lat="46.092109475441575" lon="9.008838733074327">
      <ele>1293.6</ele></trkpt>
      <trkpt lat="46.09212903637161" lon="9.0088276829024">
      <ele>1294.5</ele></trkpt>
      <trkpt lat="46.09215182748764" lon="9.008837300196314">
      <ele>1295.4</ele></trkpt>
      <trkpt lat="46.09217606076759" lon="9.008854485316498">
      <ele>1296.2</ele></trkpt>
      <trkpt lat="46.092209328955946" lon="9.008863796184508">
      <ele>1297.1</ele></trkpt>
      <trkpt lat="46.09224626941265" lon="9.008898209991795">
      <ele>1298.0</ele></trkpt>
      <trkpt lat="46.09227305443956" lon="9.008927921963009">
      <ele>1298.9</ele></trkpt>
      <trkpt lat="46.09229633342299" lon="9.008972288388883">
      <ele>1299.8</ele></trkpt>
      <trkpt lat="46.092306592184386" lon="9.008986368869786">
      <ele>1300.6</ele></trkpt>
      <trkpt lat="46.09232300400387" lon="9.008985017564585">
      <ele>1301.5</ele></trkpt>
      <trkpt lat="46.09233908161809" lon="9.009003791599007">
      <ele>1302.4</ele></trkpt>
      <trkpt lat="46.0923455123002" lon="9.009019468988718">
      <ele>1303.3</ele></trkpt>
      <trkpt lat="46.09234902286231" lon="9.009078798044651">
      <ele>1304.2</ele></trkpt>
      <trkpt lat="46.092355349972905" lon="9.00912581938035">
      <ele>1305.0</ele></trkpt>
      <trkpt lat="46.092373298449644" lon="9.009159493109978">
      <ele>1305.9</ele></trkpt>
      <trkpt lat="46.09243472710798" lon="9.009227019105488">
      <ele>1306.8</ele></trkpt>
      <trkpt lat="46.092473931443685" lon="9.009283637890118">
      <ele>1307.7</ele></trkpt>
      <trkpt lat="46.092497015291414" lon="9.009298721132954">
      <ele>1308.6</ele></trkpt>
      <trkpt lat="46.09252954221431" lon="9.00930569618412">
      <ele>1309.4</ele></trkpt>
      <trkpt lat="46.092563885497505" lon="9.00929724396469">
      <ele>1310.3</ele></trkpt>
      <trkpt lat="46.09258866787664" lon="9.009313113228584">
      <ele>1311.2</ele></trkpt>
      <trkpt lat="46.09261371393572" lon="9.00934493519647">
      <ele>1312.4</ele></trkpt>
      <trkpt lat="46.092634716323026" lon="9.009400293405436">
      <ele>1313.6</ele></trkpt>
      <trkpt lat="46.09266967493531" lon="9.009517557688028">
      <ele>1314.8</ele></trkpt>
      <trkpt lat="46.09269228924117" lon="9.009587019465757">
      <ele>1316.0</ele></trkpt>
      <trkpt lat="46.09271222468286" lon="9.009605284088734">
      <ele>1317.2</ele></trkpt>
      <trkpt lat="46.092755137905655" lon="9.009631387217086">
      <ele>1318.4</ele></trkpt>
      <trkpt lat="46.092795129596375" lon="9.009659242655395">
      <ele>1319.6</ele></trkpt>
      <trkpt lat="46.092828873325686" lon="9.009702876427419">
      <ele>1320.8</ele></trkpt>
      <trkpt lat="46.09287009602111" lon="9.00978962100235">
      <ele>1322.0</ele></trkpt>
      <trkpt lat="46.09290012959683" lon="9.009857382751438">
      <ele>1323.2</ele></trkpt>
      <trkpt lat="46.09293898339133" lon="9.009904267500804">
      <ele>1324.3</ele></trkpt>
      <trkpt lat="46.09295197130428" lon="9.009946541131347">
      <ele>1325.5</ele></trkpt>
      <trkpt lat="46.09299511957318" lon="9.010011305306417">
      <ele>1326.7</ele></trkpt>
      <trkpt lat="46.09301476956031" lon="9.010074591383939">
      <ele>1327.9</ele></trkpt>
      <trkpt lat="46.09302240065071" lon="9.010114525394243">
      <ele>1329.1</ele></trkpt>
      <trkpt lat="46.093048146877386" lon="9.010157425058566">
      <ele>1330.3</ele></trkpt>
      <trkpt lat="46.09307241344758" lon="9.010218697432903">
      <ele>1331.5</ele></trkpt>
      <trkpt lat="46.09308571121934" lon="9.010267135831636">
      <ele>1332.7</ele></trkpt>
      <trkpt lat="46.09311048844839" lon="9.01029950687485">
      <ele>1333.9</ele></trkpt>
      <trkpt lat="46.09313255947026" lon="9.010340774900527">
      <ele>1335.1</ele></trkpt>
      <trkpt lat="46.0931731481545" lon="9.010501383246924">
      <ele>1336.7</ele></trkpt>
      <trkpt lat="46.093198104801765" lon="9.010582203260235">
      <ele>1338.4</ele></trkpt>
      <trkpt lat="46.09322711391749" lon="9.01064855263021">
      <ele>1340.0</ele></trkpt>
      <trkpt lat="46.09326567176433" lon="9.010676626414686">
      <ele>1341.6</ele></trkpt>
      <trkpt lat="46.09330555133992" lon="9.010688624873497">
      <ele>1343.2</ele></trkpt>
      <trkpt lat="46.093350549735625" lon="9.010693567558487">
      <ele>1344.9</ele></trkpt>
      <trkpt lat="46.09340514571518" lon="9.010709662573408">
      <ele>1346.5</ele></trkpt>
      <trkpt lat="46.09345229778096" lon="9.010742122281249">
      <ele>1348.1</ele></trkpt>
      <trkpt lat="46.09349801085314" lon="9.01077454060436">
      <ele>1349.8</ele></trkpt>
      <trkpt lat="46.093526266615875" lon="9.010816827829428">
      <ele>1351.4</ele></trkpt>
      <trkpt lat="46.09355050326696" lon="9.010838269056629">
      <ele>1353.0</ele></trkpt>
      <trkpt lat="46.0936009089886" lon="9.010843859042572">
      <ele>1354.7</ele></trkpt>
      <trkpt lat="46.09364267162957" lon="9.010849213048665">
      <ele>1356.3</ele></trkpt>
      <trkpt lat="46.09366392582027" lon="9.010876775900678">
      <ele>1357.9</ele></trkpt>
      <trkpt lat="46.0936762190338" lon="9.010926906044398">
      <ele>1359.5</ele></trkpt>
      <trkpt lat="46.093697328853544" lon="9.010964823493294">
      <ele>1361.2</ele></trkpt>
      <trkpt lat="46.09374462520223" lon="9.010986929037406">
      <ele>1362.8</ele></trkpt>
      <trkpt lat="46.093781628460384" lon="9.011023248118256">
      <ele>1364.4</ele></trkpt>
      <trkpt lat="46.09379822992896" lon="9.011073476637133">
      <ele>1366.1</ele></trkpt>
      <trkpt lat="46.093838033249895" lon="9.011116109814983">
      <ele>1367.7</ele></trkpt>
      <trkpt lat="46.093867621511144" lon="9.011166712514532">
      <ele>1369.0</ele></trkpt>
      <trkpt lat="46.09390447116314" lon="9.011213399055476">
      <ele>1370.2</ele></trkpt>
      <trkpt lat="46.09392891015536" lon="9.011220323494396">
      <ele>1371.5</ele></trkpt>
      <trkpt lat="46.09397329065317" lon="9.011244414522558">
      <ele>1372.7</ele></trkpt>
      <trkpt lat="46.09400887487168" lon="9.011278610953354">
      <ele>1374.0</ele></trkpt>
      <trkpt lat="46.09404734586205" lon="9.011312903526157">
      <ele>1375.3</ele></trkpt>
      <trkpt lat="46.094071168924366" lon="9.011363353366903">
      <ele>1376.5</ele></trkpt>
      <trkpt lat="46.094099346933724" lon="9.011411846619039">
      <ele>1377.8</ele></trkpt>
      <trkpt lat="46.09412778487318" lon="9.011441699002026">
      <ele>1379.0</ele></trkpt>
      <trkpt lat="46.09417658361116" lon="9.011463809626703">
      <ele>1380.3</ele></trkpt>
      <trkpt lat="46.094225968849734" lon="9.011435475176619">
      <ele>1381.6</ele></trkpt>
      <trkpt lat="46.09432657404708" lon="9.011335626071812">
      <ele>1382.8</ele></trkpt>
      <trkpt lat="46.09431464507129" lon="9.011388434430016">
      <ele>1384.1</ele></trkpt>
      <trkpt lat="46.094277519244464" lon="9.011447370958702">
      <ele>1385.3</ele></trkpt>
      <trkpt lat="46.09427099494303" lon="9.011486174038135">
      <ele>1386.6</ele></trkpt>
      <trkpt lat="46.09427365928457" lon="9.011501575646967">
      <ele>1387.9</ele></trkpt>
      <trkpt lat="46.0942842561981" lon="9.011562999302832">
      <ele>1389.1</ele></trkpt>
      <trkpt lat="46.094289367159675" lon="9.011601025453915">
      <ele>1390.4</ele></trkpt>
      <trkpt lat="46.0942992850011" lon="9.01161243306275">
      <ele>1391.6</ele></trkpt>
      <trkpt lat="46.094339694721796" lon="9.011574800332774">
      <ele>1392.9</ele></trkpt>
      <trkpt lat="46.09437776501984" lon="9.011564917694686">
      <ele>1394.2</ele></trkpt>
      <trkpt lat="46.09439709576114" lon="9.01158910215612">
      <ele>1395.4</ele></trkpt>
      <trkpt lat="46.09443569763404" lon="9.011572070287228">
      <ele>1396.7</ele></trkpt>
      <trkpt lat="46.0944572686504" lon="9.011580774583074">
      <ele>1398.0</ele></trkpt>
      <trkpt lat="46.09446878236836" lon="9.011657743764808">
      <ele>1399.2</ele></trkpt>
      <trkpt lat="46.094489020027304" lon="9.011670444589942">
      <ele>1400.5</ele></trkpt>
      <trkpt lat="46.09454036441196" lon="9.011655823253385">
      <ele>1401.8</ele></trkpt>
      <trkpt lat="46.09454122386324" lon="9.01175869956463">
      <ele>1403.0</ele></trkpt>
      <trkpt lat="46.09454893429349" lon="9.011833541841465">
      <ele>1404.3</ele></trkpt>
      <trkpt lat="46.09457118629907" lon="9.011878567212321">
      <ele>1405.6</ele></trkpt>
      <trkpt lat="46.09458295485199" lon="9.011971437926551">
      <ele>1406.8</ele></trkpt>
      <trkpt lat="46.0945905340641" lon="9.012029878186262">
      <ele>1408.1</ele></trkpt>
      <trkpt lat="46.094584136932134" lon="9.012087928549029">
      <ele>1409.3</ele></trkpt>
      <trkpt lat="46.094575279096574" lon="9.012121788987416">
      <ele>1410.6</ele></trkpt>
      <trkpt lat="46.094578788976726" lon="9.012170089328444">
      <ele>1411.9</ele></trkpt>
      <trkpt lat="46.094584909164645" lon="9.012232496610464">
      <ele>1413.1</ele></trkpt>
      <trkpt lat="46.09460079624204" lon="9.012295198392396">
      <ele>1414.4</ele></trkpt>
      <trkpt lat="46.094623802508195" lon="9.012348056938658">
      <ele>1415.7</ele></trkpt>
      <trkpt lat="46.09465547059932" lon="9.012381107013299">
      <ele>1416.9</ele></trkpt>
      <trkpt lat="46.09468531074372" lon="9.01247487404624">
      <ele>1418.2</ele></trkpt>
      <trkpt lat="46.09468970249072" lon="9.012596009681275">
      <ele>1419.3</ele></trkpt>
      <trkpt lat="46.09468518256489" lon="9.012714870907388">
      <ele>1420.5</ele></trkpt>
      <trkpt lat="46.094693379855315" lon="9.012767677727949">
      <ele>1421.6</ele></trkpt>
      <trkpt lat="46.09471471167783" lon="9.012840572402755">
      <ele>1422.7</ele></trkpt>
      <trkpt lat="46.09473455635934" lon="9.012919450780048">
      <ele>1423.8</ele></trkpt>
      <trkpt lat="46.094758292811505" lon="9.013020530125944">
      <ele>1425.0</ele></trkpt>
      <trkpt lat="46.09478085029735" lon="9.013105513414827">
      <ele>1426.1</ele></trkpt>
      <trkpt lat="46.09480640091458" lon="9.013176525493899">
      <ele>1427.2</ele></trkpt>
      <trkpt lat="46.09483326176103" lon="9.013253576111836">
      <ele>1428.4</ele></trkpt>
      <trkpt lat="46.09485903626704" lon="9.013308545555024">
      <ele>1429.5</ele></trkpt>
      <trkpt lat="46.094887739198306" lon="9.01335353803563">
      <ele>1430.6</ele></trkpt>
      <trkpt lat="46.09491803214326" lon="9.01338453172021">
      <ele>1431.8</ele></trkpt>
      <trkpt lat="46.09494118695974" lon="9.013427359696172">
      <ele>1432.9</ele></trkpt>
      <trkpt lat="46.09496433276638" lon="9.01347018744898">
      <ele>1434.0</ele></trkpt>
      <trkpt lat="46.09499583247744" lon="9.013515273722534">
      <ele>1435.2</ele></trkpt>
      <trkpt lat="46.095004805717934" lon="9.013520860804316">
      <ele>1436.3</ele></trkpt>
      <trkpt lat="46.09502629361421" lon="9.013534219283057">
      <ele>1437.4</ele></trkpt>
      <trkpt lat="46.09507073087677" lon="9.013553568084243">
      <ele>1438.5</ele></trkpt>
      <trkpt lat="46.09510473438948" lon="9.013573340116766">
      <ele>1439.7</ele></trkpt>
      <trkpt lat="46.09511539038023" lon="9.013512541192465">
      <ele>1440.8</ele></trkpt>
      <trkpt lat="46.09514248616965" lon="9.01344516826303">
      <ele>1442.4</ele></trkpt>
      <trkpt lat="46.09516475471219" lon="9.013372974422309">
      <ele>1443.9</ele></trkpt>
      <trkpt lat="46.09518427453987" lon="9.013263080363553">
      <ele>1445.5</ele></trkpt>
      <trkpt lat="46.095213278602245" lon="9.01317694536031">
      <ele>1447.1</ele></trkpt>
      <trkpt lat="46.0952339431534" lon="9.013102338394113">
      <ele>1448.7</ele></trkpt>
      <trkpt lat="46.09525609532312" lon="9.01303717627359">
      <ele>1450.2</ele></trkpt>
      <trkpt lat="46.09528931217031" lon="9.013000513347787">
      <ele>1451.8</ele></trkpt>
      <trkpt lat="46.095325605467245" lon="9.01297807444615">
      <ele>1453.4</ele></trkpt>
      <trkpt lat="46.09536671699087" lon="9.012960456080183">
      <ele>1454.9</ele></trkpt>
      <trkpt lat="46.09540473665161" lon="9.012931005691993">
      <ele>1456.5</ele></trkpt>
      <trkpt lat="46.095436316440086" lon="9.012894308324725">
      <ele>1458.1</ele></trkpt>
      <trkpt lat="46.095476587142215" lon="9.012820253408542">
      <ele>1459.6</ele></trkpt>
      <trkpt lat="46.09552419178905" lon="9.01269002348023">
      <ele>1461.2</ele></trkpt>
      <trkpt lat="46.09556452784422" lon="9.012611275624002">
      <ele>1462.8</ele></trkpt>
      <trkpt lat="46.09563781787812" lon="9.01251468659863">
      <ele>1464.3</ele></trkpt>
      <trkpt lat="46.095699766393956" lon="9.012410709085634">
      <ele>1465.9</ele></trkpt>
      <trkpt lat="46.0957567804471" lon="9.01230894284133">
      <ele>1467.5</ele></trkpt>
      <trkpt lat="46.095821698582924" lon="9.012226195483912">
      <ele>1469.1</ele></trkpt>
      <trkpt lat="46.09587818783049" lon="9.012162035035782">
      <ele>1470.6</ele></trkpt>
      <trkpt lat="46.09593163311135" lon="9.012081310389314">
      <ele>1472.2</ele></trkpt>
      <trkpt lat="46.09598335202095" lon="9.01200759711698">
      <ele>1473.5</ele></trkpt>
      <trkpt lat="46.096040005423056" lon="9.011931659227097">
      <ele>1474.8</ele></trkpt>
      <trkpt lat="46.09609475039191" lon="9.0118744963221">
      <ele>1476.1</ele></trkpt>
      <trkpt lat="46.09616092078961" lon="9.011819990481724">
      <ele>1477.4</ele></trkpt>
      <trkpt lat="46.096241852242194" lon="9.011761215285503">
      <ele>1478.7</ele></trkpt>
      <trkpt lat="46.09628490439499" lon="9.011722493520436">
      <ele>1479.9</ele></trkpt>
      <trkpt lat="46.096337768249995" lon="9.011684080304283">
      <ele>1481.2</ele></trkpt>
      <trkpt lat="46.09636813858722" lon="9.0116676254626">
      <ele>1482.5</ele></trkpt>
      <trkpt lat="46.09640366741806" lon="9.011648370559485">
      <ele>1483.8</ele></trkpt>
      <trkpt lat="46.09646292975057" lon="9.011619530833865">
      <ele>1485.1</ele></trkpt>
      <trkpt lat="46.096528534128694" lon="9.011604957713914">
      <ele>1486.4</ele></trkpt>
      <trkpt lat="46.09660077496791" lon="9.01158354028916">
      <ele>1487.7</ele></trkpt>
      <trkpt lat="46.096661412177156" lon="9.011573531544244">
      <ele>1489.0</ele></trkpt>
      <trkpt lat="46.096728742656495" lon="9.011551959602079">
      <ele>1490.3</ele></trkpt>
      <trkpt lat="46.09678287410812" lon="9.011539422473398">
      <ele>1491.5</ele></trkpt>
      <trkpt lat="46.096843609386845" lon="9.011522380938512">
      <ele>1492.8</ele></trkpt>
      <trkpt lat="46.09689924679869" lon="9.011519276490528">
      <ele>1494.1</ele></trkpt>
      <trkpt lat="46.09695632437093" lon="9.011530323429142">
      <ele>1495.4</ele></trkpt>
      <trkpt lat="46.0969920844947" lon="9.011545450813339">
      <ele>1496.7</ele></trkpt>
      <trkpt lat="46.09700319666777" lon="9.011569283210964">
      <ele>1498.0</ele></trkpt>
      <trkpt lat="46.096989925185426" lon="9.011633190739659">
      <ele>1499.6</ele></trkpt>
      <trkpt lat="46.09694993765776" lon="9.01169087062323">
      <ele>1501.2</ele></trkpt>
      <trkpt lat="46.09686458763731" lon="9.011776807918832">
      <ele>1502.7</ele></trkpt>
      <trkpt lat="46.096819481708366" lon="9.011846018518645">
      <ele>1504.3</ele></trkpt>
      <trkpt lat="46.09679702621733" lon="9.011932332545948">
      <ele>1505.9</ele></trkpt>
      <trkpt lat="46.0967853700697" lon="9.01206360233598">
      <ele>1507.5</ele></trkpt>
      <trkpt lat="46.096798322736504" lon="9.012190899732811">
      <ele>1509.1</ele></trkpt>
      <trkpt lat="46.09681932520647" lon="9.012325477725906">
      <ele>1510.6</ele></trkpt>
      <trkpt lat="46.09686643374337" lon="9.01246549024208">
      <ele>1512.2</ele></trkpt>
      <trkpt lat="46.09690431095061" lon="9.012562945968334">
      <ele>1513.8</ele></trkpt>
      <trkpt lat="46.09696039586393" lon="9.012644476083295">
      <ele>1515.4</ele></trkpt>
      <trkpt lat="46.09703279852176" lon="9.012728817790242">
      <ele>1517.0</ele></trkpt>
      <trkpt lat="46.097085684295706" lon="9.01280554839203">
      <ele>1518.5</ele></trkpt>
      <trkpt lat="46.09712862658664" lon="9.012891407631608">
      <ele>1520.1</ele></trkpt>
      <trkpt lat="46.097178247555014" lon="9.012968044368597">
      <ele>1521.7</ele></trkpt>
      <trkpt lat="46.09723731064026" lon="9.013070819709696">
      <ele>1523.3</ele></trkpt>
      <trkpt lat="46.09728865769163" lon="9.013140458026903">
      <ele>1524.9</ele></trkpt>
      <trkpt lat="46.097330201620814" lon="9.013209813699932">
      <ele>1526.4</ele></trkpt>
      <trkpt lat="46.09735853770993" lon="9.013288177901575">
      <ele>1528.0</ele></trkpt>
      <trkpt lat="46.09739625013902" lon="9.013397386535287">
      <ele>1529.6</ele></trkpt>
      <trkpt lat="46.097438849317356" lon="9.013509077204297">
      <ele>1530.9</ele></trkpt>
      <trkpt lat="46.0974735504988" lon="9.013599381580528">
      <ele>1532.3</ele></trkpt>
      <trkpt lat="46.09752287564443" lon="9.013697169531548">
      <ele>1533.6</ele></trkpt>
      <trkpt lat="46.09757045629254" lon="9.013801968819427">
      <ele>1535.0</ele></trkpt>
      <trkpt lat="46.0976180550113" lon="9.013906755881171">
      <ele>1536.3</ele></trkpt>
      <trkpt lat="46.09767407359314" lon="9.01399296836569">
      <ele>1537.7</ele></trkpt>
      <trkpt lat="46.09771375928128" lon="9.014078735500242">
      <ele>1539.0</ele></trkpt>
      <trkpt lat="46.09775666810041" lon="9.014166923765943">
      <ele>1540.4</ele></trkpt>
      <trkpt lat="46.09780161619672" lon="9.01422698958891">
      <ele>1541.7</ele></trkpt>
      <trkpt lat="46.097824487045926" lon="9.0142276497442">
      <ele>1543.0</ele></trkpt>
      <trkpt lat="46.09784116562877" lon="9.014204631518277">
      <ele>1544.4</ele></trkpt>
      <trkpt lat="46.097855588087995" lon="9.014108669494615">
      <ele>1545.7</ele></trkpt>
      <trkpt lat="46.09787464010667" lon="9.014031671800574">
      <ele>1547.1</ele></trkpt>
      <trkpt lat="46.09790367744575" lon="9.013943192990839">
      <ele>1548.4</ele></trkpt>
      <trkpt lat="46.09794081504991" lon="9.013859668474321">
      <ele>1549.8</ele></trkpt>
      <trkpt lat="46.097987436805354" lon="9.0137999042957">
      <ele>1551.1</ele></trkpt>
      <trkpt lat="46.09803731423078" lon="9.013740233960439">
      <ele>1552.5</ele></trkpt>
      <trkpt lat="46.098088608011984" lon="9.01369704256944">
      <ele>1553.8</ele></trkpt>
      <trkpt lat="46.098138452528474" lon="9.01363972493844">
      <ele>1555.2</ele></trkpt>
      <trkpt lat="46.09818507416837" lon="9.013579960355367">
      <ele>1556.5</ele></trkpt>
      <trkpt lat="46.098226424403876" lon="9.013545897249674">
      <ele>1557.6</ele></trkpt>
      <trkpt lat="46.098269148833566" lon="9.013530691707404">
      <ele>1558.7</ele></trkpt>
      <trkpt lat="46.098319843102985" lon="9.013529787539996">
      <ele>1559.8</ele></trkpt>
      <trkpt lat="46.0983704802997" lon="9.013533615324873">
      <ele>1560.8</ele></trkpt>
      <trkpt lat="46.09841912016953" lon="9.013563213382263">
      <ele>1561.9</ele></trkpt>
      <trkpt lat="46.09845955194898" lon="9.013594928533768">
      <ele>1563.0</ele></trkpt>
      <trkpt lat="46.09849534447497" lon="9.013607717693489">
      <ele>1564.1</ele></trkpt>
      <trkpt lat="46.09853460745462" lon="9.013606509628227">
      <ele>1565.2</ele></trkpt>
      <trkpt lat="46.0985660472456" lon="9.013579209072326">
      <ele>1566.3</ele></trkpt>
      <trkpt lat="46.09859775848693" lon="9.013533111170146">
      <ele>1567.3</ele></trkpt>
      <trkpt lat="46.09863456781837" lon="9.013473075832223">
      <ele>1568.4</ele></trkpt>
      <trkpt lat="46.098671246257794" lon="9.013422413357048">
      <ele>1569.5</ele></trkpt>
      <trkpt lat="46.098712474222346" lon="9.013397748895743">
      <ele>1570.6</ele></trkpt>
      <trkpt lat="46.09877457538752" lon="9.013399540502478">
      <ele>1571.7</ele></trkpt>
      <trkpt lat="46.09885440141542" lon="9.013420648709255">
      <ele>1572.8</ele></trkpt>
      <trkpt lat="46.098924439042634" lon="9.013439133618576">
      <ele>1573.9</ele></trkpt>
      <trkpt lat="46.098999625972" lon="9.01344130281364">
      <ele>1574.9</ele></trkpt>
      <trkpt lat="46.09907301216283" lon="9.013455163681035">
      <ele>1576.0</ele></trkpt>
      <trkpt lat="46.09913491658208" lon="9.013471047221547">
      <ele>1577.1</ele></trkpt>
      <trkpt lat="46.09918355647214" lon="9.013500645639287">
      <ele>1578.2</ele></trkpt>
      <trkpt lat="46.099245263769845" lon="9.013530647004602">
      <ele>1579.9</ele></trkpt>
      <trkpt lat="46.09930682550161" lon="9.01357236204061">
      <ele>1581.6</ele></trkpt>
      <trkpt lat="46.09936048878767" lon="9.013592728749448">
      <ele>1583.2</ele></trkpt>
      <trkpt lat="46.09941576541516" lon="9.013615470094964">
      <ele>1584.9</ele></trkpt>
      <trkpt lat="46.099496998446824" lon="9.013653083942721">
      <ele>1586.6</ele></trkpt>
      <trkpt lat="46.09955539952169" lon="9.013685318302866">
      <ele>1588.3</ele></trkpt>
      <trkpt lat="46.09959266514567" lon="9.013709881085694">
      <ele>1589.9</ele></trkpt>
      <trkpt lat="46.09962812945341" lon="9.013746174462865">
      <ele>1591.6</ele></trkpt>
      <trkpt lat="46.099673209216014" lon="9.013796830103045">
      <ele>1593.3</ele></trkpt>
      <trkpt lat="46.0997278532062" lon="9.013864226383856">
      <ele>1595.0</ele></trkpt>
      <trkpt lat="46.09978587860296" lon="9.01392464567052">
      <ele>1596.7</ele></trkpt>
      <trkpt lat="46.099825841585506" lon="9.013989277511632">
      <ele>1598.3</ele></trkpt>
      <trkpt lat="46.09985751637599" lon="9.014063047155462">
      <ele>1600.0</ele></trkpt>
      <trkpt lat="46.099893830094175" lon="9.014155756380907">
      <ele>1601.7</ele></trkpt>
      <trkpt lat="46.09998789926019" lon="9.014235440199476">
      <ele>1603.4</ele></trkpt>
      <trkpt lat="46.10012499243991" lon="9.014228235692654">
      <ele>1605.0</ele></trkpt>
      <trkpt lat="46.10017729052109" lon="9.014229745320014">
      <ele>1606.7</ele></trkpt>
      <trkpt lat="46.100236289999025" lon="9.014253267678036">
      <ele>1608.4</ele></trkpt>
    </trkseg>
  </trk>
</gpx>