<?xml version="1.0" encoding="UTF-8"?>
<gpx version="1.1" creator="hike-planner" xmlns="http://www.topografix.com/GPX/1/1">
  <metadata><name>Les Verrières -> Creux du Van</name>
    <desc>Routed from OSM (ODbL); elevations from SwissTopo / Open-Elevation</desc>
  </metadata>
  <wpt lat="46.750122" lon="8.720035">
    <ele>1545.5</ele>
    <name>Les Verrières</name>
  </wpt>
  <wpt lat="46.753187" lon="8.722091">
    <ele>1528.8</ele>
    <name>Creux du Van</name>
  </wpt>
  <trk>
    <name>Les Verrières -> Creux du Van</name>
    <trkseg>
      <trkpt lat="46.750122" lon="8.720035">
        <ele>1545.5</ele>
      </trkpt>
      <trkpt lat="46.750159" lon="8.720244">
        <ele>1544.5</ele>
      </trkpt>
      <trkpt lat="46.750162" lon="8.720366">
        <ele>1543.8</ele>
      </trkpt>
      <trkpt lat="46.750160" lon="8.720572">
        <ele>1544.2</ele>
      </trkpt>
      <trkpt lat="46.750178" lon="8.720709">
        <ele>1544.3</ele>
      </trkpt>
      <trkpt lat="46.750157" lon="8.720803">
        <ele>1546.0</ele>
      </trkpt>
      <trkpt lat="46.750176" lon="8.720907">
        <ele>1546.2</ele>
      </trkpt>
      <trkpt lat="46.750166" lon="8.721124">
        <ele>1544.6</ele>
      </trkpt>
      <trkpt lat="46.750153" lon="8.721192">
        <ele>1546.2</ele>
      </trkpt>
      <trkpt lat="46.750178" lon="8.721360">
        <ele>1544.2</ele>
      </trkpt>
      <trkpt lat="46.750217" lon="8.721459">
        <ele>1543.2</ele>
      </trkpt>
      <trkpt lat="46.750221" lon="8.721528">
        <ele>1543.6</ele>
      </trkpt>
      <trkpt lat="46.750223" lon="8.721702">
        <ele>1545.2</ele>
      </trkpt>
      <trkpt lat="46.750305" lon="8.721846">
        <ele>1546.6</ele>
      </trkpt>
      <trkpt lat="46.750317" lon="8.722024">
        <ele>1550.0</ele>
      </trkpt>
      <trkpt lat="46.750352" lon="8.722180">
        <ele>1550.4</ele>
      </trkpt>
      <trkpt lat="46.750306" lon="8.722503">
        <ele>1555.0</ele>
      </trkpt>
      <trkpt lat="46.750300" lon="8.722889">
        <ele>1553.3</ele>
      </trkpt>
      <trkpt lat="46.750308" lon="8.723023">
        <ele>1552.6</ele>
      </trkpt>
      <trkpt lat="46.750236" lon="8.723196">
        <ele>1555.2</ele>
      </trkpt>
      <trkpt lat="46.750249" lon="8.723372">
        <ele>1554.2</ele>
      </trkpt>
      <trkpt lat="46.750269" lon="8.723540">
        <ele>1555.3</ele>
      </trkpt>
      <trkpt lat="46.750329" lon="8.723629">
        <ele>1556.2</ele>
      </trkpt>
      <trkpt lat="46.750358" lon="8.723900">
        <ele>1558.6</ele>
      </trkpt>
      <trkpt lat="46.750269" lon="8.724234">
        <ele>1560.5</ele>
      </trkpt>
      <trkpt lat="46.750268" lon="8.724470">
        <ele>1561.1</ele>
      </trkpt>
      <trkpt lat="46.750158" lon="8.724501">
        <ele>1564.5</ele>
      </trkpt>
      <trkpt lat="46.750129" lon="8.724765">
        <ele>1566.6</ele>
      </trkpt>
      <trkpt lat="46.750013" lon="8.724931">
        <ele>1570.3</ele>
      </trkpt>
      <trkpt lat="46.749876" lon="8.725460">
        <ele>1577.9</ele>
      </trkpt>
      <trkpt lat="46.749824" lon="8.725926">
        <ele>1583.0</ele>
      </trkpt>
      <trkpt lat="46.749848" lon="8.726007">
        <ele>1583.2</ele>
      </trkpt>
      <trkpt lat="46.749980" lon="8.726096">
        <ele>1584.4</ele>
      </trkpt>
      <trkpt lat="46.750028" lon="8.726161">
        <ele>1586.3</ele>
      </trkpt>
      <trkpt lat="46.750097" lon="8.726172">
        <ele>1585.0</ele>
      </trkpt>
      <trkpt lat="46.750216" lon="8.726151">
        <ele>1581.6</ele>
      </trkpt>
      <trkpt lat="46.750284" lon="8.726201">
        <ele>1581.3</ele>
      </trkpt>
      <trkpt lat="46.750403" lon="8.726202">
        <ele>1578.5</ele>
      </trkpt>
      <trkpt lat="46.750490" lon="8.726318">
        <ele>1576.4</ele>
      </trkpt>
      <trkpt lat="46.750568" lon="8.726345">
        <ele>1574.9</ele>
      </trkpt>
      <trkpt lat="46.750628" lon="8.726310">
        <ele>1574.1</ele>
      </trkpt>
      <trkpt lat="46.750668" lon="8.726349">
        <ele>1573.6</ele>
      </trkpt>
      <trkpt lat="46.750671" lon="8.726435">
        <ele>1573.6</ele>
      </trkpt>
      <trkpt lat="46.750708" lon="8.726481">
        <ele>1573.1</ele>
      </trkpt>
      <trkpt lat="46.750780" lon="8.726373">
        <ele>1572.2</ele>
      </trkpt>
      <trkpt lat="46.751032" lon="8.726528">
        <ele>1565.4</ele>
      </trkpt>
      <trkpt lat="46.751112" lon="8.726483">
        <ele>1560.6</ele>
      </trkpt>
      <trkpt lat="46.751160" lon="8.726349">
        <ele>1557.8</ele>
      </trkpt>
      <trkpt lat="46.751227" lon="8.726584">
        <ele>1549.6</ele>
      </trkpt>
      <trkpt lat="46.751255" lon="8.726526">
        <ele>1545.7</ele>
      </trkpt>
      <trkpt lat="46.751290" lon="8.726590">
        <ele>1543.6</ele>
      </trkpt>
      <trkpt lat="46.751386" lon="8.726861">
        <ele>1537.6</ele>
      </trkpt>
      <trkpt lat="46.751420" lon="8.727037">
        <ele>1534.1</ele>
      </trkpt>
      <trkpt lat="46.751530" lon="8.727108">
        <ele>1532.4</ele>
      </trkpt>
      <trkpt lat="46.751570" lon="8.727070">
        <ele>1533.1</ele>
      </trkpt>
      <trkpt lat="46.751612" lon="8.726952">
        <ele>1532.0</ele>
      </trkpt>
      <trkpt lat="46.751614" lon="8.726852">
        <ele>1529.3</ele>
      </trkpt>
      <trkpt lat="46.751656" lon="8.726751">
        <ele>1529.2</ele>
      </trkpt>
      <trkpt lat="46.751699" lon="8.726738">
        <ele>1529.5</ele>
      </trkpt>
      <trkpt lat="46.751716" lon="8.726615">
        <ele>1527.7</ele>
      </trkpt>
      <trkpt lat="46.751756" lon="8.726507">
        <ele>1526.5</ele>
      </trkpt>
      <trkpt lat="46.751803" lon="8.726438">
        <ele>1527.7</ele>
      </trkpt>
      <trkpt lat="46.751826" lon="8.726300">
        <ele>1526.6</ele>
      </trkpt>
      <trkpt lat="46.751874" lon="8.726235">
        <ele>1528.2</ele>
      </trkpt>
      <trkpt lat="46.751903" lon="8.726147">
        <ele>1529.0</ele>
      </trkpt>
      <trkpt lat="46.751933" lon="8.726103">
        <ele>1528.8</ele>
      </trkpt>
      <trkpt lat="46.751938" lon="8.726028">
        <ele>1529.6</ele>
      </trkpt>
      <trkpt lat="46.752001" lon="8.725898">
        <ele>1531.4</ele>
      </trkpt>
      <trkpt lat="46.752031" lon="8.725690">
        <ele>1533.9</ele>
      </trkpt>
      <trkpt lat="46.752159" lon="8.725529">
        <ele>1531.2</ele>
      </trkpt>
      <trkpt lat="46.752228" lon="8.725465">
        <ele>1532.0</ele>
      </trkpt>
      <trkpt lat="46.752289" lon="8.725331">
        <ele>1532.7</ele>
      </trkpt>
      <trkpt lat="46.752299" lon="8.725037">
        <ele>1533.6</ele>
      </trkpt>
      <trkpt lat="46.752324" lon="8.724842">
        <ele>1533.8</ele>
      </trkpt>
      <trkpt lat="46.752357" lon="8.724729">
        <ele>1534.6</ele>
      </trkpt>
      <trkpt lat="46.752416" lon="8.724580">
        <ele>1535.0</ele>
      </trkpt>
      <trkpt lat="46.752421" lon="8.724506">
        <ele>1535.1</ele>
      </trkpt>
      <trkpt lat="46.752474" lon="8.724431">
        <ele>1535.9</ele>
      </trkpt>
      <trkpt lat="46.752525" lon="8.724257">
        <ele>1536.2</ele>
      </trkpt>
      <trkpt lat="46.752588" lon="8.724177">
        <ele>1538.4</ele>
      </trkpt>
      <trkpt lat="46.752632" lon="8.724034">
        <ele>1539.1</ele>
      </trkpt>
      <trkpt lat="46.752617" lon="8.723874">
        <ele>1539.0</ele>
      </trkpt>
      <trkpt lat="46.752633" lon="8.723791">
        <ele>1540.0</ele>
      </trkpt>
      <trkpt lat="46.752568" lon="8.723476">
        <ele>1544.2</ele>
      </trkpt>
      <trkpt lat="46.752586" lon="8.723344">
        <ele>1545.2</ele>
      </trkpt>
      <trkpt lat="46.752644" lon="8.723213">
        <ele>1544.3</ele>
      </trkpt>
      <trkpt lat="46.752682" lon="8.723097">
        <ele>1543.9</ele>
      </trkpt>
      <trkpt lat="46.752721" lon="8.722887">
        <ele>1544.1</ele>
      </trkpt>
      <trkpt lat="46.752868" lon="8.722531">
        <ele>1547.1</ele>
      </trkpt>
      <trkpt lat="46.752892" lon="8.722962">
        <ele>1554.4</ele>
      </trkpt>
      <trkpt lat="46.753002" lon="8.722755">
        <ele>1550.7</ele>
      </trkpt>
      <trkpt lat="46.753142" lon="8.722188">
        <ele>1532.2</ele>
      </trkpt>
      <trkpt lat="46.753187" lon="8.722091">
        <ele>1528.8</ele>
      </trkpt>
    </trkseg>
  </trk>
</gpx>
