<?xml version="1.0" encoding="UTF-8"?>
<gpx version="1.1" creator="hike-planner" xmlns="http://www.topografix.com/GPX/1/1">
  <metadata><name>Linthal -> Tödi</name>
    <desc>Routed from OSM (ODbL); elevations from SwissTopo / Open-Elevation</desc>
  </metadata>
  <wpt lat="46.947282" lon="8.994522">
    <ele>1520.0</ele>
    <name>Linthal</name>
  </wpt>
  <wpt lat="46.825005" lon="8.900426">
    <ele>2357.7</ele>
    <name>Tödi</name>
  </wpt>
  <trk>
    <name>Linthal -> Tödi</name>
    <trkseg>
      <trkpt lat="46.947282" lon="8.994522">
        <ele>1520.0</ele>
      </trkpt>
      <trkpt lat="46.948481" lon="8.993808">
        <ele>1543.8</ele>
      </trkpt>
      <trkpt lat="46.948944" lon="8.993792">
        <ele>1555.9</ele>
      </trkpt>
      <trkpt lat="46.948716" lon="8.994844">
        <ele>1548.1</ele>
      </trkpt>
      <trkpt lat="46.948007" lon="8.995572">
        <ele>1527.7</ele>
      </trkpt>
      <trkpt lat="46.947459" lon="8.996592">
        <ele>1508.6</ele>
      </trkpt>
      <trkpt lat="46.946950" lon="8.997534">
        <ele>1493.1</ele>
      </trkpt>
      <trkpt lat="46.946297" lon="8.999070">
        <ele>1478.6</ele>
      </trkpt>
      <trkpt lat="46.946124" lon="8.999484">
        <ele>1469.8</ele>
      </trkpt>
      <trkpt lat="46.945715" lon="8.999007">
        <ele>1460.8</ele>
      </trkpt>
      <trkpt lat="46.944799" lon="8.997727">
        <ele>1447.0</ele>
      </trkpt>
      <trkpt lat="46.944558" lon="8.997880">
        <ele>1436.9</ele>
      </trkpt>
      <trkpt lat="46.944635" lon="8.998300">
        <ele>1429.4</ele>
      </trkpt>
      <trkpt lat="46.944557" lon="8.999008">
        <ele>1418.0</ele>
      </trkpt>
      <trkpt lat="46.944487" lon="8.999354">
        <ele>1411.5</ele>
      </trkpt>
      <trkpt lat="46.944087" lon="8.998984">
        <ele>1401.3</ele>
      </trkpt>
      <trkpt lat="46.943690" lon="8.998636">
        <ele>1393.7</ele>
      </trkpt>
      <trkpt lat="46.943147" lon="8.998920">
        <ele>1381.5</ele>
      </trkpt>
      <trkpt lat="46.942739" lon="8.998799">
        <ele>1372.3</ele>
      </trkpt>
      <trkpt lat="46.942016" lon="8.998487">
        <ele>1351.9</ele>
      </trkpt>
      <trkpt lat="46.941404" lon="8.998110">
        <ele>1337.3</ele>
      </trkpt>
      <trkpt lat="46.941194" lon="8.998554">
        <ele>1321.3</ele>
      </trkpt>
      <trkpt lat="46.940984" lon="8.998662">
        <ele>1314.4</ele>
      </trkpt>
      <trkpt lat="46.940750" lon="8.998813">
        <ele>1308.6</ele>
      </trkpt>
      <trkpt lat="46.940894" lon="8.999493">
        <ele>1299.2</ele>
      </trkpt>
      <trkpt lat="46.940633" lon="8.999254">
        <ele>1295.5</ele>
      </trkpt>
      <trkpt lat="46.940198" lon="8.999590">
        <ele>1282.0</ele>
      </trkpt>
      <trkpt lat="46.939673" lon="8.999116">
        <ele>1267.3</ele>
      </trkpt>
      <trkpt lat="46.938956" lon="8.998287">
        <ele>1256.2</ele>
      </trkpt>
      <trkpt lat="46.938680" lon="8.997934">
        <ele>1251.7</ele>
      </trkpt>
      <trkpt lat="46.938069" lon="8.996525">
        <ele>1239.2</ele>
      </trkpt>
      <trkpt lat="46.937538" lon="8.995924">
        <ele>1229.0</ele>
      </trkpt>
      <trkpt lat="46.936647" lon="8.995408">
        <ele>1194.5</ele>
      </trkpt>
      <trkpt lat="46.936163" lon="8.995262">
        <ele>1185.5</ele>
      </trkpt>
      <trkpt lat="46.936015" lon="8.995033">
        <ele>1178.5</ele>
      </trkpt>
      <trkpt lat="46.935739" lon="8.995656">
        <ele>1171.2</ele>
      </trkpt>
      <trkpt lat="46.936139" lon="8.996320">
        <ele>1154.4</ele>
      </trkpt>
      <trkpt lat="46.935979" lon="8.996400">
        <ele>1148.1</ele>
      </trkpt>
      <trkpt lat="46.936325" lon="8.997364">
        <ele>1135.2</ele>
      </trkpt>
      <trkpt lat="46.936176" lon="8.997921">
        <ele>1121.6</ele>
      </trkpt>
      <trkpt lat="46.936038" lon="8.998090">
        <ele>1107.9</ele>
      </trkpt>
      <trkpt lat="46.935922" lon="8.998311">
        <ele>1094.3</ele>
      </trkpt>
      <trkpt lat="46.935662" lon="8.998286">
        <ele>1066.5</ele>
      </trkpt>
      <trkpt lat="46.935549" lon="8.998516">
        <ele>1051.1</ele>
      </trkpt>
      <trkpt lat="46.935330" lon="8.998490">
        <ele>1034.8</ele>
      </trkpt>
      <trkpt lat="46.935147" lon="8.998950">
        <ele>1012.5</ele>
      </trkpt>
      <trkpt lat="46.934770" lon="8.998832">
        <ele>997.6</ele>
      </trkpt>
      <trkpt lat="46.934436" lon="8.999153">
        <ele>977.2</ele>
      </trkpt>
      <trkpt lat="46.934247" lon="8.999354">
        <ele>963.5</ele>
      </trkpt>
      <trkpt lat="46.933858" lon="8.999730">
        <ele>938.7</ele>
      </trkpt>
      <trkpt lat="46.933443" lon="8.999367">
        <ele>919.2</ele>
      </trkpt>
      <trkpt lat="46.933422" lon="9.000041">
        <ele>896.9</ele>
      </trkpt>
      <trkpt lat="46.933815" lon="9.001326">
        <ele>869.3</ele>
      </trkpt>
      <trkpt lat="46.933747" lon="9.001681">
        <ele>851.6</ele>
      </trkpt>
      <trkpt lat="46.933763" lon="9.002069">
        <ele>839.5</ele>
      </trkpt>
      <trkpt lat="46.933428" lon="9.002597">
        <ele>812.5</ele>
      </trkpt>
      <trkpt lat="46.933104" lon="9.002607">
        <ele>797.6</ele>
      </trkpt>
      <trkpt lat="46.933077" lon="9.003288">
        <ele>771.0</ele>
      </trkpt>
      <trkpt lat="46.932454" lon="9.003312">
        <ele>744.8</ele>
      </trkpt>
      <trkpt lat="46.930928" lon="9.002661">
        <ele>709.3</ele>
      </trkpt>
      <trkpt lat="46.929915" lon="9.001972">
        <ele>685.1</ele>
      </trkpt>
      <trkpt lat="46.929031" lon="9.001504">
        <ele>666.1</ele>
      </trkpt>
      <trkpt lat="46.928224" lon="9.000753">
        <ele>661.1</ele>
      </trkpt>
      <trkpt lat="46.927339" lon="8.999947">
        <ele>651.3</ele>
      </trkpt>
      <trkpt lat="46.926426" lon="9.000332">
        <ele>646.2</ele>
      </trkpt>
      <trkpt lat="46.926208" lon="9.000771">
        <ele>644.8</ele>
      </trkpt>
      <trkpt lat="46.927339" lon="9.002867">
        <ele>644.1</ele>
      </trkpt>
      <trkpt lat="46.929116" lon="9.004068">
        <ele>639.3</ele>
      </trkpt>
      <trkpt lat="46.928872" lon="9.004367">
        <ele>648.4</ele>
      </trkpt>
      <trkpt lat="46.927679" lon="9.004111">
        <ele>653.7</ele>
      </trkpt>
      <trkpt lat="46.927163" lon="9.005266">
        <ele>661.7</ele>
      </trkpt>
      <trkpt lat="46.926558" lon="9.006246">
        <ele>672.5</ele>
      </trkpt>
      <trkpt lat="46.925817" lon="9.007252">
        <ele>678.6</ele>
      </trkpt>
      <trkpt lat="46.924701" lon="9.008214">
        <ele>697.6</ele>
      </trkpt>
      <trkpt lat="46.923553" lon="9.009580">
        <ele>718.4</ele>
      </trkpt>
      <trkpt lat="46.923568" lon="9.010769">
        <ele>725.1</ele>
      </trkpt>
      <trkpt lat="46.923462" lon="9.011341">
        <ele>739.3</ele>
      </trkpt>
      <trkpt lat="46.922423" lon="9.012021">
        <ele>754.7</ele>
      </trkpt>
      <trkpt lat="46.921954" lon="9.012544">
        <ele>769.0</ele>
      </trkpt>
      <trkpt lat="46.921350" lon="9.013436">
        <ele>796.9</ele>
      </trkpt>
      <trkpt lat="46.920892" lon="9.014531">
        <ele>819.4</ele>
      </trkpt>
      <trkpt lat="46.920108" lon="9.015175">
        <ele>842.3</ele>
      </trkpt>
      <trkpt lat="46.920281" lon="9.016262">
        <ele>872.2</ele>
      </trkpt>
      <trkpt lat="46.920373" lon="9.015847">
        <ele>892.5</ele>
      </trkpt>
      <trkpt lat="46.920721" lon="9.016180">
        <ele>911.9</ele>
      </trkpt>
      <trkpt lat="46.920634" lon="9.016754">
        <ele>923.2</ele>
      </trkpt>
      <trkpt lat="46.920373" lon="9.017473">
        <ele>935.2</ele>
      </trkpt>
      <trkpt lat="46.919932" lon="9.018027">
        <ele>942.1</ele>
      </trkpt>
      <trkpt lat="46.919776" lon="9.019049">
        <ele>951.5</ele>
      </trkpt>
      <trkpt lat="46.919761" lon="9.019973">
        <ele>963.6</ele>
      </trkpt>
      <trkpt lat="46.919070" lon="9.021162">
        <ele>963.7</ele>
      </trkpt>
      <trkpt lat="46.918673" lon="9.022551">
        <ele>1016.0</ele>
      </trkpt>
      <trkpt lat="46.918404" lon="9.023290">
        <ele>1054.8</ele>
      </trkpt>
      <trkpt lat="46.919010" lon="9.024114">
        <ele>1081.9</ele>
      </trkpt>
      <trkpt lat="46.918701" lon="9.024587">
        <ele>1109.8</ele>
      </trkpt>
      <trkpt lat="46.917809" lon="9.025882">
        <ele>1157.8</ele>
      </trkpt>
      <trkpt lat="46.917352" lon="9.026917">
        <ele>1169.0</ele>
      </trkpt>
      <trkpt lat="46.917810" lon="9.026860">
        <ele>1179.9</ele>
      </trkpt>
      <trkpt lat="46.917221" lon="9.027302">
        <ele>1188.6</ele>
      </trkpt>
      <trkpt lat="46.916877" lon="9.028314">
        <ele>1193.1</ele>
      </trkpt>
      <trkpt lat="46.916437" lon="9.028892">
        <ele>1195.5</ele>
      </trkpt>
      <trkpt lat="46.915936" lon="9.029825">
        <ele>1202.7</ele>
      </trkpt>
      <trkpt lat="46.915520" lon="9.030133">
        <ele>1207.8</ele>
      </trkpt>
      <trkpt lat="46.914857" lon="9.030580">
        <ele>1215.9</ele>
      </trkpt>
      <trkpt lat="46.914574" lon="9.031547">
        <ele>1225.0</ele>
      </trkpt>
      <trkpt lat="46.914415" lon="9.031679">
        <ele>1224.5</ele>
      </trkpt>
      <trkpt lat="46.913527" lon="9.032304">
        <ele>1226.5</ele>
      </trkpt>
      <trkpt lat="46.913086" lon="9.032991">
        <ele>1226.6</ele>
      </trkpt>
      <trkpt lat="46.912066" lon="9.033321">
        <ele>1237.6</ele>
      </trkpt>
      <trkpt lat="46.910570" lon="9.034585">
        <ele>1263.2</ele>
      </trkpt>
      <trkpt lat="46.910030" lon="9.035205">
        <ele>1274.8</ele>
      </trkpt>
      <trkpt lat="46.909560" lon="9.036231">
        <ele>1289.5</ele>
      </trkpt>
      <trkpt lat="46.909012" lon="9.037111">
        <ele>1297.2</ele>
      </trkpt>
      <trkpt lat="46.908535" lon="9.037736">
        <ele>1300.4</ele>
      </trkpt>
      <trkpt lat="46.907439" lon="9.038698">
        <ele>1312.5</ele>
      </trkpt>
      <trkpt lat="46.906981" lon="9.039477">
        <ele>1319.3</ele>
      </trkpt>
      <trkpt lat="46.906427" lon="9.040030">
        <ele>1326.2</ele>
      </trkpt>
      <trkpt lat="46.905493" lon="9.040209">
        <ele>1338.8</ele>
      </trkpt>
      <trkpt lat="46.904479" lon="9.040601">
        <ele>1352.0</ele>
      </trkpt>
      <trkpt lat="46.904154" lon="9.041173">
        <ele>1353.7</ele>
      </trkpt>
      <trkpt lat="46.903621" lon="9.041709">
        <ele>1356.3</ele>
      </trkpt>
      <trkpt lat="46.902482" lon="9.041828">
        <ele>1357.3</ele>
      </trkpt>
      <trkpt lat="46.901294" lon="9.041729">
        <ele>1357.7</ele>
      </trkpt>
      <trkpt lat="46.900379" lon="9.041296">
        <ele>1363.2</ele>
      </trkpt>
      <trkpt lat="46.900019" lon="9.040428">
        <ele>1364.2</ele>
      </trkpt>
      <trkpt lat="46.899343" lon="9.040197">
        <ele>1369.6</ele>
      </trkpt>
      <trkpt lat="46.898094" lon="9.040502">
        <ele>1383.5</ele>
      </trkpt>
      <trkpt lat="46.896855" lon="9.040162">
        <ele>1410.4</ele>
      </trkpt>
      <trkpt lat="46.896101" lon="9.039745">
        <ele>1437.2</ele>
      </trkpt>
      <trkpt lat="46.895603" lon="9.039522">
        <ele>1457.4</ele>
      </trkpt>
      <trkpt lat="46.895301" lon="9.039244">
        <ele>1471.9</ele>
      </trkpt>
      <trkpt lat="46.895255" lon="9.038439">
        <ele>1506.5</ele>
      </trkpt>
      <trkpt lat="46.896372" lon="9.037525">
        <ele>1553.9</ele>
      </trkpt>
      <trkpt lat="46.896598" lon="9.037054">
        <ele>1574.4</ele>
      </trkpt>
      <trkpt lat="46.896725" lon="9.035999">
        <ele>1600.9</ele>
      </trkpt>
      <trkpt lat="46.896647" lon="9.035469">
        <ele>1621.6</ele>
      </trkpt>
      <trkpt lat="46.896346" lon="9.035302">
        <ele>1637.1</ele>
      </trkpt>
      <trkpt lat="46.895869" lon="9.035262">
        <ele>1656.8</ele>
      </trkpt>
      <trkpt lat="46.895744" lon="9.034778">
        <ele>1675.1</ele>
      </trkpt>
      <trkpt lat="46.896013" lon="9.034367">
        <ele>1693.8</ele>
      </trkpt>
      <trkpt lat="46.896010" lon="9.033578">
        <ele>1718.4</ele>
      </trkpt>
      <trkpt lat="46.896192" lon="9.033083">
        <ele>1742.6</ele>
      </trkpt>
      <trkpt lat="46.895880" lon="9.031862">
        <ele>1773.8</ele>
      </trkpt>
      <trkpt lat="46.895900" lon="9.031368">
        <ele>1794.8</ele>
      </trkpt>
      <trkpt lat="46.896003" lon="9.031108">
        <ele>1805.0</ele>
      </trkpt>
      <trkpt lat="46.895989" lon="9.030710">
        <ele>1819.4</ele>
      </trkpt>
      <trkpt lat="46.896188" lon="9.030260">
        <ele>1839.2</ele>
      </trkpt>
      <trkpt lat="46.896256" lon="9.029909">
        <ele>1853.2</ele>
      </trkpt>
      <trkpt lat="46.896473" lon="9.029452">
        <ele>1872.2</ele>
      </trkpt>
      <trkpt lat="46.896959" lon="9.029441">
        <ele>1897.9</ele>
      </trkpt>
      <trkpt lat="46.897283" lon="9.029292">
        <ele>1913.9</ele>
      </trkpt>
      <trkpt lat="46.897662" lon="9.028898">
        <ele>1933.5</ele>
      </trkpt>
      <trkpt lat="46.898046" lon="9.027681">
        <ele>1953.1</ele>
      </trkpt>
      <trkpt lat="46.898387" lon="9.026869">
        <ele>1959.4</ele>
      </trkpt>
      <trkpt lat="46.898910" lon="9.026495">
        <ele>1961.1</ele>
      </trkpt>
      <trkpt lat="46.899578" lon="9.025673">
        <ele>1959.8</ele>
      </trkpt>
      <trkpt lat="46.900899" lon="9.023017">
        <ele>1962.2</ele>
      </trkpt>
      <trkpt lat="46.900387" lon="9.022608">
        <ele>1980.0</ele>
      </trkpt>
      <trkpt lat="46.899647" lon="9.022941">
        <ele>2000.3</ele>
      </trkpt>
      <trkpt lat="46.898928" lon="9.022680">
        <ele>2036.5</ele>
      </trkpt>
      <trkpt lat="46.897893" lon="9.021628">
        <ele>1982.9</ele>
      </trkpt>
      <trkpt lat="46.897441" lon="9.020611">
        <ele>1952.4</ele>
      </trkpt>
      <trkpt lat="46.896563" lon="9.021533">
        <ele>1922.6</ele>
      </trkpt>
      <trkpt lat="46.896626" lon="9.020268">
        <ele>1901.0</ele>
      </trkpt>
      <trkpt lat="46.897074" lon="9.019273">
        <ele>1880.8</ele>
      </trkpt>
      <trkpt lat="46.897581" lon="9.017018">
        <ele>1834.7</ele>
      </trkpt>
      <trkpt lat="46.897392" lon="9.016172">
        <ele>1813.6</ele>
      </trkpt>
      <trkpt lat="46.896894" lon="9.015141">
        <ele>1776.7</ele>
      </trkpt>
      <trkpt lat="46.895974" lon="9.015484">
        <ele>1753.6</ele>
      </trkpt>
      <trkpt lat="46.895353" lon="9.015144">
        <ele>1725.0</ele>
      </trkpt>
      <trkpt lat="46.895137" lon="9.014823">
        <ele>1710.0</ele>
      </trkpt>
      <trkpt lat="46.894913" lon="9.014462">
        <ele>1692.5</ele>
      </trkpt>
      <trkpt lat="46.894717" lon="9.013951">
        <ele>1673.2</ele>
      </trkpt>
      <trkpt lat="46.894639" lon="9.013450">
        <ele>1655.9</ele>
      </trkpt>
      <trkpt lat="46.894541" lon="9.013014">
        <ele>1639.1</ele>
      </trkpt>
      <trkpt lat="46.894390" lon="9.012276">
        <ele>1613.7</ele>
      </trkpt>
      <trkpt lat="46.893900" lon="9.011941">
        <ele>1596.3</ele>
      </trkpt>
      <trkpt lat="46.892725" lon="9.012669">
        <ele>1557.3</ele>
      </trkpt>
      <trkpt lat="46.892455" lon="9.012533">
        <ele>1535.7</ele>
      </trkpt>
      <trkpt lat="46.892418" lon="9.012008">
        <ele>1522.1</ele>
      </trkpt>
      <trkpt lat="46.892279" lon="9.010572">
        <ele>1490.0</ele>
      </trkpt>
      <trkpt lat="46.892446" lon="9.009558">
        <ele>1482.4</ele>
      </trkpt>
      <trkpt lat="46.892250" lon="9.008903">
        <ele>1470.4</ele>
      </trkpt>
      <trkpt lat="46.892258" lon="9.007943">
        <ele>1458.7</ele>
      </trkpt>
      <trkpt lat="46.892188" lon="9.007186">
        <ele>1431.6</ele>
      </trkpt>
      <trkpt lat="46.892072" lon="9.006052">
        <ele>1405.4</ele>
      </trkpt>
      <trkpt lat="46.891948" lon="9.004789">
        <ele>1378.7</ele>
      </trkpt>
      <trkpt lat="46.891681" lon="9.003995">
        <ele>1354.4</ele>
      </trkpt>
      <trkpt lat="46.891919" lon="9.002795">
        <ele>1329.1</ele>
      </trkpt>
      <trkpt lat="46.891864" lon="9.001393">
        <ele>1296.9</ele>
      </trkpt>
      <trkpt lat="46.892064" lon="9.000954">
        <ele>1266.4</ele>
      </trkpt>
      <trkpt lat="46.892603" lon="9.000400">
        <ele>1242.9</ele>
      </trkpt>
      <trkpt lat="46.892173" lon="9.000355">
        <ele>1230.9</ele>
      </trkpt>
      <trkpt lat="46.892692" lon="8.999775">
        <ele>1220.7</ele>
      </trkpt>
      <trkpt lat="46.892569" lon="8.999361">
        <ele>1205.7</ele>
      </trkpt>
      <trkpt lat="46.892682" lon="8.998613">
        <ele>1187.5</ele>
      </trkpt>
      <trkpt lat="46.893136" lon="8.997650">
        <ele>1153.6</ele>
      </trkpt>
      <trkpt lat="46.893523" lon="8.998312">
        <ele>1122.1</ele>
      </trkpt>
      <trkpt lat="46.893879" lon="8.998326">
        <ele>1099.2</ele>
      </trkpt>
      <trkpt lat="46.894514" lon="8.998765">
        <ele>1060.4</ele>
      </trkpt>
      <trkpt lat="46.895167" lon="8.998597">
        <ele>1039.3</ele>
      </trkpt>
      <trkpt lat="46.895099" lon="8.997971">
        <ele>1043.1</ele>
      </trkpt>
      <trkpt lat="46.895257" lon="8.997326">
        <ele>1049.7</ele>
      </trkpt>
      <trkpt lat="46.894376" lon="8.996922">
        <ele>1059.9</ele>
      </trkpt>
      <trkpt lat="46.894232" lon="8.996244">
        <ele>1062.0</ele>
      </trkpt>
      <trkpt lat="46.893447" lon="8.995915">
        <ele>1064.4</ele>
      </trkpt>
      <trkpt lat="46.892447" lon="8.995651">
        <ele>1067.1</ele>
      </trkpt>
      <trkpt lat="46.891610" lon="8.995500">
        <ele>1067.7</ele>
      </trkpt>
      <trkpt lat="46.890278" lon="8.995283">
        <ele>1067.3</ele>
      </trkpt>
      <trkpt lat="46.889085" lon="8.995079">
        <ele>1066.5</ele>
      </trkpt>
      <trkpt lat="46.888340" lon="8.995134">
        <ele>1063.8</ele>
      </trkpt>
      <trkpt lat="46.888083" lon="8.995473">
        <ele>1072.8</ele>
      </trkpt>
      <trkpt lat="46.887492" lon="8.995885">
        <ele>1094.3</ele>
      </trkpt>
      <trkpt lat="46.886874" lon="8.996631">
        <ele>1117.2</ele>
      </trkpt>
      <trkpt lat="46.885855" lon="8.996370">
        <ele>1153.0</ele>
      </trkpt>
      <trkpt lat="46.885000" lon="8.996537">
        <ele>1176.3</ele>
      </trkpt>
      <trkpt lat="46.884487" lon="8.997646">
        <ele>1174.1</ele>
      </trkpt>
      <trkpt lat="46.884165" lon="8.997842">
        <ele>1181.5</ele>
      </trkpt>
      <trkpt lat="46.883768" lon="8.997530">
        <ele>1219.5</ele>
      </trkpt>
      <trkpt lat="46.883327" lon="8.996597">
        <ele>1255.6</ele>
      </trkpt>
      <trkpt lat="46.882364" lon="8.995480">
        <ele>1301.9</ele>
      </trkpt>
      <trkpt lat="46.881792" lon="8.995184">
        <ele>1327.7</ele>
      </trkpt>
      <trkpt lat="46.881575" lon="8.995598">
        <ele>1352.3</ele>
      </trkpt>
      <trkpt lat="46.881356" lon="8.995525">
        <ele>1370.0</ele>
      </trkpt>
      <trkpt lat="46.880829" lon="8.995067">
        <ele>1397.2</ele>
      </trkpt>
      <trkpt lat="46.880595" lon="8.995012">
        <ele>1411.6</ele>
      </trkpt>
      <trkpt lat="46.880367" lon="8.994992">
        <ele>1424.3</ele>
      </trkpt>
      <trkpt lat="46.880407" lon="8.995149">
        <ele>1441.8</ele>
      </trkpt>
      <trkpt lat="46.880113" lon="8.994905">
        <ele>1439.5</ele>
      </trkpt>
      <trkpt lat="46.879925" lon="8.994920">
        <ele>1439.3</ele>
      </trkpt>
      <trkpt lat="46.879849" lon="8.994350">
        <ele>1455.0</ele>
      </trkpt>
      <trkpt lat="46.879842" lon="8.994681">
        <ele>1474.9</ele>
      </trkpt>
      <trkpt lat="46.879644" lon="8.994992">
        <ele>1497.7</ele>
      </trkpt>
      <trkpt lat="46.879550" lon="8.994971">
        <ele>1509.5</ele>
      </trkpt>
      <trkpt lat="46.879503" lon="8.994905">
        <ele>1515.9</ele>
      </trkpt>
      <trkpt lat="46.879367" lon="8.994860">
        <ele>1536.1</ele>
      </trkpt>
      <trkpt lat="46.879061" lon="8.995632">
        <ele>1555.5</ele>
      </trkpt>
      <trkpt lat="46.878912" lon="8.995723">
        <ele>1568.2</ele>
      </trkpt>
      <trkpt lat="46.878699" lon="8.995979">
        <ele>1586.0</ele>
      </trkpt>
      <trkpt lat="46.878505" lon="8.995820">
        <ele>1600.3</ele>
      </trkpt>
      <trkpt lat="46.878237" lon="8.995680">
        <ele>1602.1</ele>
      </trkpt>
      <trkpt lat="46.877509" lon="8.995230">
        <ele>1594.2</ele>
      </trkpt>
      <trkpt lat="46.876996" lon="8.994787">
        <ele>1585.7</ele>
      </trkpt>
      <trkpt lat="46.876541" lon="8.994157">
        <ele>1570.2</ele>
      </trkpt>
      <trkpt lat="46.876261" lon="8.993760">
        <ele>1559.0</ele>
      </trkpt>
      <trkpt lat="46.875853" lon="8.993113">
        <ele>1546.9</ele>
      </trkpt>
      <trkpt lat="46.875150" lon="8.992438">
        <ele>1529.3</ele>
      </trkpt>
      <trkpt lat="46.874574" lon="8.991945">
        <ele>1513.1</ele>
      </trkpt>
      <trkpt lat="46.874166" lon="8.991570">
        <ele>1498.2</ele>
      </trkpt>
      <trkpt lat="46.873247" lon="8.990836">
        <ele>1467.3</ele>
      </trkpt>
      <trkpt lat="46.872702" lon="8.990455">
        <ele>1447.2</ele>
      </trkpt>
      <trkpt lat="46.872518" lon="8.990240">
        <ele>1428.9</ele>
      </trkpt>
      <trkpt lat="46.872295" lon="8.989782">
        <ele>1424.3</ele>
      </trkpt>
      <trkpt lat="46.871663" lon="8.989352">
        <ele>1420.6</ele>
      </trkpt>
      <trkpt lat="46.871134" lon="8.988753">
        <ele>1397.2</ele>
      </trkpt>
      <trkpt lat="46.871205" lon="8.988058">
        <ele>1376.6</ele>
      </trkpt>
      <trkpt lat="46.870869" lon="8.987702">
        <ele>1358.4</ele>
      </trkpt>
      <trkpt lat="46.870868" lon="8.987372">
        <ele>1346.0</ele>
      </trkpt>
      <trkpt lat="46.870930" lon="8.987156">
        <ele>1337.8</ele>
      </trkpt>
      <trkpt lat="46.870726" lon="8.986797">
        <ele>1322.9</ele>
      </trkpt>
      <trkpt lat="46.870596" lon="8.986446">
        <ele>1309.0</ele>
      </trkpt>
      <trkpt lat="46.870286" lon="8.986047">
        <ele>1298.3</ele>
      </trkpt>
      <trkpt lat="46.870012" lon="8.985823">
        <ele>1277.7</ele>
      </trkpt>
      <trkpt lat="46.869027" lon="8.985730">
        <ele>1253.5</ele>
      </trkpt>
      <trkpt lat="46.868726" lon="8.985378">
        <ele>1234.0</ele>
      </trkpt>
      <trkpt lat="46.868549" lon="8.985179">
        <ele>1220.2</ele>
      </trkpt>
      <trkpt lat="46.867888" lon="8.985205">
        <ele>1194.7</ele>
      </trkpt>
      <trkpt lat="46.867732" lon="8.984632">
        <ele>1165.9</ele>
      </trkpt>
      <trkpt lat="46.867315" lon="8.984242">
        <ele>1139.5</ele>
      </trkpt>
      <trkpt lat="46.866799" lon="8.983717">
        <ele>1109.2</ele>
      </trkpt>
      <trkpt lat="46.866736" lon="8.983250">
        <ele>1087.5</ele>
      </trkpt>
      <trkpt lat="46.866329" lon="8.982690">
        <ele>1084.3</ele>
      </trkpt>
      <trkpt lat="46.864723" lon="8.983116">
        <ele>1074.1</ele>
      </trkpt>
      <trkpt lat="46.864274" lon="8.982156">
        <ele>1074.9</ele>
      </trkpt>
      <trkpt lat="46.863855" lon="8.981206">
        <ele>1065.0</ele>
      </trkpt>
      <trkpt lat="46.863013" lon="8.979656">
        <ele>1043.5</ele>
      </trkpt>
      <trkpt lat="46.863108" lon="8.979186">
        <ele>1052.2</ele>
      </trkpt>
      <trkpt lat="46.862735" lon="8.979128">
        <ele>1062.9</ele>
      </trkpt>
      <trkpt lat="46.862780" lon="8.978366">
        <ele>1080.7</ele>
      </trkpt>
      <trkpt lat="46.861996" lon="8.977098">
        <ele>1095.8</ele>
      </trkpt>
      <trkpt lat="46.860415" lon="8.975465">
        <ele>1129.5</ele>
      </trkpt>
      <trkpt lat="46.859266" lon="8.974073">
        <ele>1150.5</ele>
      </trkpt>
      <trkpt lat="46.858789" lon="8.972722">
        <ele>1160.2</ele>
      </trkpt>
      <trkpt lat="46.858234" lon="8.972114">
        <ele>1155.4</ele>
      </trkpt>
      <trkpt lat="46.857695" lon="8.971298">
        <ele>1163.3</ele>
      </trkpt>
      <trkpt lat="46.857087" lon="8.970217">
        <ele>1176.7</ele>
      </trkpt>
      <trkpt lat="46.856536" lon="8.969811">
        <ele>1184.4</ele>
      </trkpt>
      <trkpt lat="46.855906" lon="8.969295">
        <ele>1189.8</ele>
      </trkpt>
      <trkpt lat="46.855278" lon="8.968763">
        <ele>1195.7</ele>
      </trkpt>
      <trkpt lat="46.854851" lon="8.967929">
        <ele>1192.3</ele>
      </trkpt>
      <trkpt lat="46.854275" lon="8.967556">
        <ele>1190.3</ele>
      </trkpt>
      <trkpt lat="46.853776" lon="8.967194">
        <ele>1189.0</ele>
      </trkpt>
      <trkpt lat="46.853280" lon="8.967094">
        <ele>1192.1</ele>
      </trkpt>
      <trkpt lat="46.852858" lon="8.966714">
        <ele>1200.6</ele>
      </trkpt>
      <trkpt lat="46.852359" lon="8.965583">
        <ele>1211.6</ele>
      </trkpt>
      <trkpt lat="46.851975" lon="8.964856">
        <ele>1218.7</ele>
      </trkpt>
      <trkpt lat="46.850701" lon="8.963807">
        <ele>1232.8</ele>
      </trkpt>
      <trkpt lat="46.849214" lon="8.963564">
        <ele>1242.4</ele>
      </trkpt>
      <trkpt lat="46.848609" lon="8.963104">
        <ele>1252.0</ele>
      </trkpt>
      <trkpt lat="46.848299" lon="8.962295">
        <ele>1261.1</ele>
      </trkpt>
      <trkpt lat="46.847854" lon="8.961661">
        <ele>1270.1</ele>
      </trkpt>
      <trkpt lat="46.847767" lon="8.960774">
        <ele>1275.4</ele>
      </trkpt>
      <trkpt lat="46.847936" lon="8.958581">
        <ele>1270.5</ele>
      </trkpt>
      <trkpt lat="46.845953" lon="8.957393">
        <ele>1311.2</ele>
      </trkpt>
      <trkpt lat="46.844268" lon="8.956096">
        <ele>1303.8</ele>
      </trkpt>
      <trkpt lat="46.843744" lon="8.955445">
        <ele>1299.2</ele>
      </trkpt>
      <trkpt lat="46.842620" lon="8.953788">
        <ele>1299.1</ele>
      </trkpt>
      <trkpt lat="46.841407" lon="8.952724">
        <ele>1300.6</ele>
      </trkpt>
      <trkpt lat="46.840715" lon="8.952178">
        <ele>1306.7</ele>
      </trkpt>
      <trkpt lat="46.839955" lon="8.951852">
        <ele>1308.6</ele>
      </trkpt>
      <trkpt lat="46.839341" lon="8.951812">
        <ele>1307.4</ele>
      </trkpt>
      <trkpt lat="46.839014" lon="8.950386">
        <ele>1317.1</ele>
      </trkpt>
      <trkpt lat="46.839077" lon="8.949121">
        <ele>1340.1</ele>
      </trkpt>
      <trkpt lat="46.838555" lon="8.948298">
        <ele>1366.2</ele>
      </trkpt>
      <trkpt lat="46.837836" lon="8.947375">
        <ele>1389.8</ele>
      </trkpt>
      <trkpt lat="46.837459" lon="8.946860">
        <ele>1412.7</ele>
      </trkpt>
      <trkpt lat="46.837352" lon="8.945217">
        <ele>1446.2</ele>
      </trkpt>
      <trkpt lat="46.836805" lon="8.944774">
        <ele>1472.6</ele>
      </trkpt>
      <trkpt lat="46.836683" lon="8.944601">
        <ele>1480.8</ele>
      </trkpt>
      <trkpt lat="46.836447" lon="8.944589">
        <ele>1494.1</ele>
      </trkpt>
      <trkpt lat="46.836066" lon="8.944515">
        <ele>1518.6</ele>
      </trkpt>
      <trkpt lat="46.835786" lon="8.944230">
        <ele>1543.4</ele>
      </trkpt>
      <trkpt lat="46.835617" lon="8.944028">
        <ele>1557.5</ele>
      </trkpt>
      <trkpt lat="46.835423" lon="8.943913">
        <ele>1573.2</ele>
      </trkpt>
      <trkpt lat="46.835282" lon="8.943782">
        <ele>1587.2</ele>
      </trkpt>
      <trkpt lat="46.835171" lon="8.943777">
        <ele>1595.7</ele>
      </trkpt>
      <trkpt lat="46.835134" lon="8.942574">
        <ele>1626.1</ele>
      </trkpt>
      <trkpt lat="46.835431" lon="8.941890">
        <ele>1630.2</ele>
      </trkpt>
      <trkpt lat="46.835489" lon="8.941417">
        <ele>1644.7</ele>
      </trkpt>
      <trkpt lat="46.835062" lon="8.941826">
        <ele>1663.4</ele>
      </trkpt>
      <trkpt lat="46.834926" lon="8.941634">
        <ele>1679.9</ele>
      </trkpt>
      <trkpt lat="46.834820" lon="8.941384">
        <ele>1694.8</ele>
      </trkpt>
      <trkpt lat="46.834882" lon="8.941040">
        <ele>1708.2</ele>
      </trkpt>
      <trkpt lat="46.834845" lon="8.940930">
        <ele>1714.8</ele>
      </trkpt>
      <trkpt lat="46.834958" lon="8.940541">
        <ele>1736.1</ele>
      </trkpt>
      <trkpt lat="46.834837" lon="8.940426">
        <ele>1746.3</ele>
      </trkpt>
      <trkpt lat="46.834921" lon="8.940143">
        <ele>1756.2</ele>
      </trkpt>
      <trkpt lat="46.835607" lon="8.939384">
        <ele>1777.3</ele>
      </trkpt>
      <trkpt lat="46.836044" lon="8.938685">
        <ele>1789.5</ele>
      </trkpt>
      <trkpt lat="46.836231" lon="8.938429">
        <ele>1802.0</ele>
      </trkpt>
      <trkpt lat="46.836147" lon="8.938227">
        <ele>1817.6</ele>
      </trkpt>
      <trkpt lat="46.836169" lon="8.938083">
        <ele>1825.8</ele>
      </trkpt>
      <trkpt lat="46.836450" lon="8.937857">
        <ele>1838.7</ele>
      </trkpt>
      <trkpt lat="46.836317" lon="8.937651">
        <ele>1853.4</ele>
      </trkpt>
      <trkpt lat="46.836421" lon="8.937216">
        <ele>1867.5</ele>
      </trkpt>
      <trkpt lat="46.836654" lon="8.936736">
        <ele>1873.0</ele>
      </trkpt>
      <trkpt lat="46.836741" lon="8.936431">
        <ele>1883.6</ele>
      </trkpt>
      <trkpt lat="46.836864" lon="8.936348">
        <ele>1889.5</ele>
      </trkpt>
      <trkpt lat="46.837012" lon="8.936119">
        <ele>1902.2</ele>
      </trkpt>
      <trkpt lat="46.836805" lon="8.935718">
        <ele>1921.4</ele>
      </trkpt>
      <trkpt lat="46.836781" lon="8.935128">
        <ele>1933.6</ele>
      </trkpt>
      <trkpt lat="46.836688" lon="8.934228">
        <ele>1934.1</ele>
      </trkpt>
      <trkpt lat="46.836860" lon="8.933669">
        <ele>1935.7</ele>
      </trkpt>
      <trkpt lat="46.836920" lon="8.932698">
        <ele>1928.7</ele>
      </trkpt>
      <trkpt lat="46.836607" lon="8.932671">
        <ele>1931.5</ele>
      </trkpt>
      <trkpt lat="46.836366" lon="8.932255">
        <ele>1933.0</ele>
      </trkpt>
      <trkpt lat="46.836293" lon="8.931259">
        <ele>1926.4</ele>
      </trkpt>
      <trkpt lat="46.836404" lon="8.930577">
        <ele>1927.0</ele>
      </trkpt>
      <trkpt lat="46.836551" lon="8.929628">
        <ele>1931.4</ele>
      </trkpt>
      <trkpt lat="46.836203" lon="8.928158">
        <ele>1933.0</ele>
      </trkpt>
      <trkpt lat="46.835768" lon="8.927325">
        <ele>1936.1</ele>
      </trkpt>
      <trkpt lat="46.835588" lon="8.926660">
        <ele>1937.7</ele>
      </trkpt>
      <trkpt lat="46.836040" lon="8.925517">
        <ele>1939.5</ele>
      </trkpt>
      <trkpt lat="46.836484" lon="8.924117">
        <ele>1940.2</ele>
      </trkpt>
      <trkpt lat="46.836604" lon="8.923245">
        <ele>1942.2</ele>
      </trkpt>
      <trkpt lat="46.836450" lon="8.922454">
        <ele>1946.3</ele>
      </trkpt>
      <trkpt lat="46.836383" lon="8.921218">
        <ele>1948.0</ele>
      </trkpt>
      <trkpt lat="46.836418" lon="8.920234">
        <ele>1951.4</ele>
      </trkpt>
      <trkpt lat="46.836747" lon="8.919131">
        <ele>1955.8</ele>
      </trkpt>
      <trkpt lat="46.836577" lon="8.918620">
        <ele>1965.3</ele>
      </trkpt>
      <trkpt lat="46.836382" lon="8.917278">
        <ele>1972.3</ele>
      </trkpt>
      <trkpt lat="46.835510" lon="8.915895">
        <ele>1978.2</ele>
      </trkpt>
      <trkpt lat="46.835061" lon="8.915683">
        <ele>1975.8</ele>
      </trkpt>
      <trkpt lat="46.834715" lon="8.915547">
        <ele>1981.6</ele>
      </trkpt>
      <trkpt lat="46.834337" lon="8.915652">
        <ele>1997.7</ele>
      </trkpt>
      <trkpt lat="46.833982" lon="8.915156">
        <ele>1997.4</ele>
      </trkpt>
      <trkpt lat="46.833703" lon="8.914758">
        <ele>1988.5</ele>
      </trkpt>
      <trkpt lat="46.833547" lon="8.914264">
        <ele>1994.3</ele>
      </trkpt>
      <trkpt lat="46.833295" lon="8.914074">
        <ele>1994.5</ele>
      </trkpt>
      <trkpt lat="46.832880" lon="8.913706">
        <ele>2000.6</ele>
      </trkpt>
      <trkpt lat="46.832474" lon="8.913157">
        <ele>2002.0</ele>
      </trkpt>
      <trkpt lat="46.832040" lon="8.912593">
        <ele>2009.8</ele>
      </trkpt>
      <trkpt lat="46.831646" lon="8.911774">
        <ele>2022.1</ele>
      </trkpt>
      <trkpt lat="46.831273" lon="8.911094">
        <ele>2034.3</ele>
      </trkpt>
      <trkpt lat="46.830500" lon="8.909885">
        <ele>2049.4</ele>
      </trkpt>
      <trkpt lat="46.830014" lon="8.909193">
        <ele>2064.2</ele>
      </trkpt>
      <trkpt lat="46.829614" lon="8.908762">
        <ele>2074.0</ele>
      </trkpt>
      <trkpt lat="46.829095" lon="8.907746">
        <ele>2094.1</ele>
      </trkpt>
      <trkpt lat="46.828720" lon="8.907159">
        <ele>2122.9</ele>
      </trkpt>
      <trkpt lat="46.828856" lon="8.907004">
        <ele>2141.3</ele>
      </trkpt>
      <trkpt lat="46.828851" lon="8.906097">
        <ele>2166.0</ele>
      </trkpt>
      <trkpt lat="46.828382" lon="8.905618">
        <ele>2185.4</ele>
      </trkpt>
      <trkpt lat="46.827863" lon="8.904689">
        <ele>2213.1</ele>
      </trkpt>
      <trkpt lat="46.827618" lon="8.903676">
        <ele>2233.3</ele>
      </trkpt>
      <trkpt lat="46.827176" lon="8.902857">
        <ele>2266.4</ele>
      </trkpt>
      <trkpt lat="46.826699" lon="8.902181">
        <ele>2286.6</ele>
      </trkpt>
      <trkpt lat="46.826245" lon="8.901605">
        <ele>2301.6</ele>
      </trkpt>
      <trkpt lat="46.825679" lon="8.901195">
        <ele>2322.4</ele>
      </trkpt>
      <trkpt lat="46.825363" lon="8.900881">
        <ele>2339.4</ele>
      </trkpt>
      <trkpt lat="46.825005" lon="8.900426">
        <ele>2357.7</ele>
      </trkpt>
    </trkseg>
  </trk>
</gpx>
