{"type":"FeatureCollection","features":[{"type":"Feature","properties":{"name":"Jura","name_de":"Jura und Randen","group":"Jura","group_de":"Jura","label_lat":47.083,"label_lon":6.9687},"geometry":{"type":"MultiPolygon","coordinates":[[[[7.9922,47.5349],[8.0028,47.5233],[7.9955,47.514],[8.0248,47.5157],[8.0601,47.5325],[8.0845,47.5177],[8.1599,47.5106],[8.1642,47.4832],[8.1884,47.4843],[8.1924,47.4771],[8.1603,47.4619],[8.1655,47.4403],[8.1586,47.4168],[8.0669,47.4088],[8.0161,47.386],[7.962,47.3772],[7.9496,47.3609],[7.9166,47.3667],[7.8987,47.3526],[7.7849,47.319],[7.7043,47.286],[7.6801,47.2644],[7.5662,47.2292],[7.5509,47.2178],[7.4027,47.1935],[7.2947,47.1656],[7.1076,47.0655],[7.0047,47.0403],[6.9917,47.0181],[6.956,46.9963],[6.8739,46.9712],[6.8709,46.9452],[6.805,46.9158],[6.7685,46.889],[6.7521,46.8637],[6.6777,46.8211],[6.6558,46.8134],[6.5932,46.8173],[6.5695,46.8062],[6.5723,46.7946],[6.5301,46.7831],[6.5453,46.775],[6.5477,46.7608],[6.5112,46.7505],[6.4989,46.7329],[6.5246,46.7266],[6.5072,46.6986],[6.516,46.6781],[6.4873,46.6747],[6.4822,46.6647],[6.4935,46.6555],[6.4532,46.6338],[6.4398,46.6135],[6.4497,46.6038],[6.4054,46.6027],[6.3999,46.5845],[6.3797,46.5797],[6.3902,46.5666],[6.3618,46.5361],[6.3739,46.5274],[6.37,46.523],[6.3338,46.5116],[6.3313,46.5047],[6.3009,46.5003],[6.2873,46.4938],[6.2816,46.481],[6.2598,46.4774],[6.2448,46.4508],[6.2256,46.4441],[6.2303,46.4176],[6.1714,46.399],[6.1601,46.3788],[6.1517,46.3773],[6.0976,46.409],[6.0639,46.4164],[6.0864,46.4439],[6.0744,46.4535],[6.0728,46.4654],[6.0969,46.4813],[6.1126,46.5096],[6.138,46.531],[6.1437,46.5277],[6.1567,46.5453],[6.1105,46.5764],[6.179,46.6158],[6.282,46.6907],[6.3717,46.7241],[6.3676,46.7291],[6.3849,46.7314],[6.3952,46.7485],[6.4303,46.7568],[6.4522,46.7742],[6.4584,46.7888],[6.4348,46.8015],[6.431,46.8124],[6.4408,46.8158],[6.4432,46.8327],[6.46,46.8513],[6.4646,46.8904],[6.4327,46.9287],[6.4959,46.9739],[6.5048,46.9657],[6.5931,46.9918],[6.618,46.9916],[6.6404,47.0028],[6.6592,47.0273],[6.7192,47.0512],[6.6915,47.0667],[6.7062,47.0742],[6.7027,47.0821],[6.7416,47.0909],[6.7467,47.0978],[6.7405,47.1096],[6.806,47.1307],[6.8499,47.1564],[6.8584,47.1654],[6.8411,47.1714],[6.8739,47.1853],[6.8807,47.2005],[6.9557,47.2431],[6.9474,47.2507],[6.952,47.2699],[6.941,47.2867],[6.9963,47.2958],[7.0158,47.3133],[7.01,47.3245],[7.0456,47.3265],[7.057,47.3344],[7.0624,47.3441],[7.0499,47.3477],[7.0499,47.3614],[7.0156,47.3729],[6.9746,47.3601],[6.9028,47.3596],[6.8793,47.3526],[6.8836,47.3729],[6.9135,47.3881],[6.9133,47.4046],[6.9384,47.4061],[6.9403,47.4333],[6.9637,47.4358],[6.9703,47.4471],[7.0022,47.4542],[6.983,47.4946],[7.0215,47.5045],[7.0494,47.4961],[7.0442,47.4801],[7.0613,47.4751],[7.0674,47.4602],[7.0845,47.4539],[7.0853,47.4358],[7.1414,47.3969],[7.1927,47.4111],[7.2058,47.435],[7.2232,47.4397],[7.2356,47.4371],[7.2466,47.4203],[7.2819,47.4348],[7.3303,47.4418],[7.3548,47.4339],[7.4031,47.4355],[7.43,47.4595],[7.4669,47.4776],[7.5132,47.4817],[7.518,47.4887],[7.548,47.4925],[7.5702,47.487],[7.5738,47.4791],[7.6422,47.5005],[7.6528,47.4926],[7.6897,47.4927],[7.6905,47.4992],[7.7421,47.5032],[7.7497,47.5244],[7.7856,47.5145],[7.7891,47.5023],[7.8128,47.5047],[7.8216,47.5128],[7.8426,47.5058],[7.9056,47.5342],[7.9434,47.5138],[7.9536,47.5262],[7.9922,47.5349]]],[[[8.8096,47.7275],[8.8048,47.7245],[8.8263,47.7179],[8.8191,47.7128],[8.8458,47.7112],[8.8523,47.7042],[8.845,47.7029],[8.8484,47.6939],[8.8259,47.6799],[8.8051,47.6784],[8.7999,47.6916],[8.8081,47.6953],[8.7693,47.7068],[8.7701,47.7191],[8.7992,47.7271],[8.7994,47.7361],[8.8067,47.7383],[8.8096,47.7275]]],[[[8.5689,47.8072],[8.5754,47.7996],[8.6186,47.7983],[8.6194,47.7677],[8.6317,47.7582],[8.653,47.7734],[8.6457,47.7907],[8.6569,47.8004],[8.6574,47.7917],[8.681,47.7866],[8.6886,47.7735],[8.6836,47.7706],[8.6964,47.7495],[8.6911,47.7374],[8.6198,47.7118],[8.6132,47.6927],[8.5491,47.7012],[8.4971,47.7236],[8.4721,47.7247],[8.4748,47.7517],[8.5043,47.7736],[8.5202,47.7705],[8.5529,47.7846],[8.5629,47.7779],[8.5773,47.7817],[8.575,47.7896],[8.562,47.7926],[8.5689,47.8072]]]]}},{"type":"Feature","properties":{"name":"Lake Geneva","name_de":"Genferseegebiet","group":"Plateau","group_de":"Mittelland","label_lat":46.4113,"label_lon":6.4072},"geometry":{"type":"Polygon","coordinates":[[[6.4897,46.6668],[6.5365,46.6568],[6.5629,46.6645],[6.5718,46.6543],[6.567,46.6437],[6.5761,46.6494],[6.5764,46.6238],[6.5957,46.6189],[6.5984,46.6011],[6.6306,46.6028],[6.6239,46.5913],[6.6366,46.5912],[6.6574,46.5742],[6.6721,46.5773],[6.679,46.5623],[6.7174,46.5687],[6.7166,46.5539],[6.7309,46.5555],[6.7325,46.5459],[6.7262,46.5427],[6.7321,46.5373],[6.7197,46.5053],[6.7346,46.5122],[6.7495,46.5067],[6.7662,46.522],[6.8004,46.526],[6.8007,46.5036],[6.847,46.4876],[6.8488,46.4729],[6.8353,46.4607],[6.86,46.447],[6.9049,46.4386],[6.9227,46.4257],[6.9303,46.4067],[6.9179,46.3949],[6.8862,46.3998],[6.8573,46.3944],[6.8581,46.3857],[6.8293,46.3858],[6.8051,46.394],[6.8211,46.4272],[6.6819,46.4543],[6.5191,46.4564],[6.4256,46.4158],[6.3352,46.4037],[6.253,46.3604],[6.2196,46.3119],[6.249,46.3019],[6.253,46.2904],[6.2376,46.2776],[6.2602,46.2517],[6.2787,46.2513],[6.2949,46.2646],[6.295,46.2561],[6.3098,46.2562],[6.3103,46.244],[6.2947,46.2252],[6.2219,46.2007],[6.1871,46.1804],[6.1856,46.1641],[6.1364,46.1416],[6.0985,46.1438],[6.0918,46.1519],[6.0523,46.1513],[6.0354,46.1343],[5.9941,46.1446],[5.9568,46.1288],[5.9819,46.1732],[5.988,46.1708],[5.9949,46.1818],[5.9637,46.197],[5.9734,46.2026],[5.9734,46.2137],[5.9928,46.2152],[5.9902,46.2217],[6.0015,46.2205],[6.0337,46.2386],[6.0461,46.2314],[6.0633,46.2458],[6.0881,46.2471],[6.1014,46.2376],[6.1208,46.248],[6.1201,46.2646],[6.1024,46.2849],[6.1196,46.2943],[6.1198,46.3125],[6.1379,46.3387],[6.1699,46.3661],[6.1602,46.3775],[6.1627,46.3922],[6.2303,46.4176],[6.2256,46.4441],[6.2448,46.4508],[6.2603,46.4778],[6.2816,46.481],[6.2873,46.4938],[6.3009,46.5003],[6.3313,46.5047],[6.3338,46.5116],[6.37,46.523],[6.3739,46.5274],[6.3618,46.5361],[6.3902,46.5666],[6.3797,46.5797],[6.3999,46.5845],[6.4054,46.6027],[6.4497,46.6038],[6.4401,46.6141],[6.4643,46.6441],[6.4935,46.6555],[6.4822,46.6647],[6.4897,46.6668]]]}},{"type":"Feature","properties":{"name":"High Rhine","name_de":"Hochrheingebiet","group":"Plateau","group_de":"Mittelland","label_lat":47.5995,"label_lon":8.3033},"geometry":{"type":"MultiPolygon","coordinates":[[[[7.456,47.4891],[7.4742,47.4804],[7.4564,47.4699],[7.4208,47.4804],[7.435,47.4981],[7.456,47.4891]]],[[[7.1536,47.495],[7.203,47.4915],[7.1909,47.4885],[7.1702,47.443],[7.1999,47.4352],[7.2245,47.4399],[7.2058,47.435],[7.1927,47.4111],[7.1487,47.3976],[7.1329,47.3995],[7.0853,47.4358],[7.0845,47.4539],[7.0674,47.4602],[7.0613,47.4751],[7.0442,47.4802],[7.0494,47.4961],[7.0749,47.4882],[7.128,47.5039],[7.1536,47.495]]],[[[8.5043,47.7735],[8.4748,47.7517],[8.4722,47.7246],[8.4971,47.7236],[8.5491,47.7012],[8.6132,47.6927],[8.6198,47.7118],[8.6911,47.7374],[8.6964,47.7495],[8.6887,47.7583],[8.7223,47.764],[8.7411,47.752],[8.7236,47.7456],[8.7112,47.7301],[8.7363,47.7163],[8.728,47.6928],[8.7935,47.6749],[8.7999,47.6916],[8.8048,47.6784],[8.8258,47.6799],[8.8484,47.6939],[8.845,47.7029],[8.8712,47.7048],[8.8745,47.6943],[8.8515,47.6976],[8.8577,47.6926],[8.8504,47.6818],[8.8679,47.6759],[8.8754,47.6563],[8.855,47.6567],[8.8586,47.6439],[8.8514,47.6307],[8.8065,47.6233],[8.8038,47.611],[8.8135,47.6076],[8.8124,47.5992],[8.7988,47.5948],[8.7617,47.6029],[8.7582,47.5939],[8.7484,47.5929],[8.781,47.5793],[8.7777,47.5657],[8.7249,47.57],[8.7042,47.5574],[8.6908,47.5637],[8.6753,47.5556],[8.6586,47.5675],[8.6626,47.5751],[8.6519,47.5856],[8.6065,47.5856],[8.5821,47.5787],[8.583,47.5567],[8.574,47.5513],[8.5496,47.5507],[8.5366,47.5585],[8.5237,47.5509],[8.5167,47.5661],[8.4709,47.5747],[8.4751,47.5643],[8.4557,47.5548],[8.4478,47.5417],[8.4637,47.513],[8.4384,47.5047],[8.4241,47.5082],[8.4322,47.5005],[8.4184,47.4811],[8.2747,47.4698],[8.2475,47.4915],[8.2121,47.4876],[8.2123,47.4954],[8.2017,47.4875],[8.1642,47.4832],[8.1599,47.5106],[8.0845,47.5177],[8.0601,47.5325],[8.0248,47.5157],[7.9955,47.514],[8.0028,47.5233],[7.9918,47.5353],[7.9536,47.5262],[7.9434,47.5138],[7.9056,47.5342],[7.8507,47.507],[7.8216,47.5128],[7.8128,47.5047],[7.7892,47.5023],[7.7836,47.5036],[7.7856,47.5145],[7.7497,47.5244],[7.7421,47.5032],[7.6905,47.4992],[7.6897,47.4927],[7.6528,47.4926],[7.6422,47.5005],[7.5738,47.4791],[7.5702,47.487],[7.548,47.4925],[7.4875,47.4821],[7.5111,47.497],[7.4979,47.5213],[7.5222,47.5142],[7.5312,47.5282],[7.5194,47.5347],[7.5023,47.5284],[7.4992,47.5401],[7.5573,47.565],[7.5665,47.5777],[7.5847,47.5755],[7.589,47.5899],[7.6191,47.5769],[7.6457,47.597],[7.6752,47.592],[7.6938,47.6008],[7.6718,47.5873],[7.6897,47.5714],[7.6859,47.5656],[7.6835,47.5713],[7.6773,47.5637],[7.6339,47.5612],[7.6687,47.5356],[7.693,47.5324],[7.7957,47.5574],[7.8228,47.588],[7.8426,47.5821],[7.8921,47.5874],[7.9106,47.5714],[7.912,47.5508],[7.9441,47.5439],[7.9599,47.5581],[8.0214,47.5503],[8.0673,47.5645],[8.0893,47.5577],[8.1098,47.5826],[8.1649,47.5942],[8.2053,47.621],[8.2197,47.6176],[8.2265,47.605],[8.2566,47.6153],[8.2887,47.6102],[8.2976,47.6055],[8.2978,47.5892],[8.3238,47.5729],[8.3822,47.5657],[8.3968,47.5771],[8.4333,47.5666],[8.4947,47.581],[8.4887,47.5878],[8.4669,47.5842],[8.4567,47.6023],[8.4792,47.6152],[8.5083,47.6175],[8.5173,47.6342],[8.5579,47.6245],[8.5745,47.612],[8.5622,47.6003],[8.5826,47.5961],[8.605,47.6135],[8.596,47.6433],[8.6085,47.6522],[8.614,47.6444],[8.6034,47.6388],[8.6156,47.6377],[8.6288,47.6494],[8.6066,47.6721],[8.5777,47.6615],[8.5544,47.6694],[8.54,47.6651],[8.5416,47.6568],[8.5325,47.6628],[8.5269,47.6605],[8.5318,47.6457],[8.4924,47.6421],[8.4737,47.6497],[8.4735,47.6384],[8.4637,47.6485],[8.466,47.6572],[8.4451,47.6539],[8.4056,47.6742],[8.4208,47.6839],[8.4046,47.698],[8.4081,47.7021],[8.4549,47.7225],[8.4498,47.7381],[8.4571,47.7499],[8.4849,47.7714],[8.5043,47.7735]]]]}},{"type":"Feature","properties":{"name":"Western Plateau","name_de":"Westliches Mittelland","group":"Plateau","group_de":"Mittelland","label_lat":46.9112,"label_lon":7.4134},"geometry":{"type":"Polygon","coordinates":[[[8.1618,47.4168],[8.1712,47.3989],[8.1565,47.392],[8.171,47.3654],[8.1658,47.3581],[8.1413,47.3409],[8.1352,47.3477],[8.1393,47.3553],[8.1139,47.3617],[8.0993,47.3815],[8.0843,47.3807],[8.0915,47.3656],[8.0699,47.3479],[8.085,47.3383],[8.0863,47.3117],[8.0633,47.3103],[8.0425,47.2922],[8.0228,47.2885],[8.0297,47.2796],[8.0227,47.2475],[8.0308,47.2264],[8.0554,47.2192],[8.0714,47.2003],[8.0634,47.1853],[8.0738,47.188],[8.0973,47.165],[8.1005,47.1545],[8.0844,47.1485],[8.1036,47.1328],[8.0913,47.127],[8.0429,47.1375],[8.0263,47.1265],[8.0492,47.1168],[8.0435,47.1085],[8.0534,47.0954],[8.0958,47.0737],[8.0805,47.0622],[8.0687,47.0691],[8.0385,47.0606],[8.0138,47.067],[7.9974,47.0593],[7.9828,47.0686],[7.929,47.0654],[7.9239,47.0832],[7.9142,47.0875],[7.8734,47.0704],[7.8608,47.0486],[7.7692,47.063],[7.7541,47.0548],[7.7333,47.0561],[7.7283,47.0344],[7.7019,47.0196],[7.6541,47.0208],[7.6714,47.0064],[7.6659,47.005],[7.675,46.9927],[7.672,46.9748],[7.6408,46.9483],[7.697,46.9416],[7.7026,46.926],[7.6952,46.8905],[7.7193,46.869],[7.6724,46.857],[7.6822,46.8306],[7.6383,46.8223],[7.6138,46.7996],[7.6211,46.794],[7.6179,46.7868],[7.5992,46.7816],[7.6047,46.7731],[7.6361,46.7749],[7.6378,46.7666],[7.6483,46.7643],[7.6475,46.7481],[7.6287,46.7408],[7.6338,46.7402],[7.6292,46.7183],[7.6438,46.7177],[7.6211,46.7136],[7.6309,46.7051],[7.5538,46.7212],[7.5584,46.7281],[7.5411,46.7361],[7.5477,46.7407],[7.5403,46.7452],[7.5454,46.7544],[7.5137,46.7765],[7.516,46.7919],[7.4923,46.7868],[7.4895,46.7782],[7.4607,46.794],[7.4009,46.7975],[7.3738,46.7901],[7.345,46.7701],[7.305,46.7705],[7.2942,46.7811],[7.2871,46.7662],[7.2575,46.7441],[7.2259,46.7544],[7.2001,46.7412],[7.1543,46.7442],[7.087,46.706],[7.0969,46.7037],[7.0886,46.6944],[7.1066,46.6924],[7.085,46.6772],[7.0833,46.6673],[7.0142,46.6411],[6.9941,46.6428],[6.9486,46.6121],[6.9299,46.6077],[6.9484,46.6008],[6.8957,46.5663],[6.9012,46.5576],[6.886,46.5277],[6.8887,46.5197],[6.8513,46.4875],[6.8007,46.5036],[6.8004,46.526],[6.7662,46.522],[6.7495,46.5067],[6.7346,46.5122],[6.7197,46.5053],[6.7321,46.5373],[6.7262,46.5427],[6.7325,46.5459],[6.7309,46.5555],[6.7166,46.5539],[6.7174,46.5687],[6.679,46.5623],[6.6721,46.5773],[6.6574,46.5742],[6.6366,46.5912],[6.6239,46.5913],[6.6306,46.6028],[6.5984,46.6011],[6.5957,46.6189],[6.5764,46.6238],[6.5761,46.6494],[6.567,46.6437],[6.5718,46.6543],[6.5629,46.6645],[6.5365,46.6568],[6.4816,46.6669],[6.4873,46.6747],[6.516,46.6781],[6.5072,46.6986],[6.5246,46.7266],[6.4989,46.7329],[6.5112,46.7505],[6.5477,46.7608],[6.5453,46.775],[6.5301,46.7831],[6.5723,46.7946],[6.5695,46.8062],[6.5932,46.8173],[6.6558,46.8134],[6.6777,46.8211],[6.7521,46.8637],[6.7685,46.889],[6.805,46.9158],[6.8709,46.9452],[6.8739,46.9712],[6.956,46.9963],[6.9917,47.0181],[7.0049,47.0404],[7.1076,47.0655],[7.2947,47.1656],[7.4027,47.1935],[7.5509,47.2178],[7.5662,47.2292],[7.6801,47.2644],[7.7043,47.286],[7.7849,47.319],[7.8987,47.3526],[7.9166,47.3667],[7.9496,47.3609],[7.962,47.3772],[8.0161,47.386],[8.0669,47.4088],[8.1618,47.4168]]]}},{"type":"Feature","properties":{"name":"Eastern Plateau","name_de":"\u00d6stliches Mittelland","group":"Plateau","group_de":"Mittelland","label_lat":47.3428,"label_lon":8.7125},"geometry":{"type":"Polygon","coordinates":[[[9.0761,47.6786],[9.1392,47.6642],[9.1508,47.6676],[9.176,47.654],[9.2566,47.6587],[9.3947,47.6203],[9.4956,47.5515],[9.5587,47.5419],[9.562,47.4963],[9.5951,47.4634],[9.6092,47.4705],[9.6224,47.4575],[9.659,47.4522],[9.6444,47.4341],[9.6516,47.4046],[9.6731,47.3919],[9.6731,47.3811],[9.6567,47.3688],[9.6245,47.3661],[9.6002,47.3463],[9.585,47.3141],[9.579,47.3292],[9.5689,47.3242],[9.5659,47.3073],[9.4988,47.3021],[9.4608,47.3228],[9.4617,47.3444],[9.4819,47.349],[9.4786,47.3648],[9.4919,47.3707],[9.4887,47.3811],[9.468,47.3801],[9.467,47.3924],[9.4507,47.3912],[9.4347,47.4097],[9.4031,47.4007],[9.3814,47.4088],[9.3778,47.4174],[9.3617,47.4101],[9.3585,47.4226],[9.3177,47.4152],[9.2888,47.392],[9.2678,47.405],[9.2373,47.3989],[9.2155,47.4107],[9.2149,47.3926],[9.1955,47.3888],[9.1875,47.3775],[9.168,47.3948],[9.1447,47.4012],[9.1291,47.3932],[9.0874,47.3971],[9.0749,47.3883],[9.0462,47.3951],[9.0476,47.3868],[9.0287,47.3804],[9.0036,47.3892],[8.9664,47.388],[8.9414,47.378],[8.9296,47.3902],[8.9138,47.3917],[8.9108,47.3805],[8.8814,47.3687],[8.8854,47.3497],[8.9061,47.3399],[8.8885,47.3231],[8.8902,47.2731],[8.955,47.2563],[8.9445,47.2487],[8.9521,47.2365],[8.9466,47.2343],[8.9628,47.2298],[8.9406,47.221],[8.9546,47.2185],[8.896,47.2042],[8.8509,47.2032],[8.852,47.194],[8.8422,47.1913],[8.8017,47.2009],[8.7739,47.1918],[8.7736,47.1733],[8.7594,47.1782],[8.7234,47.1617],[8.6805,47.162],[8.6566,47.1489],[8.6016,47.1533],[8.5894,47.1369],[8.5571,47.121],[8.563,47.0818],[8.5188,47.0616],[8.4687,47.0893],[8.4643,47.0972],[8.488,47.1126],[8.4676,47.1187],[8.4702,47.1088],[8.4564,47.0981],[8.4341,47.0951],[8.4216,47.0847],[8.4364,47.0826],[8.4212,47.0679],[8.3625,47.0333],[8.3324,47.0544],[8.3091,47.0524],[8.2761,47.0695],[8.2696,47.0434],[8.2451,47.0392],[8.2381,47.0472],[8.2319,47.0343],[8.1583,47.01],[8.1508,47.0157],[8.1601,47.0226],[8.1439,47.025],[8.1501,47.0394],[8.1405,47.0309],[8.122,47.0351],[8.1083,47.0244],[8.0912,47.0342],[8.0872,47.0403],[8.1012,47.0552],[8.0919,47.0582],[8.0975,47.0769],[8.0535,47.0953],[8.0435,47.1085],[8.0492,47.1168],[8.0263,47.1265],[8.0429,47.1375],[8.0913,47.127],[8.1036,47.1328],[8.0844,47.1485],[8.1005,47.1545],[8.0973,47.165],[8.0738,47.188],[8.0634,47.1853],[8.0714,47.2003],[8.0554,47.2192],[8.0308,47.2264],[8.0227,47.2474],[8.0304,47.2704],[8.0231,47.2892],[8.0425,47.2922],[8.0633,47.3103],[8.0863,47.3117],[8.085,47.3383],[8.0699,47.3479],[8.0915,47.3656],[8.0843,47.3807],[8.0993,47.3815],[8.1139,47.3617],[8.1393,47.3553],[8.1352,47.3477],[8.1413,47.3409],[8.1705,47.3629],[8.161,47.3792],[8.1651,47.386],[8.1565,47.392],[8.1712,47.3988],[8.1612,47.4119],[8.1655,47.4403],[8.1598,47.4606],[8.1921,47.4768],[8.1884,47.4843],[8.212,47.4954],[8.2121,47.4876],[8.2376,47.4935],[8.2747,47.4698],[8.4184,47.4811],[8.4322,47.5005],[8.4241,47.5082],[8.4384,47.5047],[8.4637,47.513],[8.4478,47.5417],[8.4557,47.5548],[8.4751,47.5643],[8.4709,47.5747],[8.5167,47.5661],[8.5237,47.5509],[8.5366,47.5585],[8.5496,47.5507],[8.574,47.5513],[8.583,47.5567],[8.5821,47.5787],[8.6065,47.5856],[8.6519,47.5856],[8.6626,47.5751],[8.6586,47.5675],[8.6753,47.5556],[8.6908,47.5637],[8.7042,47.5574],[8.7249,47.57],[8.7777,47.5657],[8.781,47.5793],[8.7484,47.5929],[8.7582,47.5939],[8.7617,47.6029],[8.7988,47.5948],[8.8124,47.5992],[8.8135,47.6076],[8.8038,47.611],[8.8065,47.6233],[8.8514,47.6307],[8.8591,47.6587],[8.8999,47.6483],[8.9415,47.6563],[9.0194,47.6865],[9.0761,47.6786]]]}},{"type":"Feature","properties":{"name":"Pre-Alps","name_de":"Voralpen","group":"Northern Alpine Flank","group_de":"Alpennordflanke","label_lat":46.7602,"label_lon":7.5984},"geometry":{"type":"MultiPolygon","coordinates":[[[[7.9149,47.0874],[7.9239,47.0832],[7.929,47.0654],[7.9828,47.0686],[7.9974,47.0593],[8.0138,47.067],[8.0385,47.0606],[8.0687,47.0691],[8.0805,47.0622],[8.0942,47.0738],[8.0924,47.0567],[8.1012,47.0552],[8.09,47.0353],[8.1083,47.0244],[8.122,47.0351],[8.1405,47.0309],[8.1501,47.0394],[8.1439,47.025],[8.1601,47.0226],[8.1508,47.0157],[8.1583,47.01],[8.2319,47.0343],[8.2381,47.0472],[8.2451,47.0392],[8.2696,47.0434],[8.2765,47.0695],[8.3304,47.0428],[8.3397,47.0308],[8.3417,47.0056],[8.3294,47.0003],[8.3167,47.0118],[8.3061,47.0083],[8.3168,46.9898],[8.3122,46.9796],[8.3314,46.9785],[8.3249,46.9767],[8.2541,46.9799],[8.2258,46.9692],[8.1873,46.9717],[8.1507,46.9579],[8.1164,46.9806],[8.0588,46.9958],[7.9737,46.9586],[7.9457,46.9679],[7.9332,46.9628],[7.9317,46.9506],[7.9152,46.934],[7.9334,46.9239],[7.9333,46.9149],[7.9491,46.9163],[7.955,46.902],[7.9767,46.8878],[7.9869,46.8561],[7.958,46.8344],[7.9479,46.8144],[7.9506,46.7986],[7.8691,46.7865],[7.8561,46.7756],[7.8544,46.759],[7.8264,46.7539],[7.804,46.7284],[7.8234,46.7213],[7.824,46.7054],[7.8116,46.6888],[7.8196,46.6819],[7.813,46.6786],[7.8304,46.6675],[7.82,46.6603],[7.8039,46.6645],[7.7635,46.6555],[7.7502,46.6358],[7.7313,46.6458],[7.6903,46.6394],[7.7149,46.6368],[7.7458,46.6135],[7.7328,46.6051],[7.6841,46.618],[7.6952,46.5925],[7.6913,46.5837],[7.6609,46.5978],[7.6496,46.5902],[7.6342,46.6039],[7.6094,46.6083],[7.6191,46.6285],[7.5958,46.6436],[7.5943,46.6539],[7.5769,46.6604],[7.5485,46.6432],[7.5603,46.6301],[7.5455,46.6158],[7.5519,46.6059],[7.5223,46.5734],[7.4852,46.5801],[7.4747,46.5894],[7.4401,46.5801],[7.4406,46.5605],[7.3795,46.5566],[7.3694,46.5507],[7.3723,46.5378],[7.3542,46.4921],[7.3173,46.4872],[7.3173,46.506],[7.2713,46.5218],[7.2472,46.5562],[7.299,46.6056],[7.3261,46.6126],[7.3205,46.6284],[7.3293,46.6339],[7.3044,46.6382],[7.2824,46.6309],[7.2761,46.6369],[7.2521,46.6224],[7.162,46.6155],[7.1605,46.6069],[7.1807,46.5915],[7.1746,46.5805],[7.1822,46.5742],[7.167,46.5609],[7.1751,46.5511],[7.1472,46.5349],[7.1362,46.5086],[7.1229,46.4986],[7.1099,46.4946],[7.0943,46.5053],[7.0668,46.4992],[7.0526,46.5068],[7.0224,46.4957],[7.0054,46.5081],[6.9916,46.5019],[6.9777,46.4728],[6.9735,46.4375],[7.0026,46.4177],[6.9779,46.3971],[6.9641,46.394],[6.9505,46.4036],[6.9206,46.3956],[6.9309,46.4092],[6.9196,46.4289],[6.8351,46.461],[6.8488,46.4729],[6.847,46.488],[6.8619,46.4909],[6.8714,46.5098],[6.8887,46.5197],[6.886,46.5277],[6.9012,46.5576],[6.8957,46.5663],[6.9484,46.6008],[6.9299,46.6077],[6.9486,46.6121],[6.9941,46.6428],[7.0142,46.6411],[7.0833,46.6673],[7.085,46.6772],[7.1066,46.6924],[7.0886,46.6944],[7.0969,46.7037],[7.087,46.706],[7.1543,46.7442],[7.2001,46.7412],[7.2259,46.7544],[7.2575,46.7441],[7.2871,46.7662],[7.2942,46.7811],[7.305,46.7705],[7.345,46.7701],[7.3738,46.7901],[7.4009,46.7975],[7.4607,46.794],[7.4895,46.7782],[7.4923,46.7868],[7.516,46.7919],[7.5137,46.7765],[7.5454,46.7544],[7.5403,46.7452],[7.5477,46.7407],[7.5411,46.7361],[7.5584,46.7281],[7.5538,46.7212],[7.6309,46.7051],[7.6211,46.7136],[7.6438,46.7177],[7.6292,46.7183],[7.6338,46.7402],[7.6287,46.7408],[7.6475,46.7481],[7.6483,46.7643],[7.6378,46.7666],[7.6361,46.7749],[7.6047,46.7731],[7.5992,46.7816],[7.6179,46.7868],[7.6211,46.794],[7.6138,46.7996],[7.6383,46.8223],[7.6822,46.8306],[7.6724,46.857],[7.7193,46.869],[7.6952,46.8905],[7.7026,46.926],[7.697,46.9416],[7.6408,46.9483],[7.672,46.9748],[7.675,46.9927],[7.6659,47.005],[7.6714,47.0064],[7.6541,47.0208],[7.7019,47.0196],[7.7283,47.0344],[7.7333,47.0561],[7.7541,47.0548],[7.7692,47.063],[7.8608,47.0486],[7.8734,47.0704],[7.9149,47.0874]]],[[[9.3405,47.4236],[9.3587,47.4225],[9.3618,47.4101],[9.3806,47.4167],[9.3813,47.4089],[9.399,47.401],[9.4347,47.4097],[9.4451,47.3945],[9.4668,47.3925],[9.4679,47.3801],[9.4887,47.3812],[9.4922,47.3713],[9.4786,47.3649],[9.4807,47.3475],[9.4129,47.3307],[9.3904,47.3063],[9.3647,47.3038],[9.3551,47.3153],[9.3721,47.3285],[9.366,47.3286],[9.3647,47.3416],[9.3366,47.3421],[9.3183,47.3275],[9.2593,47.3271],[9.2363,47.3127],[9.1756,47.2982],[9.174,47.2796],[9.1413,47.2692],[9.1025,47.2357],[9.076,47.2478],[9.0461,47.24],[9.0319,47.2269],[8.9788,47.2304],[8.9714,47.2178],[8.9862,47.2226],[9.0161,47.1976],[9.0085,47.1723],[9.0338,47.1489],[9.0048,47.1328],[8.9693,47.1346],[8.9642,47.1197],[8.9728,47.118],[8.9713,47.1037],[8.955,47.0944],[8.9417,47.1079],[8.8791,47.1109],[8.8633,47.0862],[8.8291,47.0916],[8.7668,47.08],[8.7593,47.0677],[8.7355,47.0556],[8.7259,47.0242],[8.7064,47.022],[8.6837,47.0385],[8.6564,47.0313],[8.6433,47.0111],[8.6198,47.0115],[8.5949,46.9953],[8.5789,47.0007],[8.5489,46.989],[8.4747,46.9948],[8.4853,47.0023],[8.4819,47.0138],[8.4421,47.0311],[8.3957,47.0287],[8.427,47.0524],[8.4394,47.0786],[8.4216,47.0847],[8.4341,47.0951],[8.4564,47.0981],[8.4702,47.1088],[8.4676,47.1187],[8.488,47.1126],[8.4643,47.0972],[8.4687,47.0893],[8.5188,47.0616],[8.563,47.0818],[8.5571,47.121],[8.5894,47.1369],[8.6016,47.1533],[8.6566,47.1489],[8.6805,47.162],[8.7234,47.1617],[8.7594,47.1782],[8.7736,47.1733],[8.7739,47.1918],[8.8017,47.2009],[8.8422,47.1913],[8.852,47.194],[8.8509,47.2032],[8.896,47.2042],[8.9546,47.2185],[8.9406,47.221],[8.9628,47.2298],[8.9466,47.2343],[8.9521,47.2365],[8.9445,47.2487],[8.955,47.2563],[8.8902,47.2731],[8.8885,47.3231],[8.9061,47.3399],[8.8854,47.3497],[8.8814,47.3687],[8.9108,47.3805],[8.9138,47.3917],[8.9296,47.3902],[8.9414,47.378],[8.9664,47.388],[9.0036,47.3892],[9.0287,47.3804],[9.0476,47.3868],[9.0462,47.3951],[9.0749,47.3883],[9.0874,47.3971],[9.1291,47.3932],[9.1447,47.4012],[9.168,47.3948],[9.1875,47.3775],[9.1955,47.3888],[9.2149,47.3926],[9.2155,47.4107],[9.2373,47.3989],[9.2678,47.405],[9.2888,47.392],[9.298,47.3969],[9.2953,47.4027],[9.3405,47.4236]]]]}},{"type":"Feature","properties":{"name":"Northern Alps","name_de":"Nordalpen","group":"Northern Alpine Flank","group_de":"Alpennordflanke","label_lat":46.7468,"label_lon":8.1077},"geometry":{"type":"Polygon","coordinates":[[[9.4619,47.3432],[9.4609,47.3228],[9.4987,47.3021],[9.5659,47.3073],[9.5689,47.3242],[9.579,47.3292],[9.585,47.3141],[9.5568,47.2986],[9.5311,47.2713],[9.4892,47.1947],[9.4907,47.1645],[9.5082,47.1407],[9.5185,47.1073],[9.5156,47.0879],[9.478,47.0682],[9.4472,47.0727],[9.4334,47.0672],[9.4244,47.0537],[9.4287,47.0505],[9.4001,47.0274],[9.4,46.9683],[9.3797,46.9555],[9.3759,46.9439],[9.3196,46.9497],[9.2848,46.9402],[9.2527,46.927],[9.2401,46.9083],[9.2265,46.9055],[9.2001,46.8808],[9.1547,46.8786],[9.1403,46.862],[9.1113,46.8503],[9.0969,46.8707],[9.0611,46.874],[9.0453,46.8653],[9.0458,46.8498],[9.0095,46.8113],[8.9281,46.7964],[8.9141,46.8005],[8.9146,46.8112],[8.877,46.813],[8.8481,46.7933],[8.8277,46.7917],[8.8343,46.7666],[8.8185,46.7624],[8.8131,46.7373],[8.7819,46.7284],[8.7649,46.7446],[8.7477,46.7359],[8.7425,46.7153],[8.709,46.699],[8.6928,46.7023],[8.6745,46.6923],[8.6737,46.6769],[8.663,46.6711],[8.6428,46.6753],[8.6209,46.6576],[8.5863,46.6447],[8.5669,46.6476],[8.4837,46.6188],[8.4685,46.6252],[8.4387,46.6198],[8.4209,46.6284],[8.418,46.6523],[8.401,46.6538],[8.3696,46.6292],[8.3607,46.5778],[8.2794,46.536],[8.1811,46.5203],[8.1746,46.5311],[8.1286,46.5338],[8.1144,46.5465],[8.0765,46.5555],[8.0627,46.5505],[8.0161,46.5633],[7.9973,46.5585],[7.9629,46.5392],[7.9732,46.5236],[7.9676,46.5128],[7.9419,46.5077],[7.8989,46.4828],[7.8443,46.4783],[7.7053,46.4111],[7.6901,46.4248],[7.6146,46.399],[7.5999,46.3846],[7.5665,46.3818],[7.5466,46.3939],[7.5335,46.3764],[7.5005,46.37],[7.4867,46.3707],[7.4797,46.3854],[7.4635,46.3774],[7.4382,46.3861],[7.3949,46.3741],[7.3544,46.3505],[7.3152,46.3438],[7.3045,46.3325],[7.2215,46.3293],[7.19,46.304],[7.1932,46.2902],[7.1821,46.2853],[7.1717,46.2612],[7.1415,46.2381],[7.1253,46.2367],[7.1111,46.2137],[7.0805,46.1993],[7.0616,46.204],[7.0266,46.1956],[7.0248,46.1842],[7.01,46.1831],[6.9981,46.1698],[6.9899,46.1503],[6.9384,46.171],[6.9233,46.161],[6.9239,46.1265],[6.8151,46.1293],[6.7965,46.1387],[6.7917,46.1629],[6.8126,46.1815],[6.8035,46.2046],[6.8216,46.2231],[6.8212,46.2323],[6.8554,46.2552],[6.865,46.2811],[6.8574,46.2915],[6.83,46.3002],[6.8198,46.3156],[6.8004,46.32],[6.7964,46.333],[6.7843,46.3328],[6.7714,46.361],[6.8037,46.3765],[6.8051,46.394],[6.8556,46.3853],[6.8573,46.3944],[6.8862,46.3998],[6.9179,46.3949],[6.9509,46.4035],[6.9641,46.394],[6.9831,46.3995],[7.0026,46.4177],[6.9735,46.4375],[6.9777,46.4728],[6.9914,46.5017],[7.0054,46.5081],[7.0224,46.4957],[7.0526,46.5068],[7.0668,46.4992],[7.0943,46.5053],[7.1099,46.4946],[7.1229,46.4986],[7.1362,46.5086],[7.1472,46.5349],[7.1751,46.5511],[7.167,46.5609],[7.1822,46.5742],[7.1746,46.5805],[7.1807,46.5915],[7.1605,46.6069],[7.1621,46.6155],[7.1953,46.6141],[7.2218,46.6249],[7.2522,46.6224],[7.275,46.6367],[7.2874,46.6308],[7.3262,46.6383],[7.3205,46.6284],[7.3261,46.6126],[7.299,46.6056],[7.2472,46.5562],[7.2713,46.5218],[7.3173,46.506],[7.3173,46.4872],[7.3542,46.4921],[7.3723,46.5378],[7.3694,46.5507],[7.3795,46.5566],[7.4406,46.5605],[7.4401,46.5801],[7.4747,46.5894],[7.4852,46.5801],[7.5223,46.5734],[7.5519,46.6059],[7.5455,46.6158],[7.5603,46.6301],[7.5485,46.6432],[7.5769,46.6604],[7.5943,46.6539],[7.5958,46.6436],[7.6191,46.6285],[7.6094,46.6083],[7.6342,46.6039],[7.6496,46.5902],[7.6609,46.5978],[7.6913,46.5837],[7.6952,46.5925],[7.6841,46.618],[7.7328,46.6051],[7.7458,46.6135],[7.7149,46.6368],[7.6903,46.6394],[7.7313,46.6458],[7.7502,46.6358],[7.7635,46.6555],[7.8039,46.6645],[7.82,46.6603],[7.8304,46.6675],[7.813,46.6786],[7.8196,46.6819],[7.8116,46.6888],[7.824,46.7054],[7.8234,46.7213],[7.804,46.7284],[7.8264,46.7539],[7.8544,46.759],[7.8561,46.7756],[7.8691,46.7865],[7.9506,46.7986],[7.9479,46.8144],[7.958,46.8344],[7.9869,46.8561],[7.9767,46.8878],[7.955,46.902],[7.9491,46.9163],[7.9333,46.9149],[7.9334,46.9239],[7.9152,46.934],[7.9363,46.9645],[7.9737,46.9586],[8.0385,46.983],[8.0458,46.9954],[8.087,46.9912],[8.0945,46.9815],[8.1164,46.9806],[8.1506,46.9579],[8.1873,46.9717],[8.2258,46.9692],[8.2541,46.9799],[8.3249,46.9767],[8.3314,46.9785],[8.3122,46.9796],[8.3168,46.9898],[8.3061,47.0083],[8.3167,47.0118],[8.3299,47.0004],[8.3415,47.0053],[8.3426,47.0181],[8.3305,47.0428],[8.3091,47.0533],[8.3324,47.0544],[8.3625,47.0333],[8.4349,47.0821],[8.4394,47.0786],[8.427,47.0524],[8.3964,47.0273],[8.4358,47.0321],[8.4679,47.0236],[8.4853,47.0027],[8.4736,46.9954],[8.4934,46.9906],[8.5489,46.989],[8.5827,47.0011],[8.5949,46.9953],[8.6196,47.0114],[8.6433,47.0111],[8.6564,47.0313],[8.6837,47.0385],[8.7064,47.022],[8.7259,47.0242],[8.7355,47.0556],[8.7593,47.0677],[8.7668,47.08],[8.8291,47.0916],[8.8633,47.0862],[8.8824,47.1114],[8.9002,47.1052],[8.9417,47.1079],[8.9549,47.0944],[8.9713,47.1037],[8.9728,47.118],[8.9642,47.1197],[8.9693,47.1346],[9.0048,47.1328],[9.0336,47.1485],[9.0085,47.1723],[9.0161,47.1976],[8.9862,47.2226],[8.9714,47.2178],[8.9788,47.2304],[9.0319,47.2269],[9.0461,47.24],[9.076,47.2478],[9.1025,47.2357],[9.1413,47.2692],[9.174,47.2796],[9.1756,47.2982],[9.2363,47.3127],[9.2589,47.327],[9.3155,47.327],[9.3361,47.342],[9.364,47.3421],[9.366,47.3286],[9.3721,47.3285],[9.3568,47.3103],[9.3814,47.3042],[9.4005,47.3109],[9.3968,47.3162],[9.4129,47.3307],[9.4619,47.3432]]]}},{"type":"Feature","properties":{"name":"Western Central Alps","name_de":"Westliche Zentralalpen","group":"Western Central Alps","group_de":"Westliche Zentralalpen","label_lat":46.2011,"label_lon":7.6719},"geometry":{"type":"Polygon","coordinates":[[[8.4087,46.654],[8.4217,46.6478],[8.4204,46.6163],[8.4077,46.6001],[8.4102,46.5767],[8.4289,46.5436],[8.4653,46.5357],[8.4782,46.5251],[8.4435,46.4956],[8.3924,46.4947],[8.3848,46.4522],[8.3575,46.4479],[8.3245,46.4254],[8.3075,46.4259],[8.2889,46.4083],[8.3157,46.399],[8.3129,46.3771],[8.2843,46.3636],[8.2638,46.364],[8.2629,46.346],[8.224,46.3344],[8.212,46.3093],[8.1988,46.3023],[8.1614,46.2959],[8.1384,46.3019],[8.1243,46.2942],[8.0804,46.2606],[8.102,46.2512],[8.0836,46.2396],[8.052,46.2368],[8.0432,46.2474],[8.0181,46.2499],[8.0103,46.2598],[7.9933,46.255],[7.9832,46.2603],[7.9828,46.2117],[7.9951,46.2017],[7.996,46.1725],[8.0109,46.1677],[8.0029,46.1576],[8.0116,46.1281],[8.0348,46.1008],[8.0217,46.0694],[8.0354,46.044],[8.0124,46.0317],[8.0175,46.0247],[8.0124,46.012],[8.0011,46.0122],[7.9891,45.9959],[7.9089,45.997],[7.8938,45.9786],[7.8774,45.9739],[7.8818,45.964],[7.8684,45.9367],[7.8771,45.9272],[7.8721,45.9198],[7.8204,45.927],[7.7995,45.9171],[7.7693,45.9371],[7.7478,45.941],[7.7351,45.924],[7.7212,45.9236],[7.7073,45.9349],[7.7099,45.9481],[7.681,45.957],[7.6643,45.9757],[7.5886,45.9705],[7.5786,45.986],[7.5501,45.9866],[7.5415,45.9762],[7.5427,45.957],[7.4992,45.9624],[7.4714,45.9472],[7.4747,45.9358],[7.4444,45.9316],[7.4271,45.9155],[7.4018,45.9115],[7.3863,45.8971],[7.3442,45.9152],[7.3239,45.9102],[7.2944,45.9218],[7.2568,45.8882],[7.2164,45.8888],[7.2001,45.8755],[7.1965,45.8603],[7.1753,45.8629],[7.1535,45.8793],[7.1088,45.8582],[7.0982,45.8617],[7.0954,45.8759],[7.0437,45.9232],[7.0374,45.9549],[7.0085,45.969],[7.0236,45.9791],[7.0105,45.9974],[6.985,46.0046],[6.9813,46.0196],[6.9629,46.0304],[6.9501,46.0516],[6.935,46.0561],[6.9374,46.0643],[6.9246,46.0652],[6.8913,46.0427],[6.8717,46.0511],[6.8803,46.0693],[6.8918,46.0737],[6.8822,46.0952],[6.8978,46.1218],[6.9246,46.1268],[6.9189,46.1422],[6.929,46.166],[6.9409,46.1712],[6.9899,46.1503],[6.9981,46.1698],[7.01,46.1831],[7.0248,46.1842],[7.0266,46.1956],[7.0616,46.204],[7.0805,46.1993],[7.111,46.2136],[7.1253,46.2367],[7.1415,46.2381],[7.1717,46.2612],[7.1821,46.2853],[7.1932,46.2902],[7.19,46.304],[7.2215,46.3293],[7.3045,46.3325],[7.3152,46.3438],[7.3544,46.3505],[7.3949,46.3741],[7.4382,46.3861],[7.4635,46.3774],[7.4797,46.3854],[7.4867,46.3707],[7.5005,46.37],[7.5335,46.3764],[7.5466,46.3939],[7.5665,46.3818],[7.5999,46.3846],[7.6146,46.399],[7.6901,46.4248],[7.7053,46.4111],[7.8443,46.4783],[7.8989,46.4828],[7.9419,46.5077],[7.9676,46.5128],[7.9732,46.5236],[7.9629,46.5392],[8.0153,46.5632],[8.1144,46.5465],[8.1286,46.5338],[8.1746,46.5311],[8.181,46.5203],[8.2581,46.5294],[8.3506,46.5686],[8.364,46.5822],[8.3619,46.6019],[8.3717,46.6325],[8.4087,46.654]]]}},{"type":"Feature","properties":{"name":"Eastern Central Alps","name_de":"\u00d6stliche Zentralalpen","group":"Eastern Central Alps","group_de":"\u00d6stliche Zentralalpen","label_lat":46.7073,"label_lon":9.328},"geometry":{"type":"Polygon","coordinates":[[[9.4741,47.0716],[9.4758,47.0517],[9.4823,47.0561],[9.4844,47.0493],[9.5398,47.0651],[9.5589,47.0484],[9.6035,47.0618],[9.6327,47.0513],[9.6451,47.0598],[9.6818,47.0621],[9.7182,47.0434],[9.7849,47.0385],[9.8361,47.0125],[9.8598,47.0232],[9.8763,47.0212],[9.8804,47.0172],[9.8707,47.0097],[9.8888,47.0007],[9.8923,46.9904],[9.8707,46.9632],[9.8787,46.9571],[9.8761,46.9346],[9.9376,46.9132],[9.9779,46.9159],[9.9901,46.9024],[10.0265,46.8958],[10.0519,46.8767],[10.0549,46.8617],[10.0927,46.858],[10.0954,46.8498],[10.0808,46.8339],[10.0725,46.835],[10.0621,46.813],[10.0438,46.8094],[10.0421,46.7954],[10.0,46.7937],[9.9818,46.7662],[9.9696,46.7649],[9.9496,46.7472],[9.9423,46.7258],[9.9591,46.7171],[9.9523,46.7055],[9.9569,46.6944],[9.9077,46.6923],[9.895,46.6817],[9.8754,46.6815],[9.8639,46.6534],[9.8943,46.6288],[9.8707,46.62],[9.8631,46.6032],[9.8284,46.5964],[9.8503,46.5725],[9.74,46.5571],[9.7166,46.5425],[9.6947,46.5428],[9.7025,46.5224],[9.6978,46.5145],[9.7278,46.5079],[9.7229,46.4996],[9.7322,46.4854],[9.7256,46.4674],[9.7325,46.4582],[9.7222,46.4414],[9.6914,46.4352],[9.6635,46.4149],[9.6256,46.4194],[9.5691,46.4022],[9.544,46.3698],[9.4873,46.3662],[9.4611,46.3763],[9.4688,46.3889],[9.4545,46.4209],[9.4656,46.4695],[9.4629,46.4805],[9.4491,46.4844],[9.461,46.4848],[9.4636,46.5089],[9.4342,46.4979],[9.4117,46.4669],[9.3764,46.4847],[9.3685,46.4942],[9.3734,46.504],[9.3632,46.5094],[9.2834,46.497],[9.2742,46.4836],[9.2781,46.4615],[9.2487,46.4469],[9.2377,46.4471],[9.2195,46.4738],[9.1922,46.4603],[9.1809,46.4706],[9.1365,46.466],[9.1114,46.4799],[9.0539,46.4768],[9.0232,46.5092],[9.0164,46.5326],[9.0267,46.5659],[9.0431,46.5884],[9.0341,46.6],[9.0054,46.6114],[8.9597,46.6032],[8.9613,46.6203],[8.9512,46.6253],[8.9117,46.6188],[8.9046,46.6087],[8.9161,46.5925],[8.8488,46.5637],[8.8137,46.5708],[8.8022,46.5608],[8.7648,46.5746],[8.7157,46.5712],[8.6973,46.5811],[8.6343,46.5644],[8.6205,46.5781],[8.5905,46.5735],[8.5741,46.5836],[8.5392,46.5867],[8.5214,46.5773],[8.5131,46.5581],[8.5195,46.539],[8.4777,46.5277],[8.4289,46.5436],[8.4102,46.5767],[8.4077,46.6001],[8.4206,46.6268],[8.4837,46.6188],[8.5669,46.6476],[8.5864,46.6447],[8.6209,46.6576],[8.643,46.6754],[8.6631,46.6712],[8.6737,46.6769],[8.6761,46.694],[8.6945,46.7028],[8.709,46.699],[8.7478,46.7185],[8.7443,46.729],[8.7569,46.7412],[8.7694,46.7445],[8.7819,46.7284],[8.8131,46.7373],[8.8185,46.7624],[8.8343,46.7666],[8.8277,46.7917],[8.8481,46.7933],[8.877,46.813],[8.9146,46.8112],[8.9141,46.8005],[8.9281,46.7964],[9.0095,46.8113],[9.0458,46.8498],[9.0453,46.8653],[9.0611,46.874],[9.0969,46.8707],[9.1113,46.8503],[9.1403,46.862],[9.1547,46.8786],[9.2001,46.8808],[9.2265,46.9055],[9.2401,46.9083],[9.2527,46.927],[9.2848,46.9402],[9.3196,46.9497],[9.3759,46.9439],[9.3797,46.9555],[9.4,46.9683],[9.4001,47.0275],[9.4287,47.0505],[9.4244,47.0537],[9.4374,47.07],[9.4741,47.0716]]]}},{"type":"Feature","properties":{"name":"Engadin","name_de":"Engadin","group":"Eastern Central Alps","group_de":"\u00d6stliche Zentralalpen","label_lat":46.6478,"label_lon":10.1045},"geometry":{"type":"MultiPolygon","coordinates":[[[[10.0929,46.8508]]],[[[10.0927,46.8511]]],[[[10.3893,47.0005],[10.4266,46.9757],[10.4239,46.9589],[10.4893,46.9378],[10.4862,46.9155],[10.4647,46.8843],[10.4713,46.873],[10.4666,46.8361],[10.4566,46.8302],[10.4507,46.8041],[10.4227,46.7882],[10.4417,46.7719],[10.4426,46.7538],[10.4006,46.7337],[10.4188,46.719],[10.416,46.709],[10.3818,46.6843],[10.4023,46.6368],[10.4461,46.6413],[10.4921,46.6154],[10.4716,46.5429],[10.4591,46.5413],[10.4528,46.5307],[10.4183,46.5513],[10.3971,46.5439],[10.3519,46.5559],[10.3382,46.5427],[10.3255,46.5517],[10.2961,46.55],[10.2875,46.5703],[10.2695,46.5777],[10.2461,46.575],[10.2421,46.5922],[10.2589,46.6104],[10.2389,46.6354],[10.2153,46.6169],[10.1928,46.6259],[10.1277,46.6051],[10.1024,46.6107],[10.1008,46.5827],[10.0787,46.5751],[10.0824,46.5636],[10.044,46.5401],[10.054,46.5226],[10.0424,46.5101],[10.0491,46.4996],[10.0429,46.4801],[10.0544,46.4646],[10.0392,46.4469],[10.0423,46.433],[10.0185,46.4291],[10.0183,46.4189],[9.9911,46.4048],[9.9618,46.367],[9.9584,46.3783],[9.9345,46.3748],[9.9253,46.3659],[9.9064,46.3807],[9.8683,46.3623],[9.8327,46.3612],[9.7762,46.3348],[9.7441,46.3506],[9.7249,46.3901],[9.6812,46.4108],[9.6632,46.4101],[9.6645,46.4211],[9.7038,46.4406],[9.7222,46.4414],[9.7324,46.4578],[9.7256,46.4674],[9.7322,46.4854],[9.7229,46.4996],[9.7278,46.5079],[9.6978,46.5145],[9.7025,46.5224],[9.6947,46.5428],[9.7166,46.5425],[9.74,46.5571],[9.8503,46.5725],[9.8284,46.5964],[9.8631,46.6032],[9.8707,46.62],[9.8943,46.6288],[9.8639,46.6534],[9.8699,46.6746],[9.8794,46.6844],[9.9047,46.6853],[9.9032,46.6916],[9.9569,46.6944],[9.9523,46.7055],[9.9591,46.7171],[9.9428,46.7248],[9.9428,46.739],[9.9687,46.7643],[9.9818,46.7662],[9.9934,46.789],[10.0421,46.7954],[10.0438,46.8094],[10.0621,46.813],[10.0725,46.835],[10.0808,46.8339],[10.0947,46.8501],[10.1058,46.8409],[10.1691,46.8507],[10.1937,46.8664],[10.2327,46.8663],[10.2348,46.8847],[10.2257,46.8959],[10.242,46.9188],[10.2406,46.9314],[10.2969,46.92],[10.3161,46.9252],[10.3077,46.9473],[10.3278,46.954],[10.3465,46.9896],[10.3721,46.9907],[10.3893,47.0005]]]]}},{"type":"Feature","properties":{"name":"Southern Alps","name_de":"S\u00fcdalpen","group":"Southern Alpine Flank","group_de":"Alpens\u00fcdflanke","label_lat":46.4232,"label_lon":8.8812},"geometry":{"type":"MultiPolygon","coordinates":[[[[7.9838,46.2602],[8.0103,46.2597],[8.0181,46.2499],[8.0432,46.2474],[8.0521,46.2368],[8.1102,46.2495],[8.1153,46.236],[8.1389,46.2261],[8.1533,46.1911],[8.1655,46.1822],[8.1499,46.1625],[8.1553,46.1476],[8.1444,46.1368],[8.1154,46.1303],[8.1082,46.1116],[8.0348,46.1008],[8.0116,46.1281],[8.0029,46.1576],[8.0109,46.1677],[7.996,46.1725],[7.9951,46.2017],[7.9828,46.2117],[7.9838,46.2602]]],[[[9.6328,46.4195],[9.6813,46.4108],[9.7355,46.3778],[9.7435,46.3518],[9.723,46.3407],[9.7276,46.3327],[9.7173,46.324],[9.7258,46.3131],[9.7145,46.2929],[9.6893,46.2934],[9.677,46.3031],[9.6347,46.286],[9.5782,46.2954],[9.5601,46.3062],[9.5496,46.3023],[9.5195,46.326],[9.5087,46.3513],[9.4876,46.3662],[9.544,46.3698],[9.569,46.4021],[9.6328,46.4195]]],[[[10.0436,46.442],[10.0563,46.4409],[10.0603,46.4284],[10.0772,46.4282],[10.0808,46.4211],[10.1289,46.4317],[10.1432,46.4283],[10.1477,46.4142],[10.1612,46.4154],[10.1669,46.4074],[10.1619,46.3875],[10.1273,46.3775],[10.1291,46.3609],[10.1085,46.3523],[10.1044,46.3336],[10.1166,46.3141],[10.1542,46.2928],[10.1765,46.2583],[10.146,46.2305],[10.1233,46.2238],[10.0886,46.2278],[10.0669,46.218],[10.044,46.2296],[10.0606,46.2483],[10.0555,46.2658],[9.9947,46.2871],[10.0001,46.3132],[9.98,46.3231],[9.9963,46.3512],[9.9738,46.3581],[9.9612,46.3721],[9.9911,46.4048],[10.0183,46.4189],[10.0185,46.4291],[10.04,46.4305],[10.0436,46.442]]],[[[8.9607,46.6185],[8.9597,46.6032],[9.0054,46.6114],[9.0341,46.6],[9.0437,46.5875],[9.0267,46.5659],[9.0164,46.5326],[9.0232,46.5092],[9.0465,46.4807],[9.0857,46.4741],[9.1132,46.4796],[9.1373,46.4659],[9.153,46.4726],[9.1809,46.4706],[9.1921,46.4603],[9.2195,46.4738],[9.2377,46.4471],[9.2505,46.4483],[9.2497,46.4311],[9.2803,46.4138],[9.2758,46.395],[9.2844,46.3852],[9.2761,46.3678],[9.2962,46.3557],[9.2999,46.3436],[9.2921,46.3362],[9.2993,46.3275],[9.2815,46.3094],[9.2849,46.297],[9.2588,46.2784],[9.257,46.2693],[9.2399,46.2666],[9.23,46.2799],[9.2122,46.2792],[9.1842,46.2956],[9.1586,46.2881],[9.1462,46.2945],[9.149,46.3124],[9.1603,46.3205],[9.1573,46.3404],[9.1016,46.3493],[9.0274,46.3436],[9.0228,46.3561],[8.9972,46.3587],[8.9771,46.3729],[8.9392,46.3494],[8.9274,46.368],[8.8766,46.347],[8.859,46.3493],[8.8124,46.3878],[8.7435,46.406],[8.7308,46.391],[8.7354,46.3809],[8.7275,46.3683],[8.6946,46.3481],[8.6815,46.3249],[8.6637,46.3207],[8.6836,46.2879],[8.6851,46.2759],[8.6748,46.2684],[8.651,46.2684],[8.6238,46.2554],[8.555,46.2682],[8.4832,46.2475],[8.4434,46.2502],[8.4559,46.2638],[8.4277,46.2983],[8.4654,46.3339],[8.4615,46.3534],[8.4702,46.3624],[8.4609,46.3864],[8.4712,46.3959],[8.4569,46.423],[8.4664,46.4427],[8.4457,46.4637],[8.3851,46.4519],[8.3924,46.4947],[8.4435,46.4956],[8.4822,46.5319],[8.5195,46.539],[8.5131,46.5581],[8.5214,46.5773],[8.5392,46.5867],[8.5741,46.5836],[8.5905,46.5735],[8.6205,46.5781],[8.6343,46.5644],[8.6973,46.5811],[8.7157,46.5712],[8.7648,46.5746],[8.8022,46.5608],[8.8137,46.5708],[8.8485,46.5637],[8.9161,46.5925],[8.9046,46.6087],[8.9117,46.6188],[8.9512,46.6253],[8.9607,46.6185]]]]}},{"type":"Feature","properties":{"name":"Southern Ticino","name_de":"S\u00fcdliches Tessin","group":"Southern Alpine Flank","group_de":"Alpens\u00fcdflanke","label_lat":46.1277,"label_lon":8.8967},"geometry":{"type":"Polygon","coordinates":[[[8.7484,46.4059],[8.8124,46.3878],[8.859,46.3493],[8.8766,46.347],[8.9274,46.368],[8.9392,46.3494],[8.9771,46.3729],[8.9972,46.3587],[9.0228,46.3561],[9.0274,46.3436],[9.1016,46.3493],[9.1573,46.3404],[9.1603,46.3205],[9.149,46.3124],[9.1462,46.2945],[9.1586,46.2881],[9.1842,46.2956],[9.2524,46.2648],[9.2484,46.2337],[9.2211,46.2292],[9.2187,46.2144],[9.2014,46.2067],[9.194,46.1785],[9.1822,46.1695],[9.1612,46.1707],[9.1345,46.1533],[9.1215,46.1348],[9.0725,46.1181],[9.0896,46.087],[9.0771,46.0641],[9.023,46.0528],[9.0095,46.0373],[9.0285,45.9936],[8.9953,45.9805],[8.9888,45.9704],[9.0139,45.9606],[9.0192,45.9284],[9.06,45.9209],[9.0678,45.9106],[9.0766,45.9115],[9.0769,45.8993],[9.0891,45.9006],[9.0664,45.8754],[9.055,45.8738],[9.0316,45.8209],[8.9939,45.822],[8.9975,45.8349],[8.97,45.8324],[8.9563,45.8434],[8.9121,45.8304],[8.9207,45.8493],[8.9453,45.867],[8.9338,45.8703],[8.9215,45.8958],[8.9241,45.9057],[8.8933,45.9312],[8.8986,45.9463],[8.8937,45.959],[8.8681,45.9607],[8.8313,45.988],[8.7859,45.9891],[8.7931,46.0081],[8.8354,46.0438],[8.8285,46.0465],[8.8442,46.0485],[8.8546,46.0616],[8.8521,46.0756],[8.806,46.1013],[8.783,46.0941],[8.76,46.1016],[8.7424,46.1223],[8.7138,46.0973],[8.6577,46.1126],[8.6476,46.1235],[8.6118,46.1217],[8.6097,46.1329],[8.5929,46.1428],[8.6032,46.1553],[8.5736,46.1643],[8.5638,46.1838],[8.5404,46.1978],[8.5325,46.2183],[8.4663,46.2363],[8.4639,46.2446],[8.4729,46.2494],[8.555,46.2682],[8.6238,46.2554],[8.651,46.2684],[8.6785,46.2703],[8.6836,46.2879],[8.6637,46.3207],[8.6815,46.3249],[8.6946,46.3481],[8.7138,46.3544],[8.734,46.3768],[8.7329,46.3957],[8.7484,46.4059]]]}}]}