<?xml version="1.0" encoding="UTF-8"?>
<gpx version="1.1" creator="hike-planner" xmlns="http://www.topografix.com/GPX/1/1">
  <metadata><name>Rotenboden -> Gornergrat</name>
    <desc>Routed from OSM (ODbL); elevations from SwissTopo / Open-Elevation</desc>
  </metadata>
  <wpt lat="46.404273" lon="7.984086">
    <ele>3014.3</ele>
    <name>Rotenboden</name>
  </wpt>
  <wpt lat="46.421951" lon="7.983509">
    <ele>2648.5</ele>
    <name>Gornergrat</name>
  </wpt>
  <trk>
    <name>Rotenboden -> Gornergrat</name>
    <trkseg>
      <trkpt lat="46.404273" lon="7.984086">
        <ele>3014.3</ele>
      </trkpt>
      <trkpt lat="46.404174" lon="7.984134">
        <ele>3007.4</ele>
      </trkpt>
      <trkpt lat="46.404172" lon="7.984329">
        <ele>3002.6</ele>
      </trkpt>
      <trkpt lat="46.404160" lon="7.984657">
        <ele>2988.7</ele>
      </trkpt>
      <trkpt lat="46.404063" lon="7.984721">
        <ele>2981.1</ele>
      </trkpt>
      <trkpt lat="46.403769" lon="7.984455">
        <ele>2966.9</ele>
      </trkpt>
      <trkpt lat="46.403354" lon="7.984191">
        <ele>2951.8</ele>
      </trkpt>
      <trkpt lat="46.403241" lon="7.984430">
        <ele>2940.9</ele>
      </trkpt>
      <trkpt lat="46.402663" lon="7.984165">
        <ele>2925.0</ele>
      </trkpt>
      <trkpt lat="46.401859" lon="7.984374">
        <ele>2912.4</ele>
      </trkpt>
      <trkpt lat="46.401413" lon="7.984450">
        <ele>2905.4</ele>
      </trkpt>
      <trkpt lat="46.401149" lon="7.984390">
        <ele>2897.4</ele>
      </trkpt>
      <trkpt lat="46.401029" lon="7.984385">
        <ele>2894.0</ele>
      </trkpt>
      <trkpt lat="46.400937" lon="7.984472">
        <ele>2889.7</ele>
      </trkpt>
      <trkpt lat="46.400569" lon="7.984313">
        <ele>2868.9</ele>
      </trkpt>
      <trkpt lat="46.400346" lon="7.984451">
        <ele>2857.2</ele>
      </trkpt>
      <trkpt lat="46.400095" lon="7.984393">
        <ele>2839.8</ele>
      </trkpt>
      <trkpt lat="46.399949" lon="7.984484">
        <ele>2834.3</ele>
      </trkpt>
      <trkpt lat="46.399881" lon="7.984577">
        <ele>2831.8</ele>
      </trkpt>
      <trkpt lat="46.399799" lon="7.984673">
        <ele>2827.6</ele>
      </trkpt>
      <trkpt lat="46.399514" lon="7.984650">
        <ele>2807.1</ele>
      </trkpt>
      <trkpt lat="46.399362" lon="7.984677">
        <ele>2796.2</ele>
      </trkpt>
      <trkpt lat="46.399266" lon="7.984597">
        <ele>2788.1</ele>
      </trkpt>
      <trkpt lat="46.399056" lon="7.984636">
        <ele>2768.3</ele>
      </trkpt>
      <trkpt lat="46.398895" lon="7.984943">
        <ele>2750.8</ele>
      </trkpt>
      <trkpt lat="46.398194" lon="7.984788">
        <ele>2728.6</ele>
      </trkpt>
      <trkpt lat="46.397706" lon="7.984245">
        <ele>2709.9</ele>
      </trkpt>
      <trkpt lat="46.397706" lon="7.983470">
        <ele>2687.2</ele>
      </trkpt>
      <trkpt lat="46.397256" lon="7.982971">
        <ele>2668.6</ele>
      </trkpt>
      <trkpt lat="46.396742" lon="7.982843">
        <ele>2651.5</ele>
      </trkpt>
      <trkpt lat="46.396284" lon="7.982376">
        <ele>2625.1</ele>
      </trkpt>
      <trkpt lat="46.395283" lon="7.981710">
        <ele>2605.0</ele>
      </trkpt>
      <trkpt lat="46.394558" lon="7.981203">
        <ele>2601.1</ele>
      </trkpt>
      <trkpt lat="46.394339" lon="7.980836">
        <ele>2598.4</ele>
      </trkpt>
      <trkpt lat="46.393467" lon="7.980305">
        <ele>2581.9</ele>
      </trkpt>
      <trkpt lat="46.393249" lon="7.980351">
        <ele>2579.4</ele>
      </trkpt>
      <trkpt lat="46.392588" lon="7.979986">
        <ele>2561.7</ele>
      </trkpt>
      <trkpt lat="46.392214" lon="7.979767">
        <ele>2550.4</ele>
      </trkpt>
      <trkpt lat="46.391992" lon="7.980230">
        <ele>2537.2</ele>
      </trkpt>
      <trkpt lat="46.391946" lon="7.980894">
        <ele>2524.3</ele>
      </trkpt>
      <trkpt lat="46.391783" lon="7.981157">
        <ele>2515.9</ele>
      </trkpt>
      <trkpt lat="46.391682" lon="7.981561">
        <ele>2506.9</ele>
      </trkpt>
      <trkpt lat="46.390986" lon="7.981738">
        <ele>2486.4</ele>
      </trkpt>
      <trkpt lat="46.390483" lon="7.981810">
        <ele>2476.4</ele>
      </trkpt>
      <trkpt lat="46.390295" lon="7.982216">
        <ele>2467.1</ele>
      </trkpt>
      <trkpt lat="46.390228" lon="7.982439">
        <ele>2459.3</ele>
      </trkpt>
      <trkpt lat="46.389990" lon="7.982803">
        <ele>2448.6</ele>
      </trkpt>
      <trkpt lat="46.389970" lon="7.983158">
        <ele>2444.8</ele>
      </trkpt>
      <trkpt lat="46.389387" lon="7.983162">
        <ele>2433.5</ele>
      </trkpt>
      <trkpt lat="46.389183" lon="7.983391">
        <ele>2424.4</ele>
      </trkpt>
      <trkpt lat="46.388949" lon="7.983555">
        <ele>2416.0</ele>
      </trkpt>
      <trkpt lat="46.388607" lon="7.983686">
        <ele>2409.6</ele>
      </trkpt>
      <trkpt lat="46.388532" lon="7.983808">
        <ele>2407.5</ele>
      </trkpt>
      <trkpt lat="46.388482" lon="7.983807">
        <ele>2405.7</ele>
      </trkpt>
      <trkpt lat="46.388383" lon="7.983785">
        <ele>2402.5</ele>
      </trkpt>
      <trkpt lat="46.387859" lon="7.983766">
        <ele>2391.1</ele>
      </trkpt>
      <trkpt lat="46.387573" lon="7.983935">
        <ele>2384.4</ele>
      </trkpt>
      <trkpt lat="46.387484" lon="7.984099">
        <ele>2376.8</ele>
      </trkpt>
      <trkpt lat="46.387235" lon="7.984275">
        <ele>2369.8</ele>
      </trkpt>
      <trkpt lat="46.386561" lon="7.984874">
        <ele>2351.5</ele>
      </trkpt>
      <trkpt lat="46.386432" lon="7.984973">
        <ele>2346.6</ele>
      </trkpt>
      <trkpt lat="46.386172" lon="7.985297">
        <ele>2340.7</ele>
      </trkpt>
      <trkpt lat="46.385946" lon="7.986094">
        <ele>2339.6</ele>
      </trkpt>
      <trkpt lat="46.385618" lon="7.986377">
        <ele>2335.1</ele>
      </trkpt>
      <trkpt lat="46.385378" lon="7.986577">
        <ele>2328.4</ele>
      </trkpt>
      <trkpt lat="46.384890" lon="7.986519">
        <ele>2316.4</ele>
      </trkpt>
      <trkpt lat="46.384497" lon="7.986857">
        <ele>2304.8</ele>
      </trkpt>
      <trkpt lat="46.383786" lon="7.986840">
        <ele>2290.3</ele>
      </trkpt>
      <trkpt lat="46.383322" lon="7.986917">
        <ele>2279.3</ele>
      </trkpt>
      <trkpt lat="46.382506" lon="7.986829">
        <ele>2259.9</ele>
      </trkpt>
      <trkpt lat="46.382294" lon="7.986788">
        <ele>2255.8</ele>
      </trkpt>
      <trkpt lat="46.382307" lon="7.987531">
        <ele>2242.5</ele>
      </trkpt>
      <trkpt lat="46.382280" lon="7.987909">
        <ele>2238.4</ele>
      </trkpt>
      <trkpt lat="46.382225" lon="7.988348">
        <ele>2229.9</ele>
      </trkpt>
      <trkpt lat="46.382423" lon="7.989253">
        <ele>2210.6</ele>
      </trkpt>
      <trkpt lat="46.382220" lon="7.989578">
        <ele>2195.0</ele>
      </trkpt>
      <trkpt lat="46.382132" lon="7.990240">
        <ele>2179.7</ele>
      </trkpt>
      <trkpt lat="46.381302" lon="7.990193">
        <ele>2157.4</ele>
      </trkpt>
      <trkpt lat="46.381429" lon="7.990704">
        <ele>2147.2</ele>
      </trkpt>
      <trkpt lat="46.381041" lon="7.990934">
        <ele>2137.7</ele>
      </trkpt>
      <trkpt lat="46.380778" lon="7.990917">
        <ele>2132.5</ele>
      </trkpt>
      <trkpt lat="46.380749" lon="7.991137">
        <ele>2131.1</ele>
      </trkpt>
      <trkpt lat="46.380922" lon="7.991137">
        <ele>2135.7</ele>
      </trkpt>
      <trkpt lat="46.381022" lon="7.991189">
        <ele>2137.4</ele>
      </trkpt>
      <trkpt lat="46.381061" lon="7.991293">
        <ele>2137.1</ele>
      </trkpt>
      <trkpt lat="46.381150" lon="7.991388">
        <ele>2133.9</ele>
      </trkpt>
      <trkpt lat="46.381182" lon="7.991538">
        <ele>2132.4</ele>
      </trkpt>
      <trkpt lat="46.381228" lon="7.991582">
        <ele>2131.6</ele>
      </trkpt>
      <trkpt lat="46.381583" lon="7.991539">
        <ele>2128.8</ele>
      </trkpt>
      <trkpt lat="46.381878" lon="7.991497">
        <ele>2123.7</ele>
      </trkpt>
      <trkpt lat="46.382536" lon="7.991469">
        <ele>2108.8</ele>
      </trkpt>
      <trkpt lat="46.382876" lon="7.991495">
        <ele>2100.0</ele>
      </trkpt>
      <trkpt lat="46.383405" lon="7.991449">
        <ele>2088.2</ele>
      </trkpt>
      <trkpt lat="46.383664" lon="7.991388">
        <ele>2077.6</ele>
      </trkpt>
      <trkpt lat="46.383711" lon="7.991281">
        <ele>2070.2</ele>
      </trkpt>
      <trkpt lat="46.383745" lon="7.991296">
        <ele>2068.5</ele>
      </trkpt>
      <trkpt lat="46.383805" lon="7.991430">
        <ele>2060.9</ele>
      </trkpt>
      <trkpt lat="46.383864" lon="7.991423">
        <ele>2054.0</ele>
      </trkpt>
      <trkpt lat="46.383870" lon="7.991350">
        <ele>2050.8</ele>
      </trkpt>
      <trkpt lat="46.383917" lon="7.991334">
        <ele>2048.8</ele>
      </trkpt>
      <trkpt lat="46.383970" lon="7.991366">
        <ele>2044.0</ele>
      </trkpt>
      <trkpt lat="46.384206" lon="7.991295">
        <ele>2039.3</ele>
      </trkpt>
      <trkpt lat="46.384313" lon="7.991427">
        <ele>2037.1</ele>
      </trkpt>
      <trkpt lat="46.384579" lon="7.991796">
        <ele>2028.8</ele>
      </trkpt>
      <trkpt lat="46.384919" lon="7.992109">
        <ele>2021.6</ele>
      </trkpt>
      <trkpt lat="46.385009" lon="7.992138">
        <ele>2021.0</ele>
      </trkpt>
      <trkpt lat="46.385236" lon="7.992158">
        <ele>2018.0</ele>
      </trkpt>
      <trkpt lat="46.385423" lon="7.992110">
        <ele>2013.1</ele>
      </trkpt>
      <trkpt lat="46.385708" lon="7.991938">
        <ele>2005.7</ele>
      </trkpt>
      <trkpt lat="46.385990" lon="7.991714">
        <ele>1999.1</ele>
      </trkpt>
      <trkpt lat="46.386225" lon="7.991883">
        <ele>1990.5</ele>
      </trkpt>
      <trkpt lat="46.386408" lon="7.991883">
        <ele>1986.0</ele>
      </trkpt>
      <trkpt lat="46.386626" lon="7.992049">
        <ele>1980.7</ele>
      </trkpt>
      <trkpt lat="46.387075" lon="7.992236">
        <ele>1971.1</ele>
      </trkpt>
      <trkpt lat="46.387329" lon="7.992459">
        <ele>1969.8</ele>
      </trkpt>
      <trkpt lat="46.387646" lon="7.992743">
        <ele>1975.5</ele>
      </trkpt>
      <trkpt lat="46.387768" lon="7.992957">
        <ele>1973.4</ele>
      </trkpt>
      <trkpt lat="46.388220" lon="7.993552">
        <ele>1972.3</ele>
      </trkpt>
      <trkpt lat="46.388347" lon="7.993800">
        <ele>1972.7</ele>
      </trkpt>
      <trkpt lat="46.388561" lon="7.994030">
        <ele>1972.6</ele>
      </trkpt>
      <trkpt lat="46.388974" lon="7.994322">
        <ele>1977.5</ele>
      </trkpt>
      <trkpt lat="46.389546" lon="7.994206">
        <ele>1986.5</ele>
      </trkpt>
      <trkpt lat="46.389813" lon="7.993927">
        <ele>1989.9</ele>
      </trkpt>
      <trkpt lat="46.389945" lon="7.993905">
        <ele>1990.4</ele>
      </trkpt>
      <trkpt lat="46.390153" lon="7.993913">
        <ele>1987.5</ele>
      </trkpt>
      <trkpt lat="46.390397" lon="7.993917">
        <ele>1988.8</ele>
      </trkpt>
      <trkpt lat="46.390637" lon="7.994030">
        <ele>1991.3</ele>
      </trkpt>
      <trkpt lat="46.390946" lon="7.994192">
        <ele>1990.1</ele>
      </trkpt>
      <trkpt lat="46.391163" lon="7.994176">
        <ele>1993.7</ele>
      </trkpt>
      <trkpt lat="46.391299" lon="7.994220">
        <ele>1997.6</ele>
      </trkpt>
      <trkpt lat="46.391430" lon="7.994529">
        <ele>2003.7</ele>
      </trkpt>
      <trkpt lat="46.391602" lon="7.994637">
        <ele>2004.6</ele>
      </trkpt>
      <trkpt lat="46.391761" lon="7.994828">
        <ele>2008.8</ele>
      </trkpt>
      <trkpt lat="46.391983" lon="7.994854">
        <ele>2021.0</ele>
      </trkpt>
      <trkpt lat="46.392312" lon="7.995210">
        <ele>2026.8</ele>
      </trkpt>
      <trkpt lat="46.392568" lon="7.995396">
        <ele>2025.4</ele>
      </trkpt>
      <trkpt lat="46.392754" lon="7.995413">
        <ele>2024.8</ele>
      </trkpt>
      <trkpt lat="46.393290" lon="7.995658">
        <ele>2019.2</ele>
      </trkpt>
      <trkpt lat="46.393624" lon="7.995758">
        <ele>2021.4</ele>
      </trkpt>
      <trkpt lat="46.393853" lon="7.995778">
        <ele>2021.1</ele>
      </trkpt>
      <trkpt lat="46.394078" lon="7.995854">
        <ele>2021.8</ele>
      </trkpt>
      <trkpt lat="46.394458" lon="7.995939">
        <ele>2017.6</ele>
      </trkpt>
      <trkpt lat="46.394968" lon="7.995868">
        <ele>2020.6</ele>
      </trkpt>
      <trkpt lat="46.395333" lon="7.995999">
        <ele>2021.2</ele>
      </trkpt>
      <trkpt lat="46.395848" lon="7.996243">
        <ele>2020.6</ele>
      </trkpt>
      <trkpt lat="46.396165" lon="7.996332">
        <ele>2020.6</ele>
      </trkpt>
      <trkpt lat="46.396623" lon="7.996298">
        <ele>2027.0</ele>
      </trkpt>
      <trkpt lat="46.396961" lon="7.996294">
        <ele>2028.7</ele>
      </trkpt>
      <trkpt lat="46.397306" lon="7.996287">
        <ele>2027.8</ele>
      </trkpt>
      <trkpt lat="46.397377" lon="7.996373">
        <ele>2028.1</ele>
      </trkpt>
      <trkpt lat="46.397531" lon="7.996457">
        <ele>2026.8</ele>
      </trkpt>
      <trkpt lat="46.397703" lon="7.996556">
        <ele>2028.2</ele>
      </trkpt>
      <trkpt lat="46.398328" lon="7.996776">
        <ele>2030.1</ele>
      </trkpt>
      <trkpt lat="46.398565" lon="7.996780">
        <ele>2029.9</ele>
      </trkpt>
      <trkpt lat="46.398660" lon="7.996865">
        <ele>2031.1</ele>
      </trkpt>
      <trkpt lat="46.398689" lon="7.997112">
        <ele>2031.3</ele>
      </trkpt>
      <trkpt lat="46.398780" lon="7.997237">
        <ele>2032.9</ele>
      </trkpt>
      <trkpt lat="46.398781" lon="7.997150">
        <ele>2034.6</ele>
      </trkpt>
      <trkpt lat="46.398878" lon="7.996994">
        <ele>2038.1</ele>
      </trkpt>
      <trkpt lat="46.399003" lon="7.996848">
        <ele>2041.9</ele>
      </trkpt>
      <trkpt lat="46.399174" lon="7.996711">
        <ele>2047.3</ele>
      </trkpt>
      <trkpt lat="46.399303" lon="7.996677">
        <ele>2051.2</ele>
      </trkpt>
      <trkpt lat="46.399500" lon="7.996634">
        <ele>2056.5</ele>
      </trkpt>
      <trkpt lat="46.399675" lon="7.996759">
        <ele>2059.2</ele>
      </trkpt>
      <trkpt lat="46.399831" lon="7.996859">
        <ele>2061.0</ele>
      </trkpt>
      <trkpt lat="46.400031" lon="7.997095">
        <ele>2062.6</ele>
      </trkpt>
      <trkpt lat="46.400166" lon="7.997339">
        <ele>2065.4</ele>
      </trkpt>
      <trkpt lat="46.400187" lon="7.997494">
        <ele>2067.4</ele>
      </trkpt>
      <trkpt lat="46.400193" lon="7.997613">
        <ele>2069.5</ele>
      </trkpt>
      <trkpt lat="46.400353" lon="7.997775">
        <ele>2072.2</ele>
      </trkpt>
      <trkpt lat="46.400489" lon="7.997852">
        <ele>2073.1</ele>
      </trkpt>
      <trkpt lat="46.400685" lon="7.997964">
        <ele>2077.7</ele>
      </trkpt>
      <trkpt lat="46.400901" lon="7.998095">
        <ele>2076.5</ele>
      </trkpt>
      <trkpt lat="46.401134" lon="7.998301">
        <ele>2077.8</ele>
      </trkpt>
      <trkpt lat="46.401402" lon="7.998532">
        <ele>2075.8</ele>
      </trkpt>
      <trkpt lat="46.401644" lon="7.998867">
        <ele>2075.2</ele>
      </trkpt>
      <trkpt lat="46.401715" lon="7.999111">
        <ele>2075.1</ele>
      </trkpt>
      <trkpt lat="46.401837" lon="7.999259">
        <ele>2079.2</ele>
      </trkpt>
      <trkpt lat="46.402067" lon="7.999500">
        <ele>2089.0</ele>
      </trkpt>
      <trkpt lat="46.402231" lon="7.999623">
        <ele>2093.8</ele>
      </trkpt>
      <trkpt lat="46.402333" lon="7.999776">
        <ele>2095.0</ele>
      </trkpt>
      <trkpt lat="46.402498" lon="8.000041">
        <ele>2100.0</ele>
      </trkpt>
      <trkpt lat="46.402549" lon="8.000253">
        <ele>2104.3</ele>
      </trkpt>
      <trkpt lat="46.402719" lon="8.000424">
        <ele>2109.8</ele>
      </trkpt>
      <trkpt lat="46.402891" lon="8.000667">
        <ele>2111.9</ele>
      </trkpt>
      <trkpt lat="46.403024" lon="8.001219">
        <ele>2118.2</ele>
      </trkpt>
      <trkpt lat="46.403179" lon="8.001518">
        <ele>2128.2</ele>
      </trkpt>
      <trkpt lat="46.403265" lon="8.001796">
        <ele>2128.9</ele>
      </trkpt>
      <trkpt lat="46.403382" lon="8.002069">
        <ele>2134.7</ele>
      </trkpt>
      <trkpt lat="46.403425" lon="8.002125">
        <ele>2135.8</ele>
      </trkpt>
      <trkpt lat="46.403480" lon="8.002227">
        <ele>2139.3</ele>
      </trkpt>
      <trkpt lat="46.403522" lon="8.002343">
        <ele>2142.2</ele>
      </trkpt>
      <trkpt lat="46.403517" lon="8.002479">
        <ele>2143.6</ele>
      </trkpt>
      <trkpt lat="46.403590" lon="8.002512">
        <ele>2148.7</ele>
      </trkpt>
      <trkpt lat="46.403675" lon="8.002641">
        <ele>2151.4</ele>
      </trkpt>
      <trkpt lat="46.403777" lon="8.002676">
        <ele>2154.7</ele>
      </trkpt>
      <trkpt lat="46.403848" lon="8.002751">
        <ele>2158.4</ele>
      </trkpt>
      <trkpt lat="46.403896" lon="8.002927">
        <ele>2162.8</ele>
      </trkpt>
      <trkpt lat="46.404011" lon="8.003047">
        <ele>2165.7</ele>
      </trkpt>
      <trkpt lat="46.404230" lon="8.002974">
        <ele>2168.8</ele>
      </trkpt>
      <trkpt lat="46.404291" lon="8.002670">
        <ele>2175.9</ele>
      </trkpt>
      <trkpt lat="46.404394" lon="8.002537">
        <ele>2177.2</ele>
      </trkpt>
      <trkpt lat="46.404629" lon="8.002378">
        <ele>2176.6</ele>
      </trkpt>
      <trkpt lat="46.404817" lon="8.002224">
        <ele>2172.6</ele>
      </trkpt>
      <trkpt lat="46.404873" lon="8.002327">
        <ele>2167.5</ele>
      </trkpt>
      <trkpt lat="46.405069" lon="8.002237">
        <ele>2161.6</ele>
      </trkpt>
      <trkpt lat="46.405174" lon="8.002090">
        <ele>2155.7</ele>
      </trkpt>
      <trkpt lat="46.405363" lon="8.002002">
        <ele>2148.9</ele>
      </trkpt>
      <trkpt lat="46.405561" lon="8.001954">
        <ele>2142.6</ele>
      </trkpt>
      <trkpt lat="46.405583" lon="8.001942">
        <ele>2142.9</ele>
      </trkpt>
      <trkpt lat="46.405546" lon="8.002051">
        <ele>2138.5</ele>
      </trkpt>
      <trkpt lat="46.405453" lon="8.002281">
        <ele>2133.7</ele>
      </trkpt>
      <trkpt lat="46.405388" lon="8.002353">
        <ele>2132.2</ele>
      </trkpt>
      <trkpt lat="46.405632" lon="8.002843">
        <ele>2135.7</ele>
      </trkpt>
      <trkpt lat="46.405630" lon="8.003046">
        <ele>2141.3</ele>
      </trkpt>
      <trkpt lat="46.405506" lon="8.003302">
        <ele>2143.1</ele>
      </trkpt>
      <trkpt lat="46.405468" lon="8.003397">
        <ele>2143.7</ele>
      </trkpt>
      <trkpt lat="46.405401" lon="8.003518">
        <ele>2152.6</ele>
      </trkpt>
      <trkpt lat="46.405381" lon="8.003663">
        <ele>2150.5</ele>
      </trkpt>
      <trkpt lat="46.405299" lon="8.004081">
        <ele>2165.5</ele>
      </trkpt>
      <trkpt lat="46.405228" lon="8.004200">
        <ele>2171.0</ele>
      </trkpt>
      <trkpt lat="46.405156" lon="8.004257">
        <ele>2173.2</ele>
      </trkpt>
      <trkpt lat="46.405091" lon="8.004508">
        <ele>2181.7</ele>
      </trkpt>
      <trkpt lat="46.405081" lon="8.004605">
        <ele>2185.4</ele>
      </trkpt>
      <trkpt lat="46.405103" lon="8.004641">
        <ele>2188.7</ele>
      </trkpt>
      <trkpt lat="46.405088" lon="8.004693">
        <ele>2190.0</ele>
      </trkpt>
      <trkpt lat="46.405179" lon="8.004690">
        <ele>2195.8</ele>
      </trkpt>
      <trkpt lat="46.405198" lon="8.004925">
        <ele>2199.3</ele>
      </trkpt>
      <trkpt lat="46.405314" lon="8.005022">
        <ele>2201.6</ele>
      </trkpt>
      <trkpt lat="46.405413" lon="8.005117">
        <ele>2206.7</ele>
      </trkpt>
      <trkpt lat="46.405491" lon="8.005126">
        <ele>2208.5</ele>
      </trkpt>
      <trkpt lat="46.405521" lon="8.005491">
        <ele>2214.5</ele>
      </trkpt>
      <trkpt lat="46.405478" lon="8.005994">
        <ele>2223.4</ele>
      </trkpt>
      <trkpt lat="46.405507" lon="8.006146">
        <ele>2228.1</ele>
      </trkpt>
      <trkpt lat="46.406083" lon="8.005334">
        <ele>2252.5</ele>
      </trkpt>
      <trkpt lat="46.406281" lon="8.005043">
        <ele>2260.2</ele>
      </trkpt>
      <trkpt lat="46.406392" lon="8.004891">
        <ele>2263.3</ele>
      </trkpt>
      <trkpt lat="46.406580" lon="8.004606">
        <ele>2268.1</ele>
      </trkpt>
      <trkpt lat="46.406813" lon="8.004331">
        <ele>2278.6</ele>
      </trkpt>
      <trkpt lat="46.407083" lon="8.003960">
        <ele>2285.0</ele>
      </trkpt>
      <trkpt lat="46.407267" lon="8.003738">
        <ele>2290.6</ele>
      </trkpt>
      <trkpt lat="46.407683" lon="8.003255">
        <ele>2306.8</ele>
      </trkpt>
      <trkpt lat="46.408116" lon="8.002877">
        <ele>2323.7</ele>
      </trkpt>
      <trkpt lat="46.408143" lon="8.002759">
        <ele>2328.2</ele>
      </trkpt>
      <trkpt lat="46.408224" lon="8.002620">
        <ele>2333.7</ele>
      </trkpt>
      <trkpt lat="46.408625" lon="8.002496">
        <ele>2348.2</ele>
      </trkpt>
      <trkpt lat="46.408784" lon="8.002407">
        <ele>2350.0</ele>
      </trkpt>
      <trkpt lat="46.409116" lon="8.002315">
        <ele>2352.2</ele>
      </trkpt>
      <trkpt lat="46.409431" lon="8.002270">
        <ele>2358.6</ele>
      </trkpt>
      <trkpt lat="46.409649" lon="8.002122">
        <ele>2365.8</ele>
      </trkpt>
      <trkpt lat="46.409809" lon="8.001777">
        <ele>2376.5</ele>
      </trkpt>
      <trkpt lat="46.410052" lon="8.001694">
        <ele>2384.8</ele>
      </trkpt>
      <trkpt lat="46.410188" lon="8.001793">
        <ele>2388.5</ele>
      </trkpt>
      <trkpt lat="46.410309" lon="8.001840">
        <ele>2391.3</ele>
      </trkpt>
      <trkpt lat="46.410614" lon="8.001895">
        <ele>2396.4</ele>
      </trkpt>
      <trkpt lat="46.410686" lon="8.001786">
        <ele>2398.4</ele>
      </trkpt>
      <trkpt lat="46.410756" lon="8.001866">
        <ele>2401.1</ele>
      </trkpt>
      <trkpt lat="46.410832" lon="8.001784">
        <ele>2404.7</ele>
      </trkpt>
      <trkpt lat="46.411050" lon="8.001945">
        <ele>2410.3</ele>
      </trkpt>
      <trkpt lat="46.411061" lon="8.001822">
        <ele>2413.6</ele>
      </trkpt>
      <trkpt lat="46.411102" lon="8.001362">
        <ele>2420.4</ele>
      </trkpt>
      <trkpt lat="46.411183" lon="8.001161">
        <ele>2425.6</ele>
      </trkpt>
      <trkpt lat="46.411384" lon="8.000994">
        <ele>2433.3</ele>
      </trkpt>
      <trkpt lat="46.411588" lon="8.000715">
        <ele>2440.5</ele>
      </trkpt>
      <trkpt lat="46.411865" lon="8.000514">
        <ele>2446.6</ele>
      </trkpt>
      <trkpt lat="46.411866" lon="8.000711">
        <ele>2451.7</ele>
      </trkpt>
      <trkpt lat="46.411879" lon="8.000863">
        <ele>2455.8</ele>
      </trkpt>
      <trkpt lat="46.411876" lon="8.001075">
        <ele>2460.7</ele>
      </trkpt>
      <trkpt lat="46.411961" lon="8.000989">
        <ele>2462.4</ele>
      </trkpt>
      <trkpt lat="46.411916" lon="8.001315">
        <ele>2467.7</ele>
      </trkpt>
      <trkpt lat="46.411993" lon="8.001282">
        <ele>2471.3</ele>
      </trkpt>
      <trkpt lat="46.412037" lon="8.001244">
        <ele>2474.2</ele>
      </trkpt>
      <trkpt lat="46.412043" lon="8.001337">
        <ele>2476.7</ele>
      </trkpt>
      <trkpt lat="46.412065" lon="8.001599">
        <ele>2483.3</ele>
      </trkpt>
      <trkpt lat="46.412098" lon="8.001731">
        <ele>2489.2</ele>
      </trkpt>
      <trkpt lat="46.412143" lon="8.001577">
        <ele>2491.9</ele>
      </trkpt>
      <trkpt lat="46.412288" lon="8.001365">
        <ele>2497.8</ele>
      </trkpt>
      <trkpt lat="46.412381" lon="8.001407">
        <ele>2500.9</ele>
      </trkpt>
      <trkpt lat="46.412311" lon="8.001614">
        <ele>2506.3</ele>
      </trkpt>
      <trkpt lat="46.412486" lon="8.001546">
        <ele>2510.6</ele>
      </trkpt>
      <trkpt lat="46.412505" lon="8.001599">
        <ele>2513.8</ele>
      </trkpt>
      <trkpt lat="46.412516" lon="8.001637">
        <ele>2516.1</ele>
      </trkpt>
      <trkpt lat="46.412531" lon="8.001700">
        <ele>2520.5</ele>
      </trkpt>
      <trkpt lat="46.412413" lon="8.001879">
        <ele>2525.5</ele>
      </trkpt>
      <trkpt lat="46.412449" lon="8.001950">
        <ele>2528.3</ele>
      </trkpt>
      <trkpt lat="46.412478" lon="8.002035">
        <ele>2530.7</ele>
      </trkpt>
      <trkpt lat="46.412447" lon="8.002591">
        <ele>2545.5</ele>
      </trkpt>
      <trkpt lat="46.412512" lon="8.002579">
        <ele>2551.5</ele>
      </trkpt>
      <trkpt lat="46.412574" lon="8.002420">
        <ele>2553.9</ele>
      </trkpt>
      <trkpt lat="46.412726" lon="8.002266">
        <ele>2562.9</ele>
      </trkpt>
      <trkpt lat="46.412757" lon="8.002403">
        <ele>2568.5</ele>
      </trkpt>
      <trkpt lat="46.412954" lon="8.002323">
        <ele>2574.6</ele>
      </trkpt>
      <trkpt lat="46.413066" lon="8.002196">
        <ele>2578.5</ele>
      </trkpt>
      <trkpt lat="46.413276" lon="8.002094">
        <ele>2585.0</ele>
      </trkpt>
      <trkpt lat="46.413356" lon="8.001967">
        <ele>2588.0</ele>
      </trkpt>
      <trkpt lat="46.413406" lon="8.001857">
        <ele>2588.4</ele>
      </trkpt>
      <trkpt lat="46.413472" lon="8.001667">
        <ele>2590.0</ele>
      </trkpt>
      <trkpt lat="46.413587" lon="8.001584">
        <ele>2592.0</ele>
      </trkpt>
      <trkpt lat="46.413675" lon="8.001385">
        <ele>2594.7</ele>
      </trkpt>
      <trkpt lat="46.413730" lon="8.000964">
        <ele>2603.3</ele>
      </trkpt>
      <trkpt lat="46.413862" lon="8.000655">
        <ele>2611.0</ele>
      </trkpt>
      <trkpt lat="46.413904" lon="8.000900">
        <ele>2615.6</ele>
      </trkpt>
      <trkpt lat="46.414068" lon="8.000558">
        <ele>2627.6</ele>
      </trkpt>
      <trkpt lat="46.414206" lon="8.000477">
        <ele>2633.6</ele>
      </trkpt>
      <trkpt lat="46.414466" lon="8.000309">
        <ele>2637.0</ele>
      </trkpt>
      <trkpt lat="46.414531" lon="8.000149">
        <ele>2634.2</ele>
      </trkpt>
      <trkpt lat="46.414614" lon="7.999749">
        <ele>2626.0</ele>
      </trkpt>
      <trkpt lat="46.414727" lon="7.999376">
        <ele>2619.3</ele>
      </trkpt>
      <trkpt lat="46.414867" lon="7.999114">
        <ele>2623.4</ele>
      </trkpt>
      <trkpt lat="46.414927" lon="7.998856">
        <ele>2622.0</ele>
      </trkpt>
      <trkpt lat="46.415021" lon="7.998671">
        <ele>2623.1</ele>
      </trkpt>
      <trkpt lat="46.415153" lon="7.998334">
        <ele>2625.4</ele>
      </trkpt>
      <trkpt lat="46.415224" lon="7.998182">
        <ele>2623.9</ele>
      </trkpt>
      <trkpt lat="46.415400" lon="7.997859">
        <ele>2622.1</ele>
      </trkpt>
      <trkpt lat="46.415526" lon="7.997681">
        <ele>2624.6</ele>
      </trkpt>
      <trkpt lat="46.415647" lon="7.997456">
        <ele>2627.9</ele>
      </trkpt>
      <trkpt lat="46.415723" lon="7.997322">
        <ele>2632.0</ele>
      </trkpt>
      <trkpt lat="46.415803" lon="7.997162">
        <ele>2634.1</ele>
      </trkpt>
      <trkpt lat="46.415937" lon="7.996957">
        <ele>2633.3</ele>
      </trkpt>
      <trkpt lat="46.416021" lon="7.996869">
        <ele>2631.7</ele>
      </trkpt>
      <trkpt lat="46.416100" lon="7.996715">
        <ele>2628.0</ele>
      </trkpt>
      <trkpt lat="46.416135" lon="7.996602">
        <ele>2627.5</ele>
      </trkpt>
      <trkpt lat="46.416197" lon="7.996317">
        <ele>2627.0</ele>
      </trkpt>
      <trkpt lat="46.416267" lon="7.996035">
        <ele>2624.1</ele>
      </trkpt>
      <trkpt lat="46.416409" lon="7.995905">
        <ele>2627.6</ele>
      </trkpt>
      <trkpt lat="46.416686" lon="7.996186">
        <ele>2634.0</ele>
      </trkpt>
      <trkpt lat="46.416818" lon="7.996284">
        <ele>2636.1</ele>
      </trkpt>
      <trkpt lat="46.417093" lon="7.996308">
        <ele>2643.5</ele>
      </trkpt>
      <trkpt lat="46.417275" lon="7.996397">
        <ele>2648.6</ele>
      </trkpt>
      <trkpt lat="46.417298" lon="7.996588">
        <ele>2652.8</ele>
      </trkpt>
      <trkpt lat="46.417350" lon="7.996641">
        <ele>2648.9</ele>
      </trkpt>
      <trkpt lat="46.417395" lon="7.996697">
        <ele>2649.4</ele>
      </trkpt>
      <trkpt lat="46.417441" lon="7.996593">
        <ele>2650.0</ele>
      </trkpt>
      <trkpt lat="46.417558" lon="7.996362">
        <ele>2652.2</ele>
      </trkpt>
      <trkpt lat="46.417662" lon="7.996361">
        <ele>2654.9</ele>
      </trkpt>
      <trkpt lat="46.417827" lon="7.996439">
        <ele>2659.4</ele>
      </trkpt>
      <trkpt lat="46.417819" lon="7.996316">
        <ele>2656.8</ele>
      </trkpt>
      <trkpt lat="46.417861" lon="7.996118">
        <ele>2651.5</ele>
      </trkpt>
      <trkpt lat="46.417901" lon="7.995936">
        <ele>2649.0</ele>
      </trkpt>
      <trkpt lat="46.417886" lon="7.995734">
        <ele>2644.3</ele>
      </trkpt>
      <trkpt lat="46.418003" lon="7.995425">
        <ele>2639.7</ele>
      </trkpt>
      <trkpt lat="46.418088" lon="7.995169">
        <ele>2635.6</ele>
      </trkpt>
      <trkpt lat="46.418141" lon="7.994962">
        <ele>2633.9</ele>
      </trkpt>
      <trkpt lat="46.418191" lon="7.994762">
        <ele>2632.6</ele>
      </trkpt>
      <trkpt lat="46.418263" lon="7.994591">
        <ele>2633.8</ele>
      </trkpt>
      <trkpt lat="46.418401" lon="7.994497">
        <ele>2641.2</ele>
      </trkpt>
      <trkpt lat="46.418511" lon="7.994293">
        <ele>2641.1</ele>
      </trkpt>
      <trkpt lat="46.418548" lon="7.994165">
        <ele>2644.7</ele>
      </trkpt>
      <trkpt lat="46.418605" lon="7.994059">
        <ele>2646.5</ele>
      </trkpt>
      <trkpt lat="46.418698" lon="7.993928">
        <ele>2646.6</ele>
      </trkpt>
      <trkpt lat="46.418847" lon="7.993733">
        <ele>2653.0</ele>
      </trkpt>
      <trkpt lat="46.418931" lon="7.993753">
        <ele>2655.6</ele>
      </trkpt>
      <trkpt lat="46.418944" lon="7.993524">
        <ele>2658.3</ele>
      </trkpt>
      <trkpt lat="46.418967" lon="7.993296">
        <ele>2664.7</ele>
      </trkpt>
      <trkpt lat="46.419057" lon="7.993053">
        <ele>2671.4</ele>
      </trkpt>
      <trkpt lat="46.419130" lon="7.992979">
        <ele>2673.0</ele>
      </trkpt>
      <trkpt lat="46.419180" lon="7.992900">
        <ele>2673.5</ele>
      </trkpt>
      <trkpt lat="46.419268" lon="7.992843">
        <ele>2673.1</ele>
      </trkpt>
      <trkpt lat="46.419322" lon="7.992417">
        <ele>2670.4</ele>
      </trkpt>
      <trkpt lat="46.419341" lon="7.992114">
        <ele>2670.7</ele>
      </trkpt>
      <trkpt lat="46.419347" lon="7.991934">
        <ele>2669.9</ele>
      </trkpt>
      <trkpt lat="46.419351" lon="7.991594">
        <ele>2667.0</ele>
      </trkpt>
      <trkpt lat="46.419349" lon="7.991413">
        <ele>2659.7</ele>
      </trkpt>
      <trkpt lat="46.419418" lon="7.991110">
        <ele>2665.9</ele>
      </trkpt>
      <trkpt lat="46.419513" lon="7.990617">
        <ele>2666.4</ele>
      </trkpt>
      <trkpt lat="46.419584" lon="7.990400">
        <ele>2669.7</ele>
      </trkpt>
      <trkpt lat="46.419592" lon="7.990214">
        <ele>2671.1</ele>
      </trkpt>
      <trkpt lat="46.419653" lon="7.990082">
        <ele>2674.4</ele>
      </trkpt>
      <trkpt lat="46.419793" lon="7.989968">
        <ele>2678.5</ele>
      </trkpt>
      <trkpt lat="46.419907" lon="7.989871">
        <ele>2679.3</ele>
      </trkpt>
      <trkpt lat="46.420092" lon="7.989877">
        <ele>2680.5</ele>
      </trkpt>
      <trkpt lat="46.420170" lon="7.989960">
        <ele>2684.6</ele>
      </trkpt>
      <trkpt lat="46.420404" lon="7.990083">
        <ele>2686.9</ele>
      </trkpt>
      <trkpt lat="46.420457" lon="7.989909">
        <ele>2689.2</ele>
      </trkpt>
      <trkpt lat="46.420547" lon="7.989631">
        <ele>2692.7</ele>
      </trkpt>
      <trkpt lat="46.420574" lon="7.989437">
        <ele>2690.9</ele>
      </trkpt>
      <trkpt lat="46.420644" lon="7.989138">
        <ele>2687.3</ele>
      </trkpt>
      <trkpt lat="46.420643" lon="7.988838">
        <ele>2685.0</ele>
      </trkpt>
      <trkpt lat="46.420658" lon="7.988594">
        <ele>2677.7</ele>
      </trkpt>
      <trkpt lat="46.420735" lon="7.988511">
        <ele>2675.6</ele>
      </trkpt>
      <trkpt lat="46.420907" lon="7.988309">
        <ele>2675.1</ele>
      </trkpt>
      <trkpt lat="46.420953" lon="7.988088">
        <ele>2672.8</ele>
      </trkpt>
      <trkpt lat="46.420956" lon="7.987976">
        <ele>2672.7</ele>
      </trkpt>
      <trkpt lat="46.421053" lon="7.987902">
        <ele>2672.5</ele>
      </trkpt>
      <trkpt lat="46.421118" lon="7.987854">
        <ele>2672.6</ele>
      </trkpt>
      <trkpt lat="46.421184" lon="7.987625">
        <ele>2671.0</ele>
      </trkpt>
      <trkpt lat="46.421242" lon="7.987412">
        <ele>2672.8</ele>
      </trkpt>
      <trkpt lat="46.421354" lon="7.987136">
        <ele>2673.7</ele>
      </trkpt>
      <trkpt lat="46.421466" lon="7.986916">
        <ele>2673.5</ele>
      </trkpt>
      <trkpt lat="46.421537" lon="7.986746">
        <ele>2677.6</ele>
      </trkpt>
      <trkpt lat="46.421673" lon="7.986655">
        <ele>2679.7</ele>
      </trkpt>
      <trkpt lat="46.421810" lon="7.986385">
        <ele>2685.2</ele>
      </trkpt>
      <trkpt lat="46.421900" lon="7.986164">
        <ele>2680.0</ele>
      </trkpt>
      <trkpt lat="46.421908" lon="7.985806">
        <ele>2674.9</ele>
      </trkpt>
      <trkpt lat="46.421968" lon="7.985542">
        <ele>2672.2</ele>
      </trkpt>
      <trkpt lat="46.421938" lon="7.985361">
        <ele>2668.2</ele>
      </trkpt>
      <trkpt lat="46.421942" lon="7.984988">
        <ele>2665.2</ele>
      </trkpt>
      <trkpt lat="46.421913" lon="7.984518">
        <ele>2658.5</ele>
      </trkpt>
      <trkpt lat="46.421946" lon="7.983954">
        <ele>2647.4</ele>
      </trkpt>
      <trkpt lat="46.421951" lon="7.983509">
        <ele>2648.5</ele>
      </trkpt>
    </trkseg>
  </trk>
</gpx>
