<?xml version="1.0" encoding="UTF-8"?>
<gpx version="1.1" creator="hand-crafted/schynige-first" xmlns="http://www.topografix.com/GPX/1/1">
  <wpt lat="46.6504" lon="7.9097"><ele>2068.0</ele><name>Schynige Platte</name></wpt>
  <wpt lat="46.651" lon="7.923"><ele>2030.0</ele><name>Oberberghorn south flank</name></wpt>
  <wpt lat="46.6543" lon="7.9395"><ele>2070.0</ele><name>Egg</name></wpt>
  <wpt lat="46.6602" lon="7.9542"><ele>2344.0</ele><name>Männdlenen / Loucherhorn</name></wpt>
  <wpt lat="46.6648" lon="7.97"><ele>2480.0</ele><name>Saiteflue ridge</name></wpt>
  <wpt lat="46.6692" lon="7.989"><ele>2520.0</ele><name>Winteregg</name></wpt>
  <wpt lat="46.672" lon="8.008"><ele>2540.0</ele><name>Simelihorn flank</name></wpt>
  <wpt lat="46.6705" lon="8.0223"><ele>2680.0</ele><name>Faulhorn</name></wpt>
  <wpt lat="46.67" lon="8.0297"><ele>2265.0</ele><name>Bachalpsee</name></wpt>
  <wpt lat="46.667" lon="8.0405"><ele>2150.0</ele><name>Gummihütte</name></wpt>
  <wpt lat="46.6606" lon="8.0539"><ele>2168.0</ele><name>First</name></wpt>
  <trk><name>Schynige Platte to First (panoramaweg)</name><trkseg>
    <trkpt lat="46.650400" lon="7.909700"><ele>2068.0</ele></trkpt>
    <trkpt lat="46.650460" lon="7.911030"><ele>2064.2</ele></trkpt>
    <trkpt lat="46.650520" lon="7.912360"><ele>2060.4</ele></trkpt>
    <trkpt lat="46.650580" lon="7.913690"><ele>2056.6</ele></trkpt>
    <trkpt lat="46.650640" lon="7.915020"><ele>2052.8</ele></trkpt>
    <trkpt lat="46.650700" lon="7.916350"><ele>2049.0</ele></trkpt>
    <trkpt lat="46.650760" lon="7.917680"><ele>2045.2</ele></trkpt>
    <trkpt lat="46.650820" lon="7.919010"><ele>2041.4</ele></trkpt>
    <trkpt lat="46.650880" lon="7.920340"><ele>2037.6</ele></trkpt>
    <trkpt lat="46.650940" lon="7.921670"><ele>2033.8</ele></trkpt>
    <trkpt lat="46.651000" lon="7.923000"><ele>2030.0</ele></trkpt>
    <trkpt lat="46.651254" lon="7.924269"><ele>2033.1</ele></trkpt>
    <trkpt lat="46.651508" lon="7.925538"><ele>2036.2</ele></trkpt>
    <trkpt lat="46.651762" lon="7.926808"><ele>2039.2</ele></trkpt>
    <trkpt lat="46.652015" lon="7.928077"><ele>2042.3</ele></trkpt>
    <trkpt lat="46.652269" lon="7.929346"><ele>2045.4</ele></trkpt>
    <trkpt lat="46.652523" lon="7.930615"><ele>2048.5</ele></trkpt>
    <trkpt lat="46.652777" lon="7.931885"><ele>2051.5</ele></trkpt>
    <trkpt lat="46.653031" lon="7.933154"><ele>2054.6</ele></trkpt>
    <trkpt lat="46.653285" lon="7.934423"><ele>2057.7</ele></trkpt>
    <trkpt lat="46.653538" lon="7.935692"><ele>2060.8</ele></trkpt>
    <trkpt lat="46.653792" lon="7.936962"><ele>2063.8</ele></trkpt>
    <trkpt lat="46.654046" lon="7.938231"><ele>2066.9</ele></trkpt>
    <trkpt lat="46.654300" lon="7.939500"><ele>2070.0</ele></trkpt>
    <trkpt lat="46.654792" lon="7.940725"><ele>2092.8</ele></trkpt>
    <trkpt lat="46.655283" lon="7.941950"><ele>2115.7</ele></trkpt>
    <trkpt lat="46.655775" lon="7.943175"><ele>2138.5</ele></trkpt>
    <trkpt lat="46.656267" lon="7.944400"><ele>2161.3</ele></trkpt>
    <trkpt lat="46.656758" lon="7.945625"><ele>2184.2</ele></trkpt>
    <trkpt lat="46.657250" lon="7.946850"><ele>2207.0</ele></trkpt>
    <trkpt lat="46.657742" lon="7.948075"><ele>2229.8</ele></trkpt>
    <trkpt lat="46.658233" lon="7.949300"><ele>2252.7</ele></trkpt>
    <trkpt lat="46.658725" lon="7.950525"><ele>2275.5</ele></trkpt>
    <trkpt lat="46.659217" lon="7.951750"><ele>2298.3</ele></trkpt>
    <trkpt lat="46.659708" lon="7.952975"><ele>2321.2</ele></trkpt>
    <trkpt lat="46.660200" lon="7.954200"><ele>2344.0</ele></trkpt>
    <trkpt lat="46.660554" lon="7.955415"><ele>2354.5</ele></trkpt>
    <trkpt lat="46.660908" lon="7.956631"><ele>2364.9</ele></trkpt>
    <trkpt lat="46.661262" lon="7.957846"><ele>2375.4</ele></trkpt>
    <trkpt lat="46.661615" lon="7.959062"><ele>2385.8</ele></trkpt>
    <trkpt lat="46.661969" lon="7.960277"><ele>2396.3</ele></trkpt>
    <trkpt lat="46.662323" lon="7.961492"><ele>2406.8</ele></trkpt>
    <trkpt lat="46.662677" lon="7.962708"><ele>2417.2</ele></trkpt>
    <trkpt lat="46.663031" lon="7.963923"><ele>2427.7</ele></trkpt>
    <trkpt lat="46.663385" lon="7.965138"><ele>2438.2</ele></trkpt>
    <trkpt lat="46.663738" lon="7.966354"><ele>2448.6</ele></trkpt>
    <trkpt lat="46.664092" lon="7.967569"><ele>2459.1</ele></trkpt>
    <trkpt lat="46.664446" lon="7.968785"><ele>2469.5</ele></trkpt>
    <trkpt lat="46.664800" lon="7.970000"><ele>2480.0</ele></trkpt>
    <trkpt lat="46.665093" lon="7.971267"><ele>2482.7</ele></trkpt>
    <trkpt lat="46.665387" lon="7.972533"><ele>2485.3</ele></trkpt>
    <trkpt lat="46.665680" lon="7.973800"><ele>2488.0</ele></trkpt>
    <trkpt lat="46.665973" lon="7.975067"><ele>2490.7</ele></trkpt>
    <trkpt lat="46.666267" lon="7.976333"><ele>2493.3</ele></trkpt>
    <trkpt lat="46.666560" lon="7.977600"><ele>2496.0</ele></trkpt>
    <trkpt lat="46.666853" lon="7.978867"><ele>2498.7</ele></trkpt>
    <trkpt lat="46.667147" lon="7.980133"><ele>2501.3</ele></trkpt>
    <trkpt lat="46.667440" lon="7.981400"><ele>2504.0</ele></trkpt>
    <trkpt lat="46.667733" lon="7.982667"><ele>2506.7</ele></trkpt>
    <trkpt lat="46.668027" lon="7.983933"><ele>2509.3</ele></trkpt>
    <trkpt lat="46.668320" lon="7.985200"><ele>2512.0</ele></trkpt>
    <trkpt lat="46.668613" lon="7.986467"><ele>2514.7</ele></trkpt>
    <trkpt lat="46.668907" lon="7.987733"><ele>2517.3</ele></trkpt>
    <trkpt lat="46.669200" lon="7.989000"><ele>2520.0</ele></trkpt>
    <trkpt lat="46.669400" lon="7.990357"><ele>2521.4</ele></trkpt>
    <trkpt lat="46.669600" lon="7.991714"><ele>2522.9</ele></trkpt>
    <trkpt lat="46.669800" lon="7.993071"><ele>2524.3</ele></trkpt>
    <trkpt lat="46.670000" lon="7.994429"><ele>2525.7</ele></trkpt>
    <trkpt lat="46.670200" lon="7.995786"><ele>2527.1</ele></trkpt>
    <trkpt lat="46.670400" lon="7.997143"><ele>2528.6</ele></trkpt>
    <trkpt lat="46.670600" lon="7.998500"><ele>2530.0</ele></trkpt>
    <trkpt lat="46.670800" lon="7.999857"><ele>2531.4</ele></trkpt>
    <trkpt lat="46.671000" lon="8.001214"><ele>2532.9</ele></trkpt>
    <trkpt lat="46.671200" lon="8.002571"><ele>2534.3</ele></trkpt>
    <trkpt lat="46.671400" lon="8.003929"><ele>2535.7</ele></trkpt>
    <trkpt lat="46.671600" lon="8.005286"><ele>2537.1</ele></trkpt>
    <trkpt lat="46.671800" lon="8.006643"><ele>2538.6</ele></trkpt>
    <trkpt lat="46.672000" lon="8.008000"><ele>2540.0</ele></trkpt>
    <trkpt lat="46.671864" lon="8.009300"><ele>2552.7</ele></trkpt>
    <trkpt lat="46.671727" lon="8.010600"><ele>2565.5</ele></trkpt>
    <trkpt lat="46.671591" lon="8.011900"><ele>2578.2</ele></trkpt>
    <trkpt lat="46.671455" lon="8.013200"><ele>2590.9</ele></trkpt>
    <trkpt lat="46.671318" lon="8.014500"><ele>2603.6</ele></trkpt>
    <trkpt lat="46.671182" lon="8.015800"><ele>2616.4</ele></trkpt>
    <trkpt lat="46.671045" lon="8.017100"><ele>2629.1</ele></trkpt>
    <trkpt lat="46.670909" lon="8.018400"><ele>2641.8</ele></trkpt>
    <trkpt lat="46.670773" lon="8.019700"><ele>2654.5</ele></trkpt>
    <trkpt lat="46.670636" lon="8.021000"><ele>2667.3</ele></trkpt>
    <trkpt lat="46.670500" lon="8.022300"><ele>2680.0</ele></trkpt>
    <trkpt lat="46.670400" lon="8.023780"><ele>2597.0</ele></trkpt>
    <trkpt lat="46.670300" lon="8.025260"><ele>2514.0</ele></trkpt>
    <trkpt lat="46.670200" lon="8.026740"><ele>2431.0</ele></trkpt>
    <trkpt lat="46.670100" lon="8.028220"><ele>2348.0</ele></trkpt>
    <trkpt lat="46.670000" lon="8.029700"><ele>2265.0</ele></trkpt>
    <trkpt lat="46.669625" lon="8.031050"><ele>2250.6</ele></trkpt>
    <trkpt lat="46.669250" lon="8.032400"><ele>2236.2</ele></trkpt>
    <trkpt lat="46.668875" lon="8.033750"><ele>2221.9</ele></trkpt>
    <trkpt lat="46.668500" lon="8.035100"><ele>2207.5</ele></trkpt>
    <trkpt lat="46.668125" lon="8.036450"><ele>2193.1</ele></trkpt>
    <trkpt lat="46.667750" lon="8.037800"><ele>2178.8</ele></trkpt>
    <trkpt lat="46.667375" lon="8.039150"><ele>2164.4</ele></trkpt>
    <trkpt lat="46.667000" lon="8.040500"><ele>2150.0</ele></trkpt>
    <trkpt lat="46.666467" lon="8.041617"><ele>2151.5</ele></trkpt>
    <trkpt lat="46.665933" lon="8.042733"><ele>2153.0</ele></trkpt>
    <trkpt lat="46.665400" lon="8.043850"><ele>2154.5</ele></trkpt>
    <trkpt lat="46.664867" lon="8.044967"><ele>2156.0</ele></trkpt>
    <trkpt lat="46.664333" lon="8.046083"><ele>2157.5</ele></trkpt>
    <trkpt lat="46.663800" lon="8.047200"><ele>2159.0</ele></trkpt>
    <trkpt lat="46.663267" lon="8.048317"><ele>2160.5</ele></trkpt>
    <trkpt lat="46.662733" lon="8.049433"><ele>2162.0</ele></trkpt>
    <trkpt lat="46.662200" lon="8.050550"><ele>2163.5</ele></trkpt>
    <trkpt lat="46.661667" lon="8.051667"><ele>2165.0</ele></trkpt>
    <trkpt lat="46.661133" lon="8.052783"><ele>2166.5</ele></trkpt>
    <trkpt lat="46.660600" lon="8.053900"><ele>2168.0</ele></trkpt>
  </trkseg></trk></gpx>