<?xml version='1.0' encoding='utf-8'?>
<gpx xmlns="http://www.topografix.com/GPX/1/1" xmlns:xsi="http://www.w3.org/2001/XMLSchema-instance" xsi:schemaLocation="http://www.topografix.com/GPX/1/1 http://www.topografix.com/GPX/1/1/gpx.xsd" version="1.1" creator="extract_sac_gpx.py">
  <metadata>
    <name>Von Randa</name>
  <desc>Elevations from SwissTopo height API (sampled + interpolated)</desc></metadata>
  <wpt lat="46.09992331327831" lon="7.781572019598294">
    <ele>1407</ele>
    <name>Randa, Bahnhof</name>
    <type>start</type>
  </wpt>
  <wpt lat="46.10567838529954" lon="7.805951394584042">
    <ele>2220</ele>
    <name>Europahütte</name>
    <type>hut</type>
  </wpt>
  <trk>
    <name>Von Randa</name>
    <trkseg>
      <trkpt lat="46.10128952810438" lon="7.784006851349655">
      <ele>1439.4</ele></trkpt>
      <trkpt lat="46.10138031857689" lon="7.784210182300563">
      <ele>1440.9</ele></trkpt>
      <trkpt lat="46.10144333313543" lon="7.784303974196961">
      <ele>1442.4</ele></trkpt>
      <trkpt lat="46.10148636875934" lon="7.784397665680192">
      <ele>1444.0</ele></trkpt>
      <trkpt lat="46.101524570113526" lon="7.784433819088171">
      <ele>1445.5</ele></trkpt>
      <trkpt lat="46.10156611033276" lon="7.784472411934764">
      <ele>1447.0</ele></trkpt>
      <trkpt lat="46.101597596285174" lon="7.784527700766115">
      <ele>1448.5</ele></trkpt>
      <trkpt lat="46.10161912503557" lon="7.784570951739643">
      <ele>1450.0</ele></trkpt>
      <trkpt lat="46.101669015370135" lon="7.784600002254526">
      <ele>1451.6</ele></trkpt>
      <trkpt lat="46.101742216052656" lon="7.784633998216041">
      <ele>1453.1</ele></trkpt>
      <trkpt lat="46.101798779297425" lon="7.7846606987447835">
      <ele>1454.6</ele></trkpt>
      <trkpt lat="46.10182366568187" lon="7.784694388709162">
      <ele>1456.1</ele></trkpt>
      <trkpt lat="46.10185678060147" lon="7.784764055544816">
      <ele>1457.6</ele></trkpt>
      <trkpt lat="46.1018998289101" lon="7.784850558065768">
      <ele>1459.2</ele></trkpt>
      <trkpt lat="46.101952834328685" lon="7.784949085851289">
      <ele>1460.7</ele></trkpt>
      <trkpt lat="46.10204075080833" lon="7.785074203421798">
      <ele>1462.2</ele></trkpt>
      <trkpt lat="46.102098884133596" lon="7.785134446963083">
      <ele>1463.7</ele></trkpt>
      <trkpt lat="46.10215868727506" lon="7.785189916416736">
      <ele>1465.2</ele></trkpt>
      <trkpt lat="46.10224844430215" lon="7.785257538160159">
      <ele>1466.8</ele></trkpt>
      <trkpt lat="46.10231660816739" lon="7.785305883736557">
      <ele>1468.3</ele></trkpt>
      <trkpt lat="46.10236308904176" lon="7.785361269015188">
      <ele>1469.8</ele></trkpt>
      <trkpt lat="46.10239285890629" lon="7.785433308120338">
      <ele>1471.0</ele></trkpt>
      <trkpt lat="46.10241927672408" lon="7.785510110848673">
      <ele>1472.2</ele></trkpt>
      <trkpt lat="46.10243899204084" lon="7.785598859026761">
      <ele>1473.4</ele></trkpt>
      <trkpt lat="46.102465153553815" lon="7.7857618779128375">
      <ele>1474.6</ele></trkpt>
      <trkpt lat="46.102494923258696" lon="7.785921583444889">
      <ele>1475.8</ele></trkpt>
      <trkpt lat="46.10249574610227" lon="7.78594650865502">
      <ele>1477.0</ele></trkpt>
      <trkpt lat="46.10249315295814" lon="7.785970675014891">
      <ele>1478.2</ele></trkpt>
      <trkpt lat="46.10248127754997" lon="7.7860032269288855">
      <ele>1479.4</ele></trkpt>
      <trkpt lat="46.10247277751873" lon="7.78603219227271">
      <ele>1480.6</ele></trkpt>
      <trkpt lat="46.10246763061033" lon="7.786064799900022">
      <ele>1481.8</ele></trkpt>
      <trkpt lat="46.10248891325716" lon="7.786164408286045">
      <ele>1483.0</ele></trkpt>
      <trkpt lat="46.10249643346954" lon="7.786193643683739">
      <ele>1484.2</ele></trkpt>
      <trkpt lat="46.10250151074659" lon="7.786239144939178">
      <ele>1485.4</ele></trkpt>
      <trkpt lat="46.10251913183096" lon="7.786248309509792">
      <ele>1486.6</ele></trkpt>
      <trkpt lat="46.102546827016276" lon="7.786281139148469">
      <ele>1487.8</ele></trkpt>
      <trkpt lat="46.10256343658342" lon="7.786306203689299">
      <ele>1489.0</ele></trkpt>
      <trkpt lat="46.1025966669997" lon="7.786335150221693">
      <ele>1490.2</ele></trkpt>
      <trkpt lat="46.10262499350635" lon="7.786335330575712">
      <ele>1491.4</ele></trkpt>
      <trkpt lat="46.10264658633364" lon="7.78635464627642">
      <ele>1492.6</ele></trkpt>
      <trkpt lat="46.102686268298825" lon="7.7864530790862965">
      <ele>1493.8</ele></trkpt>
      <trkpt lat="46.102722636553864" lon="7.786546731929808">
      <ele>1494.6</ele></trkpt>
      <trkpt lat="46.1027475239959" lon="7.786582815766236">
      <ele>1495.5</ele></trkpt>
      <trkpt lat="46.10278411214861" lon="7.786602214224713">
      <ele>1496.3</ele></trkpt>
      <trkpt lat="46.102874052987126" lon="7.786609964631783">
      <ele>1497.1</ele></trkpt>
      <trkpt lat="46.10297239161898" lon="7.786598616106669">
      <ele>1498.0</ele></trkpt>
      <trkpt lat="46.10300235110757" lon="7.786605997266615">
      <ele>1498.8</ele></trkpt>
      <trkpt lat="46.10303226048933" lon="7.7866325435385955">
      <ele>1499.6</ele></trkpt>
      <trkpt lat="46.10305386972011" lon="7.7866494412956495">
      <ele>1500.5</ele></trkpt>
      <trkpt lat="46.1030888175065" lon="7.786664031626606">
      <ele>1501.3</ele></trkpt>
      <trkpt lat="46.10312866906628" lon="7.786707401415293">
      <ele>1502.2</ele></trkpt>
      <trkpt lat="46.103168594531375" lon="7.786726808433404">
      <ele>1503.0</ele></trkpt>
      <trkpt lat="46.1032119073717" lon="7.786727084518765">
      <ele>1503.8</ele></trkpt>
      <trkpt lat="46.10323365530939" lon="7.786696095382437">
      <ele>1504.7</ele></trkpt>
      <trkpt lat="46.103267094062126" lon="7.786660382885557">
      <ele>1505.5</ele></trkpt>
      <trkpt lat="46.10330377824524" lon="7.7866486414581795">
      <ele>1506.3</ele></trkpt>
      <trkpt lat="46.10333871865395" lon="7.786665624266728">
      <ele>1507.2</ele></trkpt>
      <trkpt lat="46.10338702555778" lon="7.786668324592652">
      <ele>1508.0</ele></trkpt>
      <trkpt lat="46.10344702162915" lon="7.786663922031892">
      <ele>1508.8</ele></trkpt>
      <trkpt lat="46.10348868507936" lon="7.7866594026273726">
      <ele>1509.7</ele></trkpt>
      <trkpt lat="46.10352362967262" lon="7.7866691951955955">
      <ele>1510.5</ele></trkpt>
      <trkpt lat="46.10356679796127" lon="7.7867221692798285">
      <ele>1511.4</ele></trkpt>
      <trkpt lat="46.103601631682956" lon="7.786767899972124">
      <ele>1512.3</ele></trkpt>
      <trkpt lat="46.10362658556856" lon="7.786782426811448">
      <ele>1513.1</ele></trkpt>
      <trkpt lat="46.103663247582844" lon="7.7867778755973704">
      <ele>1514.0</ele></trkpt>
      <trkpt lat="46.103714891778296" lon="7.786780597314881">
      <ele>1514.9</ele></trkpt>
      <trkpt lat="46.103764857062785" lon="7.786788093287961">
      <ele>1515.8</ele></trkpt>
      <trkpt lat="46.10379309164626" lon="7.786812236874231">
      <ele>1516.7</ele></trkpt>
      <trkpt lat="46.103819672724335" lon="7.786838749489344">
      <ele>1517.5</ele></trkpt>
      <trkpt lat="46.103846275984665" lon="7.78685807189771">
      <ele>1518.4</ele></trkpt>
      <trkpt lat="46.103874475208386" lon="7.786896583153959">
      <ele>1519.3</ele></trkpt>
      <trkpt lat="46.10390941397025" lon="7.786911173805139">
      <ele>1520.2</ele></trkpt>
      <trkpt lat="46.10393602456269" lon="7.786928116775288">
      <ele>1521.1</ele></trkpt>
      <trkpt lat="46.103969040402475" lon="7.787026522733366">
      <ele>1521.9</ele></trkpt>
      <trkpt lat="46.10399216421379" lon="7.787088939582071">
      <ele>1522.8</ele></trkpt>
      <trkpt lat="46.10402537379601" lon="7.787127483035296">
      <ele>1523.7</ele></trkpt>
      <trkpt lat="46.10404021957996" lon="7.787173086798347">
      <ele>1524.6</ele></trkpt>
      <trkpt lat="46.10406006839186" lon="7.7872211150122865">
      <ele>1525.5</ele></trkpt>
      <trkpt lat="46.104089948067596" lon="7.787257231912029">
      <ele>1526.3</ele></trkpt>
      <trkpt lat="46.10412991783061" lon="7.787262272066808">
      <ele>1527.2</ele></trkpt>
      <trkpt lat="46.1041581909159" lon="7.787276833396608">
      <ele>1528.1</ele></trkpt>
      <trkpt lat="46.10420644758936" lon="7.787298699819483">
      <ele>1528.5</ele></trkpt>
      <trkpt lat="46.104246358171864" lon="7.787322892555178">
      <ele>1528.9</ele></trkpt>
      <trkpt lat="46.10427788553547" lon="7.787361425588049">
      <ele>1529.3</ele></trkpt>
      <trkpt lat="46.10430772815533" lon="7.7874095179089755">
      <ele>1529.8</ele></trkpt>
      <trkpt lat="46.104339220072525" lon="7.78746241875479">
      <ele>1530.2</ele></trkpt>
      <trkpt lat="46.104380833348415" lon="7.787477052530201">
      <ele>1530.6</ele></trkpt>
      <trkpt lat="46.104425780716916" lon="7.787486922615328">
      <ele>1531.0</ele></trkpt>
      <trkpt lat="46.104482344860095" lon="7.787516032863285">
      <ele>1531.4</ele></trkpt>
      <trkpt lat="46.10452542472774" lon="7.7875567479854375">
      <ele>1531.8</ele></trkpt>
      <trkpt lat="46.10461626432427" lon="7.787622922105001">
      <ele>1532.2</ele></trkpt>
      <trkpt lat="46.104663955349" lon="7.787667688898231">
      <ele>1532.7</ele></trkpt>
      <trkpt lat="46.104695238185435" lon="7.787668910516335">
      <ele>1533.1</ele></trkpt>
      <trkpt lat="46.10471168660028" lon="7.787676180272162">
      <ele>1533.5</ele></trkpt>
      <trkpt lat="46.10472259439414" lon="7.787691963023093">
      <ele>1533.9</ele></trkpt>
      <trkpt lat="46.104730346064066" lon="7.787716041226741">
      <ele>1534.3</ele></trkpt>
      <trkpt lat="46.10473254806863" lon="7.787748645298596">
      <ele>1534.7</ele></trkpt>
      <trkpt lat="46.10474509518201" lon="7.787792812545604">
      <ele>1535.2</ele></trkpt>
      <trkpt lat="46.10478545155616" lon="7.787890931191064">
      <ele>1535.6</ele></trkpt>
      <trkpt lat="46.10483021100639" lon="7.787967312650407">
      <ele>1536.0</ele></trkpt>
      <trkpt lat="46.104853068201095" lon="7.788028513517904">
      <ele>1536.4</ele></trkpt>
      <trkpt lat="46.10485177008237" lon="7.7880497404861195">
      <ele>1536.7</ele></trkpt>
      <trkpt lat="46.10485124882645" lon="7.788058298509625">
      <ele>1537.0</ele></trkpt>
      <trkpt lat="46.104921591390486" lon="7.788099887164614">
      <ele>1537.3</ele></trkpt>
      <trkpt lat="46.10497209200604" lon="7.788134921431958">
      <ele>1537.7</ele></trkpt>
      <trkpt lat="46.105007271421314" lon="7.7881472773699345">
      <ele>1538.0</ele></trkpt>
      <trkpt lat="46.10503443343974" lon="7.788169100407828">
      <ele>1538.3</ele></trkpt>
      <trkpt lat="46.10504377984669" lon="7.7881778121501855">
      <ele>1538.6</ele></trkpt>
      <trkpt lat="46.10506765712474" lon="7.788214590161996">
      <ele>1538.9</ele></trkpt>
      <trkpt lat="46.105121878393284" lon="7.78829720173249">
      <ele>1539.2</ele></trkpt>
      <trkpt lat="46.10513437511804" lon="7.7883198233317295">
      <ele>1539.6</ele></trkpt>
      <trkpt lat="46.10515393619193" lon="7.788341533166624">
      <ele>1539.9</ele></trkpt>
      <trkpt lat="46.10513037203932" lon="7.788383697834836">
      <ele>1540.2</ele></trkpt>
      <trkpt lat="46.10512414791285" lon="7.788426969352064">
      <ele>1540.5</ele></trkpt>
      <trkpt lat="46.1051395041729" lon="7.788510858258588">
      <ele>1540.8</ele></trkpt>
      <trkpt lat="46.10514016760081" lon="7.788514483647057">
      <ele>1541.1</ele></trkpt>
      <trkpt lat="46.10517145246384" lon="7.788604979804532">
      <ele>1541.4</ele></trkpt>
      <trkpt lat="46.105207812570015" lon="7.788654292242037">
      <ele>1541.8</ele></trkpt>
      <trkpt lat="46.10525115781472" lon="7.788676025360164">
      <ele>1542.1</ele></trkpt>
      <trkpt lat="46.105290913135484" lon="7.788663179403057">
      <ele>1542.4</ele></trkpt>
      <trkpt lat="46.10530683757841" lon="7.788656647015703">
      <ele>1542.7</ele></trkpt>
      <trkpt lat="46.10534682212554" lon="7.78865690330955">
      <ele>1543.6</ele></trkpt>
      <trkpt lat="46.105396809556225" lon="7.78865722372065">
      <ele>1544.5</ele></trkpt>
      <trkpt lat="46.10544666913049" lon="7.7886958629255885">
      <ele>1545.4</ele></trkpt>
      <trkpt lat="46.105491594090864" lon="7.788712924655316">
      <ele>1546.3</ele></trkpt>
      <trkpt lat="46.10553325020943" lon="7.788710799152843">
      <ele>1547.2</ele></trkpt>
      <trkpt lat="46.105568301805974" lon="7.788691844614898">
      <ele>1548.1</ele></trkpt>
      <trkpt lat="46.105589938847565" lon="7.7886967813662205">
      <ele>1549.0</ele></trkpt>
      <trkpt lat="46.10561154031237" lon="7.788716086175023">
      <ele>1549.9</ele></trkpt>
      <trkpt lat="46.1056147438782" lon="7.788759211560342">
      <ele>1550.8</ele></trkpt>
      <trkpt lat="46.105627947127964" lon="7.788797628889018">
      <ele>1551.8</ele></trkpt>
      <trkpt lat="46.10563117136596" lon="7.788831184188782">
      <ele>1552.7</ele></trkpt>
      <trkpt lat="46.105636033180865" lon="7.788879105350816">
      <ele>1553.6</ele></trkpt>
      <trkpt lat="46.10563566886404" lon="7.788996467743916">
      <ele>1554.5</ele></trkpt>
      <trkpt lat="46.10562221710001" lon="7.789032321547111">
      <ele>1555.4</ele></trkpt>
      <trkpt lat="46.105598677897305" lon="7.789104024827523">
      <ele>1556.3</ele></trkpt>
      <trkpt lat="46.10560360491226" lon="7.789128020826057">
      <ele>1557.2</ele></trkpt>
      <trkpt lat="46.10562191211308" lon="7.789130530889269">
      <ele>1558.1</ele></trkpt>
      <trkpt lat="46.10565353128986" lon="7.789145102131204">
      <ele>1559.0</ele></trkpt>
      <trkpt lat="46.10567007761" lon="7.789178742987856">
      <ele>1559.9</ele></trkpt>
      <trkpt lat="46.105669995775095" lon="7.789205086496484">
      <ele>1560.8</ele></trkpt>
      <trkpt lat="46.105645022985414" lon="7.789202533613915">
      <ele>1562.5</ele></trkpt>
      <trkpt lat="46.105649933551014" lon="7.789228922096097">
      <ele>1564.1</ele></trkpt>
      <trkpt lat="46.10566483216671" lon="7.789260146902966">
      <ele>1565.8</ele></trkpt>
      <trkpt lat="46.10569310659994" lon="7.789277089316075">
      <ele>1567.4</ele></trkpt>
      <trkpt lat="46.10571979717606" lon="7.789265284954897">
      <ele>1569.1</ele></trkpt>
      <trkpt lat="46.1057531251283" lon="7.789265498954332">
      <ele>1570.8</ele></trkpt>
      <trkpt lat="46.10576467896643" lon="7.789299107849121">
      <ele>1572.4</ele></trkpt>
      <trkpt lat="46.10576452262966" lon="7.789349415372537">
      <ele>1574.1</ele></trkpt>
      <trkpt lat="46.10573999649493" lon="7.789371023716659">
      <ele>1575.7</ele></trkpt>
      <trkpt lat="46.105752454084296" lon="7.789409061442202">
      <ele>1577.4</ele></trkpt>
      <trkpt lat="46.10576368825616" lon="7.789432632473772">
      <ele>1579.1</ele></trkpt>
      <trkpt lat="46.10580638048888" lon="7.789447352662792">
      <ele>1580.7</ele></trkpt>
      <trkpt lat="46.105884325618874" lon="7.7894478534111675">
      <ele>1582.4</ele></trkpt>
      <trkpt lat="46.10594844482142" lon="7.7894482653377715">
      <ele>1584.0</ele></trkpt>
      <trkpt lat="46.106001734774054" lon="7.789480047427018">
      <ele>1585.7</ele></trkpt>
      <trkpt lat="46.10604044544366" lon="7.789554401366623">
      <ele>1587.4</ele></trkpt>
      <trkpt lat="46.10605288763685" lon="7.7895742297892845">
      <ele>1589.0</ele></trkpt>
      <trkpt lat="46.10608453906858" lon="7.789624690295627">
      <ele>1590.7</ele></trkpt>
      <trkpt lat="46.10609451355833" lon="7.789648343947947">
      <ele>1592.3</ele></trkpt>
      <trkpt lat="46.10610947376145" lon="7.7896973263442435">
      <ele>1594.0</ele></trkpt>
      <trkpt lat="46.1061463067574" lon="7.789799771646814">
      <ele>1595.8</ele></trkpt>
      <trkpt lat="46.10617782738441" lon="7.789843092578916">
      <ele>1597.6</ele></trkpt>
      <trkpt lat="46.106219321049835" lon="7.789896060984794">
      <ele>1599.4</ele></trkpt>
      <trkpt lat="46.10623257018822" lon="7.789922503450874">
      <ele>1601.2</ele></trkpt>
      <trkpt lat="46.106252408879" lon="7.789970521601875">
      <ele>1603.0</ele></trkpt>
      <trkpt lat="46.106283959279224" lon="7.790004259624674">
      <ele>1604.8</ele></trkpt>
      <trkpt lat="46.10624738679365" lon="7.790046457133869">
      <ele>1606.6</ele></trkpt>
      <trkpt lat="46.10621640030942" lon="7.790062734226952">
      <ele>1608.4</ele></trkpt>
      <trkpt lat="46.106184311213305" lon="7.790069110549457">
      <ele>1610.2</ele></trkpt>
      <trkpt lat="46.10616359509524" lon="7.790103546808843">
      <ele>1612.0</ele></trkpt>
      <trkpt lat="46.1061302673775" lon="7.790137914793572">
      <ele>1613.9</ele></trkpt>
      <trkpt lat="46.106100427175306" lon="7.790155841652628">
      <ele>1615.7</ele></trkpt>
      <trkpt lat="46.10610372490997" lon="7.790200326068818">
      <ele>1617.5</ele></trkpt>
      <trkpt lat="46.106119507190634" lon="7.790282758316374">
      <ele>1619.3</ele></trkpt>
      <trkpt lat="46.10613302246322" lon="7.790353665754136">
      <ele>1621.1</ele></trkpt>
      <trkpt lat="46.106151216499846" lon="7.790398246168593">
      <ele>1622.9</ele></trkpt>
      <trkpt lat="46.10618079617933" lon="7.790461018935182">
      <ele>1624.7</ele></trkpt>
      <trkpt lat="46.10620243157742" lon="7.790503966190404">
      <ele>1626.5</ele></trkpt>
      <trkpt lat="46.10621832785461" lon="7.79054688942663">
      <ele>1628.3</ele></trkpt>
      <trkpt lat="46.106240010731774" lon="7.790571718063109">
      <ele>1630.1</ele></trkpt>
      <trkpt lat="46.10626513492795" lon="7.790594939354509">
      <ele>1631.8</ele></trkpt>
      <trkpt lat="46.10629202734055" lon="7.790622297663059">
      <ele>1633.5</ele></trkpt>
      <trkpt lat="46.106317025553025" lon="7.790622458800101">
      <ele>1635.3</ele></trkpt>
      <trkpt lat="46.10633028795545" lon="7.7906417108737465">
      <ele>1637.0</ele></trkpt>
      <trkpt lat="46.10633025059962" lon="7.790653686515252">
      <ele>1638.7</ele></trkpt>
      <trkpt lat="46.10635521742681" lon="7.790661025237384">
      <ele>1640.4</ele></trkpt>
      <trkpt lat="46.10636343504805" lon="7.790697018815363">
      <ele>1642.1</ele></trkpt>
      <trkpt lat="46.10635659163191" lon="7.790756854134451">
      <ele>1643.9</ele></trkpt>
      <trkpt lat="46.10631491055413" lon="7.790807321182419">
      <ele>1645.6</ele></trkpt>
      <trkpt lat="46.106203220612926" lon="7.790873877743593">
      <ele>1647.3</ele></trkpt>
      <trkpt lat="46.10617277027745" lon="7.790917200467819">
      <ele>1649.0</ele></trkpt>
      <trkpt lat="46.106149583364136" lon="7.7909477147297945">
      <ele>1650.7</ele></trkpt>
      <trkpt lat="46.10611066896033" lon="7.790970613489857">
      <ele>1652.5</ele></trkpt>
      <trkpt lat="46.10610395147601" lon="7.79100159608959">
      <ele>1654.2</ele></trkpt>
      <trkpt lat="46.10607613984615" lon="7.7910237775371645">
      <ele>1655.9</ele></trkpt>
      <trkpt lat="46.10603467410481" lon="7.7910513414379885">
      <ele>1657.6</ele></trkpt>
      <trkpt lat="46.10598463832079" lon="7.791089545439651">
      <ele>1659.3</ele></trkpt>
      <trkpt lat="46.10595115960489" lon="7.791166396079792">
      <ele>1661.1</ele></trkpt>
      <trkpt lat="46.10588984046088" lon="7.791254460662535">
      <ele>1662.8</ele></trkpt>
      <trkpt lat="46.10581919111356" lon="7.791331562434991">
      <ele>1664.5</ele></trkpt>
      <trkpt lat="46.10576839092898" lon="7.791366786551397">
      <ele>1667.2</ele></trkpt>
      <trkpt lat="46.105671345738024" lon="7.791398724384842">
      <ele>1669.9</ele></trkpt>
      <trkpt lat="46.105655036658625" lon="7.791413142515111">
      <ele>1672.5</ele></trkpt>
      <trkpt lat="46.105688096994065" lon="7.791470182673395">
      <ele>1675.2</ele></trkpt>
      <trkpt lat="46.10573721574352" lon="7.791526796433576">
      <ele>1677.9</ele></trkpt>
      <trkpt lat="46.105794293932995" lon="7.791598308586653">
      <ele>1680.6</ele></trkpt>
      <trkpt lat="46.10579201219154" lon="7.791623189461613">
      <ele>1683.3</ele></trkpt>
      <trkpt lat="46.10572011930514" lon="7.791629010060128">
      <ele>1685.9</ele></trkpt>
      <trkpt lat="46.10567222589945" lon="7.791643689535253">
      <ele>1688.6</ele></trkpt>
      <trkpt lat="46.1056906274122" lon="7.791687922163039">
      <ele>1691.3</ele></trkpt>
      <trkpt lat="46.10579714248419" lon="7.791858030410316">
      <ele>1694.0</ele></trkpt>
      <trkpt lat="46.10567462528367" lon="7.791926169539924">
      <ele>1696.7</ele></trkpt>
      <trkpt lat="46.105617732463216" lon="7.791973665567754">
      <ele>1699.3</ele></trkpt>
      <trkpt lat="46.1055803848079" lon="7.792027612093388">
      <ele>1702.0</ele></trkpt>
      <trkpt lat="46.10552681900385" lon="7.792141577829416">
      <ele>1704.7</ele></trkpt>
      <trkpt lat="46.10548920431219" lon="7.7922606257352225">
      <ele>1707.4</ele></trkpt>
      <trkpt lat="46.10543015754551" lon="7.792386841619483">
      <ele>1710.1</ele></trkpt>
      <trkpt lat="46.105403166310495" lon="7.792494434954957">
      <ele>1712.7</ele></trkpt>
      <trkpt lat="46.105362693450935" lon="7.7926498693466435">
      <ele>1715.4</ele></trkpt>
      <trkpt lat="46.10534907666057" lon="7.792740814255544">
      <ele>1718.1</ele></trkpt>
      <trkpt lat="46.105419125556374" lon="7.792714911646014">
      <ele>1720.4</ele></trkpt>
      <trkpt lat="46.10544924394104" lon="7.7926743947640364">
      <ele>1722.7</ele></trkpt>
      <trkpt lat="46.105506114888385" lon="7.792605288886626">
      <ele>1725.0</ele></trkpt>
      <trkpt lat="46.105542846254984" lon="7.792581575563564">
      <ele>1727.4</ele></trkpt>
      <trkpt lat="46.105547763575615" lon="7.792605558860179">
      <ele>1729.7</ele></trkpt>
      <trkpt lat="46.10558112610166" lon="7.792589014287913">
      <ele>1732.0</ele></trkpt>
      <trkpt lat="46.10561780489706" lon="7.792582061425752">
      <ele>1734.3</ele></trkpt>
      <trkpt lat="46.10564945969878" lon="7.792582266604258">
      <ele>1736.6</ele></trkpt>
      <trkpt lat="46.10576425556613" lon="7.7926357117856195">
      <ele>1738.9</ele></trkpt>
      <trkpt lat="46.10584578363445" lon="7.79266976214261">
      <ele>1741.2</ele></trkpt>
      <trkpt lat="46.10587899733426" lon="7.792703525196233">
      <ele>1743.6</ele></trkpt>
      <trkpt lat="46.10592555725784" lon="7.792732576758642">
      <ele>1745.9</ele></trkpt>
      <trkpt lat="46.10599656619408" lon="7.792790601293573">
      <ele>1748.2</ele></trkpt>
      <trkpt lat="46.10604720722434" lon="7.79284635993886">
      <ele>1750.5</ele></trkpt>
      <trkpt lat="46.10608660836216" lon="7.79292070788709">
      <ele>1752.8</ele></trkpt>
      <trkpt lat="46.106119409814134" lon="7.792991197918487">
      <ele>1755.1</ele></trkpt>
      <trkpt lat="46.10615344111385" lon="7.79309398941387">
      <ele>1757.5</ele></trkpt>
      <trkpt lat="46.106196731534354" lon="7.793193038888898">
      <ele>1759.8</ele></trkpt>
      <trkpt lat="46.10624011733708" lon="7.793261709761871">
      <ele>1762.1</ele></trkpt>
      <trkpt lat="46.10629406077967" lon="7.7933342386648725">
      <ele>1764.4</ele></trkpt>
      <trkpt lat="46.10632716092603" lon="7.793401200467707">
      <ele>1766.8</ele></trkpt>
      <trkpt lat="46.10637035216162" lon="7.793443021644496">
      <ele>1769.1</ele></trkpt>
      <trkpt lat="46.10643715539653" lon="7.793482422671236">
      <ele>1771.5</ele></trkpt>
      <trkpt lat="46.10646928120478" lon="7.793493042463039">
      <ele>1773.9</ele></trkpt>
      <trkpt lat="46.1065008525976" lon="7.793536935172183">
      <ele>1776.2</ele></trkpt>
      <trkpt lat="46.10653638496407" lon="7.793582754825546">
      <ele>1778.6</ele></trkpt>
      <trkpt lat="46.10656381607194" lon="7.793681702268142">
      <ele>1781.0</ele></trkpt>
      <trkpt lat="46.106568994724846" lon="7.793714042516137">
      <ele>1783.4</ele></trkpt>
      <trkpt lat="46.106597073093496" lon="7.793764495605823">
      <ele>1785.7</ele></trkpt>
      <trkpt lat="46.10664692335378" lon="7.793805545811202">
      <ele>1788.1</ele></trkpt>
      <trkpt lat="46.10667840474815" lon="7.793860845167757">
      <ele>1790.5</ele></trkpt>
      <trkpt lat="46.10668642985932" lon="7.793869083965564">
      <ele>1792.8</ele></trkpt>
      <trkpt lat="46.10673485880103" lon="7.793918699676354">
      <ele>1795.2</ele></trkpt>
      <trkpt lat="46.106780792798425" lon="7.793983599011215">
      <ele>1797.6</ele></trkpt>
      <trkpt lat="46.106847247499864" lon="7.794047920702479">
      <ele>1800.0</ele></trkpt>
      <trkpt lat="46.106932377879644" lon="7.794151939301717">
      <ele>1802.3</ele></trkpt>
      <trkpt lat="46.10692145301884" lon="7.794193253968006">
      <ele>1804.7</ele></trkpt>
      <trkpt lat="46.106792635461844" lon="7.7942506138212355">
      <ele>1807.1</ele></trkpt>
      <trkpt lat="46.106683595669985" lon="7.7943062269407335">
      <ele>1809.4</ele></trkpt>
      <trkpt lat="46.10662210136212" lon="7.794329222179461">
      <ele>1811.8</ele></trkpt>
      <trkpt lat="46.10658832587428" lon="7.7943653955816705">
      <ele>1812.9</ele></trkpt>
      <trkpt lat="46.10653566531183" lon="7.794405480985988">
      <ele>1814.1</ele></trkpt>
      <trkpt lat="46.106497072303995" lon="7.794440342530314">
      <ele>1815.2</ele></trkpt>
      <trkpt lat="46.10646146898838" lon="7.7944656401904036">
      <ele>1816.3</ele></trkpt>
      <trkpt lat="46.106441429858485" lon="7.794484650370442">
      <ele>1817.5</ele></trkpt>
      <trkpt lat="46.10642578746835" lon="7.794518587941263">
      <ele>1818.6</ele></trkpt>
      <trkpt lat="46.10640786614041" lon="7.794570603820912">
      <ele>1819.7</ele></trkpt>
      <trkpt lat="46.10639001866877" lon="7.794599198602445">
      <ele>1820.9</ele></trkpt>
      <trkpt lat="46.106399594442514" lon="7.794612038767081">
      <ele>1822.0</ele></trkpt>
      <trkpt lat="46.10641882886439" lon="7.794614298092164">
      <ele>1823.2</ele></trkpt>
      <trkpt lat="46.106425458654776" lon="7.794622838256156">
      <ele>1824.3</ele></trkpt>
      <trkpt lat="46.10641876513977" lon="7.7946344989321155">
      <ele>1825.4</ele></trkpt>
      <trkpt lat="46.10639650411858" lon="7.79465349454925">
      <ele>1826.6</ele></trkpt>
      <trkpt lat="46.10636983182487" lon="7.794665024953882">
      <ele>1827.7</ele></trkpt>
      <trkpt lat="46.10634465380791" lon="7.794673383590778">
      <ele>1828.8</ele></trkpt>
      <trkpt lat="46.106326077506054" lon="7.794693476624856">
      <ele>1830.0</ele></trkpt>
      <trkpt lat="46.10629641217996" lon="7.794715618332976">
      <ele>1831.1</ele></trkpt>
      <trkpt lat="46.10622865651913" lon="7.794775780060784">
      <ele>1832.2</ele></trkpt>
      <trkpt lat="46.10619526382376" lon="7.794807480644296">
      <ele>1833.4</ele></trkpt>
      <trkpt lat="46.106164120888984" lon="7.794827504539422">
      <ele>1834.5</ele></trkpt>
      <trkpt lat="46.106147812402774" lon="7.7948358950610475">
      <ele>1835.7</ele></trkpt>
      <trkpt lat="46.10612634160534" lon="7.794841070415901">
      <ele>1836.8</ele></trkpt>
      <trkpt lat="46.10609966029776" lon="7.7948526006132255">
      <ele>1838.0</ele></trkpt>
      <trkpt lat="46.106070715743364" lon="7.794880075183654">
      <ele>1839.1</ele></trkpt>
      <trkpt lat="46.10604255813881" lon="7.794894777200552">
      <ele>1840.3</ele></trkpt>
      <trkpt lat="46.10601365157433" lon="7.794907366261857">
      <ele>1841.5</ele></trkpt>
      <trkpt lat="46.10600322735921" lon="7.7949296332714875">
      <ele>1842.6</ele></trkpt>
      <trkpt lat="46.10598246731221" lon="7.7949433230214105">
      <ele>1843.8</ele></trkpt>
      <trkpt lat="46.10596295520831" lon="7.794966332544732">
      <ele>1844.9</ele></trkpt>
      <trkpt lat="46.106004062300116" lon="7.795012771040585">
      <ele>1846.1</ele></trkpt>
      <trkpt lat="46.105989256147424" lon="7.795055313986365">
      <ele>1847.3</ele></trkpt>
      <trkpt lat="46.1059727371197" lon="7.795093332167714">
      <ele>1848.4</ele></trkpt>
      <trkpt lat="46.1060033704438" lon="7.795120742839128">
      <ele>1849.6</ele></trkpt>
      <trkpt lat="46.10604172895393" lon="7.795160179799467">
      <ele>1850.7</ele></trkpt>
      <trkpt lat="46.10606079995454" lon="7.795171452437598">
      <ele>1851.9</ele></trkpt>
      <trkpt lat="46.10606024370075" lon="7.7951852222989055">
      <ele>1853.1</ele></trkpt>
      <trkpt lat="46.10603384555255" lon="7.795198228508269">
      <ele>1854.2</ele></trkpt>
      <trkpt lat="46.10598816435691" lon="7.7952442944564275">
      <ele>1855.4</ele></trkpt>
      <trkpt lat="46.10593415480241" lon="7.795295556659945">
      <ele>1856.5</ele></trkpt>
      <trkpt lat="46.10593473952089" lon="7.7953126318117505">
      <ele>1857.7</ele></trkpt>
      <trkpt lat="46.10592923912915" lon="7.795319618409156">
      <ele>1859.5</ele></trkpt>
      <trkpt lat="46.1059146800146" lon="7.795338043112859">
      <ele>1861.2</ele></trkpt>
      <trkpt lat="46.105901319776734" lon="7.7953528415160855">
      <ele>1863.0</ele></trkpt>
      <trkpt lat="46.10591219899115" lon="7.795402936742422">
      <ele>1864.8</ele></trkpt>
      <trkpt lat="46.105871992778106" lon="7.7954983898070385">
      <ele>1866.5</ele></trkpt>
      <trkpt lat="46.105943383442174" lon="7.795620140439218">
      <ele>1868.3</ele></trkpt>
      <trkpt lat="46.10596025801937" lon="7.795665994189786">
      <ele>1870.1</ele></trkpt>
      <trkpt lat="46.105951378009216" lon="7.795774455523741">
      <ele>1871.8</ele></trkpt>
      <trkpt lat="46.105952483472535" lon="7.795820244980326">
      <ele>1873.6</ele></trkpt>
      <trkpt lat="46.105957127106684" lon="7.795930463096324">
      <ele>1875.3</ele></trkpt>
      <trkpt lat="46.10593364421349" lon="7.795982997786606">
      <ele>1877.1</ele></trkpt>
      <trkpt lat="46.10590354732967" lon="7.796016348568007">
      <ele>1878.9</ele></trkpt>
      <trkpt lat="46.10580316424429" lon="7.796147425066569">
      <ele>1880.6</ele></trkpt>
      <trkpt lat="46.105771457763886" lon="7.796166370943936">
      <ele>1882.4</ele></trkpt>
      <trkpt lat="46.105732947657465" lon="7.796225997577126">
      <ele>1884.2</ele></trkpt>
      <trkpt lat="46.10570635833545" lon="7.796231164692961">
      <ele>1885.9</ele></trkpt>
      <trkpt lat="46.10567957738458" lon="7.796240029320543">
      <ele>1887.7</ele></trkpt>
      <trkpt lat="46.105651139858" lon="7.796280555423223">
      <ele>1889.5</ele></trkpt>
      <trkpt lat="46.10565098040885" lon="7.79633086282038">
      <ele>1891.2</ele></trkpt>
      <trkpt lat="46.105670899839964" lon="7.796352552221835">
      <ele>1893.0</ele></trkpt>
      <trkpt lat="46.105784032520624" lon="7.796390940693551">
      <ele>1894.7</ele></trkpt>
      <trkpt lat="46.10587711811775" lon="7.7964535763275915">
      <ele>1896.3</ele></trkpt>
      <trkpt lat="46.10590711278169" lon="7.796492222153238">
      <ele>1898.0</ele></trkpt>
      <trkpt lat="46.105911077221656" lon="7.7965214116498">
      <ele>1899.6</ele></trkpt>
      <trkpt lat="46.10589474473277" lon="7.796554347960948">
      <ele>1901.3</ele></trkpt>
      <trkpt lat="46.10585872949541" lon="7.796578904096281">
      <ele>1903.0</ele></trkpt>
      <trkpt lat="46.10570384460789" lon="7.796629619928922">
      <ele>1904.6</ele></trkpt>
      <trkpt lat="46.10562492550232" lon="7.796675259549215">
      <ele>1906.3</ele></trkpt>
      <trkpt lat="46.105577245879964" lon="7.796698898370099">
      <ele>1907.9</ele></trkpt>
      <trkpt lat="46.10555569755311" lon="7.796739818521335">
      <ele>1909.6</ele></trkpt>
      <trkpt lat="46.10555794203016" lon="7.796780894688528">
      <ele>1911.3</ele></trkpt>
      <trkpt lat="46.105572119950544" lon="7.796811793470176">
      <ele>1912.9</ele></trkpt>
      <trkpt lat="46.10559817340973" lon="7.796856427151868">
      <ele>1914.6</ele></trkpt>
      <trkpt lat="46.105609913211275" lon="7.796904420011354">
      <ele>1916.2</ele></trkpt>
      <trkpt lat="46.10561219090431" lon="7.797025666577797">
      <ele>1917.9</ele></trkpt>
      <trkpt lat="46.10555205711452" lon="7.797135588171391">
      <ele>1919.6</ele></trkpt>
      <trkpt lat="46.105522188115806" lon="7.7971933695126205">
      <ele>1921.2</ele></trkpt>
      <trkpt lat="46.10549311561403" lon="7.797249604094499">
      <ele>1922.9</ele></trkpt>
      <trkpt lat="46.10546787519212" lon="7.79732848311168">
      <ele>1924.5</ele></trkpt>
      <trkpt lat="46.1054407278421" lon="7.797424278447979">
      <ele>1926.2</ele></trkpt>
      <trkpt lat="46.10539010338374" lon="7.797528105793822">
      <ele>1927.0</ele></trkpt>
      <trkpt lat="46.10534049577881" lon="7.797620481270457">
      <ele>1927.9</ele></trkpt>
      <trkpt lat="46.1052752019085" lon="7.797751771307505">
      <ele>1928.7</ele></trkpt>
      <trkpt lat="46.10523633910682" lon="7.797837155833063">
      <ele>1929.6</ele></trkpt>
      <trkpt lat="46.105203027430285" lon="7.797916601874003">
      <ele>1930.4</ele></trkpt>
      <trkpt lat="46.1052110372945" lon="7.797935187073274">
      <ele>1931.3</ele></trkpt>
      <trkpt lat="46.105246059887214" lon="7.797925834406739">
      <ele>1932.1</ele></trkpt>
      <trkpt lat="46.105266047652194" lon="7.797925965917563">
      <ele>1933.0</ele></trkpt>
      <trkpt lat="46.105268572390294" lon="7.79793256525928">
      <ele>1933.8</ele></trkpt>
      <trkpt lat="46.105274299709244" lon="7.797947591911529">
      <ele>1934.7</ele></trkpt>
      <trkpt lat="46.10526862032164" lon="7.797974014788137">
      <ele>1935.5</ele></trkpt>
      <trkpt lat="46.10526246633093" lon="7.798002581359125">
      <ele>1936.3</ele></trkpt>
      <trkpt lat="46.10525599389282" lon="7.798015329173797">
      <ele>1937.2</ele></trkpt>
      <trkpt lat="46.1052272619834" lon="7.7980718239417115">
      <ele>1938.0</ele></trkpt>
      <trkpt lat="46.10520205014336" lon="7.798138726746832">
      <ele>1938.9</ele></trkpt>
      <trkpt lat="46.10518018455028" lon="7.798205651524338">
      <ele>1939.7</ele></trkpt>
      <trkpt lat="46.105128380908745" lon="7.798289734680959">
      <ele>1940.6</ele></trkpt>
      <trkpt lat="46.10510809240065" lon="7.798333158168355">
      <ele>1941.4</ele></trkpt>
      <trkpt lat="46.10508764073768" lon="7.798382607154055">
      <ele>1942.3</ele></trkpt>
      <trkpt lat="46.10507668959105" lon="7.798414750182183">
      <ele>1943.1</ele></trkpt>
      <trkpt lat="46.10505894527617" lon="7.798495319906215">
      <ele>1944.3</ele></trkpt>
      <trkpt lat="46.10504965129465" lon="7.798543755985831">
      <ele>1945.5</ele></trkpt>
      <trkpt lat="46.1050432352588" lon="7.7986149465639505">
      <ele>1946.7</ele></trkpt>
      <trkpt lat="46.105040686244166" lon="7.798663905586342">
      <ele>1947.9</ele></trkpt>
      <trkpt lat="46.10503340690385" lon="7.798737806295711">
      <ele>1949.1</ele></trkpt>
      <trkpt lat="46.105021554733966" lon="7.798835201249237">
      <ele>1950.3</ele></trkpt>
      <trkpt lat="46.1050073739516" lon="7.798889916114185">
      <ele>1951.5</ele></trkpt>
      <trkpt lat="46.10500409351679" lon="7.798953794498221">
      <ele>1952.7</ele></trkpt>
      <trkpt lat="46.104994900916466" lon="7.799035209271269">
      <ele>1953.9</ele></trkpt>
      <trkpt lat="46.10499707754599" lon="7.799100080667756">
      <ele>1955.0</ele></trkpt>
      <trkpt lat="46.104989336544705" lon="7.799186057268236">
      <ele>1956.2</ele></trkpt>
      <trkpt lat="46.104967510541286" lon="7.799257288187245">
      <ele>1957.4</ele></trkpt>
      <trkpt lat="46.10492538074544" lon="7.799348443388338">
      <ele>1958.6</ele></trkpt>
      <trkpt lat="46.10489151626397" lon="7.799423202813784">
      <ele>1959.8</ele></trkpt>
      <trkpt lat="46.10487223899144" lon="7.799493454545431">
      <ele>1961.0</ele></trkpt>
      <trkpt lat="46.10485208650209" lon="7.799539206147056">
      <ele>1962.2</ele></trkpt>
      <trkpt lat="46.104854339126234" lon="7.799568978889695">
      <ele>1963.4</ele></trkpt>
      <trkpt lat="46.104832789108336" lon="7.799643845357695">
      <ele>1964.6</ele></trkpt>
      <trkpt lat="46.104799984817525" lon="7.799727379761925">
      <ele>1965.8</ele></trkpt>
      <trkpt lat="46.10476678621295" lon="7.7997879432415935">
      <ele>1967.0</ele></trkpt>
      <trkpt lat="46.10475878449085" lon="7.799828744254575">
      <ele>1969.6</ele></trkpt>
      <trkpt lat="46.104752516191006" lon="7.799864771678557">
      <ele>1972.1</ele></trkpt>
      <trkpt lat="46.104653836695576" lon="7.80008606695478">
      <ele>1974.7</ele></trkpt>
      <trkpt lat="46.104587548826714" lon="7.800279615875122">
      <ele>1977.3</ele></trkpt>
      <trkpt lat="46.10448790718072" lon="7.800494928552595">
      <ele>1979.8</ele></trkpt>
      <trkpt lat="46.10428919962925" lon="7.8007457944342145">
      <ele>1982.4</ele></trkpt>
      <trkpt lat="46.10403018918173" lon="7.8010066042497455">
      <ele>1985.0</ele></trkpt>
      <trkpt lat="46.10358063958871" lon="7.801495047570757">
      <ele>1987.5</ele></trkpt>
      <trkpt lat="46.10333055207175" lon="7.8017778945594625">
      <ele>1990.1</ele></trkpt>
      <trkpt lat="46.10322652785837" lon="7.801917413629097">
      <ele>1992.7</ele></trkpt>
      <trkpt lat="46.103169742542406" lon="7.801969320664906">
      <ele>1995.2</ele></trkpt>
      <trkpt lat="46.10315583755487" lon="7.801996579698951">
      <ele>1997.8</ele></trkpt>
      <trkpt lat="46.10312883714735" lon="7.802020376281975">
      <ele>2000.3</ele></trkpt>
      <trkpt lat="46.103096246597495" lon="7.802056550514692">
      <ele>2002.9</ele></trkpt>
      <trkpt lat="46.10308965737559" lon="7.802094242703145">
      <ele>2005.5</ele></trkpt>
      <trkpt lat="46.103095283473394" lon="7.802120972126769">
      <ele>2008.0</ele></trkpt>
      <trkpt lat="46.103099226448556" lon="7.802125653949736">
      <ele>2010.6</ele></trkpt>
      <trkpt lat="46.103110938932815" lon="7.802139543461335">
      <ele>2013.2</ele></trkpt>
      <trkpt lat="46.10311939672766" lon="7.8021724474616185">
      <ele>2015.7</ele></trkpt>
      <trkpt lat="46.10310716893198" lon="7.802215197384289">
      <ele>2018.3</ele></trkpt>
      <trkpt lat="46.10307623538363" lon="7.8022731214736005">
      <ele>2021.1</ele></trkpt>
      <trkpt lat="46.1030125642936" lon="7.802387664225506">
      <ele>2024.0</ele></trkpt>
      <trkpt lat="46.102955494351285" lon="7.802516618288412">
      <ele>2026.8</ele></trkpt>
      <trkpt lat="46.10293292688946" lon="7.802602324271634">
      <ele>2029.6</ele></trkpt>
      <trkpt lat="46.10291230963523" lon="7.80269136673959">
      <ele>2032.4</ele></trkpt>
      <trkpt lat="46.10289051794795" lon="7.8027429111165345">
      <ele>2035.2</ele></trkpt>
      <trkpt lat="46.10287230555518" lon="7.802808678775015">
      <ele>2038.1</ele></trkpt>
      <trkpt lat="46.102859324266326" lon="7.802875774491162">
      <ele>2040.9</ele></trkpt>
      <trkpt lat="46.1028452934282" lon="7.80292801712147">
      <ele>2043.7</ele></trkpt>
      <trkpt lat="46.102815888634744" lon="7.802977622462439">
      <ele>2046.6</ele></trkpt>
      <trkpt lat="46.10279475200179" lon="7.8030546989507314">
      <ele>2049.4</ele></trkpt>
      <trkpt lat="46.10276529218402" lon="7.803121322431451">
      <ele>2052.2</ele></trkpt>
      <trkpt lat="46.10273343496041" lon="7.803180998244162">
      <ele>2055.0</ele></trkpt>
      <trkpt lat="46.102679540559365" lon="7.803368088719353">
      <ele>2057.8</ele></trkpt>
      <trkpt lat="46.102645914821615" lon="7.8034739069845545">
      <ele>2060.7</ele></trkpt>
      <trkpt lat="46.10264292349214" lon="7.803564411377934">
      <ele>2063.5</ele></trkpt>
      <trkpt lat="46.102782343649565" lon="7.80356792947152">
      <ele>2066.3</ele></trkpt>
      <trkpt lat="46.102818145356544" lon="7.8036237767300145">
      <ele>2069.2</ele></trkpt>
      <trkpt lat="46.10275466722393" lon="7.803781123851206">
      <ele>2072.0</ele></trkpt>
      <trkpt lat="46.10263285830635" lon="7.804039480633023">
      <ele>2074.8</ele></trkpt>
      <trkpt lat="46.102605663158876" lon="7.8040927209454845">
      <ele>2075.6</ele></trkpt>
      <trkpt lat="46.10259227101639" lon="7.80413367762573">
      <ele>2076.5</ele></trkpt>
      <trkpt lat="46.1025883228879" lon="7.804163938042491">
      <ele>2077.3</ele></trkpt>
      <trkpt lat="46.10258469352064" lon="7.804184656742724">
      <ele>2078.1</ele></trkpt>
      <trkpt lat="46.102570143598776" lon="7.804210901907762">
      <ele>2079.0</ele></trkpt>
      <trkpt lat="46.10256246156747" lon="7.804241383017494">
      <ele>2079.8</ele></trkpt>
      <trkpt lat="46.10255627270671" lon="7.804274667435404">
      <ele>2080.6</ele></trkpt>
      <trkpt lat="46.1025315298692" lon="7.804315069542515">
      <ele>2081.5</ele></trkpt>
      <trkpt lat="46.10249772601055" lon="7.804350677812486">
      <ele>2082.3</ele></trkpt>
      <trkpt lat="46.102467559653924" lon="7.804374167240364">
      <ele>2083.2</ele></trkpt>
      <trkpt lat="46.10244487711982" lon="7.804397810222976">
      <ele>2084.0</ele></trkpt>
      <trkpt lat="46.10240488892981" lon="7.8044652802002235">
      <ele>2084.8</ele></trkpt>
      <trkpt lat="46.10237217230551" lon="7.804528996794492">
      <ele>2085.7</ele></trkpt>
      <trkpt lat="46.102365454706174" lon="7.8045477678298205">
      <ele>2086.5</ele></trkpt>
      <trkpt lat="46.10236161975674" lon="7.804590249578859">
      <ele>2087.3</ele></trkpt>
      <trkpt lat="46.10235551508745" lon="7.804619732395655">
      <ele>2088.2</ele></trkpt>
      <trkpt lat="46.10234989042499" lon="7.804664853193412">
      <ele>2089.0</ele></trkpt>
      <trkpt lat="46.102339321506946" lon="7.8046950819901735">
      <ele>2089.8</ele></trkpt>
      <trkpt lat="46.102338000552415" lon="7.804725152927178">
      <ele>2090.7</ele></trkpt>
      <trkpt lat="46.10231863983302" lon="7.804767427094735">
      <ele>2091.5</ele></trkpt>
      <trkpt lat="46.10229020064425" lon="7.804824150030937">
      <ele>2092.4</ele></trkpt>
      <trkpt lat="46.10228500453172" lon="7.804861928269165">
      <ele>2093.4</ele></trkpt>
      <trkpt lat="46.102271382514886" lon="7.804893248664911">
      <ele>2094.3</ele></trkpt>
      <trkpt lat="46.10228611593241" lon="7.8049075209183245">
      <ele>2095.2</ele></trkpt>
      <trkpt lat="46.10232473056098" lon="7.804944597254372">
      <ele>2096.2</ele></trkpt>
      <trkpt lat="46.10231381816775" lon="7.804969767276329">
      <ele>2097.1</ele></trkpt>
      <trkpt lat="46.102286528191485" lon="7.804993896315106">
      <ele>2098.0</ele></trkpt>
      <trkpt lat="46.10228515937942" lon="7.805016518080338">
      <ele>2098.9</ele></trkpt>
      <trkpt lat="46.10230627964504" lon="7.805022479165893">
      <ele>2099.9</ele></trkpt>
      <trkpt lat="46.102361120357465" lon="7.805046292795546">
      <ele>2100.8</ele></trkpt>
      <trkpt lat="46.1024052655709" lon="7.80505063670768">
      <ele>2101.7</ele></trkpt>
      <trkpt lat="46.10242932978905" lon="7.805064169863534">
      <ele>2102.7</ele></trkpt>
      <trkpt lat="46.10247801308676" lon="7.80506718638453">
      <ele>2103.6</ele></trkpt>
      <trkpt lat="46.102484942534524" lon="7.805085699802305">
      <ele>2104.5</ele></trkpt>
      <trkpt lat="46.102511508223046" lon="7.805071316607851">
      <ele>2105.4</ele></trkpt>
      <trkpt lat="46.10252034239963" lon="7.805082238787687">
      <ele>2106.4</ele></trkpt>
      <trkpt lat="46.10251684943257" lon="7.805102453968486">
      <ele>2107.3</ele></trkpt>
      <trkpt lat="46.10251193042977" lon="7.805118585988969">
      <ele>2108.2</ele></trkpt>
      <trkpt lat="46.102520594129835" lon="7.8051542977266575">
      <ele>2109.2</ele></trkpt>
      <trkpt lat="46.10251030589991" lon="7.805178385696696">
      <ele>2110.1</ele></trkpt>
      <trkpt lat="46.102500925024955" lon="7.805183456744558">
      <ele>2110.9</ele></trkpt>
      <trkpt lat="46.10249623134215" lon="7.805213298207221">
      <ele>2111.7</ele></trkpt>
      <trkpt lat="46.10246778711203" lon="7.805227203165712">
      <ele>2112.5</ele></trkpt>
      <trkpt lat="46.10247307822172" lon="7.80526267240558">
      <ele>2113.3</ele></trkpt>
      <trkpt lat="46.10248007257995" lon="7.805280578477725">
      <ele>2114.1</ele></trkpt>
      <trkpt lat="46.102468225347714" lon="7.805305509451516">
      <ele>2114.9</ele></trkpt>
      <trkpt lat="46.10248506616745" lon="7.8053328573564">
      <ele>2115.7</ele></trkpt>
      <trkpt lat="46.10245040528748" lon="7.805380188545503">
      <ele>2116.5</ele></trkpt>
      <trkpt lat="46.10244199221316" lon="7.8054223809150285">
      <ele>2117.3</ele></trkpt>
      <trkpt lat="46.10244589478171" lon="7.80543391661433">
      <ele>2118.1</ele></trkpt>
      <trkpt lat="46.10245584082182" lon="7.805432095345275">
      <ele>2118.9</ele></trkpt>
      <trkpt lat="46.102475229159246" lon="7.805409077262368">
      <ele>2119.7</ele></trkpt>
      <trkpt lat="46.10248888222397" lon="7.805412531284649">
      <ele>2120.5</ele></trkpt>
      <trkpt lat="46.102492095637565" lon="7.805425756459006">
      <ele>2121.3</ele></trkpt>
      <trkpt lat="46.102479295618885" lon="7.805450448230823">
      <ele>2122.1</ele></trkpt>
      <trkpt lat="46.10248048971629" lon="7.805495433806432">
      <ele>2122.9</ele></trkpt>
      <trkpt lat="46.10246215424856" lon="7.805510027262244">
      <ele>2123.7</ele></trkpt>
      <trkpt lat="46.10246277061986" lon="7.805536257524924">
      <ele>2124.5</ele></trkpt>
      <trkpt lat="46.102469788805934" lon="7.8055578882092425">
      <ele>2125.3</ele></trkpt>
      <trkpt lat="46.10246194069372" lon="7.805570172618008">
      <ele>2126.1</ele></trkpt>
      <trkpt lat="46.102436076603524" lon="7.8055983845864">
      <ele>2127.4</ele></trkpt>
      <trkpt lat="46.10243968460754" lon="7.805639636070625">
      <ele>2128.6</ele></trkpt>
      <trkpt lat="46.10240888104409" lon="7.805695773780881">
      <ele>2129.9</ele></trkpt>
      <trkpt lat="46.10237886093212" lon="7.805737820822332">
      <ele>2131.2</ele></trkpt>
      <trkpt lat="46.102348552943724" lon="7.805754984741379">
      <ele>2132.4</ele></trkpt>
      <trkpt lat="46.102331309040046" lon="7.805768615514789">
      <ele>2133.7</ele></trkpt>
      <trkpt lat="46.10232793996776" lon="7.805783891398657">
      <ele>2135.0</ele></trkpt>
      <trkpt lat="46.10233491937535" lon="7.8057980729789636">
      <ele>2136.3</ele></trkpt>
      <trkpt lat="46.102372893504565" lon="7.805805208112208">
      <ele>2137.5</ele></trkpt>
      <trkpt lat="46.10241058682169" lon="7.805818471135644">
      <ele>2138.8</ele></trkpt>
      <trkpt lat="46.10244445502588" lon="7.8058351095756855">
      <ele>2140.1</ele></trkpt>
      <trkpt lat="46.1024374653064" lon="7.805860034281981">
      <ele>2141.3</ele></trkpt>
      <trkpt lat="46.1024064239676" lon="7.805886931015863">
      <ele>2142.6</ele></trkpt>
      <trkpt lat="46.102363572875966" lon="7.8059189081568165">
      <ele>2143.9</ele></trkpt>
      <trkpt lat="46.102344617642395" lon="7.8059774142924425">
      <ele>2145.2</ele></trkpt>
      <trkpt lat="46.10233039705165" lon="7.806068152875625">
      <ele>2146.4</ele></trkpt>
      <trkpt lat="46.10231220242201" lon="7.806136156114302">
      <ele>2147.7</ele></trkpt>
      <trkpt lat="46.10231711115003" lon="7.8061591304780364">
      <ele>2149.0</ele></trkpt>
      <trkpt lat="46.10235085083983" lon="7.806137877515176">
      <ele>2150.2</ele></trkpt>
      <trkpt lat="46.102402388226984" lon="7.806118024558176">
      <ele>2151.5</ele></trkpt>
      <trkpt lat="46.10244729060413" lon="7.806116361051023">
      <ele>2153.0</ele></trkpt>
      <trkpt lat="46.1024618345695" lon="7.806119704855549">
      <ele>2154.6</ele></trkpt>
      <trkpt lat="46.102524416697634" lon="7.806119750958708">
      <ele>2156.1</ele></trkpt>
      <trkpt lat="46.10260899506497" lon="7.8061274586006295">
      <ele>2157.7</ele></trkpt>
      <trkpt lat="46.10266562092643" lon="7.806116821544212">
      <ele>2159.2</ele></trkpt>
      <trkpt lat="46.10269889856792" lon="7.806129718905142">
      <ele>2160.8</ele></trkpt>
      <trkpt lat="46.102735849926745" lon="7.806111151395259">
      <ele>2162.3</ele></trkpt>
      <trkpt lat="46.102784191950455" lon="7.806058739635739">
      <ele>2163.9</ele></trkpt>
      <trkpt lat="46.10281657973425" lon="7.806032744186426">
      <ele>2165.4</ele></trkpt>
      <trkpt lat="46.10285614925356" lon="7.80601956100854">
      <ele>2166.9</ele></trkpt>
      <trkpt lat="46.10288074964724" lon="7.805989943853098">
      <ele>2168.5</ele></trkpt>
      <trkpt lat="46.10290875151281" lon="7.805968264007324">
      <ele>2170.0</ele></trkpt>
      <trkpt lat="46.10292702060102" lon="7.805940919065929">
      <ele>2171.6</ele></trkpt>
      <trkpt lat="46.10295178070137" lon="7.80593132184634">
      <ele>2173.1</ele></trkpt>
      <trkpt lat="46.102953591131424" lon="7.805930609823802">
      <ele>2174.7</ele></trkpt>
      <trkpt lat="46.102994079798286" lon="7.805919695845104">
      <ele>2176.2</ele></trkpt>
      <trkpt lat="46.103039008079" lon="7.805915601087211">
      <ele>2177.8</ele></trkpt>
      <trkpt lat="46.10306226094351" lon="7.805935168641373">
      <ele>2179.3</ele></trkpt>
      <trkpt lat="46.10310516345147" lon="7.805959252386111">
      <ele>2180.9</ele></trkpt>
      <trkpt lat="46.10312464516545" lon="7.805990485296543">
      <ele>2182.4</ele></trkpt>
      <trkpt lat="46.103123002781125" lon="7.806025235919784">
      <ele>2183.5</ele></trkpt>
      <trkpt lat="46.10311983822494" lon="7.806038470102795">
      <ele>2184.5</ele></trkpt>
      <trkpt lat="46.10311185756231" lon="7.806102495296887">
      <ele>2185.6</ele></trkpt>
      <trkpt lat="46.10310422492746" lon="7.806170130888804">
      <ele>2186.7</ele></trkpt>
      <trkpt lat="46.10309703988872" lon="7.8061942398128865">
      <ele>2187.8</ele></trkpt>
      <trkpt lat="46.10309867599497" lon="7.806224951782034">
      <ele>2188.8</ele></trkpt>
      <trkpt lat="46.10308848724859" lon="7.806276417862254">
      <ele>2189.9</ele></trkpt>
      <trkpt lat="46.10307357700336" lon="7.806299905739469">
      <ele>2191.0</ele></trkpt>
      <trkpt lat="46.103074612038924" lon="7.806313543202724">
      <ele>2192.0</ele></trkpt>
      <trkpt lat="46.10308839686749" lon="7.806320722838996">
      <ele>2193.1</ele></trkpt>
      <trkpt lat="46.103144066161356" lon="7.806316545536621">
      <ele>2194.2</ele></trkpt>
      <trkpt lat="46.10318135398469" lon="7.806294113544167">
      <ele>2195.2</ele></trkpt>
      <trkpt lat="46.1032009946227" lon="7.806298629787523">
      <ele>2196.3</ele></trkpt>
      <trkpt lat="46.10320621105912" lon="7.806315502618476">
      <ele>2197.4</ele></trkpt>
      <trkpt lat="46.10320198914406" lon="7.806363349154038">
      <ele>2198.5</ele></trkpt>
      <trkpt lat="46.10319303542422" lon="7.806411228476037">
      <ele>2199.5</ele></trkpt>
      <trkpt lat="46.10319121332332" lon="7.8064569185497685">
      <ele>2200.6</ele></trkpt>
      <trkpt lat="46.10320043174658" lon="7.806479624902205">
      <ele>2201.7</ele></trkpt>
      <trkpt lat="46.103211433464985" lon="7.8064906267103975">
      <ele>2202.7</ele></trkpt>
      <trkpt lat="46.103232645220785" lon="7.806490575613113">
      <ele>2203.8</ele></trkpt>
      <trkpt lat="46.10325382848279" lon="7.806485467833359">
      <ele>2204.6</ele></trkpt>
      <trkpt lat="46.1032693959508" lon="7.806478382391122">
      <ele>2205.3</ele></trkpt>
      <trkpt lat="46.10327851023998" lon="7.806488880075144">
      <ele>2206.1</ele></trkpt>
      <trkpt lat="46.10329125285178" lon="7.8065094634633585">
      <ele>2206.9</ele></trkpt>
      <trkpt lat="46.10332226355533" lon="7.806519604309963">
      <ele>2207.6</ele></trkpt>
      <trkpt lat="46.10334508431664" lon="7.806514404106533">
      <ele>2208.4</ele></trkpt>
      <trkpt lat="46.103360336510825" lon="7.806504691294965">
      <ele>2209.2</ele></trkpt>
      <trkpt lat="46.10337328884602" lon="7.806510610982808">
      <ele>2209.9</ele></trkpt>
      <trkpt lat="46.10337707686943" lon="7.806532414376305">
      <ele>2210.7</ele></trkpt>
      <trkpt lat="46.10338732374642" lon="7.806562486188184">
      <ele>2211.4</ele></trkpt>
      <trkpt lat="46.103400835800954" lon="7.8065898642428015">
      <ele>2212.2</ele></trkpt>
      <trkpt lat="46.10341335408941" lon="7.806599233938298">
      <ele>2213.0</ele></trkpt>
      <trkpt lat="46.10344763827877" lon="7.806604133492145">
      <ele>2213.7</ele></trkpt>
      <trkpt lat="46.10347324292025" lon="7.806597632980544">
      <ele>2214.5</ele></trkpt>
      <trkpt lat="46.103499546828125" lon="7.806572553518241">
      <ele>2215.3</ele></trkpt>
      <trkpt lat="46.10352053153251" lon="7.80654557594912">
      <ele>2216.0</ele></trkpt>
      <trkpt lat="46.10353121650758" lon="7.806548881002564">
      <ele>2216.8</ele></trkpt>
      <trkpt lat="46.10353939822226" lon="7.806566743858602">
      <ele>2217.6</ele></trkpt>
      <trkpt lat="46.10355119710565" lon="7.806587075291459">
      <ele>2218.3</ele></trkpt>
      <trkpt lat="46.10356932981016" lon="7.806593327367602">
      <ele>2219.1</ele></trkpt>
      <trkpt lat="46.10358533274628" lon="7.806587874316561">
      <ele>2219.9</ele></trkpt>
      <trkpt lat="46.103594890021114" lon="7.806594935077694">
      <ele>2220.8</ele></trkpt>
      <trkpt lat="46.10359550458333" lon="7.806613367720246">
      <ele>2221.7</ele></trkpt>
      <trkpt lat="46.103581218920425" lon="7.806646675532186">
      <ele>2222.5</ele></trkpt>
      <trkpt lat="46.10358243692869" lon="7.806675910690384">
      <ele>2223.3</ele></trkpt>
      <trkpt lat="46.1035988031729" lon="7.806719033764326">
      <ele>2224.2</ele></trkpt>
      <trkpt lat="46.10359921583831" lon="7.806746957344312">
      <ele>2225.0</ele></trkpt>
      <trkpt lat="46.103609064010215" lon="7.806783415180147">
      <ele>2225.9</ele></trkpt>
      <trkpt lat="46.10359908159447" lon="7.806815678589997">
      <ele>2226.8</ele></trkpt>
      <trkpt lat="46.103597971526696" lon="7.806860895297823">
      <ele>2227.6</ele></trkpt>
      <trkpt lat="46.10357375897613" lon="7.806912176630369">
      <ele>2228.4</ele></trkpt>
      <trkpt lat="46.10356965043689" lon="7.806950014626551">
      <ele>2229.3</ele></trkpt>
      <trkpt lat="46.10357568838645" lon="7.806988011584214">
      <ele>2230.2</ele></trkpt>
      <trkpt lat="46.10358901049278" lon="7.80700465476505">
      <ele>2231.0</ele></trkpt>
      <trkpt lat="46.10359990074078" lon="7.807005698147705">
      <ele>2231.8</ele></trkpt>
      <trkpt lat="46.10360808424574" lon="7.806992678810464">
      <ele>2232.7</ele></trkpt>
      <trkpt lat="46.10364032229349" lon="7.807004354280374">
      <ele>2233.5</ele></trkpt>
      <trkpt lat="46.103651295327694" lon="7.806982792570249">
      <ele>2234.4</ele></trkpt>
      <trkpt lat="46.10369968769695" lon="7.80696469045079">
      <ele>2235.2</ele></trkpt>
      <trkpt lat="46.10375628852718" lon="7.806936944421715">
      <ele>2236.1</ele></trkpt>
      <trkpt lat="46.10379370984529" lon="7.80691499199727">
      <ele>2237.6</ele></trkpt>
      <trkpt lat="46.10382951912796" lon="7.8068935976946925">
      <ele>2239.1</ele></trkpt>
      <trkpt lat="46.10387139646755" lon="7.806845849361488">
      <ele>2240.6</ele></trkpt>
      <trkpt lat="46.10390483811213" lon="7.806816731336109">
      <ele>2242.1</ele></trkpt>
      <trkpt lat="46.103953250874866" lon="7.806778583954824">
      <ele>2243.6</ele></trkpt>
      <trkpt lat="46.104024504234054" lon="7.806767761408417">
      <ele>2245.1</ele></trkpt>
      <trkpt lat="46.104111362909684" lon="7.8067354986463">
      <ele>2246.6</ele></trkpt>
      <trkpt lat="46.1042401030352" lon="7.8067452122391625">
      <ele>2248.1</ele></trkpt>
      <trkpt lat="46.10435683489505" lon="7.8067629406499055">
      <ele>2249.6</ele></trkpt>
      <trkpt lat="46.10446474298961" lon="7.806741786321695">
      <ele>2251.1</ele></trkpt>
      <trkpt lat="46.10451882953113" lon="7.806701620458156">
      <ele>2252.5</ele></trkpt>
      <trkpt lat="46.10457281585223" lon="7.806683904682787">
      <ele>2254.0</ele></trkpt>
      <trkpt lat="46.104710891713964" lon="7.806614146002191">
      <ele>2255.5</ele></trkpt>
      <trkpt lat="46.10480396512513" lon="7.806560171886712">
      <ele>2257.0</ele></trkpt>
      <trkpt lat="46.10491030213136" lon="7.806557357750019">
      <ele>2258.5</ele></trkpt>
      <trkpt lat="46.10498364727178" lon="7.806564369956362">
      <ele>2260.0</ele></trkpt>
      <trkpt lat="46.10505722171327" lon="7.806520364509378">
      <ele>2261.5</ele></trkpt>
      <trkpt lat="46.105092053763364" lon="7.806428945578604">
      <ele>2263.0</ele></trkpt>
      <trkpt lat="46.10526023689311" lon="7.806320784296765">
      <ele>2264.5</ele></trkpt>
      <trkpt lat="46.10539569284188" lon="7.806163257761652">
      <ele>2266.0</ele></trkpt>
      <trkpt lat="46.10547821548681" lon="7.806125467639815">
      <ele>2265.6</ele></trkpt>
      <trkpt lat="46.10554128134461" lon="7.806087468881196">
      <ele>2265.2</ele></trkpt>
      <trkpt lat="46.10560262930553" lon="7.80609635265232">
      <ele>2264.9</ele></trkpt>
      <trkpt lat="46.10564766056663" lon="7.806074450117221">
      <ele>2264.5</ele></trkpt>
    </trkseg>
  </trk>
</gpx>