<?xml version="1.0" encoding="UTF-8"?>
<gpx version="1.1" creator="hike-planner" xmlns="http://www.topografix.com/GPX/1/1">
  <metadata><name>Alpnachstad -> Tomlishorn / Pilatus</name>
    <desc>Routed from OSM (ODbL); elevations from SwissTopo / Open-Elevation</desc>
  </metadata>
  <wpt lat="46.993643" lon="8.228013">
    <ele>1013.1</ele>
    <name>Alpnachstad</name>
  </wpt>
  <wpt lat="46.973798" lon="8.241068">
    <ele>2126.4</ele>
    <name>Tomlishorn / Pilatus</name>
  </wpt>
  <trk>
    <name>Alpnachstad -> Tomlishorn / Pilatus</name>
    <trkseg>
      <trkpt lat="46.993643" lon="8.228013">
        <ele>1013.1</ele>
      </trkpt>
      <trkpt lat="46.993582" lon="8.228042">
        <ele>1013.3</ele>
      </trkpt>
      <trkpt lat="46.992359" lon="8.228269">
        <ele>1018.3</ele>
      </trkpt>
      <trkpt lat="46.992145" lon="8.228273">
        <ele>1018.6</ele>
      </trkpt>
      <trkpt lat="46.991994" lon="8.228189">
        <ele>1019.3</ele>
      </trkpt>
      <trkpt lat="46.991789" lon="8.228125">
        <ele>1020.9</ele>
      </trkpt>
      <trkpt lat="46.990995" lon="8.227306">
        <ele>1024.6</ele>
      </trkpt>
      <trkpt lat="46.990938" lon="8.227260">
        <ele>1024.9</ele>
      </trkpt>
      <trkpt lat="46.990752" lon="8.227277">
        <ele>1026.2</ele>
      </trkpt>
      <trkpt lat="46.990665" lon="8.227247">
        <ele>1026.6</ele>
      </trkpt>
      <trkpt lat="46.990408" lon="8.227035">
        <ele>1027.8</ele>
      </trkpt>
      <trkpt lat="46.990342" lon="8.227019">
        <ele>1028.1</ele>
      </trkpt>
      <trkpt lat="46.990065" lon="8.227070">
        <ele>1030.1</ele>
      </trkpt>
      <trkpt lat="46.989893" lon="8.227035">
        <ele>1031.5</ele>
      </trkpt>
      <trkpt lat="46.989760" lon="8.226960">
        <ele>1032.6</ele>
      </trkpt>
      <trkpt lat="46.989652" lon="8.226871">
        <ele>1033.7</ele>
      </trkpt>
      <trkpt lat="46.989564" lon="8.226818">
        <ele>1034.5</ele>
      </trkpt>
      <trkpt lat="46.989151" lon="8.226641">
        <ele>1036.1</ele>
      </trkpt>
      <trkpt lat="46.989078" lon="8.226618">
        <ele>1036.7</ele>
      </trkpt>
      <trkpt lat="46.989052" lon="8.226621">
        <ele>1037.0</ele>
      </trkpt>
      <trkpt lat="46.988796" lon="8.226527">
        <ele>1040.4</ele>
      </trkpt>
      <trkpt lat="46.988674" lon="8.226462">
        <ele>1041.9</ele>
      </trkpt>
      <trkpt lat="46.988588" lon="8.226485">
        <ele>1043.4</ele>
      </trkpt>
      <trkpt lat="46.988236" lon="8.226656">
        <ele>1049.8</ele>
      </trkpt>
      <trkpt lat="46.988129" lon="8.226730">
        <ele>1051.7</ele>
      </trkpt>
      <trkpt lat="46.987937" lon="8.226785">
        <ele>1055.2</ele>
      </trkpt>
      <trkpt lat="46.987792" lon="8.226816">
        <ele>1058.2</ele>
      </trkpt>
      <trkpt lat="46.987491" lon="8.226777">
        <ele>1064.9</ele>
      </trkpt>
      <trkpt lat="46.987276" lon="8.226809">
        <ele>1066.8</ele>
      </trkpt>
      <trkpt lat="46.987133" lon="8.226801">
        <ele>1068.9</ele>
      </trkpt>
      <trkpt lat="46.987040" lon="8.226820">
        <ele>1070.9</ele>
      </trkpt>
      <trkpt lat="46.986864" lon="8.226890">
        <ele>1074.5</ele>
      </trkpt>
      <trkpt lat="46.986596" lon="8.227026">
        <ele>1079.4</ele>
      </trkpt>
      <trkpt lat="46.986471" lon="8.227109">
        <ele>1082.0</ele>
      </trkpt>
      <trkpt lat="46.986336" lon="8.227159">
        <ele>1084.6</ele>
      </trkpt>
      <trkpt lat="46.986067" lon="8.227411">
        <ele>1090.1</ele>
      </trkpt>
      <trkpt lat="46.985982" lon="8.227509">
        <ele>1091.3</ele>
      </trkpt>
      <trkpt lat="46.985948" lon="8.227574">
        <ele>1091.9</ele>
      </trkpt>
      <trkpt lat="46.985910" lon="8.227687">
        <ele>1093.1</ele>
      </trkpt>
      <trkpt lat="46.985782" lon="8.228367">
        <ele>1101.7</ele>
      </trkpt>
      <trkpt lat="46.985675" lon="8.228705">
        <ele>1107.7</ele>
      </trkpt>
      <trkpt lat="46.985582" lon="8.228887">
        <ele>1111.8</ele>
      </trkpt>
      <trkpt lat="46.985538" lon="8.229013">
        <ele>1113.4</ele>
      </trkpt>
      <trkpt lat="46.985540" lon="8.229108">
        <ele>1114.7</ele>
      </trkpt>
      <trkpt lat="46.985538" lon="8.229248">
        <ele>1116.8</ele>
      </trkpt>
      <trkpt lat="46.985526" lon="8.229307">
        <ele>1117.9</ele>
      </trkpt>
      <trkpt lat="46.985453" lon="8.229404">
        <ele>1120.9</ele>
      </trkpt>
      <trkpt lat="46.985332" lon="8.229502">
        <ele>1123.9</ele>
      </trkpt>
      <trkpt lat="46.985255" lon="8.229636">
        <ele>1127.0</ele>
      </trkpt>
      <trkpt lat="46.985123" lon="8.229768">
        <ele>1130.8</ele>
      </trkpt>
      <trkpt lat="46.985061" lon="8.229915">
        <ele>1133.6</ele>
      </trkpt>
      <trkpt lat="46.984953" lon="8.230107">
        <ele>1137.4</ele>
      </trkpt>
      <trkpt lat="46.984812" lon="8.230313">
        <ele>1142.3</ele>
      </trkpt>
      <trkpt lat="46.984774" lon="8.230415">
        <ele>1144.1</ele>
      </trkpt>
      <trkpt lat="46.984728" lon="8.230519">
        <ele>1146.2</ele>
      </trkpt>
      <trkpt lat="46.984618" lon="8.230922">
        <ele>1152.3</ele>
      </trkpt>
      <trkpt lat="46.984598" lon="8.230977">
        <ele>1153.2</ele>
      </trkpt>
      <trkpt lat="46.984570" lon="8.231023">
        <ele>1154.3</ele>
      </trkpt>
      <trkpt lat="46.984485" lon="8.231085">
        <ele>1156.8</ele>
      </trkpt>
      <trkpt lat="46.984388" lon="8.231117">
        <ele>1159.4</ele>
      </trkpt>
      <trkpt lat="46.984357" lon="8.231143">
        <ele>1160.4</ele>
      </trkpt>
      <trkpt lat="46.984341" lon="8.231188">
        <ele>1161.0</ele>
      </trkpt>
      <trkpt lat="46.984339" lon="8.231238">
        <ele>1161.5</ele>
      </trkpt>
      <trkpt lat="46.984404" lon="8.231536">
        <ele>1162.3</ele>
      </trkpt>
      <trkpt lat="46.984407" lon="8.231580">
        <ele>1162.6</ele>
      </trkpt>
      <trkpt lat="46.984396" lon="8.231651">
        <ele>1164.0</ele>
      </trkpt>
      <trkpt lat="46.984400" lon="8.231751">
        <ele>1165.1</ele>
      </trkpt>
      <trkpt lat="46.984397" lon="8.231828">
        <ele>1166.1</ele>
      </trkpt>
      <trkpt lat="46.984393" lon="8.231903">
        <ele>1167.4</ele>
      </trkpt>
      <trkpt lat="46.984351" lon="8.232045">
        <ele>1168.5</ele>
      </trkpt>
      <trkpt lat="46.984293" lon="8.232101">
        <ele>1168.6</ele>
      </trkpt>
      <trkpt lat="46.984281" lon="8.232126">
        <ele>1168.7</ele>
      </trkpt>
      <trkpt lat="46.984250" lon="8.232304">
        <ele>1169.9</ele>
      </trkpt>
      <trkpt lat="46.984207" lon="8.232496">
        <ele>1172.7</ele>
      </trkpt>
      <trkpt lat="46.984209" lon="8.232568">
        <ele>1173.7</ele>
      </trkpt>
      <trkpt lat="46.984242" lon="8.232673">
        <ele>1175.0</ele>
      </trkpt>
      <trkpt lat="46.984287" lon="8.232712">
        <ele>1176.3</ele>
      </trkpt>
      <trkpt lat="46.984279" lon="8.232795">
        <ele>1177.8</ele>
      </trkpt>
      <trkpt lat="46.984268" lon="8.232861">
        <ele>1178.4</ele>
      </trkpt>
      <trkpt lat="46.984228" lon="8.232928">
        <ele>1179.8</ele>
      </trkpt>
      <trkpt lat="46.983778" lon="8.233281">
        <ele>1191.8</ele>
      </trkpt>
      <trkpt lat="46.983758" lon="8.233325">
        <ele>1193.3</ele>
      </trkpt>
      <trkpt lat="46.983780" lon="8.233388">
        <ele>1194.9</ele>
      </trkpt>
      <trkpt lat="46.983910" lon="8.233561">
        <ele>1199.7</ele>
      </trkpt>
      <trkpt lat="46.983885" lon="8.233677">
        <ele>1203.7</ele>
      </trkpt>
      <trkpt lat="46.983945" lon="8.233778">
        <ele>1207.5</ele>
      </trkpt>
      <trkpt lat="46.983741" lon="8.233975">
        <ele>1218.9</ele>
      </trkpt>
      <trkpt lat="46.983770" lon="8.234062">
        <ele>1219.3</ele>
      </trkpt>
      <trkpt lat="46.983932" lon="8.234047">
        <ele>1219.2</ele>
      </trkpt>
      <trkpt lat="46.984005" lon="8.234108">
        <ele>1221.3</ele>
      </trkpt>
      <trkpt lat="46.984085" lon="8.234228">
        <ele>1222.8</ele>
      </trkpt>
      <trkpt lat="46.984104" lon="8.234413">
        <ele>1227.5</ele>
      </trkpt>
      <trkpt lat="46.984276" lon="8.234547">
        <ele>1236.7</ele>
      </trkpt>
      <trkpt lat="46.984135" lon="8.234712">
        <ele>1240.5</ele>
      </trkpt>
      <trkpt lat="46.984330" lon="8.234770">
        <ele>1245.5</ele>
      </trkpt>
      <trkpt lat="46.984349" lon="8.234838">
        <ele>1246.7</ele>
      </trkpt>
      <trkpt lat="46.984330" lon="8.234878">
        <ele>1248.5</ele>
      </trkpt>
      <trkpt lat="46.984161" lon="8.235011">
        <ele>1254.4</ele>
      </trkpt>
      <trkpt lat="46.984176" lon="8.235094">
        <ele>1255.9</ele>
      </trkpt>
      <trkpt lat="46.984248" lon="8.235092">
        <ele>1258.3</ele>
      </trkpt>
      <trkpt lat="46.984266" lon="8.235138">
        <ele>1259.5</ele>
      </trkpt>
      <trkpt lat="46.984382" lon="8.235194">
        <ele>1263.3</ele>
      </trkpt>
      <trkpt lat="46.984391" lon="8.235243">
        <ele>1265.2</ele>
      </trkpt>
      <trkpt lat="46.984314" lon="8.235428">
        <ele>1269.8</ele>
      </trkpt>
      <trkpt lat="46.984283" lon="8.235623">
        <ele>1274.4</ele>
      </trkpt>
      <trkpt lat="46.984236" lon="8.235792">
        <ele>1278.8</ele>
      </trkpt>
      <trkpt lat="46.984204" lon="8.236039">
        <ele>1283.8</ele>
      </trkpt>
      <trkpt lat="46.984162" lon="8.236269">
        <ele>1288.2</ele>
      </trkpt>
      <trkpt lat="46.984108" lon="8.236402">
        <ele>1290.5</ele>
      </trkpt>
      <trkpt lat="46.984107" lon="8.236712">
        <ele>1295.4</ele>
      </trkpt>
      <trkpt lat="46.984022" lon="8.237058">
        <ele>1298.1</ele>
      </trkpt>
      <trkpt lat="46.984025" lon="8.237130">
        <ele>1298.6</ele>
      </trkpt>
      <trkpt lat="46.983936" lon="8.237267">
        <ele>1300.7</ele>
      </trkpt>
      <trkpt lat="46.983874" lon="8.237402">
        <ele>1302.5</ele>
      </trkpt>
      <trkpt lat="46.983772" lon="8.237597">
        <ele>1306.4</ele>
      </trkpt>
      <trkpt lat="46.983302" lon="8.238579">
        <ele>1319.1</ele>
      </trkpt>
      <trkpt lat="46.983208" lon="8.238900">
        <ele>1320.7</ele>
      </trkpt>
      <trkpt lat="46.983193" lon="8.239008">
        <ele>1320.9</ele>
      </trkpt>
      <trkpt lat="46.983196" lon="8.239073">
        <ele>1321.1</ele>
      </trkpt>
      <trkpt lat="46.983224" lon="8.239137">
        <ele>1321.2</ele>
      </trkpt>
      <trkpt lat="46.983350" lon="8.239299">
        <ele>1323.2</ele>
      </trkpt>
      <trkpt lat="46.983384" lon="8.239364">
        <ele>1324.0</ele>
      </trkpt>
      <trkpt lat="46.983397" lon="8.239402">
        <ele>1324.1</ele>
      </trkpt>
      <trkpt lat="46.983448" lon="8.239549">
        <ele>1324.4</ele>
      </trkpt>
      <trkpt lat="46.983469" lon="8.239584">
        <ele>1324.8</ele>
      </trkpt>
      <trkpt lat="46.983554" lon="8.239659">
        <ele>1326.9</ele>
      </trkpt>
      <trkpt lat="46.983885" lon="8.239938">
        <ele>1329.2</ele>
      </trkpt>
      <trkpt lat="46.983941" lon="8.240013">
        <ele>1329.9</ele>
      </trkpt>
      <trkpt lat="46.984043" lon="8.240084">
        <ele>1331.3</ele>
      </trkpt>
      <trkpt lat="46.984021" lon="8.240180">
        <ele>1332.2</ele>
      </trkpt>
      <trkpt lat="46.984002" lon="8.240224">
        <ele>1332.4</ele>
      </trkpt>
      <trkpt lat="46.983969" lon="8.240301">
        <ele>1332.4</ele>
      </trkpt>
      <trkpt lat="46.983865" lon="8.240413">
        <ele>1332.4</ele>
      </trkpt>
      <trkpt lat="46.983809" lon="8.240515">
        <ele>1332.4</ele>
      </trkpt>
      <trkpt lat="46.983708" lon="8.240660">
        <ele>1334.0</ele>
      </trkpt>
      <trkpt lat="46.983647" lon="8.240728">
        <ele>1335.4</ele>
      </trkpt>
      <trkpt lat="46.983507" lon="8.240781">
        <ele>1336.4</ele>
      </trkpt>
      <trkpt lat="46.983336" lon="8.240838">
        <ele>1339.0</ele>
      </trkpt>
      <trkpt lat="46.983257" lon="8.240894">
        <ele>1339.5</ele>
      </trkpt>
      <trkpt lat="46.983084" lon="8.241228">
        <ele>1341.2</ele>
      </trkpt>
      <trkpt lat="46.982956" lon="8.241500">
        <ele>1345.1</ele>
      </trkpt>
      <trkpt lat="46.982912" lon="8.241542">
        <ele>1346.1</ele>
      </trkpt>
      <trkpt lat="46.982921" lon="8.241662">
        <ele>1348.1</ele>
      </trkpt>
      <trkpt lat="46.982891" lon="8.241811">
        <ele>1347.4</ele>
      </trkpt>
      <trkpt lat="46.982877" lon="8.241835">
        <ele>1347.6</ele>
      </trkpt>
      <trkpt lat="46.982831" lon="8.241840">
        <ele>1349.4</ele>
      </trkpt>
      <trkpt lat="46.982769" lon="8.241863">
        <ele>1349.5</ele>
      </trkpt>
      <trkpt lat="46.982737" lon="8.241929">
        <ele>1351.1</ele>
      </trkpt>
      <trkpt lat="46.982683" lon="8.241932">
        <ele>1351.0</ele>
      </trkpt>
      <trkpt lat="46.982647" lon="8.241995">
        <ele>1350.9</ele>
      </trkpt>
      <trkpt lat="46.982631" lon="8.242002">
        <ele>1351.5</ele>
      </trkpt>
      <trkpt lat="46.982615" lon="8.241998">
        <ele>1352.1</ele>
      </trkpt>
      <trkpt lat="46.982584" lon="8.241966">
        <ele>1351.3</ele>
      </trkpt>
      <trkpt lat="46.982543" lon="8.241911">
        <ele>1353.5</ele>
      </trkpt>
      <trkpt lat="46.982508" lon="8.241916">
        <ele>1354.7</ele>
      </trkpt>
      <trkpt lat="46.982452" lon="8.241929">
        <ele>1356.4</ele>
      </trkpt>
      <trkpt lat="46.982398" lon="8.241924">
        <ele>1357.3</ele>
      </trkpt>
      <trkpt lat="46.982347" lon="8.241955">
        <ele>1358.7</ele>
      </trkpt>
      <trkpt lat="46.982297" lon="8.241908">
        <ele>1358.9</ele>
      </trkpt>
      <trkpt lat="46.982261" lon="8.241889">
        <ele>1359.6</ele>
      </trkpt>
      <trkpt lat="46.982137" lon="8.241893">
        <ele>1363.6</ele>
      </trkpt>
      <trkpt lat="46.982088" lon="8.241827">
        <ele>1363.5</ele>
      </trkpt>
      <trkpt lat="46.982055" lon="8.241727">
        <ele>1364.0</ele>
      </trkpt>
      <trkpt lat="46.982028" lon="8.241647">
        <ele>1366.0</ele>
      </trkpt>
      <trkpt lat="46.982005" lon="8.241571">
        <ele>1368.9</ele>
      </trkpt>
      <trkpt lat="46.982006" lon="8.241495">
        <ele>1369.4</ele>
      </trkpt>
      <trkpt lat="46.981980" lon="8.241306">
        <ele>1370.3</ele>
      </trkpt>
      <trkpt lat="46.981965" lon="8.241282">
        <ele>1371.6</ele>
      </trkpt>
      <trkpt lat="46.981830" lon="8.241288">
        <ele>1377.4</ele>
      </trkpt>
      <trkpt lat="46.981795" lon="8.241187">
        <ele>1381.1</ele>
      </trkpt>
      <trkpt lat="46.981746" lon="8.241235">
        <ele>1383.0</ele>
      </trkpt>
      <trkpt lat="46.981738" lon="8.241311">
        <ele>1385.3</ele>
      </trkpt>
      <trkpt lat="46.981725" lon="8.241440">
        <ele>1386.7</ele>
      </trkpt>
      <trkpt lat="46.981711" lon="8.241452">
        <ele>1387.4</ele>
      </trkpt>
      <trkpt lat="46.981680" lon="8.241423">
        <ele>1389.2</ele>
      </trkpt>
      <trkpt lat="46.981659" lon="8.241367">
        <ele>1389.7</ele>
      </trkpt>
      <trkpt lat="46.981639" lon="8.241329">
        <ele>1390.4</ele>
      </trkpt>
      <trkpt lat="46.981611" lon="8.241326">
        <ele>1392.3</ele>
      </trkpt>
      <trkpt lat="46.981601" lon="8.241396">
        <ele>1393.7</ele>
      </trkpt>
      <trkpt lat="46.981593" lon="8.241416">
        <ele>1394.7</ele>
      </trkpt>
      <trkpt lat="46.981575" lon="8.241421">
        <ele>1395.5</ele>
      </trkpt>
      <trkpt lat="46.981542" lon="8.241398">
        <ele>1396.1</ele>
      </trkpt>
      <trkpt lat="46.981506" lon="8.241330">
        <ele>1397.5</ele>
      </trkpt>
      <trkpt lat="46.981455" lon="8.241375">
        <ele>1401.1</ele>
      </trkpt>
      <trkpt lat="46.981437" lon="8.241373">
        <ele>1401.7</ele>
      </trkpt>
      <trkpt lat="46.981420" lon="8.241494">
        <ele>1405.3</ele>
      </trkpt>
      <trkpt lat="46.981413" lon="8.241499">
        <ele>1406.2</ele>
      </trkpt>
      <trkpt lat="46.981395" lon="8.241489">
        <ele>1406.8</ele>
      </trkpt>
      <trkpt lat="46.981325" lon="8.241436">
        <ele>1408.8</ele>
      </trkpt>
      <trkpt lat="46.981249" lon="8.241395">
        <ele>1412.7</ele>
      </trkpt>
      <trkpt lat="46.981245" lon="8.241453">
        <ele>1414.8</ele>
      </trkpt>
      <trkpt lat="46.981238" lon="8.241480">
        <ele>1415.3</ele>
      </trkpt>
      <trkpt lat="46.981219" lon="8.241486">
        <ele>1416.3</ele>
      </trkpt>
      <trkpt lat="46.981186" lon="8.241454">
        <ele>1418.5</ele>
      </trkpt>
      <trkpt lat="46.981168" lon="8.241505">
        <ele>1419.7</ele>
      </trkpt>
      <trkpt lat="46.981091" lon="8.241515">
        <ele>1424.1</ele>
      </trkpt>
      <trkpt lat="46.981018" lon="8.241376">
        <ele>1429.5</ele>
      </trkpt>
      <trkpt lat="46.980982" lon="8.241333">
        <ele>1430.5</ele>
      </trkpt>
      <trkpt lat="46.980960" lon="8.241322">
        <ele>1431.4</ele>
      </trkpt>
      <trkpt lat="46.980948" lon="8.241317">
        <ele>1432.0</ele>
      </trkpt>
      <trkpt lat="46.980934" lon="8.241335">
        <ele>1432.0</ele>
      </trkpt>
      <trkpt lat="46.980950" lon="8.241405">
        <ele>1434.6</ele>
      </trkpt>
      <trkpt lat="46.980947" lon="8.241485">
        <ele>1436.1</ele>
      </trkpt>
      <trkpt lat="46.980898" lon="8.241586">
        <ele>1439.6</ele>
      </trkpt>
      <trkpt lat="46.980883" lon="8.241656">
        <ele>1443.3</ele>
      </trkpt>
      <trkpt lat="46.980877" lon="8.241782">
        <ele>1444.4</ele>
      </trkpt>
      <trkpt lat="46.980890" lon="8.241912">
        <ele>1450.2</ele>
      </trkpt>
      <trkpt lat="46.980843" lon="8.241862">
        <ele>1450.6</ele>
      </trkpt>
      <trkpt lat="46.980834" lon="8.241870">
        <ele>1453.1</ele>
      </trkpt>
      <trkpt lat="46.980850" lon="8.241929">
        <ele>1453.8</ele>
      </trkpt>
      <trkpt lat="46.980839" lon="8.241945">
        <ele>1455.1</ele>
      </trkpt>
      <trkpt lat="46.980796" lon="8.241915">
        <ele>1458.0</ele>
      </trkpt>
      <trkpt lat="46.980795" lon="8.242000">
        <ele>1461.4</ele>
      </trkpt>
      <trkpt lat="46.980751" lon="8.242021">
        <ele>1464.8</ele>
      </trkpt>
      <trkpt lat="46.980764" lon="8.242045">
        <ele>1465.4</ele>
      </trkpt>
      <trkpt lat="46.980811" lon="8.242061">
        <ele>1467.7</ele>
      </trkpt>
      <trkpt lat="46.980787" lon="8.242090">
        <ele>1469.9</ele>
      </trkpt>
      <trkpt lat="46.980708" lon="8.242086">
        <ele>1473.3</ele>
      </trkpt>
      <trkpt lat="46.980784" lon="8.242166">
        <ele>1476.1</ele>
      </trkpt>
      <trkpt lat="46.980807" lon="8.242189">
        <ele>1476.5</ele>
      </trkpt>
      <trkpt lat="46.980805" lon="8.242258">
        <ele>1476.1</ele>
      </trkpt>
      <trkpt lat="46.980843" lon="8.242430">
        <ele>1476.2</ele>
      </trkpt>
      <trkpt lat="46.980808" lon="8.242541">
        <ele>1479.1</ele>
      </trkpt>
      <trkpt lat="46.980835" lon="8.242715">
        <ele>1478.1</ele>
      </trkpt>
      <trkpt lat="46.980955" lon="8.242640">
        <ele>1478.3</ele>
      </trkpt>
      <trkpt lat="46.980978" lon="8.242567">
        <ele>1480.8</ele>
      </trkpt>
      <trkpt lat="46.981015" lon="8.242565">
        <ele>1482.1</ele>
      </trkpt>
      <trkpt lat="46.981045" lon="8.242544">
        <ele>1482.3</ele>
      </trkpt>
      <trkpt lat="46.981075" lon="8.242548">
        <ele>1483.3</ele>
      </trkpt>
      <trkpt lat="46.981199" lon="8.242568">
        <ele>1485.9</ele>
      </trkpt>
      <trkpt lat="46.981249" lon="8.242570">
        <ele>1485.9</ele>
      </trkpt>
      <trkpt lat="46.981314" lon="8.242595">
        <ele>1486.3</ele>
      </trkpt>
      <trkpt lat="46.981346" lon="8.242629">
        <ele>1486.8</ele>
      </trkpt>
      <trkpt lat="46.981343" lon="8.242641">
        <ele>1487.3</ele>
      </trkpt>
      <trkpt lat="46.981316" lon="8.242634">
        <ele>1487.5</ele>
      </trkpt>
      <trkpt lat="46.981280" lon="8.242666">
        <ele>1489.3</ele>
      </trkpt>
      <trkpt lat="46.981208" lon="8.242691">
        <ele>1490.2</ele>
      </trkpt>
      <trkpt lat="46.981142" lon="8.242766">
        <ele>1492.7</ele>
      </trkpt>
      <trkpt lat="46.981143" lon="8.242791">
        <ele>1493.8</ele>
      </trkpt>
      <trkpt lat="46.981183" lon="8.242801">
        <ele>1493.9</ele>
      </trkpt>
      <trkpt lat="46.981274" lon="8.242957">
        <ele>1497.8</ele>
      </trkpt>
      <trkpt lat="46.981263" lon="8.242981">
        <ele>1498.8</ele>
      </trkpt>
      <trkpt lat="46.981199" lon="8.243019">
        <ele>1502.8</ele>
      </trkpt>
      <trkpt lat="46.981295" lon="8.243210">
        <ele>1507.2</ele>
      </trkpt>
      <trkpt lat="46.981359" lon="8.243376">
        <ele>1512.6</ele>
      </trkpt>
      <trkpt lat="46.981407" lon="8.243605">
        <ele>1518.8</ele>
      </trkpt>
      <trkpt lat="46.981576" lon="8.243881">
        <ele>1530.8</ele>
      </trkpt>
      <trkpt lat="46.981656" lon="8.243946">
        <ele>1529.9</ele>
      </trkpt>
      <trkpt lat="46.981698" lon="8.244036">
        <ele>1533.5</ele>
      </trkpt>
      <trkpt lat="46.981709" lon="8.244092">
        <ele>1535.3</ele>
      </trkpt>
      <trkpt lat="46.981734" lon="8.244148">
        <ele>1537.5</ele>
      </trkpt>
      <trkpt lat="46.981684" lon="8.244181">
        <ele>1541.2</ele>
      </trkpt>
      <trkpt lat="46.981604" lon="8.244267">
        <ele>1553.4</ele>
      </trkpt>
      <trkpt lat="46.981677" lon="8.244322">
        <ele>1556.0</ele>
      </trkpt>
      <trkpt lat="46.981690" lon="8.244345">
        <ele>1557.1</ele>
      </trkpt>
      <trkpt lat="46.981655" lon="8.244342">
        <ele>1557.9</ele>
      </trkpt>
      <trkpt lat="46.981580" lon="8.244325">
        <ele>1562.5</ele>
      </trkpt>
      <trkpt lat="46.981520" lon="8.244261">
        <ele>1566.0</ele>
      </trkpt>
      <trkpt lat="46.981410" lon="8.244174">
        <ele>1571.0</ele>
      </trkpt>
      <trkpt lat="46.981389" lon="8.244174">
        <ele>1571.8</ele>
      </trkpt>
      <trkpt lat="46.981398" lon="8.244210">
        <ele>1573.3</ele>
      </trkpt>
      <trkpt lat="46.981386" lon="8.244224">
        <ele>1574.6</ele>
      </trkpt>
      <trkpt lat="46.981372" lon="8.244203">
        <ele>1575.2</ele>
      </trkpt>
      <trkpt lat="46.981361" lon="8.244246">
        <ele>1577.9</ele>
      </trkpt>
      <trkpt lat="46.981316" lon="8.244226">
        <ele>1581.5</ele>
      </trkpt>
      <trkpt lat="46.981335" lon="8.244289">
        <ele>1582.5</ele>
      </trkpt>
      <trkpt lat="46.981317" lon="8.244331">
        <ele>1586.9</ele>
      </trkpt>
      <trkpt lat="46.981161" lon="8.244311">
        <ele>1595.7</ele>
      </trkpt>
      <trkpt lat="46.981166" lon="8.244432">
        <ele>1600.2</ele>
      </trkpt>
      <trkpt lat="46.981304" lon="8.244530">
        <ele>1605.1</ele>
      </trkpt>
      <trkpt lat="46.981433" lon="8.244720">
        <ele>1610.4</ele>
      </trkpt>
      <trkpt lat="46.981482" lon="8.244822">
        <ele>1614.7</ele>
      </trkpt>
      <trkpt lat="46.981520" lon="8.244889">
        <ele>1616.9</ele>
      </trkpt>
      <trkpt lat="46.981564" lon="8.245019">
        <ele>1619.8</ele>
      </trkpt>
      <trkpt lat="46.981409" lon="8.244981">
        <ele>1622.7</ele>
      </trkpt>
      <trkpt lat="46.981165" lon="8.244948">
        <ele>1633.4</ele>
      </trkpt>
      <trkpt lat="46.981082" lon="8.244905">
        <ele>1636.8</ele>
      </trkpt>
      <trkpt lat="46.980959" lon="8.244800">
        <ele>1638.1</ele>
      </trkpt>
      <trkpt lat="46.980911" lon="8.244692">
        <ele>1637.4</ele>
      </trkpt>
      <trkpt lat="46.980868" lon="8.244638">
        <ele>1638.6</ele>
      </trkpt>
      <trkpt lat="46.980709" lon="8.244685">
        <ele>1644.4</ele>
      </trkpt>
      <trkpt lat="46.980605" lon="8.244668">
        <ele>1642.3</ele>
      </trkpt>
      <trkpt lat="46.980467" lon="8.244748">
        <ele>1643.6</ele>
      </trkpt>
      <trkpt lat="46.980426" lon="8.244800">
        <ele>1645.4</ele>
      </trkpt>
      <trkpt lat="46.980350" lon="8.244777">
        <ele>1644.2</ele>
      </trkpt>
      <trkpt lat="46.980222" lon="8.244789">
        <ele>1642.7</ele>
      </trkpt>
      <trkpt lat="46.980122" lon="8.244820">
        <ele>1644.6</ele>
      </trkpt>
      <trkpt lat="46.980062" lon="8.244873">
        <ele>1647.2</ele>
      </trkpt>
      <trkpt lat="46.980046" lon="8.244937">
        <ele>1651.0</ele>
      </trkpt>
      <trkpt lat="46.979986" lon="8.244961">
        <ele>1656.4</ele>
      </trkpt>
      <trkpt lat="46.979956" lon="8.245011">
        <ele>1658.8</ele>
      </trkpt>
      <trkpt lat="46.980000" lon="8.245104">
        <ele>1660.6</ele>
      </trkpt>
      <trkpt lat="46.979909" lon="8.245158">
        <ele>1665.8</ele>
      </trkpt>
      <trkpt lat="46.979875" lon="8.245175">
        <ele>1666.9</ele>
      </trkpt>
      <trkpt lat="46.979874" lon="8.245191">
        <ele>1667.8</ele>
      </trkpt>
      <trkpt lat="46.979882" lon="8.245198">
        <ele>1667.4</ele>
      </trkpt>
      <trkpt lat="46.979857" lon="8.245224">
        <ele>1668.2</ele>
      </trkpt>
      <trkpt lat="46.979822" lon="8.245328">
        <ele>1667.6</ele>
      </trkpt>
      <trkpt lat="46.979548" lon="8.245304">
        <ele>1676.1</ele>
      </trkpt>
      <trkpt lat="46.979457" lon="8.245249">
        <ele>1680.2</ele>
      </trkpt>
      <trkpt lat="46.979383" lon="8.245180">
        <ele>1683.9</ele>
      </trkpt>
      <trkpt lat="46.979322" lon="8.245211">
        <ele>1685.1</ele>
      </trkpt>
      <trkpt lat="46.979283" lon="8.245212">
        <ele>1685.0</ele>
      </trkpt>
      <trkpt lat="46.978961" lon="8.244676">
        <ele>1694.5</ele>
      </trkpt>
      <trkpt lat="46.978828" lon="8.244340">
        <ele>1696.7</ele>
      </trkpt>
      <trkpt lat="46.978383" lon="8.244378">
        <ele>1715.3</ele>
      </trkpt>
      <trkpt lat="46.977826" lon="8.244604">
        <ele>1746.5</ele>
      </trkpt>
      <trkpt lat="46.977330" lon="8.244388">
        <ele>1773.8</ele>
      </trkpt>
      <trkpt lat="46.976794" lon="8.244469">
        <ele>1810.6</ele>
      </trkpt>
      <trkpt lat="46.976389" lon="8.244372">
        <ele>1839.7</ele>
      </trkpt>
      <trkpt lat="46.976391" lon="8.244185">
        <ele>1840.5</ele>
      </trkpt>
      <trkpt lat="46.976337" lon="8.243961">
        <ele>1842.6</ele>
      </trkpt>
      <trkpt lat="46.976321" lon="8.243812">
        <ele>1847.1</ele>
      </trkpt>
      <trkpt lat="46.976296" lon="8.243728">
        <ele>1850.5</ele>
      </trkpt>
      <trkpt lat="46.976243" lon="8.243652">
        <ele>1856.3</ele>
      </trkpt>
      <trkpt lat="46.976262" lon="8.243470">
        <ele>1862.6</ele>
      </trkpt>
      <trkpt lat="46.976277" lon="8.243336">
        <ele>1865.6</ele>
      </trkpt>
      <trkpt lat="46.976239" lon="8.243222">
        <ele>1867.3</ele>
      </trkpt>
      <trkpt lat="46.975959" lon="8.242967">
        <ele>1877.8</ele>
      </trkpt>
      <trkpt lat="46.975826" lon="8.242838">
        <ele>1883.1</ele>
      </trkpt>
      <trkpt lat="46.975771" lon="8.243060">
        <ele>1889.5</ele>
      </trkpt>
      <trkpt lat="46.975707" lon="8.242993">
        <ele>1891.5</ele>
      </trkpt>
      <trkpt lat="46.975676" lon="8.243172">
        <ele>1896.8</ele>
      </trkpt>
      <trkpt lat="46.975647" lon="8.243165">
        <ele>1897.7</ele>
      </trkpt>
      <trkpt lat="46.975593" lon="8.243117">
        <ele>1899.8</ele>
      </trkpt>
      <trkpt lat="46.975584" lon="8.243124">
        <ele>1900.4</ele>
      </trkpt>
      <trkpt lat="46.975509" lon="8.243289">
        <ele>1908.6</ele>
      </trkpt>
      <trkpt lat="46.975489" lon="8.243251">
        <ele>1908.8</ele>
      </trkpt>
      <trkpt lat="46.975460" lon="8.243265">
        <ele>1910.8</ele>
      </trkpt>
      <trkpt lat="46.975462" lon="8.243327">
        <ele>1912.8</ele>
      </trkpt>
      <trkpt lat="46.975445" lon="8.243353">
        <ele>1914.4</ele>
      </trkpt>
      <trkpt lat="46.975393" lon="8.243339">
        <ele>1916.1</ele>
      </trkpt>
      <trkpt lat="46.975312" lon="8.243262">
        <ele>1919.3</ele>
      </trkpt>
      <trkpt lat="46.975258" lon="8.243155">
        <ele>1920.6</ele>
      </trkpt>
      <trkpt lat="46.975157" lon="8.243026">
        <ele>1920.6</ele>
      </trkpt>
      <trkpt lat="46.975069" lon="8.242912">
        <ele>1926.3</ele>
      </trkpt>
      <trkpt lat="46.975058" lon="8.242802">
        <ele>1929.7</ele>
      </trkpt>
      <trkpt lat="46.975097" lon="8.242645">
        <ele>1933.5</ele>
      </trkpt>
      <trkpt lat="46.975035" lon="8.242669">
        <ele>1936.6</ele>
      </trkpt>
      <trkpt lat="46.975039" lon="8.242621">
        <ele>1936.7</ele>
      </trkpt>
      <trkpt lat="46.975013" lon="8.242581">
        <ele>1939.1</ele>
      </trkpt>
      <trkpt lat="46.974982" lon="8.242456">
        <ele>1942.3</ele>
      </trkpt>
      <trkpt lat="46.974879" lon="8.242425">
        <ele>1945.4</ele>
      </trkpt>
      <trkpt lat="46.974804" lon="8.242151">
        <ele>1943.2</ele>
      </trkpt>
      <trkpt lat="46.974742" lon="8.242088">
        <ele>1952.0</ele>
      </trkpt>
      <trkpt lat="46.974648" lon="8.242053">
        <ele>1954.5</ele>
      </trkpt>
      <trkpt lat="46.974588" lon="8.241973">
        <ele>1952.6</ele>
      </trkpt>
      <trkpt lat="46.974522" lon="8.241794">
        <ele>1951.8</ele>
      </trkpt>
      <trkpt lat="46.974491" lon="8.241627">
        <ele>1954.8</ele>
      </trkpt>
      <trkpt lat="46.974415" lon="8.241262">
        <ele>1966.5</ele>
      </trkpt>
      <trkpt lat="46.974373" lon="8.241162">
        <ele>1966.1</ele>
      </trkpt>
      <trkpt lat="46.974355" lon="8.241081">
        <ele>1967.9</ele>
      </trkpt>
      <trkpt lat="46.974375" lon="8.241019">
        <ele>1964.2</ele>
      </trkpt>
      <trkpt lat="46.974346" lon="8.240931">
        <ele>1976.6</ele>
      </trkpt>
      <trkpt lat="46.974337" lon="8.240797">
        <ele>1984.6</ele>
      </trkpt>
      <trkpt lat="46.974177" lon="8.240526">
        <ele>1997.4</ele>
      </trkpt>
      <trkpt lat="46.974107" lon="8.240353">
        <ele>2006.2</ele>
      </trkpt>
      <trkpt lat="46.973985" lon="8.240281">
        <ele>2017.7</ele>
      </trkpt>
      <trkpt lat="46.973890" lon="8.240141">
        <ele>2027.7</ele>
      </trkpt>
      <trkpt lat="46.973881" lon="8.240031">
        <ele>2038.4</ele>
      </trkpt>
      <trkpt lat="46.973851" lon="8.239891">
        <ele>2037.3</ele>
      </trkpt>
      <trkpt lat="46.973832" lon="8.239798">
        <ele>2038.6</ele>
      </trkpt>
      <trkpt lat="46.973773" lon="8.239691">
        <ele>2047.0</ele>
      </trkpt>
      <trkpt lat="46.973726" lon="8.239562">
        <ele>2058.5</ele>
      </trkpt>
      <trkpt lat="46.973658" lon="8.239548">
        <ele>2062.9</ele>
      </trkpt>
      <trkpt lat="46.973622" lon="8.239594">
        <ele>2063.8</ele>
      </trkpt>
      <trkpt lat="46.973467" lon="8.239891">
        <ele>2071.1</ele>
      </trkpt>
      <trkpt lat="46.973369" lon="8.240069">
        <ele>2074.4</ele>
      </trkpt>
      <trkpt lat="46.973260" lon="8.240193">
        <ele>2076.7</ele>
      </trkpt>
      <trkpt lat="46.973146" lon="8.240326">
        <ele>2079.8</ele>
      </trkpt>
      <trkpt lat="46.973074" lon="8.240379">
        <ele>2080.4</ele>
      </trkpt>
      <trkpt lat="46.973047" lon="8.240395">
        <ele>2080.5</ele>
      </trkpt>
      <trkpt lat="46.972987" lon="8.240444">
        <ele>2080.7</ele>
      </trkpt>
      <trkpt lat="46.972958" lon="8.240511">
        <ele>2081.7</ele>
      </trkpt>
      <trkpt lat="46.972955" lon="8.240572">
        <ele>2083.4</ele>
      </trkpt>
      <trkpt lat="46.972946" lon="8.240636">
        <ele>2083.8</ele>
      </trkpt>
      <trkpt lat="46.972992" lon="8.240796">
        <ele>2087.0</ele>
      </trkpt>
      <trkpt lat="46.973006" lon="8.240805">
        <ele>2087.7</ele>
      </trkpt>
      <trkpt lat="46.973020" lon="8.240706">
        <ele>2089.5</ele>
      </trkpt>
      <trkpt lat="46.973043" lon="8.240654">
        <ele>2090.4</ele>
      </trkpt>
      <trkpt lat="46.973055" lon="8.240653">
        <ele>2091.4</ele>
      </trkpt>
      <trkpt lat="46.973059" lon="8.240695">
        <ele>2091.9</ele>
      </trkpt>
      <trkpt lat="46.973072" lon="8.240729">
        <ele>2092.2</ele>
      </trkpt>
      <trkpt lat="46.973199" lon="8.240914">
        <ele>2096.3</ele>
      </trkpt>
      <trkpt lat="46.973241" lon="8.240947">
        <ele>2097.3</ele>
      </trkpt>
      <trkpt lat="46.973304" lon="8.240956">
        <ele>2099.5</ele>
      </trkpt>
      <trkpt lat="46.973353" lon="8.240969">
        <ele>2100.0</ele>
      </trkpt>
      <trkpt lat="46.973375" lon="8.240971">
        <ele>2101.2</ele>
      </trkpt>
      <trkpt lat="46.973509" lon="8.241076">
        <ele>2105.6</ele>
      </trkpt>
      <trkpt lat="46.973491" lon="8.240949">
        <ele>2108.4</ele>
      </trkpt>
      <trkpt lat="46.973435" lon="8.240818">
        <ele>2110.6</ele>
      </trkpt>
      <trkpt lat="46.973438" lon="8.240807">
        <ele>2111.9</ele>
      </trkpt>
      <trkpt lat="46.973452" lon="8.240804">
        <ele>2112.9</ele>
      </trkpt>
      <trkpt lat="46.973535" lon="8.240872">
        <ele>2113.5</ele>
      </trkpt>
      <trkpt lat="46.973596" lon="8.240934">
        <ele>2116.0</ele>
      </trkpt>
      <trkpt lat="46.973605" lon="8.240919">
        <ele>2116.0</ele>
      </trkpt>
      <trkpt lat="46.973580" lon="8.240851">
        <ele>2117.2</ele>
      </trkpt>
      <trkpt lat="46.973580" lon="8.240833">
        <ele>2117.8</ele>
      </trkpt>
      <trkpt lat="46.973614" lon="8.240861">
        <ele>2119.0</ele>
      </trkpt>
      <trkpt lat="46.973798" lon="8.241068">
        <ele>2126.4</ele>
      </trkpt>
    </trkseg>
  </trk>
</gpx>
