<gpx xmlns="http://www.topografix.com/GPX/1/1" xmlns:xsi="http://www.w3.org/2001/XMLSchema-instance" version="1.1" creator="hiking-skill GPX generator" xsi:schemaLocation="http://www.topografix.com/GPX/1/1 http://www.topografix.com/GPX/1/1/gpx.xsd">
  <metadata>
    <time>2026-05-10T02:55:50.962809Z</time>
  </metadata>
  <trk>
    <name>Niesen Kulm</name>
    <trkseg>
      <trkpt lat="46.5926" lon="7.6795"/>
      <trkpt lat="46.62" lon="7.67"/>
      <trkpt lat="46.6461" lon="7.6525"/>
    </trkseg>
  </trk>
</gpx>
