<?xml version='1.0' encoding='utf-8'?>
<gpx xmlns="http://www.topografix.com/GPX/1/1" xmlns:xsi="http://www.w3.org/2001/XMLSchema-instance" xsi:schemaLocation="http://www.topografix.com/GPX/1/1 http://www.topografix.com/GPX/1/1/gpx.xsd" version="1.1" creator="gpx.py -- https://github.com/tkrajina/gpxpy">
  <trk>
    <name>wuosthorn</name>
    <trkseg>
      <trkpt lat="46.72579990440886" lon="9.848128412278895">
      <ele>1861.3</ele></trkpt>
    <trkpt lat="46.7260729578199" lon="9.847943455540523">
      <ele>1861.5</ele></trkpt>
      <trkpt lat="46.72620067487362" lon="9.847873073598839">
      <ele>1861.6</ele></trkpt>
      <trkpt lat="46.72626451589011" lon="9.847860012738089">
      <ele>1861.8</ele></trkpt>
      <trkpt lat="46.72633629556159" lon="9.847845631480213">
      <ele>1861.9</ele></trkpt>
      <trkpt lat="46.726404793703054" lon="9.847831090420117">
      <ele>1862.1</ele></trkpt>
      <trkpt lat="46.72646914670926" lon="9.847803590566677">
      <ele>1862.4</ele></trkpt>
      <trkpt lat="46.72652174600954" lon="9.84776970205451">
      <ele>1862.6</ele></trkpt>
      <trkpt lat="46.726668287577915" lon="9.847665792369824">
      <ele>1862.9</ele></trkpt>
      <trkpt lat="46.726828443197505" lon="9.847555606461137">
      <ele>1863.2</ele></trkpt>
      <trkpt lat="46.72696801010514" lon="9.847458071721112">
      <ele>1863.5</ele></trkpt>
      <trkpt lat="46.72712424362467" lon="9.84734992114196">
      <ele>1863.8</ele></trkpt>
      <trkpt lat="46.72720009924188" lon="9.847298931441019">
      <ele>1864.0</ele></trkpt>
      <trkpt lat="46.727286773420154" lon="9.847256421683154">
      <ele>1864.3</ele></trkpt>
      <trkpt lat="46.72732846669114" lon="9.847304694152989">
      <ele>1864.6</ele></trkpt>
      <trkpt lat="46.727359131048324" lon="9.847318223060594">
      <ele>1864.8</ele></trkpt>
      <trkpt lat="46.72743131468532" lon="9.847338829480503">
      <ele>1865.1</ele></trkpt>
      <trkpt lat="46.72749190780879" lon="9.847359807951943">
      <ele>1865.4</ele></trkpt>
      <trkpt lat="46.72754390988756" lon="9.847398934919243">
      <ele>1865.7</ele></trkpt>
      <trkpt lat="46.727591296276444" lon="9.847449085059898">
      <ele>1865.9</ele></trkpt>
      <trkpt lat="46.72762443624233" lon="9.847495392057347">
      <ele>1866.2</ele></trkpt>
      <trkpt lat="46.72764445369537" lon="9.847537906098548">
      <ele>1866.5</ele></trkpt>
      <trkpt lat="46.72768180304743" lon="9.847606912478707">
      <ele>1866.8</ele></trkpt>
      <trkpt lat="46.727740802747036" lon="9.847658589764276">
      <ele>1867.0</ele></trkpt>
      <trkpt lat="46.72778121860146" lon="9.847681690183649">
      <ele>1867.3</ele></trkpt>
      <trkpt lat="46.727804109937416" lon="9.847691678548465">
      <ele>1867.6</ele></trkpt>
      <trkpt lat="46.72781394608054" lon="9.847695966030878">
      <ele>1868.3</ele></trkpt>
      <trkpt lat="46.727851331668575" lon="9.847697637025368">
      <ele>1868.9</ele></trkpt>
      <trkpt lat="46.72790144422409" lon="9.84767879221609">
      <ele>1869.6</ele></trkpt>
      <trkpt lat="46.72793178036717" lon="9.847652467132736">
      <ele>1870.3</ele></trkpt>
      <trkpt lat="46.72794794832771" lon="9.847620299772636">
      <ele>1871.0</ele></trkpt>
      <trkpt lat="46.72795735159598" lon="9.847570514702216">
      <ele>1871.6</ele></trkpt>
      <trkpt lat="46.72797437813657" lon="9.847332355228373">
      <ele>1872.3</ele></trkpt>
      <trkpt lat="46.72798143560826" lon="9.84722531019433">
      <ele>1873.0</ele></trkpt>
      <trkpt lat="46.727996087709066" lon="9.847153261398429">
      <ele>1873.7</ele></trkpt>
      <trkpt lat="46.72802358480909" lon="9.847092178380482">
      <ele>1874.3</ele></trkpt>
      <trkpt lat="46.728063926168566" lon="9.84704380177914">
      <ele>1875.0</ele></trkpt>
      <trkpt lat="46.72809800520289" lon="9.847008992360747">
      <ele>1875.7</ele></trkpt>
      <trkpt lat="46.72813017912276" lon="9.846998768617881">
      <ele>1876.4</ele></trkpt>
      <trkpt lat="46.72816905107797" lon="9.847017847141933">
      <ele>1877.0</ele></trkpt>
      <trkpt lat="46.728197645966894" lon="9.847051386788825">
      <ele>1877.7</ele></trkpt>
      <trkpt lat="46.72822312332335" lon="9.84709362156756">
      <ele>1878.4</ele></trkpt>
      <trkpt lat="46.72828192136766" lon="9.847208557274968">
      <ele>1879.1</ele></trkpt>
      <trkpt lat="46.728312582919656" lon="9.847272933227936">
      <ele>1879.8</ele></trkpt>
      <trkpt lat="46.72834749330678" lon="9.8473594215971">
      <ele>1880.4</ele></trkpt>
      <trkpt lat="46.72837962910281" lon="9.847443050677999">
      <ele>1881.1</ele></trkpt>
      <trkpt lat="46.72842056199546" lon="9.847511982507502">
      <ele>1881.9</ele></trkpt>
      <trkpt lat="46.728470639257154" lon="9.847593665195307">
      <ele>1882.7</ele></trkpt>
      <trkpt lat="46.72845228239328" lon="9.84770517958723">
      <ele>1883.5</ele></trkpt>
      <trkpt lat="46.72843605766617" lon="9.84781502232409">
      <ele>1884.2</ele></trkpt>
      <trkpt lat="46.728433590086325" lon="9.847831717094756">
      <ele>1885.0</ele></trkpt>
      <trkpt lat="46.7284332233102" lon="9.847938551622171">
      <ele>1885.8</ele></trkpt>
      <trkpt lat="46.72843257852468" lon="9.848057689589933">
      <ele>1886.6</ele></trkpt>
      <trkpt lat="46.72844657928435" lon="9.848152824385208">
      <ele>1887.4</ele></trkpt>
      <trkpt lat="46.72845138633036" lon="9.848237967745815">
      <ele>1888.2</ele></trkpt>
      <trkpt lat="46.72847248899162" lon="9.848308762216647">
      <ele>1888.9</ele></trkpt>
      <trkpt lat="46.72850154959221" lon="9.84840458356964">
      <ele>1889.7</ele></trkpt>
      <trkpt lat="46.728528722228155" lon="9.848500307527488">
      <ele>1890.5</ele></trkpt>
      <trkpt lat="46.72855302278188" lon="9.848598638576036">
      <ele>1891.3</ele></trkpt>
      <trkpt lat="46.72859005235817" lon="9.848718100310066">
      <ele>1892.1</ele></trkpt>
      <trkpt lat="46.72862307348786" lon="9.84880450562914">
      <ele>1892.9</ele></trkpt>
      <trkpt lat="46.72864701702815" lon="9.848875427604558">
      <ele>1893.7</ele></trkpt>
      <trkpt lat="46.72866955495579" lon="9.848923003015122">
      <ele>1894.4</ele></trkpt>
      <trkpt lat="46.72870991812976" lon="9.848974137218919">
      <ele>1895.2</ele></trkpt>
      <trkpt lat="46.728743740295464" lon="9.84902220428954">
      <ele>1896.0</ele></trkpt>
      <trkpt lat="46.72876790600779" lon="9.849082181683531">
      <ele>1896.8</ele></trkpt>
      <trkpt lat="46.72878533630461" lon="9.849148716090555">
      <ele>1897.9</ele></trkpt>
      <trkpt lat="46.72885038593643" lon="9.84923518024075">
      <ele>1899.0</ele></trkpt>
      <trkpt lat="46.72888285915609" lon="9.849276381420246">
      <ele>1900.2</ele></trkpt>
      <trkpt lat="46.72898766129802" lon="9.849430509954917">
      <ele>1901.3</ele></trkpt>
      <trkpt lat="46.72903388485946" lon="9.849501997398441">
      <ele>1902.4</ele></trkpt>
      <trkpt lat="46.729094685792354" lon="9.849602538502735">
      <ele>1903.5</ele></trkpt>
      <trkpt lat="46.72910899674615" lon="9.849644197194015">
      <ele>1904.6</ele></trkpt>
      <trkpt lat="46.729129808071065" lon="9.849686159785893">
      <ele>1905.8</ele></trkpt>
      <trkpt lat="46.7291526533116" lon="9.849734508843929">
      <ele>1906.9</ele></trkpt>
      <trkpt lat="46.72919960975614" lon="9.849771319507418">
      <ele>1908.0</ele></trkpt>
      <trkpt lat="46.72922068778451" lon="9.84980066398033">
      <ele>1909.1</ele></trkpt>
      <trkpt lat="46.7292428219542" lon="9.849863915072106">
      <ele>1910.2</ele></trkpt>
      <trkpt lat="46.72930485786399" lon="9.849924331214599">
      <ele>1911.4</ele></trkpt>
      <trkpt lat="46.729339745909066" lon="9.849916429232888">
      <ele>1912.5</ele></trkpt>
      <trkpt lat="46.729380734886085" lon="9.849927725871575">
      <ele>1913.6</ele></trkpt>
      <trkpt lat="46.72941581380441" lon="9.849910369572632">
      <ele>1914.7</ele></trkpt>
      <trkpt lat="46.72943079114252" lon="9.849920502489844">
      <ele>1915.8</ele></trkpt>
      <trkpt lat="46.72945012304858" lon="9.849959218794">
      <ele>1917.0</ele></trkpt>
      <trkpt lat="46.729495689513875" lon="9.849987277021448">
      <ele>1918.1</ele></trkpt>
      <trkpt lat="46.72951572164666" lon="9.850019689972264">
      <ele>1919.2</ele></trkpt>
      <trkpt lat="46.729538081398" lon="9.850079928192773">
      <ele>1920.5</ele></trkpt>
      <trkpt lat="46.72955928388508" lon="9.850102956872425">
      <ele>1921.8</ele></trkpt>
      <trkpt lat="46.7296245839795" lon="9.850093261378838">
      <ele>1923.2</ele></trkpt>
      <trkpt lat="46.72966110591" lon="9.850110666940274">
      <ele>1924.5</ele></trkpt>
      <trkpt lat="46.7297057618113" lon="9.850153697039257">
      <ele>1925.8</ele></trkpt>
      <trkpt lat="46.72972874011103" lon="9.850195744173256">
      <ele>1927.1</ele></trkpt>
      <trkpt lat="46.72977806318155" lon="9.850223198621885">
      <ele>1928.4</ele></trkpt>
      <trkpt lat="46.72981044221756" lon="9.850230956029115">
      <ele>1929.8</ele></trkpt>
      <trkpt lat="46.72986930856674" lon="9.850217805370054">
      <ele>1931.1</ele></trkpt>
      <trkpt lat="46.72988230988872" lon="9.850218387111683">
      <ele>1932.4</ele></trkpt>
      <trkpt lat="46.72991429785739" lon="9.850245065994399">
      <ele>1933.7</ele></trkpt>
      <trkpt lat="46.729935709194926" lon="9.85025864130625">
      <ele>1935.0</ele></trkpt>
      <trkpt lat="46.72997045500822" lon="9.850257041714324">
      <ele>1936.4</ele></trkpt>
      <trkpt lat="46.73003975573264" lon="9.850263296940994">
      <ele>1937.7</ele></trkpt>
      <trkpt lat="46.73011431071561" lon="9.850223231563364">
      <ele>1939.0</ele></trkpt>
      <trkpt lat="46.730262596723584" lon="9.850269328532974">
      <ele>1940.3</ele></trkpt>
      <trkpt lat="46.730406998218676" lon="9.85036932074843">
      <ele>1941.6</ele></trkpt>
      <trkpt lat="46.730565422577605" lon="9.85052670625224">
      <ele>1943.0</ele></trkpt>
      <trkpt lat="46.73064183317077" lon="9.85060105289977">
      <ele>1944.3</ele></trkpt>
      <trkpt lat="46.73071832957317" lon="9.85074368698574">
      <ele>1945.6</ele></trkpt>
      <trkpt lat="46.73075940530334" lon="9.850847053929947">
      <ele>1947.1</ele></trkpt>
      <trkpt lat="46.73083430412512" lon="9.851007339229225">
      <ele>1948.6</ele></trkpt>
      <trkpt lat="46.730951197230056" lon="9.85118413794482">
      <ele>1950.0</ele></trkpt>
      <trkpt lat="46.73107013538795" lon="9.851408475599841">
      <ele>1951.5</ele></trkpt>
      <trkpt lat="46.731145328408346" lon="9.851612675443194">
      <ele>1953.0</ele></trkpt>
      <trkpt lat="46.73126228983419" lon="9.851887017100074">
      <ele>1954.5</ele></trkpt>
      <trkpt lat="46.7313386938428" lon="9.852103275027986">
      <ele>1956.0</ele></trkpt>
      <trkpt lat="46.73139881174821" lon="9.852244499072215">
      <ele>1957.4</ele></trkpt>
      <trkpt lat="46.73146675546727" lon="9.852353155545247">
      <ele>1958.9</ele></trkpt>
      <trkpt lat="46.731507153908474" lon="9.852450186070364">
      <ele>1960.4</ele></trkpt>
      <trkpt lat="46.73153771221897" lon="9.852466999536535">
      <ele>1961.9</ele></trkpt>
      <trkpt lat="46.73156751673955" lon="9.852468399866789">
      <ele>1963.4</ele></trkpt>
      <trkpt lat="46.73158165644125" lon="9.852474726806342">
      <ele>1964.8</ele></trkpt>
      <trkpt lat="46.73159173074596" lon="9.852429903677727">
      <ele>1966.3</ele></trkpt>
      <trkpt lat="46.73161091647168" lon="9.852383629984637">
      <ele>1967.8</ele></trkpt>
      <trkpt lat="46.731645993752856" lon="9.852322989601834">
      <ele>1969.3</ele></trkpt>
      <trkpt lat="46.73165643587903" lon="9.852261206606592">
      <ele>1970.8</ele></trkpt>
      <trkpt lat="46.731674357930366" lon="9.852212978322818">
      <ele>1972.2</ele></trkpt>
      <trkpt lat="46.73168866657082" lon="9.852211747403569">
      <ele>1973.7</ele></trkpt>
      <trkpt lat="46.73171016134592" lon="9.852295798220872">
      <ele>1975.2</ele></trkpt>
      <trkpt lat="46.73172987415661" lon="9.852402386893624">
      <ele>1977.6</ele></trkpt>
      <trkpt lat="46.7317538387146" lon="9.852492202876846">
      <ele>1980.0</ele></trkpt>
      <trkpt lat="46.73180469072404" lon="9.852598354015765">
      <ele>1982.4</ele></trkpt>
      <trkpt lat="46.73184551283843" lon="9.852688964574972">
      <ele>1984.7</ele></trkpt>
      <trkpt lat="46.73194666270119" lon="9.852808795798452">
      <ele>1987.1</ele></trkpt>
      <trkpt lat="46.73203782280513" lon="9.85291119049301">
      <ele>1989.5</ele></trkpt>
      <trkpt lat="46.73209717686596" lon="9.85306209512151">
      <ele>1991.9</ele></trkpt>
      <trkpt lat="46.73212795398458" lon="9.853121287972662">
      <ele>1994.3</ele></trkpt>
      <trkpt lat="46.73219229559536" lon="9.853213856362869">
      <ele>1996.7</ele></trkpt>
      <trkpt lat="46.732249538836435" lon="9.853237010024893">
      <ele>1999.1</ele></trkpt>
      <trkpt lat="46.7323363905534" lon="9.853139880055917">
      <ele>2001.4</ele></trkpt>
      <trkpt lat="46.73244320824459" lon="9.853079521361572">
      <ele>2003.8</ele></trkpt>
      <trkpt lat="46.73249775084335" lon="9.852974307237162">
      <ele>2006.2</ele></trkpt>
      <trkpt lat="46.73255422953666" lon="9.852908577789432">
      <ele>2008.6</ele></trkpt>
      <trkpt lat="46.732640867276324" lon="9.852839827445118">
      <ele>2011.0</ele></trkpt>
      <trkpt lat="46.73266949682435" lon="9.8527653501285">
      <ele>2013.4</ele></trkpt>
      <trkpt lat="46.732691846517525" lon="9.852732450448833">
      <ele>2015.7</ele></trkpt>
      <trkpt lat="46.73275645148467" lon="9.8527011817147">
      <ele>2018.1</ele></trkpt>
      <trkpt lat="46.732782064226264" lon="9.852710562067237">
      <ele>2020.5</ele></trkpt>
      <trkpt lat="46.73283308895581" lon="9.852750714575533">
      <ele>2022.9</ele></trkpt>
      <trkpt lat="46.73300986281527" lon="9.852730687635368">
      <ele>2025.7</ele></trkpt>
      <trkpt lat="46.73314466208504" lon="9.852755299486263">
      <ele>2028.5</ele></trkpt>
      <trkpt lat="46.73327005480464" lon="9.852754908458099">
      <ele>2031.3</ele></trkpt>
      <trkpt lat="46.733469931573076" lon="9.852730601994189">
      <ele>2034.0</ele></trkpt>
      <trkpt lat="46.73363146851323" lon="9.85270591306154">
      <ele>2036.8</ele></trkpt>
      <trkpt lat="46.733717743807624" lon="9.852678520283394">
      <ele>2039.6</ele></trkpt>
      <trkpt lat="46.73391439966109" lon="9.852507873353497">
      <ele>2042.4</ele></trkpt>
      <trkpt lat="46.73402585695504" lon="9.852505535529703">
      <ele>2045.2</ele></trkpt>
      <trkpt lat="46.73426736625047" lon="9.852495697734145">
      <ele>2048.0</ele></trkpt>
      <trkpt lat="46.734533748606935" lon="9.852504252164827">
      <ele>2050.8</ele></trkpt>
      <trkpt lat="46.7347984871302" lon="9.852505429035267">
      <ele>2053.5</ele></trkpt>
      <trkpt lat="46.73503356694868" lon="9.85248002744418">
      <ele>2056.3</ele></trkpt>
      <trkpt lat="46.73515058261398" lon="9.852428092835018">
      <ele>2059.1</ele></trkpt>
      <trkpt lat="46.73525562078074" lon="9.8523875855609">
      <ele>2061.9</ele></trkpt>
      <trkpt lat="46.73538690373523" lon="9.852322335852715">
      <ele>2064.7</ele></trkpt>
      <trkpt lat="46.73551226820363" lon="9.852259477984433">
      <ele>2067.5</ele></trkpt>
      <trkpt lat="46.735620419967546" lon="9.8521998413287">
      <ele>2070.2</ele></trkpt>
      <trkpt lat="46.73570317355134" lon="9.852147051776175">
      <ele>2073.0</ele></trkpt>
      <trkpt lat="46.73577828569356" lon="9.852028784659062">
      <ele>2075.8</ele></trkpt>
      <trkpt lat="46.735863300895666" lon="9.851932899341216">
      <ele>2078.6</ele></trkpt>
      <trkpt lat="46.73598373427026" lon="9.851954222988997">
      <ele>2080.8</ele></trkpt>
      <trkpt lat="46.73609826823597" lon="9.851912804231338">
      <ele>2083.0</ele></trkpt>
      <trkpt lat="46.73615566637805" lon="9.851928647826448">
      <ele>2085.2</ele></trkpt>
      <trkpt lat="46.73623849026863" lon="9.851972071834842">
      <ele>2087.3</ele></trkpt>
      <trkpt lat="46.73627759107243" lon="9.852018158669575">
      <ele>2089.5</ele></trkpt>
      <trkpt lat="46.736373391932126" lon="9.851967601829926">
      <ele>2091.7</ele></trkpt>
      <trkpt lat="46.73651291140463" lon="9.851917994680152">
      <ele>2093.9</ele></trkpt>
      <trkpt lat="46.73660524453359" lon="9.85181141374293">
      <ele>2096.1</ele></trkpt>
      <trkpt lat="46.73678034427343" lon="9.851771384201733">
      <ele>2098.3</ele></trkpt>
      <trkpt lat="46.73691508836762" lon="9.851823285840565">
      <ele>2100.4</ele></trkpt>
      <trkpt lat="46.73707812081613" lon="9.851948254195378">
      <ele>2102.6</ele></trkpt>
      <trkpt lat="46.737204109992355" lon="9.851912007688817">
      <ele>2104.8</ele></trkpt>
      <trkpt lat="46.73725651090646" lon="9.852036014902357">
      <ele>2107.0</ele></trkpt>
      <trkpt lat="46.73731467073631" lon="9.852170268143635">
      <ele>2109.2</ele></trkpt>
      <trkpt lat="46.73737728010147" lon="9.852270738665247">
      <ele>2111.4</ele></trkpt>
      <trkpt lat="46.73744623356676" lon="9.852317221301778">
      <ele>2113.6</ele></trkpt>
      <trkpt lat="46.73749558880458" lon="9.852358872966736">
      <ele>2115.7</ele></trkpt>
      <trkpt lat="46.73753112702903" lon="9.852370439563721">
      <ele>2117.9</ele></trkpt>
      <trkpt lat="46.7375862955393" lon="9.852361927858812">
      <ele>2120.1</ele></trkpt>
      <trkpt lat="46.73760710626627" lon="9.852349010440804">
      <ele>2122.3</ele></trkpt>
      <trkpt lat="46.73766295634901" lon="9.852387824586394">
      <ele>2124.4</ele></trkpt>
      <trkpt lat="46.737724900853536" lon="9.852442724932082">
      <ele>2126.4</ele></trkpt>
      <trkpt lat="46.7377955321416" lon="9.852554944500923">
      <ele>2128.5</ele></trkpt>
      <trkpt lat="46.737861213039736" lon="9.852590206811335">
      <ele>2130.6</ele></trkpt>
      <trkpt lat="46.73790018733001" lon="9.852631629650928">
      <ele>2132.7</ele></trkpt>
      <trkpt lat="46.73797365587101" lon="9.852766269907624">
      <ele>2134.7</ele></trkpt>
      <trkpt lat="46.73802723183708" lon="9.852823230921887">
      <ele>2136.8</ele></trkpt>
      <trkpt lat="46.738111640001655" lon="9.852913828213266">
      <ele>2138.9</ele></trkpt>
      <trkpt lat="46.738180896268915" lon="9.853013604048577">
      <ele>2140.9</ele></trkpt>
      <trkpt lat="46.738231468518265" lon="9.853055573269396">
      <ele>2143.0</ele></trkpt>
      <trkpt lat="46.738265941611616" lon="9.85307451506629">
      <ele>2145.1</ele></trkpt>
      <trkpt lat="46.738302898768865" lon="9.853056456654082">
      <ele>2147.1</ele></trkpt>
      <trkpt lat="46.73833409883085" lon="9.85300765251177">
      <ele>2149.2</ele></trkpt>
      <trkpt lat="46.73836426103483" lon="9.853084850262178">
      <ele>2151.3</ele></trkpt>
      <trkpt lat="46.73838788550471" lon="9.8530376440565">
      <ele>2153.3</ele></trkpt>
      <trkpt lat="46.738480313106066" lon="9.853017646278735">
      <ele>2155.4</ele></trkpt>
      <trkpt lat="46.738593859889" lon="9.853068812405041">
      <ele>2157.5</ele></trkpt>
      <trkpt lat="46.7386527933109" lon="9.853141801662046">
      <ele>2159.6</ele></trkpt>
      <trkpt lat="46.7387907774698" lon="9.853193670476777">
      <ele>2161.6</ele></trkpt>
      <trkpt lat="46.73884282770701" lon="9.853210454765907">
      <ele>2163.7</ele></trkpt>
      <trkpt lat="46.738934614820515" lon="9.853261536784093">
      <ele>2164.8</ele></trkpt>
      <trkpt lat="46.7390051459991" lon="9.85329001454942">
      <ele>2165.8</ele></trkpt>
      <trkpt lat="46.73908084663239" lon="9.853313644850356">
      <ele>2166.8</ele></trkpt>
      <trkpt lat="46.73913523583348" lon="9.853359386040976">
      <ele>2167.9</ele></trkpt>
      <trkpt lat="46.73917091692091" lon="9.853375253807165">
      <ele>2168.9</ele></trkpt>
      <trkpt lat="46.739202454452794" lon="9.853390019565786">
      <ele>2170.0</ele></trkpt>
      <trkpt lat="46.73922730020902" lon="9.853411397368328">
      <ele>2171.0</ele></trkpt>
      <trkpt lat="46.73925180391705" lon="9.853449358896372">
      <ele>2172.1</ele></trkpt>
      <trkpt lat="46.73928863493283" lon="9.853509538045984">
      <ele>2173.1</ele></trkpt>
      <trkpt lat="46.73931885347241" lon="9.853544522358934">
      <ele>2174.2</ele></trkpt>
      <trkpt lat="46.73937935652858" lon="9.853568859698555">
      <ele>2175.2</ele></trkpt>
      <trkpt lat="46.73945542064256" lon="9.853617405494397">
      <ele>2176.3</ele></trkpt>
      <trkpt lat="46.73951375765609" lon="9.85367391468986">
      <ele>2177.3</ele></trkpt>
      <trkpt lat="46.739544772869706" lon="9.85372737987654">
      <ele>2178.4</ele></trkpt>
      <trkpt lat="46.7395930117966" lon="9.85381111066217">
      <ele>2179.4</ele></trkpt>
      <trkpt lat="46.73962025614723" lon="9.853888376274307">
      <ele>2180.5</ele></trkpt>
      <trkpt lat="46.7396752181749" lon="9.853935531817577">
      <ele>2181.5</ele></trkpt>
      <trkpt lat="46.73970444331396" lon="9.85398937526354">
      <ele>2182.6</ele></trkpt>
      <trkpt lat="46.73973407395867" lon="9.85401003857317">
      <ele>2183.6</ele></trkpt>
      <trkpt lat="46.739791390247625" lon="9.854078192875711">
      <ele>2184.7</ele></trkpt>
      <trkpt lat="46.73980946961919" lon="9.854093547225446">
      <ele>2185.3</ele></trkpt>
      <trkpt lat="46.739851456234604" lon="9.854128693182219">
      <ele>2186.0</ele></trkpt>
      <trkpt lat="46.73986097207288" lon="9.85414469787542">
      <ele>2186.6</ele></trkpt>
      <trkpt lat="46.73985868689875" lon="9.854159113216832">
      <ele>2187.3</ele></trkpt>
      <trkpt lat="46.73985047289769" lon="9.854174283875548">
      <ele>2187.9</ele></trkpt>
      <trkpt lat="46.739827735951145" lon="9.854191879864068">
      <ele>2188.6</ele></trkpt>
      <trkpt lat="46.739815289843186" lon="9.854220331292172">
      <ele>2189.2</ele></trkpt>
      <trkpt lat="46.739788999019524" lon="9.854250204250157">
      <ele>2189.9</ele></trkpt>
      <trkpt lat="46.73977727488957" lon="9.854275585478081">
      <ele>2190.5</ele></trkpt>
      <trkpt lat="46.739744826896285" lon="9.85431657140389">
      <ele>2191.2</ele></trkpt>
      <trkpt lat="46.739731770384914" lon="9.85437299670762">
      <ele>2191.8</ele></trkpt>
      <trkpt lat="46.739724737520234" lon="9.85439443839938">
      <ele>2192.5</ele></trkpt>
      <trkpt lat="46.739696062444494" lon="9.854412802219139">
      <ele>2193.1</ele></trkpt>
      <trkpt lat="46.739681144558844" lon="9.854433877304832">
      <ele>2193.8</ele></trkpt>
      <trkpt lat="46.73964669408396" lon="9.854445750937087">
      <ele>2194.4</ele></trkpt>
      <trkpt lat="46.73964545847681" lon="9.854472649544439">
      <ele>2195.1</ele></trkpt>
      <trkpt lat="46.73965497426698" lon="9.854488654237299">
      <ele>2195.8</ele></trkpt>
      <trkpt lat="46.73968186925046" lon="9.854522050355499">
      <ele>2196.4</ele></trkpt>
      <trkpt lat="46.73972991439811" lon="9.854581332801757">
      <ele>2197.0</ele></trkpt>
      <trkpt lat="46.73976592973083" lon="9.854588210041138">
      <ele>2197.7</ele></trkpt>
      <trkpt lat="46.739798510105" lon="9.854602172530578">
      <ele>2198.6</ele></trkpt>
      <trkpt lat="46.739823960496395" lon="9.854641735279662">
      <ele>2199.5</ele></trkpt>
      <trkpt lat="46.73984923729668" lon="9.854658472893412">
      <ele>2200.4</ele></trkpt>
      <trkpt lat="46.739888084920885" lon="9.854717317079837">
      <ele>2201.3</ele></trkpt>
      <trkpt lat="46.739921793392185" lon="9.854739629884849">
      <ele>2202.1</ele></trkpt>
      <trkpt lat="46.73994673898605" lon="9.854741834921104">
      <ele>2203.0</ele></trkpt>
      <trkpt lat="46.73996483987341" lon="9.85475616941663">
      <ele>2203.9</ele></trkpt>
      <trkpt lat="46.73997925525857" lon="9.854788993210635">
      <ele>2204.8</ele></trkpt>
      <trkpt lat="46.73998138889297" lon="9.854811906326482">
      <ele>2205.7</ele></trkpt>
      <trkpt lat="46.73993869188948" lon="9.854871073968594">
      <ele>2206.6</ele></trkpt>
      <trkpt lat="46.73989536217803" lon="9.85495926182061">
      <ele>2207.5</ele></trkpt>
      <trkpt lat="46.739837957235515" lon="9.8550291587741">
      <ele>2208.4</ele></trkpt>
      <trkpt lat="46.73980035695404" lon="9.855095833166112">
      <ele>2209.3</ele></trkpt>
      <trkpt lat="46.739758195163844" lon="9.855130151772158">
      <ele>2210.2</ele></trkpt>
      <trkpt lat="46.73974576171653" lon="9.855157569347709">
      <ele>2211.1</ele></trkpt>
      <trkpt lat="46.73973752569628" lon="9.855173773017661">
      <ele>2211.9</ele></trkpt>
      <trkpt lat="46.73965836681125" lon="9.855276874111468">
      <ele>2212.8</ele></trkpt>
      <trkpt lat="46.73964660065292" lon="9.855334391158028">
      <ele>2213.7</ele></trkpt>
      <trkpt lat="46.739621784736464" lon="9.855357077324102">
      <ele>2214.6</ele></trkpt>
      <trkpt lat="46.73961877738691" lon="9.855374562692496">
      <ele>2215.5</ele></trkpt>
      <trkpt lat="46.739649500263205" lon="9.85541332798015">
      <ele>2216.3</ele></trkpt>
      <trkpt lat="46.73966060084431" lon="9.855416967635463">
      <ele>2217.1</ele></trkpt>
      <trkpt lat="46.73967188635489" lon="9.85541230290738">
      <ele>2217.9</ele></trkpt>
      <trkpt lat="46.739682396520166" lon="9.855412800465196">
      <ele>2218.7</ele></trkpt>
      <trkpt lat="46.7397098266578" lon="9.855421348476039">
      <ele>2219.5</ele></trkpt>
      <trkpt lat="46.73972843032082" lon="9.855442958019607">
      <ele>2220.3</ele></trkpt>
      <trkpt lat="46.73976327570143" lon="9.8554736218129">
      <ele>2221.1</ele></trkpt>
      <trkpt lat="46.7397867460744" lon="9.85548301335586">
      <ele>2221.9</ele></trkpt>
      <trkpt lat="46.73983514178466" lon="9.855525726385379">
      <ele>2222.7</ele></trkpt>
      <trkpt lat="46.73986129227001" lon="9.855563239563896">
      <ele>2223.6</ele></trkpt>
      <trkpt lat="46.73990524750607" lon="9.855598475020821">
      <ele>2224.4</ele></trkpt>
      <trkpt lat="46.73995715341155" lon="9.855630977701061">
      <ele>2225.2</ele></trkpt>
      <trkpt lat="46.74000969349767" lon="9.855664556163592">
      <ele>2226.0</ele></trkpt>
      <trkpt lat="46.74004406900661" lon="9.855716969395473">
      <ele>2226.8</ele></trkpt>
      <trkpt lat="46.74005428503933" lon="9.855730924387299">
      <ele>2227.6</ele></trkpt>
      <trkpt lat="46.74009210268155" lon="9.85574618293898">
      <ele>2228.4</ele></trkpt>
      <trkpt lat="46.74012673326436" lon="9.855773813496054">
      <ele>2229.2</ele></trkpt>
      <trkpt lat="46.740167206366536" lon="9.855800514890943">
      <ele>2230.0</ele></trkpt>
      <trkpt lat="46.74024641096414" lon="9.855847765464437">
      <ele>2230.8</ele></trkpt>
      <trkpt lat="46.74029826374332" lon="9.85588234767823">
      <ele>2231.6</ele></trkpt>
      <trkpt lat="46.74032055299892" lon="9.855885468288848">
      <ele>2232.5</ele></trkpt>
      <trkpt lat="46.7403384783222" lon="9.855908082001076">
      <ele>2233.3</ele></trkpt>
      <trkpt lat="46.74033688044434" lon="9.855921480957617">
      <ele>2234.2</ele></trkpt>
      <trkpt lat="46.74032213770289" lon="9.85593427714653">
      <ele>2235.0</ele></trkpt>
      <trkpt lat="46.74026382363457" lon="9.855985465119543">
      <ele>2235.9</ele></trkpt>
      <trkpt lat="46.74018971584323" lon="9.856006882515423">
      <ele>2236.8</ele></trkpt>
      <trkpt lat="46.74015090125161" lon="9.856038248273375">
      <ele>2237.6</ele></trkpt>
      <trkpt lat="46.74012045471764" lon="9.856047184968515">
      <ele>2238.5</ele></trkpt>
      <trkpt lat="46.740086144986805" lon="9.856052832700321">
      <ele>2239.3</ele></trkpt>
      <trkpt lat="46.740028017703665" lon="9.856064625023953">
      <ele>2240.2</ele></trkpt>
      <trkpt lat="46.739981513915744" lon="9.856056228954852">
      <ele>2241.1</ele></trkpt>
      <trkpt lat="46.73993587485856" lon="9.856068607679857">
      <ele>2241.9</ele></trkpt>
      <trkpt lat="46.73988840913301" lon="9.856104756035698">
      <ele>2242.8</ele></trkpt>
      <trkpt lat="46.739869970173714" lon="9.856105957903464">
      <ele>2243.6</ele></trkpt>
      <trkpt lat="46.73985463701444" lon="9.85611561181415">
      <ele>2244.5</ele></trkpt>
      <trkpt lat="46.73984367857892" lon="9.856135843048989">
      <ele>2245.4</ele></trkpt>
      <trkpt lat="46.739828988871075" lon="9.856146559993018">
      <ele>2246.2</ele></trkpt>
      <trkpt lat="46.73979670490176" lon="9.856149195978103">
      <ele>2247.1</ele></trkpt>
      <trkpt lat="46.7397911598574" lon="9.856162417709758">
      <ele>2247.9</ele></trkpt>
      <trkpt lat="46.739800662783324" lon="9.856179443266132">
      <ele>2248.8</ele></trkpt>
      <trkpt lat="46.739830094565534" lon="9.856217117053108">
      <ele>2249.1</ele></trkpt>
      <trkpt lat="46.73985867235869" lon="9.856264086366751">
      <ele>2249.5</ele></trkpt>
      <trkpt lat="46.7398892744629" lon="9.856277961147681">
      <ele>2249.8</ele></trkpt>
      <trkpt lat="46.73989546469507" lon="9.856295872308898">
      <ele>2250.2</ele></trkpt>
      <trkpt lat="46.73991431859919" lon="9.856306091293433">
      <ele>2250.5</ele></trkpt>
      <trkpt lat="46.73994958497316" lon="9.85634660592071">
      <ele>2250.8</ele></trkpt>
      <trkpt lat="46.73993774719718" lon="9.856345053703155">
      <ele>2251.2</ele></trkpt>
      <trkpt lat="46.739869314807244" lon="9.856319493201728">
      <ele>2251.5</ele></trkpt>
      <trkpt lat="46.73983004929386" lon="9.856320323487203">
      <ele>2251.9</ele></trkpt>
      <trkpt lat="46.73978505225349" lon="9.85631344791543">
      <ele>2252.2</ele></trkpt>
      <trkpt lat="46.739754452427185" lon="9.856319000075963">
      <ele>2252.5</ele></trkpt>
      <trkpt lat="46.739728647040884" lon="9.856323392800803">
      <ele>2252.9</ele></trkpt>
      <trkpt lat="46.73969106237967" lon="9.856343856213746">
      <ele>2253.2</ele></trkpt>
      <trkpt lat="46.739677306253654" lon="9.856364027271914">
      <ele>2253.6</ele></trkpt>
      <trkpt lat="46.73966821860405" lon="9.856388557578706">
      <ele>2253.9</ele></trkpt>
      <trkpt lat="46.73965902102382" lon="9.856398316483217">
      <ele>2254.2</ele></trkpt>
      <trkpt lat="46.73962554013554" lon="9.856379717648304">
      <ele>2254.6</ele></trkpt>
      <trkpt lat="46.73959187016151" lon="9.856350506790049">
      <ele>2254.9</ele></trkpt>
      <trkpt lat="46.73956251692903" lon="9.85634225167151">
      <ele>2255.3</ele></trkpt>
      <trkpt lat="46.739525195858384" lon="9.856350277481937">
      <ele>2255.6</ele></trkpt>
      <trkpt lat="46.73949240563258" lon="9.85636958137844">
      <ele>2255.7</ele></trkpt>
      <trkpt lat="46.73944652465789" lon="9.856377236190456">
      <ele>2255.8</ele></trkpt>
      <trkpt lat="46.73942996836276" lon="9.856394493175648">
      <ele>2255.9</ele></trkpt>
      <trkpt lat="46.739395477109106" lon="9.856404033519347">
      <ele>2256.0</ele></trkpt>
      <trkpt lat="46.739353531456324" lon="9.856450639691074">
      <ele>2256.1</ele></trkpt>
      <trkpt lat="46.73931786134263" lon="9.856471214958653">
      <ele>2256.2</ele></trkpt>
      <trkpt lat="46.739267713566505" lon="9.856545152991213">
      <ele>2256.3</ele></trkpt>
      <trkpt lat="46.73921565386611" lon="9.856574692982575">
      <ele>2256.4</ele></trkpt>
      <trkpt lat="46.739175341385014" lon="9.85663383451557">
      <ele>2256.5</ele></trkpt>
      <trkpt lat="46.739139099887566" lon="9.856636358048524">
      <ele>2256.6</ele></trkpt>
      <trkpt lat="46.73907229281294" lon="9.856687398676705">
      <ele>2256.8</ele></trkpt>
      <trkpt lat="46.73904562249757" lon="9.856687589519375">
      <ele>2256.9</ele></trkpt>
      <trkpt lat="46.73902166473773" lon="9.856694827052092">
      <ele>2257.0</ele></trkpt>
      <trkpt lat="46.73899804105795" lon="9.856685454411455">
      <ele>2257.1</ele></trkpt>
      <trkpt lat="46.73897389827524" lon="9.856700996211492">
      <ele>2257.2</ele></trkpt>
      <trkpt lat="46.7389345921559" lon="9.85671308235041">
      <ele>2257.3</ele></trkpt>
      <trkpt lat="46.73890515079294" lon="9.856708986006636">
      <ele>2257.4</ele></trkpt>
      <trkpt lat="46.73888520172756" lon="9.856706703223331">
      <ele>2257.5</ele></trkpt>
      <trkpt lat="46.738867838408126" lon="9.856717024946011">
      <ele>2257.6</ele></trkpt>
      <trkpt lat="46.73881899561368" lon="9.856774395595247">
      <ele>2257.7</ele></trkpt>
      <trkpt lat="46.738762193872184" lon="9.856848047159087">
      <ele>2258.1</ele></trkpt>
      <trkpt lat="46.73871860610771" lon="9.856882103402164">
      <ele>2258.6</ele></trkpt>
      <trkpt lat="46.738694946720976" lon="9.856919842208942">
      <ele>2259.0</ele></trkpt>
      <trkpt lat="46.7386594578945" lon="9.856976437278696">
      <ele>2259.5</ele></trkpt>
      <trkpt lat="46.73863573997622" lon="9.857016935491357">
      <ele>2259.9</ele></trkpt>
      <trkpt lat="46.7386146528028" lon="9.857022914049319">
      <ele>2260.4</ele></trkpt>
      <trkpt lat="46.73859277721098" lon="9.857021932303212">
      <ele>2260.8</ele></trkpt>
      <trkpt lat="46.738580865713665" lon="9.856999235387368">
      <ele>2261.3</ele></trkpt>
      <trkpt lat="46.73855831634782" lon="9.856940035829888">
      <ele>2261.8</ele></trkpt>
      <trkpt lat="46.738511732698356" lon="9.85689083237569">
      <ele>2262.2</ele></trkpt>
      <trkpt lat="46.738476414595745" lon="9.856894797831664">
      <ele>2262.6</ele></trkpt>
      <trkpt lat="46.73844114655349" lon="9.856895977243704">
      <ele>2263.1</ele></trkpt>
      <trkpt lat="46.7384122767826" lon="9.856909919062854">
      <ele>2263.5</ele></trkpt>
      <trkpt lat="46.738395925563594" lon="9.856917497766641">
      <ele>2264.0</ele></trkpt>
      <trkpt lat="46.73837596723297" lon="9.856915227602151">
      <ele>2264.4</ele></trkpt>
      <trkpt lat="46.73835719679141" lon="9.856901923076277">
      <ele>2264.9</ele></trkpt>
      <trkpt lat="46.738330497363734" lon="9.856903487007585">
      <ele>2265.3</ele></trkpt>
      <trkpt lat="46.73830927224961" lon="9.856916397355361">
      <ele>2265.8</ele></trkpt>
      <trkpt lat="46.73828960068421" lon="9.856938383678072">
      <ele>2266.2</ele></trkpt>
      <trkpt lat="46.738308783141896" lon="9.856995507534531">
      <ele>2266.7</ele></trkpt>
      <trkpt lat="46.73832367852988" lon="9.857017120828973">
      <ele>2267.5</ele></trkpt>
      <trkpt lat="46.73836414837485" lon="9.85703929281072">
      <ele>2268.4</ele></trkpt>
      <trkpt lat="46.73839553548103" lon="9.857069199510567">
      <ele>2269.2</ele></trkpt>
      <trkpt lat="46.73843849290539" lon="9.857125584064388">
      <ele>2270.1</ele></trkpt>
      <trkpt lat="46.73847294585771" lon="9.857176010441906">
      <ele>2270.9</ele></trkpt>
      <trkpt lat="46.738497227976126" lon="9.857207810702043">
      <ele>2271.7</ele></trkpt>
      <trkpt lat="46.738534579030926" lon="9.857256953483109">
      <ele>2272.6</ele></trkpt>
      <trkpt lat="46.738548222729875" lon="9.857302793768898">
      <ele>2273.4</ele></trkpt>
      <trkpt lat="46.73858068273175" lon="9.857350434254231">
      <ele>2274.3</ele></trkpt>
      <trkpt lat="46.73861754338399" lon="9.857342480243906">
      <ele>2275.1</ele></trkpt>
      <trkpt lat="46.738660101535395" lon="9.85736633029017">
      <ele>2275.9</ele></trkpt>
      <trkpt lat="46.73869192209796" lon="9.857370271954753">
      <ele>2276.8</ele></trkpt>
      <trkpt lat="46.738717848959375" lon="9.857352087763518">
      <ele>2277.6</ele></trkpt>
      <trkpt lat="46.738776931053565" lon="9.85735002703142">
      <ele>2278.5</ele></trkpt>
      <trkpt lat="46.7388268669988" lon="9.85732812926549">
      <ele>2279.3</ele></trkpt>
      <trkpt lat="46.73887442293349" lon="9.857342503547473">
      <ele>2280.1</ele></trkpt>
      <trkpt lat="46.73891081207375" lon="9.857356363541774">
      <ele>2281.0</ele></trkpt>
      <trkpt lat="46.73901956379675" lon="9.85734454116772">
      <ele>2281.8</ele></trkpt>
      <trkpt lat="46.73905967688968" lon="9.857334298204615">
      <ele>2282.7</ele></trkpt>
      <trkpt lat="46.73909453487777" lon="9.857345667735151">
      <ele>2283.5</ele></trkpt>
      <trkpt lat="46.73914584780152" lon="9.8573335318608">
      <ele>2284.6</ele></trkpt>
      <trkpt lat="46.73917167178267" lon="9.85732019953842">
      <ele>2285.8</ele></trkpt>
      <trkpt lat="46.739209386328646" lon="9.85734625419185">
      <ele>2286.9</ele></trkpt>
      <trkpt lat="46.739260974279965" lon="9.857321995518053">
      <ele>2288.1</ele></trkpt>
      <trkpt lat="46.739284675022276" lon="9.857332825018377">
      <ele>2289.2</ele></trkpt>
      <trkpt lat="46.73930804016575" lon="9.857358209474505">
      <ele>2290.3</ele></trkpt>
      <trkpt lat="46.73935761674267" lon="9.857353261002887">
      <ele>2291.5</ele></trkpt>
      <trkpt lat="46.73941158890786" lon="9.857365540924011">
      <ele>2292.6</ele></trkpt>
      <trkpt lat="46.739488567104566" lon="9.85742014189631">
      <ele>2293.8</ele></trkpt>
      <trkpt lat="46.739516038254486" lon="9.857477259636324">
      <ele>2294.9</ele></trkpt>
      <trkpt lat="46.73957864892933" lon="9.857676772780207">
      <ele>2296.0</ele></trkpt>
      <trkpt lat="46.73959049677503" lon="9.857718593110949">
      <ele>2297.2</ele></trkpt>
      <trkpt lat="46.73962497731482" lon="9.857746911779994">
      <ele>2298.3</ele></trkpt>
      <trkpt lat="46.73964575222275" lon="9.857745474985082">
      <ele>2299.5</ele></trkpt>
      <trkpt lat="46.73969037303963" lon="9.857747595963286">
      <ele>2300.6</ele></trkpt>
      <trkpt lat="46.73971949183385" lon="9.857729554907987">
      <ele>2301.7</ele></trkpt>
      <trkpt lat="46.739803857082485" lon="9.857738395375296">
      <ele>2302.9</ele></trkpt>
      <trkpt lat="46.73985448340708" lon="9.857757791024575">
      <ele>2304.0</ele></trkpt>
      <trkpt lat="46.739868403250995" lon="9.857777868999747">
      <ele>2305.2</ele></trkpt>
      <trkpt lat="46.7399192356329" lon="9.857787547417715">
      <ele>2306.3</ele></trkpt>
      <trkpt lat="46.740051525172255" lon="9.857793813703417">
      <ele>2307.6</ele></trkpt>
      <trkpt lat="46.740081591080646" lon="9.857804955514702">
      <ele>2309.0</ele></trkpt>
      <trkpt lat="46.74016903091669" lon="9.857891615987834">
      <ele>2310.3</ele></trkpt>
      <trkpt lat="46.74025929873399" lon="9.85792258373843">
      <ele>2311.6</ele></trkpt>
      <trkpt lat="46.74028718123431" lon="9.857960293995308">
      <ele>2312.9</ele></trkpt>
      <trkpt lat="46.7403522685282" lon="9.857975521803475">
      <ele>2314.2</ele></trkpt>
      <trkpt lat="46.74036629151249" lon="9.857990734795598">
      <ele>2315.6</ele></trkpt>
      <trkpt lat="46.740430949762214" lon="9.85802534430794">
      <ele>2316.9</ele></trkpt>
      <trkpt lat="46.740456078390814" lon="9.858043530174921">
      <ele>2318.2</ele></trkpt>
      <trkpt lat="46.74052109637637" lon="9.858061176865029">
      <ele>2319.6</ele></trkpt>
      <trkpt lat="46.74056816863865" lon="9.858060161624508">
      <ele>2320.9</ele></trkpt>
      <trkpt lat="46.740591140530874" lon="9.858077347433271">
      <ele>2322.2</ele></trkpt>
      <trkpt lat="46.74063224223832" lon="9.85808584316531">
      <ele>2323.5</ele></trkpt>
      <trkpt lat="46.7406604418419" lon="9.858109023810597">
      <ele>2324.9</ele></trkpt>
      <trkpt lat="46.74065189236265" lon="9.858135319566644">
      <ele>2326.2</ele></trkpt>
      <trkpt lat="46.740662406010095" lon="9.858164932402348">
      <ele>2327.5</ele></trkpt>
      <trkpt lat="46.74069062671575" lon="9.858179055012425">
      <ele>2328.8</ele></trkpt>
      <trkpt lat="46.74071976813214" lon="9.858237178901286">
      <ele>2330.2</ele></trkpt>
      <trkpt lat="46.74072953260987" lon="9.85828810974759">
      <ele>2331.5</ele></trkpt>
      <trkpt lat="46.74077667266004" lon="9.858337786549674">
      <ele>2332.8</ele></trkpt>
      <trkpt lat="46.740815823893506" lon="9.858371198976435">
      <ele>2333.9</ele></trkpt>
      <trkpt lat="46.74086831696467" lon="9.858378530841138">
      <ele>2334.9</ele></trkpt>
      <trkpt lat="46.74091150083944" lon="9.858373296095282">
      <ele>2336.0</ele></trkpt>
      <trkpt lat="46.7409591592742" lon="9.858382832736616">
      <ele>2337.1</ele></trkpt>
      <trkpt lat="46.74101408781553" lon="9.858424271781212">
      <ele>2338.2</ele></trkpt>
      <trkpt lat="46.741056379574346" lon="9.858460247321416">
      <ele>2339.2</ele></trkpt>
      <trkpt lat="46.74112628746431" lon="9.858546057652491">
      <ele>2340.3</ele></trkpt>
      <trkpt lat="46.741188388653086" lon="9.858551438622014">
      <ele>2341.4</ele></trkpt>
      <trkpt lat="46.74129378932759" lon="9.858619533712217">
      <ele>2342.4</ele></trkpt>
      <trkpt lat="46.741303719164726" lon="9.858675813834259">
      <ele>2343.5</ele></trkpt>
      <trkpt lat="46.74134611377546" lon="9.858706937532215">
      <ele>2344.6</ele></trkpt>
      <trkpt lat="46.74138313776284" lon="9.85869171262923">
      <ele>2345.6</ele></trkpt>
      <trkpt lat="46.74142579855339" lon="9.858710712727017">
      <ele>2346.7</ele></trkpt>
      <trkpt lat="46.74146670436939" lon="9.858736925881134">
      <ele>2347.8</ele></trkpt>
      <trkpt lat="46.74153391536705" lon="9.858727979073127">
      <ele>2348.8</ele></trkpt>
      <trkpt lat="46.741586883490065" lon="9.858786310306195">
      <ele>2349.9</ele></trkpt>
      <trkpt lat="46.7416125812668" lon="9.858850630126687">
      <ele>2351.0</ele></trkpt>
      <trkpt lat="46.74168339940861" lon="9.858895218845442">
      <ele>2352.1</ele></trkpt>
      <trkpt lat="46.74174678347313" lon="9.85891521548394">
      <ele>2353.1</ele></trkpt>
      <trkpt lat="46.741820723036554" lon="9.858962418875628">
      <ele>2354.2</ele></trkpt>
      <trkpt lat="46.74187619305879" lon="9.85897959898263">
      <ele>2354.8</ele></trkpt>
      <trkpt lat="46.741942390828314" lon="9.859016714821731">
      <ele>2355.4</ele></trkpt>
      <trkpt lat="46.74198710024231" lon="9.859086772278395">
      <ele>2355.9</ele></trkpt>
      <trkpt lat="46.74203450110072" lon="9.859108447018722">
      <ele>2356.5</ele></trkpt>
      <trkpt lat="46.742070778351405" lon="9.85912714783578">
      <ele>2357.1</ele></trkpt>
      <trkpt lat="46.74211338745227" lon="9.859148581211905">
      <ele>2357.7</ele></trkpt>
      <trkpt lat="46.74215259005816" lon="9.859179562366213">
      <ele>2358.3</ele></trkpt>
      <trkpt lat="46.74219784955566" lon="9.859225386458649">
      <ele>2358.8</ele></trkpt>
      <trkpt lat="46.74223508278725" lon="9.859273258893094">
      <ele>2359.4</ele></trkpt>
      <trkpt lat="46.742319665747694" lon="9.859345212996962">
      <ele>2360.0</ele></trkpt>
      <trkpt lat="46.74235657206053" lon="9.85940764178509">
      <ele>2360.6</ele></trkpt>
      <trkpt lat="46.742400240025056" lon="9.859453394744445">
      <ele>2361.2</ele></trkpt>
      <trkpt lat="46.74249363865822" lon="9.85948694210466">
      <ele>2361.7</ele></trkpt>
      <trkpt lat="46.74254809176621" lon="9.859477396695802">
      <ele>2362.3</ele></trkpt>
      <trkpt lat="46.742599207961284" lon="9.859474967168046">
      <ele>2362.9</ele></trkpt>
      <trkpt lat="46.742634864794596" lon="9.859449953971403">
      <ele>2363.5</ele></trkpt>
      <trkpt lat="46.7426904800559" lon="9.859459862446272">
      <ele>2364.1</ele></trkpt>
      <trkpt lat="46.7427398838627" lon="9.859462212946125">
      <ele>2364.6</ele></trkpt>
      <trkpt lat="46.74277288419792" lon="9.85948562401163">
      <ele>2365.2</ele></trkpt>
      <trkpt lat="46.742781857674316" lon="9.859512734057304">
      <ele>2365.8</ele></trkpt>
      <trkpt lat="46.74281075282453" lon="9.859504396840173">
      <ele>2366.7</ele></trkpt>
      <trkpt lat="46.742835881211505" lon="9.85952258420194">
      <ele>2367.7</ele></trkpt>
      <trkpt lat="46.74286706645233" lon="9.85955561469546">
      <ele>2368.6</ele></trkpt>
      <trkpt lat="46.74289478811335" lon="9.859673401980373">
      <ele>2369.5</ele></trkpt>
      <trkpt lat="46.74290360062221" lon="9.859780612644213">
      <ele>2370.4</ele></trkpt>
      <trkpt lat="46.742887793198776" lon="9.859918189339147">
      <ele>2371.4</ele></trkpt>
      <trkpt lat="46.74289055542807" lon="9.859937728364265">
      <ele>2372.3</ele></trkpt>
      <trkpt lat="46.74291154503961" lon="9.85992660106585">
      <ele>2373.2</ele></trkpt>
      <trkpt lat="46.742934023661384" lon="9.859920371487869">
      <ele>2374.1</ele></trkpt>
      <trkpt lat="46.74293635596694" lon="9.859959319220499">
      <ele>2375.1</ele></trkpt>
      <trkpt lat="46.74292799682947" lon="9.860048713025028">
      <ele>2376.0</ele></trkpt>
      <trkpt lat="46.74294011940006" lon="9.860078399813377">
      <ele>2376.9</ele></trkpt>
      <trkpt lat="46.742953969214234" lon="9.860100911459773">
      <ele>2377.8</ele></trkpt>
      <trkpt lat="46.74296943140546" lon="9.860196285207504">
      <ele>2378.8</ele></trkpt>
      <trkpt lat="46.74299072368726" lon="9.860243403322624">
      <ele>2379.7</ele></trkpt>
      <trkpt lat="46.743008455003576" lon="9.860307341331563">
      <ele>2380.6</ele></trkpt>
      <trkpt lat="46.74299920922515" lon="9.860365144443362">
      <ele>2381.5</ele></trkpt>
      <trkpt lat="46.74300973100466" lon="9.860394772490116">
      <ele>2382.5</ele></trkpt>
      <trkpt lat="46.74300839073852" lon="9.860455365962842">
      <ele>2383.4</ele></trkpt>
      <trkpt lat="46.74302916567382" lon="9.860453930122754">
      <ele>2384.3</ele></trkpt>
      <trkpt lat="46.74303435394574" lon="9.86050756426777">
      <ele>2386.1</ele></trkpt>
      <trkpt lat="46.74301291518661" lon="9.860564858600277">
      <ele>2388.0</ele></trkpt>
      <trkpt lat="46.74301559811053" lon="9.860656804191173">
      <ele>2389.8</ele></trkpt>
      <trkpt lat="46.743027293170854" lon="9.860703229301635">
      <ele>2391.7</ele></trkpt>
      <trkpt lat="46.743060129414566" lon="9.860804725791">
      <ele>2393.5</ele></trkpt>
      <trkpt lat="46.74305445018917" lon="9.860906899832514">
      <ele>2395.3</ele></trkpt>
      <trkpt lat="46.74302968744173" lon="9.860963481662282">
      <ele>2397.2</ele></trkpt>
      <trkpt lat="46.742997109847316" lon="9.861039703094026">
      <ele>2399.0</ele></trkpt>
      <trkpt lat="46.742969170885985" lon="9.861067850921593">
      <ele>2400.9</ele></trkpt>
      <trkpt lat="46.742942910402284" lon="9.861164870846984">
      <ele>2402.7</ele></trkpt>
      <trkpt lat="46.74302891866521" lon="9.861289168086897">
      <ele>2404.5</ele></trkpt>
      <trkpt lat="46.7430600081012" lon="9.861369914642003">
      <ele>2406.4</ele></trkpt>
      <trkpt lat="46.74310169245293" lon="9.861417924050649">
      <ele>2408.2</ele></trkpt>
      <trkpt lat="46.74310389851285" lon="9.861466606540539">
      <ele>2410.1</ele></trkpt>
      <trkpt lat="46.74313624405388" lon="9.86149116782309">
      <ele>2411.9</ele></trkpt>
      <trkpt lat="46.743162794886665" lon="9.861553814201432">
      <ele>2413.7</ele></trkpt>
      <trkpt lat="46.743229429614864" lon="9.861587693941177">
      <ele>2415.6</ele></trkpt>
      <trkpt lat="46.74316225312944" lon="9.861727634718648">
      <ele>2417.4</ele></trkpt>
      <trkpt lat="46.74317844396612" lon="9.86173863981903">
      <ele>2419.3</ele></trkpt>
      <trkpt lat="46.74326104349661" lon="9.861719587803497">
      <ele>2421.1</ele></trkpt>
      <trkpt lat="46.74323479094031" lon="9.86179248025477">
      <ele>2422.6</ele></trkpt>
      <trkpt lat="46.74325120797635" lon="9.861867409423649">
      <ele>2424.0</ele></trkpt>
      <trkpt lat="46.743272624008256" lon="9.861940023667252">
      <ele>2425.5</ele></trkpt>
      <trkpt lat="46.74329550443865" lon="9.861946237024007">
      <ele>2426.9</ele></trkpt>
      <trkpt lat="46.743320229247566" lon="9.861942308675182">
      <ele>2428.4</ele></trkpt>
      <trkpt lat="46.74338308523224" lon="9.861999008200835">
      <ele>2429.8</ele></trkpt>
      <trkpt lat="46.74345489077437" lon="9.862097048399292">
      <ele>2431.3</ele></trkpt>
      <trkpt lat="46.743497189362024" lon="9.862191117129377">
      <ele>2432.7</ele></trkpt>
      <trkpt lat="46.7434905716142" lon="9.86226751122101">
      <ele>2434.2</ele></trkpt>
      <trkpt lat="46.74350559620502" lon="9.86233214048174">
      <ele>2435.6</ele></trkpt>
      <trkpt lat="46.74348380913702" lon="9.8624256963319">
      <ele>2437.1</ele></trkpt>
      <trkpt lat="46.74347182258258" lon="9.862465885710167">
      <ele>2438.6</ele></trkpt>
      <trkpt lat="46.74348514050391" lon="9.862568901936381">
      <ele>2440.0</ele></trkpt>
      <trkpt lat="46.743491647877164" lon="9.862674348012655">
      <ele>2441.5</ele></trkpt>
      <trkpt lat="46.7434955049661" lon="9.862727896808305">
      <ele>2442.9</ele></trkpt>
      <trkpt lat="46.74350187697708" lon="9.862922295646829">
      <ele>2444.4</ele></trkpt>
      <trkpt lat="46.743503136945286" lon="9.862972271385853">
      <ele>2445.8</ele></trkpt>
      <trkpt lat="46.743487104962796" lon="9.863008429655686">
      <ele>2447.3</ele></trkpt>
      <trkpt lat="46.74347239858143" lon="9.863037263775745">
      <ele>2448.7</ele></trkpt>
      <trkpt lat="46.74348244704145" lon="9.863115389551218">
      <ele>2450.2</ele></trkpt>
      <trkpt lat="46.74349385633589" lon="9.863130749028725">
      <ele>2451.4</ele></trkpt>
      <trkpt lat="46.74349108217102" lon="9.86320454051885">
      <ele>2452.6</ele></trkpt>
      <trkpt lat="46.74348531175083" lon="9.863254160627045">
      <ele>2453.7</ele></trkpt>
      <trkpt lat="46.74350973927514" lon="9.863264646658006">
      <ele>2454.9</ele></trkpt>
      <trkpt lat="46.74349334518229" lon="9.863317415145413">
      <ele>2456.1</ele></trkpt>
      <trkpt lat="46.74347358386147" lon="9.863362622115611">
      <ele>2457.3</ele></trkpt>
      <trkpt lat="46.74346803113261" lon="9.863456620094887">
      <ele>2458.5</ele></trkpt>
      <trkpt lat="46.74347203908339" lon="9.863488233872772">
      <ele>2459.6</ele></trkpt>
      <trkpt lat="46.743470184771525" lon="9.863565313488671">
      <ele>2460.8</ele></trkpt>
      <trkpt lat="46.74344958176912" lon="9.863605232663046">
      <ele>2462.0</ele></trkpt>
      <trkpt lat="46.74345547541137" lon="9.86363619816929">
      <ele>2463.2</ele></trkpt>
      <trkpt lat="46.74347953962581" lon="9.86366292803688">
      <ele>2464.4</ele></trkpt>
      <trkpt lat="46.743467894847186" lon="9.863744175330803">
      <ele>2465.5</ele></trkpt>
      <trkpt lat="46.74346862644512" lon="9.863785120134027">
      <ele>2466.7</ele></trkpt>
      <trkpt lat="46.7435232178304" lon="9.86391811568802">
      <ele>2467.9</ele></trkpt>
      <trkpt lat="46.743541927135674" lon="9.863988449188039">
      <ele>2469.1</ele></trkpt>
      <trkpt lat="46.743564112793536" lon="9.864034536060595">
      <ele>2470.3</ele></trkpt>
      <trkpt lat="46.74356773978391" lon="9.864051888890215">
      <ele>2471.4</ele></trkpt>
      <trkpt lat="46.74358791245357" lon="9.864148210197591">
      <ele>2472.6</ele></trkpt>
      <trkpt lat="46.74360557946645" lon="9.864259094731613">
      <ele>2473.8</ele></trkpt>
      <trkpt lat="46.74361716161796" lon="9.86433277332712">
      <ele>2475.0</ele></trkpt>
      <trkpt lat="46.743638793661894" lon="9.864437905893455">
      <ele>2476.2</ele></trkpt>
      <trkpt lat="46.74363956146979" lon="9.864504224474507">
      <ele>2477.3</ele></trkpt>
      <trkpt lat="46.74371011071774" lon="9.86465574464841">
      <ele>2478.5</ele></trkpt>
      <trkpt lat="46.743725010426296" lon="9.864669049157888">
      <ele>2479.7</ele></trkpt>
      <trkpt lat="46.743786066303294" lon="9.86475701327216">
      <ele>2480.9</ele></trkpt>
      <trkpt lat="46.74381844430704" lon="9.864764781442593">
      <ele>2482.1</ele></trkpt>
      <trkpt lat="46.74384406227891" lon="9.86478487891791">
      <ele>2483.2</ele></trkpt>
      <trkpt lat="46.74389108083133" lon="9.864818560633156">
      <ele>2484.4</ele></trkpt>
      <trkpt lat="46.74390354551331" lon="9.864844376191073">
      <ele>2485.6</ele></trkpt>
      <trkpt lat="46.74390260674947" lon="9.864888519121461">
      <ele>2486.8</ele></trkpt>
      <trkpt lat="46.74388689309379" lon="9.864913065836227">
      <ele>2488.0</ele></trkpt>
      <trkpt lat="46.743918362079306" lon="9.865065982531723">
      <ele>2489.1</ele></trkpt>
      <trkpt lat="46.743934565789196" lon="9.86512037601053">
      <ele>2490.3</ele></trkpt>
      <trkpt lat="46.743950961889425" lon="9.8651652996339">
      <ele>2491.5</ele></trkpt>
      <trkpt lat="46.743978008899695" lon="9.865220181512077">
      <ele>2492.7</ele></trkpt>
      <trkpt lat="46.74400754927059" lon="9.865259386860574">
      <ele>2493.9</ele></trkpt>
      <trkpt lat="46.74406836007945" lon="9.8652894615602">
      <ele>2495.0</ele></trkpt>
      <trkpt lat="46.74412852946254" lon="9.865364923480483">
      <ele>2496.2</ele></trkpt>
      <trkpt lat="46.74421487937489" lon="9.865444183137923">
      <ele>2497.4</ele></trkpt>
      <trkpt lat="46.744243999511895" lon="9.865668137230548">
      <ele>2499.8</ele></trkpt>
      <trkpt lat="46.7443389682199" lon="9.865990341703949">
      <ele>2502.2</ele></trkpt>
      <trkpt lat="46.74435609318317" lon="9.866126196733976">
      <ele>2504.6</ele></trkpt>
      <trkpt lat="46.74439032929774" lon="9.866327903325686">
      <ele>2507.0</ele></trkpt>
      <trkpt lat="46.74438831797449" lon="9.866420307948328">
      <ele>2509.3</ele></trkpt>
      <trkpt lat="46.74439105573191" lon="9.866577967811642">
      <ele>2511.7</ele></trkpt>
      <trkpt lat="46.744397329277355" lon="9.866715795490485">
      <ele>2514.1</ele></trkpt>
      <trkpt lat="46.74445066532641" lon="9.866820932370745">
      <ele>2516.5</ele></trkpt>
      <trkpt lat="46.744459069956605" lon="9.866931349874928">
      <ele>2518.9</ele></trkpt>
      <trkpt lat="46.744519246963634" lon="9.8670068276646">
      <ele>2521.3</ele></trkpt>
      <trkpt lat="46.744601962578315" lon="9.867110906498239">
      <ele>2523.7</ele></trkpt>
      <trkpt lat="46.74468458073137" lon="9.867219982450889">
      <ele>2526.1</ele></trkpt>
      <trkpt lat="46.7447350429143" lon="9.867332846148997">
      <ele>2528.5</ele></trkpt>
      <trkpt lat="46.7447508754835" lon="9.867368267049837">
      <ele>2530.9</ele></trkpt>
      <trkpt lat="46.74474921348907" lon="9.867445069125807">
      <ele>2533.2</ele></trkpt>
      <trkpt lat="46.74474865030265" lon="9.867470678131172">
      <ele>2535.6</ele></trkpt>
      <trkpt lat="46.7447190829209" lon="9.867621737616496">
      <ele>2538.0</ele></trkpt>
      <trkpt lat="46.74469844405599" lon="9.86771822566234">
      <ele>2540.4</ele></trkpt>
      <trkpt lat="46.744696803667324" lon="9.867793156464266">
      <ele>2542.8</ele></trkpt>
      <trkpt lat="46.74472570792904" lon="9.867884598883542">
      <ele>2545.2</ele></trkpt>
      <trkpt lat="46.74474611289785" lon="9.868083131515158">
      <ele>2550.6</ele></trkpt>
      <trkpt lat="46.74477824962282" lon="9.868309726111542">
      <ele>2556.0</ele></trkpt>
      <trkpt lat="46.74478088734666" lon="9.868472384020366">
      <ele>2561.4</ele></trkpt>
      <trkpt lat="46.74480334865624" lon="9.868576013223972">
      <ele>2566.8</ele></trkpt>
      <trkpt lat="46.74481307595182" lon="9.868696506953848">
      <ele>2572.2</ele></trkpt>
      <trkpt lat="46.74486109130461" lon="9.868903892186626">
      <ele>2577.6</ele></trkpt>
      <trkpt lat="46.74489574085779" lon="9.86899555539646">
      <ele>2583.0</ele></trkpt>
      <trkpt lat="46.744912614469335" lon="9.869018416106071">
      <ele>2588.4</ele></trkpt>
      <trkpt lat="46.744912614469335" lon="9.869018416106071">
      <ele>2593.8</ele></trkpt>
      <trkpt lat="46.74466515208053" lon="9.869036013973396">
      <ele>2599.2</ele></trkpt>
      <trkpt lat="46.744417689683004" lon="9.86905361167819">
      <ele>2604.7</ele></trkpt>
      <trkpt lat="46.74420017601735" lon="9.868882947307238">
      <ele>2610.1</ele></trkpt>
      <trkpt lat="46.7439826620917" lon="9.86871228431599">
      <ele>2615.5</ele></trkpt>
      <trkpt lat="46.74359188073336" lon="9.868518489428718">
      <ele>2620.9</ele></trkpt>
      <trkpt lat="46.74320109903089" lon="9.868324697355458">
      <ele>2626.3</ele></trkpt>
      <trkpt lat="46.74284285681356" lon="9.868086418932252">
      <ele>2631.7</ele></trkpt>
      <trkpt lat="46.74248461408595" lon="9.867848143681336">
      <ele>2637.1</ele></trkpt>
      <trkpt lat="46.74212994788437" lon="9.86768917944513">
      <ele>2642.5</ele></trkpt>
      <trkpt lat="46.74177528144909" lon="9.867530217303683">
      <ele>2647.9</ele></trkpt>
      <trkpt lat="46.741420614780075" lon="9.867371257256943">
      <ele>2653.3</ele></trkpt>
      <trkpt lat="46.74109442175531" lon="9.867111459828921">
      <ele>2654.3</ele></trkpt>
      <trkpt lat="46.740768228128424" lon="9.866851665550406">
      <ele>2655.2</ele></trkpt>
      <trkpt lat="46.74060380426329" lon="9.866660437152383">
      <ele>2656.2</ele></trkpt>
      <trkpt lat="46.740312478353104" lon="9.86649412793359">
      <ele>2657.2</ele></trkpt>
      <trkpt lat="46.740092370015766" lon="9.866592131556915">
      <ele>2658.1</ele></trkpt>
      <trkpt lat="46.739919672255944" lon="9.867094897339241">
      <ele>2659.1</ele></trkpt>
      <trkpt lat="46.73974697227587" lon="9.867597659894292">
      <ele>2660.1</ele></trkpt>
      <trkpt lat="46.73957283816182" lon="9.867956355044512">
      <ele>2661.0</ele></trkpt>
      <trkpt lat="46.73939870291614" lon="9.86831504787287">
      <ele>2662.0</ele></trkpt>
      <trkpt lat="46.739232126509336" lon="9.868530080563051">
      <ele>2662.9</ele></trkpt>
      <trkpt lat="46.73902624178302" lon="9.868900428197705">
      <ele>2663.9</ele></trkpt>
      <trkpt lat="46.73882035584934" lon="9.869270772997872">
      <ele>2664.9</ele></trkpt>
      <trkpt lat="46.73855134481385" lon="9.869646994324166">
      <ele>2665.8</ele></trkpt>
      <trkpt lat="46.738282332529565" lon="9.870023211887915">
      <ele>2666.8</ele></trkpt>
      <trkpt lat="46.73801331899653" lon="9.870399425689145">
      <ele>2667.8</ele></trkpt>
      <trkpt lat="46.73781934695538" lon="9.870632845870727">
      <ele>2668.7</ele></trkpt>
      <trkpt lat="46.73762537443257" lon="9.870866264369008">
      <ele>2669.7</ele></trkpt>
      <trkpt lat="46.73740624057847" lon="9.871013458075486">
      <ele>2670.7</ele></trkpt>
      <trkpt lat="46.73718710652961" lon="9.871160650582544">
      <ele>2671.6</ele></trkpt>
      <trkpt lat="46.736878200213" lon="9.871297244196741">
      <ele>2672.6</ele></trkpt>
      <trkpt lat="46.73656929372348" lon="9.871433836241591">
      <ele>2679.7</ele></trkpt>
      <trkpt lat="46.73635845295345" lon="9.871614124469593">
      <ele>2686.8</ele></trkpt>
      <trkpt lat="46.73614761189396" lon="9.871794411284261">
      <ele>2693.8</ele></trkpt>
      <trkpt lat="46.73603609164895" lon="9.871959546443232">
      <ele>2700.9</ele></trkpt>
      <trkpt lat="46.73597011654321" lon="9.87230999790429">
      <ele>2708.0</ele></trkpt>
      <trkpt lat="46.73590414035964" lon="9.872660448506188">
      <ele>2715.1</ele></trkpt>
      <trkpt lat="46.735756405511175" lon="9.873046474872924">
      <ele>2722.2</ele></trkpt>
      <trkpt lat="46.73560866935332" lon="9.873432499119959">
      <ele>2729.2</ele></trkpt>
      <trkpt lat="46.73552752792053" lon="9.873860800385534">
      <ele>2736.3</ele></trkpt>
      <trkpt lat="46.73542628045164" lon="9.874176927563305">
      <ele>2743.4</ele></trkpt>
      <trkpt lat="46.73532503210501" lon="9.874493053551491">
      <ele>2750.5</ele></trkpt>
      <trkpt lat="46.735270441145346" lon="9.874942186252378">
      <ele>2757.6</ele></trkpt>
      <trkpt lat="46.735215848415805" lon="9.87539131804239">
      <ele>2764.6</ele></trkpt>
      <trkpt lat="46.73511979075423" lon="9.87567495082464">
      <ele>2771.7</ele></trkpt>
      <trkpt lat="46.734895059637594" lon="9.875972755025256">
      <ele>2778.8</ele></trkpt>
      <trkpt lat="46.73467032773797" lon="9.876270556737897">
      <ele>2785.9</ele></trkpt>
      <trkpt lat="46.73443632634343" lon="9.876691931171257">
      <ele>2793.0</ele></trkpt>
      <trkpt lat="46.734425144773205" lon="9.877215012050579">
      <ele>2800.0</ele></trkpt>
      <trkpt lat="46.73449008412719" lon="9.877545192778218">
      <ele>2807.1</ele></trkpt>
      <trkpt lat="46.73455502252449" lon="9.877875374303137">
      <ele>2814.2</ele></trkpt>
      </trkseg>
  </trk>
</gpx>