<?xml version='1.0' encoding='utf-8'?>
<gpx xmlns="http://www.topografix.com/GPX/1/1" xmlns:xsi="http://www.w3.org/2001/XMLSchema-instance" xsi:schemaLocation="http://www.topografix.com/GPX/1/1 http://www.topografix.com/GPX/1/1/gpx.xsd" version="1.1" creator="gpx.py -- https://github.com/tkrajina/gpxpy">
  <trk>
    <name>rophaien</name>
    <trkseg>
      <trkpt lat="46.91541410329195" lon="8.625058994454006">
      <ele>461.8</ele></trkpt>
      <trkpt lat="46.91532990666611" lon="8.624976182586177">
      <ele>461.8</ele></trkpt>
      <trkpt lat="46.91526039665288" lon="8.6249167112048">
      <ele>461.8</ele></trkpt>
      <trkpt lat="46.91526000285458" lon="8.624873088494775">
      <ele>461.7</ele></trkpt>
      <trkpt lat="46.915267886014426" lon="8.624833770858121">
      <ele>461.7</ele></trkpt>
      <trkpt lat="46.91528726313029" lon="8.624795638942617">
      <ele>461.7</ele></trkpt>
      <trkpt lat="46.915295041662674" lon="8.624780318509565">
      <ele>461.7</ele></trkpt>
      <trkpt lat="46.91532181748579" lon="8.624732266818066">
      <ele>461.6</ele></trkpt>
      <trkpt lat="46.91534561978043" lon="8.62465426818607">
      <ele>461.6</ele></trkpt>
      <trkpt lat="46.915349383646365" lon="8.624625270778983">
      <ele>461.6</ele></trkpt>
      <trkpt lat="46.91534984660879" lon="8.62457535191588">
      <ele>461.6</ele></trkpt>
      <trkpt lat="46.91533073306573" lon="8.624540256982081">
      <ele>461.5</ele></trkpt>
      <trkpt lat="46.91527759206994" lon="8.624506367728701">
      <ele>461.5</ele></trkpt>
      <trkpt lat="46.91522943930236" lon="8.624457293471057">
      <ele>461.5</ele></trkpt>
      <trkpt lat="46.91522388544929" lon="8.62443587600548">
      <ele>461.4</ele></trkpt>
      <trkpt lat="46.915204826404846" lon="8.624450251836645">
      <ele>461.4</ele></trkpt>
      <trkpt lat="46.91518303893206" lon="8.624463136437054">
      <ele>461.4</ele></trkpt>
      <trkpt lat="46.91516902387982" lon="8.624463024251144">
      <ele>461.4</ele></trkpt>
      <trkpt lat="46.9151510465661" lon="8.624451993399363">
      <ele>461.4</ele></trkpt>
      <trkpt lat="46.91513009748932" lon="8.624431693713753">
      <ele>461.3</ele></trkpt>
      <trkpt lat="46.91510980619958" lon="8.624406078256179">
      <ele>461.3</ele></trkpt>
      <trkpt lat="46.914975253239504" lon="8.624269223457341">
      <ele>463.3</ele></trkpt>
      <trkpt lat="46.91482891970828" lon="8.624127567044262">
      <ele>465.3</ele></trkpt>
      <trkpt lat="46.91477811999384" lon="8.624202081506304">
      <ele>467.2</ele></trkpt>
      <trkpt lat="46.91475523146154" lon="8.62417967808454">
      <ele>469.2</ele></trkpt>
      <trkpt lat="46.91471457329564" lon="8.6242973731758">
      <ele>471.2</ele></trkpt>
      <trkpt lat="46.914691719248864" lon="8.624344631403538">
      <ele>473.2</ele></trkpt>
      <trkpt lat="46.914618981839546" lon="8.624449999809768">
      <ele>475.2</ele></trkpt>
      <trkpt lat="46.91454106697605" lon="8.624572307870189">
      <ele>477.1</ele></trkpt>
      <trkpt lat="46.91447351531385" lon="8.62466077534188">
      <ele>479.1</ele></trkpt>
      <trkpt lat="46.91440776055936" lon="8.624734696320267">
      <ele>481.1</ele></trkpt>
      <trkpt lat="46.91434385487395" lon="8.624791643221522">
      <ele>483.1</ele></trkpt>
      <trkpt lat="46.91427836068121" lon="8.624841268565289">
      <ele>485.1</ele></trkpt>
      <trkpt lat="46.914165970575574" lon="8.624914173215318">
      <ele>487.0</ele></trkpt>
      <trkpt lat="46.91404177296738" lon="8.625001389710732">
      <ele>489.0</ele></trkpt>
      <trkpt lat="46.91379162886903" lon="8.62518309546748">
      <ele>491.0</ele></trkpt>
      <trkpt lat="46.913589691709916" lon="8.625375591749341">
      <ele>493.0</ele></trkpt>
      <trkpt lat="46.91346662852223" lon="8.625513900798444">
      <ele>495.0</ele></trkpt>
      <trkpt lat="46.91320784416751" lon="8.62588507668646">
      <ele>496.9</ele></trkpt>
      <trkpt lat="46.91307261974583" lon="8.626071742298416">
      <ele>498.9</ele></trkpt>
      <trkpt lat="46.91294900117856" lon="8.626263520800613">
      <ele>500.9</ele></trkpt>
      <trkpt lat="46.91282365871665" lon="8.626460144053235">
      <ele>503.7</ele></trkpt>
      <trkpt lat="46.91274713753481" lon="8.626609191912545">
      <ele>506.5</ele></trkpt>
      <trkpt lat="46.91262490432229" lon="8.62682776706307">
      <ele>509.3</ele></trkpt>
      <trkpt lat="46.9125194704736" lon="8.62703211401112">
      <ele>512.1</ele></trkpt>
      <trkpt lat="46.91238348726884" lon="8.62729169760347">
      <ele>514.9</ele></trkpt>
      <trkpt lat="46.91226253814289" lon="8.627546768059913">
      <ele>517.7</ele></trkpt>
      <trkpt lat="46.912139798577954" lon="8.627813928136787">
      <ele>520.5</ele></trkpt>
      <trkpt lat="46.91207425029703" lon="8.628028881559962">
      <ele>523.3</ele></trkpt>
      <trkpt lat="46.911996783720014" lon="8.628267870804372">
      <ele>526.1</ele></trkpt>
      <trkpt lat="46.911940781634264" lon="8.628526790142322">
      <ele>528.9</ele></trkpt>
      <trkpt lat="46.91191590234427" lon="8.62867700193005">
      <ele>531.7</ele></trkpt>
      <trkpt lat="46.911901250360756" lon="8.628803100600193">
      <ele>534.5</ele></trkpt>
      <trkpt lat="46.91190013858395" lon="8.628910069466817">
      <ele>537.3</ele></trkpt>
      <trkpt lat="46.91190213626713" lon="8.629038978479452">
      <ele>540.1</ele></trkpt>
      <trkpt lat="46.91191697408074" lon="8.629214369385151">
      <ele>542.9</ele></trkpt>
      <trkpt lat="46.91195207937309" lon="8.629523944675121">
      <ele>545.7</ele></trkpt>
      <trkpt lat="46.911967219903794" lon="8.629670158939868">
      <ele>548.5</ele></trkpt>
      <trkpt lat="46.91196877074496" lon="8.62974507570744">
      <ele>551.3</ele></trkpt>
      <trkpt lat="46.912027774284" lon="8.629838791291286">
      <ele>554.1</ele></trkpt>
      <trkpt lat="46.9121558486418" lon="8.630066801934824">
      <ele>556.9</ele></trkpt>
      <trkpt lat="46.9122159031354" lon="8.630173617096176">
      <ele>557.9</ele></trkpt>
      <trkpt lat="46.912260343016676" lon="8.63022567034762">
      <ele>558.8</ele></trkpt>
      <trkpt lat="46.912352856043576" lon="8.63030308934445">
      <ele>559.8</ele></trkpt>
      <trkpt lat="46.91243558599868" lon="8.630358420236456">
      <ele>560.8</ele></trkpt>
      <trkpt lat="46.912511609659546" lon="8.630418460078005">
      <ele>561.8</ele></trkpt>
      <trkpt lat="46.912568842767584" lon="8.630470456073816">
      <ele>562.7</ele></trkpt>
      <trkpt lat="46.91260870252272" lon="8.630528644284157">
      <ele>563.7</ele></trkpt>
      <trkpt lat="46.91264435887137" lon="8.630647536183774">
      <ele>564.7</ele></trkpt>
      <trkpt lat="46.91268659616523" lon="8.630820413035204">
      <ele>565.6</ele></trkpt>
      <trkpt lat="46.91271767505647" lon="8.630921835139057">
      <ele>566.6</ele></trkpt>
      <trkpt lat="46.91272295131384" lon="8.630986214878511">
      <ele>567.6</ele></trkpt>
      <trkpt lat="46.91275685993194" lon="8.631187369576374">
      <ele>568.5</ele></trkpt>
      <trkpt lat="46.91276922723335" lon="8.631280053655708">
      <ele>569.5</ele></trkpt>
      <trkpt lat="46.9127748703024" lon="8.631377432936235">
      <ele>570.5</ele></trkpt>
      <trkpt lat="46.9128081939006" lon="8.631378172183087">
      <ele>571.4</ele></trkpt>
      <trkpt lat="46.91283818274433" lon="8.631381226797975">
      <ele>572.4</ele></trkpt>
      <trkpt lat="46.91296073890081" lon="8.631361404295596">
      <ele>573.4</ele></trkpt>
      <trkpt lat="46.91299355290694" lon="8.631338514405266">
      <ele>574.4</ele></trkpt>
      <trkpt lat="46.913012178017624" lon="8.631309743333127">
      <ele>575.3</ele></trkpt>
      <trkpt lat="46.91305417558149" lon="8.63127664634255">
      <ele>576.3</ele></trkpt>
      <trkpt lat="46.91308819904801" lon="8.631209317534225">
      <ele>578.6</ele></trkpt>
      <trkpt lat="46.91312919088534" lon="8.631112972025923">
      <ele>581.0</ele></trkpt>
      <trkpt lat="46.91319918901578" lon="8.630951601614095">
      <ele>583.3</ele></trkpt>
      <trkpt lat="46.91325219146085" lon="8.630821480180913">
      <ele>585.6</ele></trkpt>
      <trkpt lat="46.913298411516855" lon="8.630703365000032">
      <ele>587.9</ele></trkpt>
      <trkpt lat="46.913343236937976" lon="8.630558463039954">
      <ele>590.3</ele></trkpt>
      <trkpt lat="46.91337630430843" lon="8.630423041483034">
      <ele>592.6</ele></trkpt>
      <trkpt lat="46.91340448092799" lon="8.63027778321711">
      <ele>594.9</ele></trkpt>
      <trkpt lat="46.913432931952514" lon="8.630113914796436">
      <ele>597.3</ele></trkpt>
      <trkpt lat="46.91344923292414" lon="8.630068116527315">
      <ele>599.6</ele></trkpt>
      <trkpt lat="46.91346568797593" lon="8.630075819954197">
      <ele>601.9</ele></trkpt>
      <trkpt lat="46.91348089951691" lon="8.630133869589645">
      <ele>604.3</ele></trkpt>
      <trkpt lat="46.913492293170705" lon="8.630213864145627">
      <ele>606.6</ele></trkpt>
      <trkpt lat="46.9135111023314" lon="8.630271993586696">
      <ele>608.9</ele></trkpt>
      <trkpt lat="46.91352076300507" lon="8.630311028479865">
      <ele>611.2</ele></trkpt>
      <trkpt lat="46.91353427432909" lon="8.630324968395268">
      <ele>613.6</ele></trkpt>
      <trkpt lat="46.913550653799845" lon="8.630270769639612">
      <ele>615.9</ele></trkpt>
      <trkpt lat="46.913572659433456" lon="8.630160033169242">
      <ele>618.2</ele></trkpt>
      <trkpt lat="46.913588546499184" lon="8.630084844152076">
      <ele>620.6</ele></trkpt>
      <trkpt lat="46.91359622406359" lon="8.630037791248554">
      <ele>622.9</ele></trkpt>
      <trkpt lat="46.91360578726753" lon="8.630017023893434">
      <ele>624.5</ele></trkpt>
      <trkpt lat="46.91362446634271" lon="8.630018488077765">
      <ele>626.0</ele></trkpt>
      <trkpt lat="46.913641357184666" lon="8.630053482115876">
      <ele>627.6</ele></trkpt>
      <trkpt lat="46.913656274842936" lon="8.630070603993065">
      <ele>629.2</ele></trkpt>
      <trkpt lat="46.91366019998358" lon="8.63003920891007">
      <ele>630.8</ele></trkpt>
      <trkpt lat="46.91367783422761" lon="8.629864373970854">
      <ele>632.4</ele></trkpt>
      <trkpt lat="46.9136890547814" lon="8.629822650844758">
      <ele>633.9</ele></trkpt>
      <trkpt lat="46.91373543117504" lon="8.62978800823597">
      <ele>635.5</ele></trkpt>
      <trkpt lat="46.91379110322666" lon="8.629790318170617">
      <ele>637.1</ele></trkpt>
      <trkpt lat="46.9138207864815" lon="8.62982016046369">
      <ele>638.6</ele></trkpt>
      <trkpt lat="46.91385688186928" lon="8.629874432608254">
      <ele>640.2</ele></trkpt>
      <trkpt lat="46.91396185559872" lon="8.630034812943784">
      <ele>641.8</ele></trkpt>
      <trkpt lat="46.914003144642294" lon="8.630069783343993">
      <ele>643.4</ele></trkpt>
      <trkpt lat="46.91408769060984" lon="8.630110543717018">
      <ele>644.9</ele></trkpt>
      <trkpt lat="46.914137510663956" lon="8.630126246756651">
      <ele>646.5</ele></trkpt>
      <trkpt lat="46.914231927801765" lon="8.6301719786407">
      <ele>648.1</ele></trkpt>
      <trkpt lat="46.91429691185309" lon="8.630187177617465">
      <ele>649.7</ele></trkpt>
      <trkpt lat="46.91432821686333" lon="8.630190838480532">
      <ele>651.2</ele></trkpt>
      <trkpt lat="46.914361463944466" lon="8.630200660334568">
      <ele>652.8</ele></trkpt>
      <trkpt lat="46.914298841229424" lon="8.630230873049591">
      <ele>654.4</ele></trkpt>
      <trkpt lat="46.91410800594005" lon="8.630313567860842">
      <ele>655.4</ele></trkpt>
      <trkpt lat="46.914029594799544" lon="8.630342905207332">
      <ele>656.5</ele></trkpt>
      <trkpt lat="46.913974917972546" lon="8.63034697096473">
      <ele>657.5</ele></trkpt>
      <trkpt lat="46.91391450217387" lon="8.630344056415577">
      <ele>658.6</ele></trkpt>
      <trkpt lat="46.913878430352156" lon="8.630352381202634">
      <ele>659.6</ele></trkpt>
      <trkpt lat="46.91384733455265" lon="8.630382215750926">
      <ele>660.7</ele></trkpt>
      <trkpt lat="46.91383631932752" lon="8.630417155998991">
      <ele>661.8</ele></trkpt>
      <trkpt lat="46.9138417644252" lon="8.630448916411982">
      <ele>662.8</ele></trkpt>
      <trkpt lat="46.91386452967809" lon="8.630480456866463">
      <ele>663.9</ele></trkpt>
      <trkpt lat="46.91389695686834" lon="8.630502496426617">
      <ele>664.9</ele></trkpt>
      <trkpt lat="46.91393856792771" lon="8.6305047842308">
      <ele>665.9</ele></trkpt>
      <trkpt lat="46.91399841791075" lon="8.630479945791258">
      <ele>667.0</ele></trkpt>
      <trkpt lat="46.914156162692166" lon="8.630466624912035">
      <ele>668.0</ele></trkpt>
      <trkpt lat="46.914141536530714" lon="8.63050707807404">
      <ele>669.1</ele></trkpt>
      <trkpt lat="46.9141175676352" lon="8.630527224239636">
      <ele>670.1</ele></trkpt>
      <trkpt lat="46.913997323156515" lon="8.630600691059723">
      <ele>671.2</ele></trkpt>
      <trkpt lat="46.91395250554479" lon="8.630623840842784">
      <ele>672.2</ele></trkpt>
      <trkpt lat="46.9139122686505" lon="8.630639057484785">
      <ele>673.3</ele></trkpt>
      <trkpt lat="46.91388581882811" lon="8.630659004087791">
      <ele>674.4</ele></trkpt>
      <trkpt lat="46.91386591085456" lon="8.630671888155824">
      <ele>675.4</ele></trkpt>
      <trkpt lat="46.91386767009981" lon="8.630685239478916">
      <ele>676.1</ele></trkpt>
      <trkpt lat="46.91388625995127" lon="8.630690089083732">
      <ele>676.7</ele></trkpt>
      <trkpt lat="46.913907834539685" lon="8.63069945543971">
      <ele>677.4</ele></trkpt>
      <trkpt lat="46.91393324590438" lon="8.630706675020908">
      <ele>678.1</ele></trkpt>
      <trkpt lat="46.91394756094429" lon="8.630720317878966">
      <ele>678.7</ele></trkpt>
      <trkpt lat="46.913945137870165" lon="8.630733576492094">
      <ele>679.4</ele></trkpt>
      <trkpt lat="46.913897418540586" lon="8.63075028133933">
      <ele>680.1</ele></trkpt>
      <trkpt lat="46.91387987597583" lon="8.630755445739222">
      <ele>680.7</ele></trkpt>
      <trkpt lat="46.9138714157292" lon="8.630763581634291">
      <ele>681.4</ele></trkpt>
      <trkpt lat="46.91387165232037" lon="8.630778015124175">
      <ele>682.0</ele></trkpt>
      <trkpt lat="46.91388252893889" lon="8.630792697668724">
      <ele>682.7</ele></trkpt>
      <trkpt lat="46.9139018454701" lon="8.63080033354457">
      <ele>683.4</ele></trkpt>
      <trkpt lat="46.91393833241258" lon="8.630802258517184">
      <ele>684.0</ele></trkpt>
      <trkpt lat="46.913972229731904" lon="8.630798008168858">
      <ele>684.7</ele></trkpt>
      <trkpt lat="46.91398209129121" lon="8.63080044555943">
      <ele>685.4</ele></trkpt>
      <trkpt lat="46.91398957906935" lon="8.630812269742453">
      <ele>686.0</ele></trkpt>
      <trkpt lat="46.913994314671136" lon="8.6308318050038">
      <ele>686.7</ele></trkpt>
      <trkpt lat="46.91398579987496" lon="8.630846044469756">
      <ele>687.4</ele></trkpt>
      <trkpt lat="46.91394123749745" lon="8.630877510068515">
      <ele>688.0</ele></trkpt>
      <trkpt lat="46.91392525088249" lon="8.630893946959574">
      <ele>688.7</ele></trkpt>
      <trkpt lat="46.913924334843564" lon="8.630912805477536">
      <ele>689.6</ele></trkpt>
      <trkpt lat="46.913982957225784" lon="8.630944537445126">
      <ele>690.4</ele></trkpt>
      <trkpt lat="46.91398255015952" lon="8.630963761740766">
      <ele>691.2</ele></trkpt>
      <trkpt lat="46.913902901262006" lon="8.630995315602393">
      <ele>692.1</ele></trkpt>
      <trkpt lat="46.91388993140022" lon="8.631006279113349">
      <ele>693.0</ele></trkpt>
      <trkpt lat="46.913893165915965" lon="8.631024822683147">
      <ele>693.8</ele></trkpt>
      <trkpt lat="46.91394531467493" lon="8.631044963094617">
      <ele>694.7</ele></trkpt>
      <trkpt lat="46.913963817864584" lon="8.631058134405949">
      <ele>695.5</ele></trkpt>
      <trkpt lat="46.913981905327454" lon="8.631074079758228">
      <ele>696.4</ele></trkpt>
      <trkpt lat="46.913983321345896" lon="8.631084101989138">
      <ele>697.2</ele></trkpt>
      <trkpt lat="46.91397184164012" lon="8.63109105495358">
      <ele>698.1</ele></trkpt>
      <trkpt lat="46.91395133666787" lon="8.631087830051344">
      <ele>698.9</ele></trkpt>
      <trkpt lat="46.9139311459013" lon="8.631090716889386">
      <ele>699.8</ele></trkpt>
      <trkpt lat="46.91391967193521" lon="8.6310971185746">
      <ele>700.6</ele></trkpt>
      <trkpt lat="46.913919132358224" lon="8.631112650790193">
      <ele>701.5</ele></trkpt>
      <trkpt lat="46.91392707303218" lon="8.631117264354492">
      <ele>702.3</ele></trkpt>
      <trkpt lat="46.91394833925862" lon="8.631119954752144">
      <ele>703.2</ele></trkpt>
      <trkpt lat="46.91398801717194" lon="8.63114201114209">
      <ele>704.0</ele></trkpt>
      <trkpt lat="46.91405926374419" lon="8.631176964209907">
      <ele>704.9</ele></trkpt>
      <trkpt lat="46.91411687831371" lon="8.631203527788408">
      <ele>705.7</ele></trkpt>
      <trkpt lat="46.91417790438486" lon="8.631209174471145">
      <ele>707.0</ele></trkpt>
      <trkpt lat="46.9142244382783" lon="8.631219921824421">
      <ele>708.4</ele></trkpt>
      <trkpt lat="46.914224260996384" lon="8.631236945696374">
      <ele>709.7</ele></trkpt>
      <trkpt lat="46.91419397053877" lon="8.63126544554871">
      <ele>711.0</ele></trkpt>
      <trkpt lat="46.91419538117991" lon="8.631289804137452">
      <ele>712.4</ele></trkpt>
      <trkpt lat="46.91423536049515" lon="8.63129069099191">
      <ele>713.7</ele></trkpt>
      <trkpt lat="46.914296981601495" lon="8.631294486720888">
      <ele>715.0</ele></trkpt>
      <trkpt lat="46.91432849669368" lon="8.631307342933388">
      <ele>716.4</ele></trkpt>
      <trkpt lat="46.91432993275167" lon="8.631329260222394">
      <ele>717.7</ele></trkpt>
      <trkpt lat="46.91424144493967" lon="8.631400975019323">
      <ele>719.0</ele></trkpt>
      <trkpt lat="46.914368024114" lon="8.631405174808885">
      <ele>720.4</ele></trkpt>
      <trkpt lat="46.914431715327424" lon="8.631414924500696">
      <ele>721.7</ele></trkpt>
      <trkpt lat="46.91448023715082" lon="8.631418784248163">
      <ele>723.1</ele></trkpt>
      <trkpt lat="46.91453927721691" lon="8.631417310791845">
      <ele>724.4</ele></trkpt>
      <trkpt lat="46.91456587826022" lon="8.63142345438157">
      <ele>725.7</ele></trkpt>
      <trkpt lat="46.91458956117606" lon="8.631435099804895">
      <ele>727.1</ele></trkpt>
      <trkpt lat="46.91460079572236" lon="8.631453414142634">
      <ele>728.4</ele></trkpt>
      <trkpt lat="46.914642832537105" lon="8.631462329029258">
      <ele>729.7</ele></trkpt>
      <trkpt lat="46.9147020104503" lon="8.63147094153539">
      <ele>731.1</ele></trkpt>
      <trkpt lat="46.91474349585478" lon="8.631464562370773">
      <ele>732.4</ele></trkpt>
      <trkpt lat="46.91478495052706" lon="8.631460269984991">
      <ele>734.2</ele></trkpt>
      <trkpt lat="46.91484039733499" lon="8.631456563728438">
      <ele>736.0</ele></trkpt>
      <trkpt lat="46.9148115815837" lon="8.631481669899728">
      <ele>737.8</ele></trkpt>
      <trkpt lat="46.91477616248662" lon="8.631505054086013">
      <ele>739.6</ele></trkpt>
      <trkpt lat="46.91474010768539" lon="8.631531601290591">
      <ele>741.5</ele></trkpt>
      <trkpt lat="46.9147213972525" lon="8.631551286238048">
      <ele>743.3</ele></trkpt>
      <trkpt lat="46.914712717987804" lon="8.631574397155582">
      <ele>745.1</ele></trkpt>
      <trkpt lat="46.91471360419362" lon="8.631598140430953">
      <ele>746.9</ele></trkpt>
      <trkpt lat="46.914720610629345" lon="8.631627664864205">
      <ele>748.7</ele></trkpt>
      <trkpt lat="46.91474667524484" lon="8.631638667437251">
      <ele>750.5</ele></trkpt>
      <trkpt lat="46.914781417548774" lon="8.631644847396155">
      <ele>752.3</ele></trkpt>
      <trkpt lat="46.91483826313176" lon="8.631644178854183">
      <ele>754.1</ele></trkpt>
      <trkpt lat="46.91488107555907" lon="8.631646861846214">
      <ele>755.9</ele></trkpt>
      <trkpt lat="46.91494863936668" lon="8.631666570697382">
      <ele>757.7</ele></trkpt>
      <trkpt lat="46.91503653768524" lon="8.631699820252813">
      <ele>759.5</ele></trkpt>
      <trkpt lat="46.9151151844786" lon="8.631736842647005">
      <ele>761.4</ele></trkpt>
      <trkpt lat="46.91520235471504" lon="8.631798526477004">
      <ele>763.2</ele></trkpt>
      <trkpt lat="46.91536552040114" lon="8.631955689922084">
      <ele>765.0</ele></trkpt>
      <trkpt lat="46.91542475837816" lon="8.632021559567098">
      <ele>766.8</ele></trkpt>
      <trkpt lat="46.91544495756147" lon="8.632066212960801">
      <ele>768.6</ele></trkpt>
      <trkpt lat="46.915460796353756" lon="8.63213390273703">
      <ele>771.9</ele></trkpt>
      <trkpt lat="46.91549240056068" lon="8.632223657785167">
      <ele>775.3</ele></trkpt>
      <trkpt lat="46.91552581389879" lon="8.632286565061849">
      <ele>778.6</ele></trkpt>
      <trkpt lat="46.915580339952335" lon="8.632368610540759">
      <ele>781.9</ele></trkpt>
      <trkpt lat="46.91561088578957" lon="8.632435603088606">
      <ele>785.3</ele></trkpt>
      <trkpt lat="46.91565857473231" lon="8.63249260451337">
      <ele>788.6</ele></trkpt>
      <trkpt lat="46.91571358486894" lon="8.632529064227139">
      <ele>791.9</ele></trkpt>
      <trkpt lat="46.91577098730517" lon="8.63260701223195">
      <ele>795.3</ele></trkpt>
      <trkpt lat="46.91586494362892" lon="8.632721010515754">
      <ele>798.6</ele></trkpt>
      <trkpt lat="46.91594202866341" lon="8.632818052483996">
      <ele>802.0</ele></trkpt>
      <trkpt lat="46.91601485935045" lon="8.632915000227213">
      <ele>805.3</ele></trkpt>
      <trkpt lat="46.91604234599318" lon="8.63295008771235">
      <ele>808.6</ele></trkpt>
      <trkpt lat="46.91612124097855" lon="8.633035735119124">
      <ele>812.0</ele></trkpt>
      <trkpt lat="46.9161937839256" lon="8.633130064402032">
      <ele>815.3</ele></trkpt>
      <trkpt lat="46.916236105675786" lon="8.633178925932745">
      <ele>818.6</ele></trkpt>
      <trkpt lat="46.91628496866413" lon="8.633216484296">
      <ele>822.0</ele></trkpt>
      <trkpt lat="46.91632688588749" lon="8.633235126869224">
      <ele>825.3</ele></trkpt>
      <trkpt lat="46.9163488596791" lon="8.633250188461172">
      <ele>828.6</ele></trkpt>
      <trkpt lat="46.91643153619232" lon="8.63333120746851">
      <ele>832.0</ele></trkpt>
      <trkpt lat="46.916469525667054" lon="8.633335701567395">
      <ele>835.3</ele></trkpt>
      <trkpt lat="46.916469525667054" lon="8.633335701567395">
      <ele>839.0</ele></trkpt>
      <trkpt lat="46.91650110428566" lon="8.633411436506172">
      <ele>842.6</ele></trkpt>
      <trkpt lat="46.916540213993336" lon="8.63349567593998">
      <ele>846.3</ele></trkpt>
      <trkpt lat="46.916625340999225" lon="8.633732396756612">
      <ele>850.0</ele></trkpt>
      <trkpt lat="46.91669027401765" lon="8.633896406135566">
      <ele>853.7</ele></trkpt>
      <trkpt lat="46.916749953856225" lon="8.634017235228255">
      <ele>857.3</ele></trkpt>
      <trkpt lat="46.916777814474415" lon="8.634084551232469">
      <ele>861.0</ele></trkpt>
      <trkpt lat="46.91681550991145" lon="8.6341215211155">
      <ele>864.7</ele></trkpt>
      <trkpt lat="46.91683070820325" lon="8.634124629345834">
      <ele>868.4</ele></trkpt>
      <trkpt lat="46.916853035142445" lon="8.634083440429924">
      <ele>872.0</ele></trkpt>
      <trkpt lat="46.916864660708036" lon="8.634064254500348">
      <ele>875.7</ele></trkpt>
      <trkpt lat="46.9169096552736" lon="8.634131951677565">
      <ele>879.4</ele></trkpt>
      <trkpt lat="46.91695449029876" lon="8.634214927905958">
      <ele>883.1</ele></trkpt>
      <trkpt lat="46.91699604281504" lon="8.634247808665688">
      <ele>886.8</ele></trkpt>
      <trkpt lat="46.917062207803895" lon="8.634293749080623">
      <ele>890.4</ele></trkpt>
      <trkpt lat="46.91716619333566" lon="8.634365529020764">
      <ele>894.1</ele></trkpt>
      <trkpt lat="46.91727304437645" lon="8.634435994393218">
      <ele>897.8</ele></trkpt>
      <trkpt lat="46.91733913124837" lon="8.634490270695157">
      <ele>901.4</ele></trkpt>
      <trkpt lat="46.91738915913659" lon="8.63453167759578">
      <ele>905.1</ele></trkpt>
      <trkpt lat="46.91743603113544" lon="8.634602201029095">
      <ele>908.8</ele></trkpt>
      <trkpt lat="46.91751477103496" lon="8.634720673211069">
      <ele>914.0</ele></trkpt>
      <trkpt lat="46.917564624731625" lon="8.63477875096776">
      <ele>919.2</ele></trkpt>
      <trkpt lat="46.91763028167923" lon="8.634873312703201">
      <ele>924.4</ele></trkpt>
      <trkpt lat="46.91767508709402" lon="8.634959073461472">
      <ele>929.6</ele></trkpt>
      <trkpt lat="46.91771125741777" lon="8.635051587687203">
      <ele>934.8</ele></trkpt>
      <trkpt lat="46.91775603376313" lon="8.6351401183998">
      <ele>940.0</ele></trkpt>
      <trkpt lat="46.917787288915896" lon="8.63498922094167">
      <ele>945.2</ele></trkpt>
      <trkpt lat="46.91775360647346" lon="8.634734297809905">
      <ele>950.4</ele></trkpt>
      <trkpt lat="46.917703595812" lon="8.634524978073655">
      <ele>955.6</ele></trkpt>
      <trkpt lat="46.91763925557096" lon="8.634355975686383">
      <ele>960.8</ele></trkpt>
      <trkpt lat="46.917612381547904" lon="8.6342639707883">
      <ele>966.0</ele></trkpt>
      <trkpt lat="46.91772652954593" lon="8.634327456400662">
      <ele>971.2</ele></trkpt>
      <trkpt lat="46.91783679983135" lon="8.634431465574433">
      <ele>976.4</ele></trkpt>
      <trkpt lat="46.918169414355724" lon="8.634575030762193">
      <ele>981.6</ele></trkpt>
      <trkpt lat="46.918272584689625" lon="8.634596495073884">
      <ele>986.8</ele></trkpt>
      <trkpt lat="46.91836112909342" lon="8.6346194853704">
      <ele>992.0</ele></trkpt>
      <trkpt lat="46.918576980358665" lon="8.634560608372588">
      <ele>997.2</ele></trkpt>
      <trkpt lat="46.91861923324058" lon="8.634613423714631">
      <ele>1002.4</ele></trkpt>
      <trkpt lat="46.91861374054176" lon="8.634717275529242">
      <ele>1007.6</ele></trkpt>
      <trkpt lat="46.918637303302745" lon="8.634797247548109">
      <ele>1012.8</ele></trkpt>
      <trkpt lat="46.91871604037295" lon="8.634855680420065">
      <ele>1017.2</ele></trkpt>
      <trkpt lat="46.91879493036835" lon="8.634883104435145">
      <ele>1021.6</ele></trkpt>
      <trkpt lat="46.91884319193474" lon="8.634959241088087">
      <ele>1025.9</ele></trkpt>
      <trkpt lat="46.91891175713334" lon="8.634979489912915">
      <ele>1030.3</ele></trkpt>
      <trkpt lat="46.91896446768907" lon="8.635061187817612">
      <ele>1034.7</ele></trkpt>
      <trkpt lat="46.91901681392819" lon="8.635111445061206">
      <ele>1039.1</ele></trkpt>
      <trkpt lat="46.91904681563497" lon="8.635180427105949">
      <ele>1043.5</ele></trkpt>
      <trkpt lat="46.91910380703408" lon="8.635335432525599">
      <ele>1047.8</ele></trkpt>
      <trkpt lat="46.9191648112169" lon="8.635471436848677">
      <ele>1052.2</ele></trkpt>
      <trkpt lat="46.919157807707435" lon="8.635505431604592">
      <ele>1056.6</ele></trkpt>
      <trkpt lat="46.91920680892773" lon="8.635568429712006">
      <ele>1061.0</ele></trkpt>
      <trkpt lat="46.919237814530945" lon="8.635565430550004">
      <ele>1065.4</ele></trkpt>
      <trkpt lat="46.919283817705804" lon="8.635580438081666">
      <ele>1069.7</ele></trkpt>
      <trkpt lat="46.91931781283037" lon="8.635606443702295">
      <ele>1074.1</ele></trkpt>
      <trkpt lat="46.91932881146586" lon="8.635720432622078">
      <ele>1078.5</ele></trkpt>
      <trkpt lat="46.9193599026645" lon="8.635746255520687">
      <ele>1082.9</ele></trkpt>
      <trkpt lat="46.91942237869355" lon="8.635780996648931">
      <ele>1087.3</ele></trkpt>
      <trkpt lat="46.919463907205156" lon="8.635815271373922">
      <ele>1091.6</ele></trkpt>
      <trkpt lat="46.919493286432136" lon="8.635828438427026">
      <ele>1096.0</ele></trkpt>
      <trkpt lat="46.919556788408414" lon="8.635856256856476">
      <ele>1100.4</ele></trkpt>
      <trkpt lat="46.91959064975409" lon="8.6358959149339">
      <ele>1104.4</ele></trkpt>
      <trkpt lat="46.919656809522316" lon="8.636015439718575">
      <ele>1108.4</ele></trkpt>
      <trkpt lat="46.91974082293842" lon="8.636122429476055">
      <ele>1112.4</ele></trkpt>
      <trkpt lat="46.919782814526066" lon="8.636081427688762">
      <ele>1116.4</ele></trkpt>
      <trkpt lat="46.91988981445496" lon="8.63621843297709">
      <ele>1120.4</ele></trkpt>
      <trkpt lat="46.919958818474164" lon="8.636204437356277">
      <ele>1124.3</ele></trkpt>
      <trkpt lat="46.92003167813172" lon="8.636272537816652">
      <ele>1128.3</ele></trkpt>
      <trkpt lat="46.9200695871169" lon="8.63628902023916">
      <ele>1132.3</ele></trkpt>
      <trkpt lat="46.920106363497" lon="8.636300251689086">
      <ele>1136.3</ele></trkpt>
      <trkpt lat="46.92013263635952" lon="8.636292158036005">
      <ele>1140.3</ele></trkpt>
      <trkpt lat="46.9201649907595" lon="8.63627029511417">
      <ele>1144.3</ele></trkpt>
      <trkpt lat="46.92018563641238" lon="8.63623080023179">
      <ele>1148.3</ele></trkpt>
      <trkpt lat="46.920190401955026" lon="8.636154463079093">
      <ele>1152.3</ele></trkpt>
      <trkpt lat="46.92019056892483" lon="8.636100633478046">
      <ele>1156.3</ele></trkpt>
      <trkpt lat="46.920189810266315" lon="8.635946023044324">
      <ele>1160.2</ele></trkpt>
      <trkpt lat="46.92017685259664" lon="8.635818937326114">
      <ele>1164.2</ele></trkpt>
      <trkpt lat="46.92015986124923" lon="8.635736916163117">
      <ele>1168.2</ele></trkpt>
      <trkpt lat="46.92014189133764" lon="8.635634035850968">
      <ele>1172.2</ele></trkpt>
      <trkpt lat="46.920121474295286" lon="8.635538046928003">
      <ele>1176.2</ele></trkpt>
      <trkpt lat="46.920090290616955" lon="8.635447031018227">
      <ele>1180.2</ele></trkpt>
      <trkpt lat="46.92006958304972" lon="8.63537883210341">
      <ele>1182.3</ele></trkpt>
      <trkpt lat="46.92006334894163" lon="8.635291838076343">
      <ele>1184.4</ele></trkpt>
      <trkpt lat="46.92007038277504" lon="8.635187768338447">
      <ele>1186.4</ele></trkpt>
      <trkpt lat="46.920069776039014" lon="8.635132175348646">
      <ele>1188.5</ele></trkpt>
      <trkpt lat="46.920051116451106" lon="8.635056511780512">
      <ele>1190.6</ele></trkpt>
      <trkpt lat="46.92005096323073" lon="8.63495749473049">
      <ele>1192.7</ele></trkpt>
      <trkpt lat="46.92007004030162" lon="8.634954439799365">
      <ele>1194.7</ele></trkpt>
      <trkpt lat="46.92010190454098" lon="8.634979478876721">
      <ele>1196.8</ele></trkpt>
      <trkpt lat="46.92013350585934" lon="8.63503054904441">
      <ele>1198.9</ele></trkpt>
      <trkpt lat="46.920152728005576" lon="8.635013605753175">
      <ele>1201.0</ele></trkpt>
      <trkpt lat="46.920190909354794" lon="8.635004030182477">
      <ele>1203.0</ele></trkpt>
      <trkpt lat="46.9202253837888" lon="8.63500827686232">
      <ele>1205.1</ele></trkpt>
      <trkpt lat="46.92026442588989" lon="8.635029983182442">
      <ele>1207.2</ele></trkpt>
      <trkpt lat="46.920292655866916" lon="8.635061887336741">
      <ele>1209.2</ele></trkpt>
      <trkpt lat="46.920324112061934" lon="8.63512684615943">
      <ele>1211.3</ele></trkpt>
      <trkpt lat="46.92033650000066" lon="8.635194873248606">
      <ele>1213.4</ele></trkpt>
      <trkpt lat="46.92034875204182" lon="8.635275042701004">
      <ele>1215.5</ele></trkpt>
      <trkpt lat="46.92036933252419" lon="8.63535541072078">
      <ele>1217.5</ele></trkpt>
      <trkpt lat="46.920406969509116" lon="8.635397936717775">
      <ele>1219.6</ele></trkpt>
      <trkpt lat="46.92043893358519" lon="8.635414273159073">
      <ele>1221.7</ele></trkpt>
      <trkpt lat="46.92045811943876" lon="8.635400808587097">
      <ele>1225.9</ele></trkpt>
      <trkpt lat="46.92046807079702" lon="8.635359341915823">
      <ele>1230.1</ele></trkpt>
      <trkpt lat="46.92047566577435" lon="8.635316089596449">
      <ele>1234.3</ele></trkpt>
      <trkpt lat="46.920492849293964" lon="8.635266091722064">
      <ele>1238.6</ele></trkpt>
      <trkpt lat="46.92050649829775" lon="8.635212548782983">
      <ele>1242.8</ele></trkpt>
      <trkpt lat="46.92058080966588" lon="8.635168444190542">
      <ele>1247.0</ele></trkpt>
      <trkpt lat="46.920694815781765" lon="8.635084427428207">
      <ele>1251.2</ele></trkpt>
      <trkpt lat="46.92081354212556" lon="8.635022206493057">
      <ele>1255.4</ele></trkpt>
      <trkpt lat="46.920881819806795" lon="8.634986436119572">
      <ele>1259.6</ele></trkpt>
      <trkpt lat="46.920938816212576" lon="8.63496443772084">
      <ele>1263.8</ele></trkpt>
      <trkpt lat="46.92101234783065" lon="8.634988947032557">
      <ele>1268.1</ele></trkpt>
      <trkpt lat="46.92101582341725" lon="8.635033444106417">
      <ele>1272.3</ele></trkpt>
      <trkpt lat="46.920995824874566" lon="8.635126434050482">
      <ele>1276.5</ele></trkpt>
      <trkpt lat="46.92098882317932" lon="8.635258434389003">
      <ele>1280.7</ele></trkpt>
      <trkpt lat="46.92098482289217" lon="8.635417431698027">
      <ele>1284.9</ele></trkpt>
      <trkpt lat="46.92100381943506" lon="8.635438442878026">
      <ele>1289.1</ele></trkpt>
      <trkpt lat="46.92104981634499" lon="8.635445441179009">
      <ele>1293.4</ele></trkpt>
      <trkpt lat="46.92105201571707" lon="8.635513045469823">
      <ele>1297.6</ele></trkpt>
      <trkpt lat="46.921055394397044" lon="8.635645132609284">
      <ele>1301.8</ele></trkpt>
      <trkpt lat="46.92105794873506" lon="8.635742458666417">
      <ele>1306.0</ele></trkpt>
      <trkpt lat="46.92106708344619" lon="8.635779138031966">
      <ele>1308.8</ele></trkpt>
      <trkpt lat="46.921101394430735" lon="8.635799019825932">
      <ele>1311.7</ele></trkpt>
      <trkpt lat="46.92113363067108" lon="8.63578931224855">
      <ele>1314.5</ele></trkpt>
      <trkpt lat="46.9211577289189" lon="8.635760318826675">
      <ele>1317.4</ele></trkpt>
      <trkpt lat="46.921183413524126" lon="8.635694884676493">
      <ele>1320.2</ele></trkpt>
      <trkpt lat="46.92121411935155" lon="8.635603498570383">
      <ele>1323.1</ele></trkpt>
      <trkpt lat="46.92127306537555" lon="8.635429376574573">
      <ele>1326.0</ele></trkpt>
      <trkpt lat="46.921327761656805" lon="8.635269340387573">
      <ele>1328.8</ele></trkpt>
      <trkpt lat="46.921407990445324" lon="8.635127269896834">
      <ele>1331.7</ele></trkpt>
      <trkpt lat="46.92143481650799" lon="8.635083433765145">
      <ele>1334.5</ele></trkpt>
      <trkpt lat="46.92143881609279" lon="8.635160440550429">
      <ele>1337.3</ele></trkpt>
      <trkpt lat="46.9214618185913" lon="8.6352914291854">
      <ele>1340.2</ele></trkpt>
      <trkpt lat="46.92147281120785" lon="8.63543444060835">
      <ele>1343.0</ele></trkpt>
      <trkpt lat="46.921484822945125" lon="8.635530704325724">
      <ele>1345.9</ele></trkpt>
      <trkpt lat="46.92147207999594" lon="8.635631826608508">
      <ele>1348.8</ele></trkpt>
      <trkpt lat="46.921466432760944" lon="8.635716812043443">
      <ele>1351.6</ele></trkpt>
      <trkpt lat="46.92146547067485" lon="8.635808860905176">
      <ele>1354.5</ele></trkpt>
      <trkpt lat="46.92149128074088" lon="8.635844178718138">
      <ele>1357.3</ele></trkpt>
      <trkpt lat="46.92151981922361" lon="8.635846547499236">
      <ele>1360.2</ele></trkpt>
      <trkpt lat="46.92154011977325" lon="8.635840053619463">
      <ele>1363.0</ele></trkpt>
      <trkpt lat="46.921564245138406" lon="8.6358093273901">
      <ele>1364.4</ele></trkpt>
      <trkpt lat="46.92158045937831" lon="8.635738469099254">
      <ele>1365.8</ele></trkpt>
      <trkpt lat="46.92160229207783" lon="8.635698999409264">
      <ele>1367.3</ele></trkpt>
      <trkpt lat="46.92163061268977" lon="8.635722214387611">
      <ele>1368.7</ele></trkpt>
      <trkpt lat="46.92165277038454" lon="8.635766130149399">
      <ele>1370.1</ele></trkpt>
      <trkpt lat="46.92166174166872" lon="8.635818444635822">
      <ele>1371.5</ele></trkpt>
      <trkpt lat="46.92165523378143" lon="8.635872147619407">
      <ele>1373.0</ele></trkpt>
      <trkpt lat="46.92164660443339" lon="8.635929991949386">
      <ele>1374.4</ele></trkpt>
      <trkpt lat="46.921623992327405" lon="8.636013890719143">
      <ele>1375.8</ele></trkpt>
      <trkpt lat="46.92161618828139" lon="8.636077977199864">
      <ele>1377.2</ele></trkpt>
      <trkpt lat="46.92161992934883" lon="8.636175343868558">
      <ele>1378.7</ele></trkpt>
      <trkpt lat="46.921617943139246" lon="8.6362517318386">
      <ele>1380.1</ele></trkpt>
      <trkpt lat="46.92160542639132" lon="8.636310513636541">
      <ele>1381.5</ele></trkpt>
      <trkpt lat="46.9215725727929" lon="8.636379254715822">
      <ele>1383.0</ele></trkpt>
      <trkpt lat="46.921536402565216" lon="8.636423617426663">
      <ele>1384.4</ele></trkpt>
      <trkpt lat="46.92151350051295" lon="8.636450904199659">
      <ele>1385.8</ele></trkpt>
      <trkpt lat="46.92153720842633" lon="8.636460111655747">
      <ele>1387.2</ele></trkpt>
      <trkpt lat="46.92157257953285" lon="8.636492163318627">
      <ele>1388.7</ele></trkpt>
      <trkpt lat="46.92157001443432" lon="8.636509477702045">
      <ele>1390.1</ele></trkpt>
      <trkpt lat="46.92155528660554" lon="8.636552571797132">
      <ele>1391.5</ele></trkpt>
      <trkpt lat="46.921553499921394" lon="8.636609859363448">
      <ele>1393.9</ele></trkpt>
      <trkpt lat="46.921579400636844" lon="8.636636487307522">
      <ele>1396.2</ele></trkpt>
      <trkpt lat="46.92162100740453" lon="8.636640894092508">
      <ele>1398.6</ele></trkpt>
      <trkpt lat="46.921654358313475" lon="8.636638157766468">
      <ele>1400.9</ele></trkpt>
      <trkpt lat="46.92169626794106" lon="8.636657474366048">
      <ele>1403.3</ele></trkpt>
      <trkpt lat="46.9217457725877" lon="8.636766890778105">
      <ele>1405.7</ele></trkpt>
      <trkpt lat="46.9217438255121" lon="8.636860139296529">
      <ele>1408.0</ele></trkpt>
      <trkpt lat="46.92175205063653" lon="8.63693213312598">
      <ele>1410.4</ele></trkpt>
      <trkpt lat="46.9217898273908" lon="8.637021435188618">
      <ele>1412.7</ele></trkpt>
      <trkpt lat="46.92183882071177" lon="8.637052438618115">
      <ele>1415.1</ele></trkpt>
      <trkpt lat="46.92189168704345" lon="8.637119112093426">
      <ele>1417.5</ele></trkpt>
      <trkpt lat="46.9219302463107" lon="8.637185204104725">
      <ele>1419.8</ele></trkpt>
      <trkpt lat="46.921946444299316" lon="8.637238061029176">
      <ele>1422.2</ele></trkpt>
      <trkpt lat="46.921958701988224" lon="8.637329591401715">
      <ele>1424.5</ele></trkpt>
      <trkpt lat="46.92197504956041" lon="8.637465279039567">
      <ele>1426.9</ele></trkpt>
      <trkpt lat="46.92199398838336" lon="8.637547635852714">
      <ele>1429.3</ele></trkpt>
      <trkpt lat="46.922018681466255" lon="8.63759163548861">
      <ele>1431.6</ele></trkpt>
      <trkpt lat="46.92207240006334" lon="8.637651632157661">
      <ele>1434.0</ele></trkpt>
      <trkpt lat="46.92210269564577" lon="8.637682087969672">
      <ele>1436.3</ele></trkpt>
      <trkpt lat="46.92212490543501" lon="8.637712363457858">
      <ele>1438.7</ele></trkpt>
      <trkpt lat="46.922157008727616" lon="8.637731698678888">
      <ele>1439.9</ele></trkpt>
      <trkpt lat="46.92218907565779" lon="8.637755366200302">
      <ele>1441.1</ele></trkpt>
      <trkpt lat="46.92220875958521" lon="8.637783720881785">
      <ele>1442.3</ele></trkpt>
      <trkpt lat="46.922242985496204" lon="8.637803103525805">
      <ele>1443.4</ele></trkpt>
      <trkpt lat="46.922274562139144" lon="8.637832353822878">
      <ele>1444.6</ele></trkpt>
      <trkpt lat="46.92231277606351" lon="8.637877259461963">
      <ele>1445.8</ele></trkpt>
      <trkpt lat="46.92235204731119" lon="8.637914835611614">
      <ele>1447.0</ele></trkpt>
      <trkpt lat="46.92241992499211" lon="8.638007568397011">
      <ele>1448.2</ele></trkpt>
      <trkpt lat="46.92244994008039" lon="8.638136104196413">
      <ele>1449.4</ele></trkpt>
      <trkpt lat="46.92253533186711" lon="8.638167133393342">
      <ele>1450.6</ele></trkpt>
      <trkpt lat="46.92255651253797" lon="8.638208901954354">
      <ele>1451.7</ele></trkpt>
      <trkpt lat="46.92252610626864" lon="8.638304129738613">
      <ele>1452.9</ele></trkpt>
      <trkpt lat="46.92255651253797" lon="8.638208901954354">
      <ele>1454.1</ele></trkpt>
      <trkpt lat="46.92252610626864" lon="8.638304129738613">
      <ele>1455.3</ele></trkpt>
      <trkpt lat="46.92256422545439" lon="8.63834002617774">
      <ele>1456.5</ele></trkpt>
      <trkpt lat="46.92264758690346" lon="8.638399123248078">
      <ele>1457.7</ele></trkpt>
      <trkpt lat="46.922707325893604" lon="8.638422831249933">
      <ele>1458.8</ele></trkpt>
      <trkpt lat="46.92276032757502" lon="8.6384576156901">
      <ele>1460.0</ele></trkpt>
      <trkpt lat="46.922795068664044" lon="8.638498229708208">
      <ele>1461.2</ele></trkpt>
      <trkpt lat="46.92284577869604" lon="8.638594611920682">
      <ele>1462.4</ele></trkpt>
      <trkpt lat="46.92290625656255" lon="8.638666290214662">
      <ele>1462.9</ele></trkpt>
      <trkpt lat="46.922930133227375" lon="8.638677406617225">
      <ele>1463.5</ele></trkpt>
      <trkpt lat="46.92297758277274" lon="8.638729492031905">
      <ele>1464.0</ele></trkpt>
      <trkpt lat="46.92301667635869" lon="8.638749653900625">
      <ele>1464.6</ele></trkpt>
      <trkpt lat="46.92308445394465" lon="8.638754856806704">
      <ele>1465.1</ele></trkpt>
      <trkpt lat="46.923106229473355" lon="8.63876902524472">
      <ele>1465.7</ele></trkpt>
      <trkpt lat="46.92316304611641" lon="8.638795163471254">
      <ele>1466.2</ele></trkpt>
      <trkpt lat="46.92322275635488" lon="8.63882074920866">
      <ele>1466.8</ele></trkpt>
      <trkpt lat="46.923276367390564" lon="8.638836862798483">
      <ele>1467.3</ele></trkpt>
      <trkpt lat="46.92330612538436" lon="8.638838748373686">
      <ele>1467.8</ele></trkpt>
      <trkpt lat="46.92334475308049" lon="8.638863876637837">
      <ele>1468.4</ele></trkpt>
      <trkpt lat="46.92338983647377" lon="8.63886359641363">
      <ele>1468.9</ele></trkpt>
      <trkpt lat="46.92347148128293" lon="8.638889028677717">
      <ele>1469.5</ele></trkpt>
      <trkpt lat="46.92352394652574" lon="8.638895150473665">
      <ele>1470.0</ele></trkpt>
      <trkpt lat="46.92363519922965" lon="8.638936790972366">
      <ele>1470.6</ele></trkpt>
      <trkpt lat="46.923697141256426" lon="8.638946853629498">
      <ele>1471.1</ele></trkpt>
      <trkpt lat="46.923795736289925" lon="8.639012517142936">
      <ele>1471.7</ele></trkpt>
      <trkpt lat="46.923857586955485" lon="8.639031296849305">
      <ele>1472.2</ele></trkpt>
      <trkpt lat="46.92391192760062" lon="8.63905676327052">
      <ele>1472.8</ele></trkpt>
      <trkpt lat="46.923948848168216" lon="8.639086830502874">
      <ele>1473.3</ele></trkpt>
      <trkpt lat="46.92401091528987" lon="8.639164783556389">
      <ele>1475.0</ele></trkpt>
      <trkpt lat="46.92408656271273" lon="8.639251706590677">
      <ele>1476.8</ele></trkpt>
      <trkpt lat="46.92418884907015" lon="8.63934883683538">
      <ele>1478.5</ele></trkpt>
      <trkpt lat="46.924251564077856" lon="8.639406162960075">
      <ele>1480.2</ele></trkpt>
      <trkpt lat="46.92431585732774" lon="8.639470838495551">
      <ele>1481.9</ele></trkpt>
      <trkpt lat="46.92438370035798" lon="8.63951613318277">
      <ele>1483.6</ele></trkpt>
      <trkpt lat="46.92442496111123" lon="8.639553533208087">
      <ele>1485.4</ele></trkpt>
      <trkpt lat="46.9245011837959" lon="8.639594143654657">
      <ele>1487.1</ele></trkpt>
      <trkpt lat="46.924588654938724" lon="8.63967392629831">
      <ele>1488.8</ele></trkpt>
      <trkpt lat="46.924682739785375" lon="8.63975871552217">
      <ele>1490.5</ele></trkpt>
      <trkpt lat="46.92477370074719" lon="8.639823974787099">
      <ele>1492.3</ele></trkpt>
      <trkpt lat="46.92486813334935" lon="8.639874736188853">
      <ele>1494.0</ele></trkpt>
      <trkpt lat="46.924961124034695" lon="8.639906005027575">
      <ele>1495.7</ele></trkpt>
      <trkpt lat="46.92503592865851" lon="8.639922265574661">
      <ele>1497.5</ele></trkpt>
      <trkpt lat="46.92512368017729" lon="8.63997529424098">
      <ele>1499.2</ele></trkpt>
      <trkpt lat="46.92518694682463" lon="8.63997913747638">
      <ele>1500.9</ele></trkpt>
      <trkpt lat="46.92524333723432" lon="8.640004716958364">
      <ele>1502.6</ele></trkpt>
      <trkpt lat="46.92529161955822" lon="8.64000822534311">
      <ele>1504.3</ele></trkpt>
      <trkpt lat="46.92534315317476" lon="8.640019107428703">
      <ele>1506.1</ele></trkpt>
      <trkpt lat="46.92540450973808" lon="8.640047240455745">
      <ele>1507.8</ele></trkpt>
      <trkpt lat="46.92543777327054" lon="8.640052842515862">
      <ele>1507.6</ele></trkpt>
      <trkpt lat="46.925473143325206" lon="8.640017140951866">
      <ele>1507.3</ele></trkpt>
      <trkpt lat="46.92552342099623" lon="8.639989086699451">
      <ele>1507.1</ele></trkpt>
      <trkpt lat="46.925607115165434" lon="8.639952048839111">
      <ele>1506.9</ele></trkpt>
      <trkpt lat="46.925699172544384" lon="8.639912755318194">
      <ele>1506.7</ele></trkpt>
      <trkpt lat="46.925736069857486" lon="8.639889260467095">
      <ele>1506.4</ele></trkpt>
      <trkpt lat="46.92577999784287" lon="8.639831872839888">
      <ele>1506.2</ele></trkpt>
      <trkpt lat="46.92580692820023" lon="8.63980571272414">
      <ele>1506.0</ele></trkpt>
      <trkpt lat="46.925853699412684" lon="8.639794611265549">
      <ele>1505.7</ele></trkpt>
      <trkpt lat="46.92588895824348" lon="8.63976865032986">
      <ele>1505.5</ele></trkpt>
      <trkpt lat="46.92592094928444" lon="8.63973774455971">
      <ele>1505.3</ele></trkpt>
      <trkpt lat="46.925956412247324" lon="8.639692314106467">
      <ele>1505.0</ele></trkpt>
      <trkpt lat="46.926022218469626" lon="8.639613537810114">
      <ele>1504.8</ele></trkpt>
      <trkpt lat="46.92607606246929" lon="8.63956365919023">
      <ele>1504.6</ele></trkpt>
      <trkpt lat="46.9261482950052" lon="8.639506903278345">
      <ele>1504.3</ele></trkpt>
      <trkpt lat="46.92619533007475" lon="8.63947148774583">
      <ele>1504.1</ele></trkpt>
      <trkpt lat="46.92624719528543" lon="8.639450742961422">
      <ele>1503.9</ele></trkpt>
      <trkpt lat="46.926283922993" lon="8.639444275420434">
      <ele>1503.7</ele></trkpt>
      <trkpt lat="46.926337451985525" lon="8.639423580874663">
      <ele>1503.4</ele></trkpt>
      <trkpt lat="46.92638780602155" lon="8.63938822615426">
      <ele>1503.2</ele></trkpt>
      <trkpt lat="46.9264262996261" lon="8.639372067477641">
      <ele>1505.0</ele></trkpt>
      <trkpt lat="46.92647139801008" lon="8.639360915015047">
      <ele>1506.9</ele></trkpt>
      <trkpt lat="46.926549998353295" lon="8.639333479158102">
      <ele>1508.8</ele></trkpt>
      <trkpt lat="46.92661178842458" lon="8.639320270129705">
      <ele>1510.6</ele></trkpt>
      <trkpt lat="46.92670717342172" lon="8.639281049123749">
      <ele>1512.5</ele></trkpt>
      <trkpt lat="46.92683593278956" lon="8.639237714695046">
      <ele>1514.3</ele></trkpt>
      <trkpt lat="46.926870800370914" lon="8.639248210965976">
      <ele>1516.2</ele></trkpt>
      <trkpt lat="46.9269705487269" lon="8.639269913334768">
      <ele>1518.0</ele></trkpt>
      <trkpt lat="46.92707363419649" lon="8.63929166406176">
      <ele>1519.9</ele></trkpt>
      <trkpt lat="46.92714173973533" lon="8.639310204130252">
      <ele>1521.7</ele></trkpt>
      <trkpt lat="46.92721465994425" lon="8.639348326258473">
      <ele>1523.5</ele></trkpt>
      <trkpt lat="46.9273701437456" lon="8.639456381465443">
      <ele>1525.4</ele></trkpt>
      <trkpt lat="46.92744124706689" lon="8.639509052859234">
      <ele>1527.2</ele></trkpt>
      <trkpt lat="46.92749920710802" lon="8.63954195617545">
      <ele>1529.1</ele></trkpt>
      <trkpt lat="46.92753896582175" lon="8.639564735307125">
      <ele>1531.0</ele></trkpt>
      <trkpt lat="46.92757894498679" lon="8.639565628533036">
      <ele>1532.8</ele></trkpt>
      <trkpt lat="46.92761545985125" lon="8.639578604500544">
      <ele>1534.7</ele></trkpt>
      <trkpt lat="46.927641608784015" lon="8.63962782932223">
      <ele>1536.5</ele></trkpt>
      <trkpt lat="46.927661440940405" lon="8.639642861997217">
      <ele>1538.4</ele></trkpt>
      <trkpt lat="46.927681689807415" lon="8.639619007253442">
      <ele>1540.2</ele></trkpt>
      <trkpt lat="46.92774349650813" lon="8.639603356105964">
      <ele>1543.1</ele></trkpt>
      <trkpt lat="46.92783532428523" lon="8.639585946266152">
      <ele>1545.9</ele></trkpt>
      <trkpt lat="46.92790218253779" lon="8.639565562202751">
      <ele>1548.8</ele></trkpt>
      <trkpt lat="46.92796054305662" lon="8.639561981021336">
      <ele>1551.7</ele></trkpt>
      <trkpt lat="46.928013740480054" lon="8.63957291352328">
      <ele>1554.5</ele></trkpt>
      <trkpt lat="46.92807706703288" lon="8.639571898983014">
      <ele>1557.4</ele></trkpt>
      <trkpt lat="46.92813625965606" lon="8.639488086560554">
      <ele>1560.3</ele></trkpt>
      <trkpt lat="46.92818827748404" lon="8.639452781017775">
      <ele>1563.2</ele></trkpt>
      <trkpt lat="46.92831053436119" lon="8.639394684544424">
      <ele>1566.0</ele></trkpt>
      <trkpt lat="46.92836764590702" lon="8.639349761709832">
      <ele>1568.9</ele></trkpt>
      <trkpt lat="46.92840631797867" lon="8.639316574070286">
      <ele>1571.8</ele></trkpt>
      <trkpt lat="46.92843988730382" lon="8.63929300328891">
      <ele>1574.6</ele></trkpt>
      <trkpt lat="46.928466715559004" lon="8.639276570222231">
      <ele>1577.5</ele></trkpt>
      <trkpt lat="46.92849009739507" lon="8.63927223362675">
      <ele>1580.4</ele></trkpt>
      <trkpt lat="46.928528327264786" lon="8.639280375904796">
      <ele>1583.2</ele></trkpt>
      <trkpt lat="46.928586805923864" lon="8.639264662915103">
      <ele>1586.1</ele></trkpt>
      <trkpt lat="46.928643884629345" lon="8.639224584743014">
      <ele>1589.0</ele></trkpt>
      <trkpt lat="46.92869418753577" lon="8.639194099209872">
      <ele>1591.9</ele></trkpt>
      <trkpt lat="46.92873083884703" lon="8.63919491784827">
      <ele>1594.7</ele></trkpt>
      <trkpt lat="46.92874359850977" lon="8.639248716465207">
      <ele>1597.6</ele></trkpt>
      <trkpt lat="46.92873976096153" lon="8.639297272324642">
      <ele>1600.4</ele></trkpt>
      <trkpt lat="46.92877097829831" lon="8.63933930976413">
      <ele>1603.2</ele></trkpt>
      <trkpt lat="46.92880247581108" lon="8.639354616370586">
      <ele>1606.1</ele></trkpt>
      <trkpt lat="46.92881854678146" lon="8.639410918529187">
      <ele>1608.9</ele></trkpt>
      <trkpt lat="46.928854985273894" lon="8.639431181357338">
      <ele>1611.7</ele></trkpt>
      <trkpt lat="46.92889150914014" lon="8.63944415774204">
      <ele>1614.5</ele></trkpt>
      <trkpt lat="46.92897392147366" lon="8.639370606733344">
      <ele>1617.4</ele></trkpt>
      <trkpt lat="46.92902933628816" lon="8.639330491215116">
      <ele>1620.2</ele></trkpt>
      <trkpt lat="46.929080946451634" lon="8.639334073578606">
      <ele>1623.0</ele></trkpt>
      <trkpt lat="46.92915726200002" lon="8.639364971417427">
      <ele>1625.8</ele></trkpt>
      <trkpt lat="46.929220359265116" lon="8.6393858298885">
      <ele>1628.7</ele></trkpt>
      <trkpt lat="46.92926348777373" lon="8.639403825962127">
      <ele>1631.5</ele></trkpt>
      <trkpt lat="46.929283099526394" lon="8.63944074564212">
      <ele>1634.3</ele></trkpt>
      <trkpt lat="46.92928930536109" lon="8.639484667407437">
      <ele>1637.1</ele></trkpt>
      <trkpt lat="46.92929048508664" lon="8.639530893233603">
      <ele>1640.0</ele></trkpt>
      <trkpt lat="46.92930521435483" lon="8.639555556498937">
      <ele>1642.8</ele></trkpt>
      <trkpt lat="46.92934519350834" lon="8.639556449746582">
      <ele>1645.6</ele></trkpt>
      <trkpt lat="46.9293614775007" lon="8.639593282053209">
      <ele>1648.4</ele></trkpt>
      <trkpt lat="46.92937103659041" lon="8.639634849346734">
      <ele>1651.3</ele></trkpt>
      <trkpt lat="46.929373981905854" lon="8.639671409907292">
      <ele>1654.1</ele></trkpt>
      <trkpt lat="46.92938036619377" lon="8.639698303126954">
      <ele>1655.7</ele></trkpt>
      <trkpt lat="46.92940871448616" lon="8.639696493969012">
      <ele>1657.3</ele></trkpt>
      <trkpt lat="46.929452072419075" lon="8.639692603854021">
      <ele>1658.9</ele></trkpt>
      <trkpt lat="46.92942135598231" lon="8.639777842405092">
      <ele>1660.5</ele></trkpt>
      <trkpt lat="46.9293845262636" lon="8.639794038877268">
      <ele>1662.1</ele></trkpt>
      <trkpt lat="46.92934104070795" lon="8.639810099717772">
      <ele>1663.8</ele></trkpt>
      <trkpt lat="46.92931223355255" lon="8.63985566857151">
      <ele>1665.4</ele></trkpt>
      <trkpt lat="46.929288104740195" lon="8.639932951407424">
      <ele>1667.0</ele></trkpt>
      <trkpt lat="46.929282236813684" lon="8.640015527548567">
      <ele>1668.6</ele></trkpt>
      <trkpt lat="46.92925966078586" lon="8.640102576018958">
      <ele>1670.2</ele></trkpt>
      <trkpt lat="46.929249056143036" lon="8.640160712057307">
      <ele>1671.8</ele></trkpt>
      <trkpt lat="46.929243315579406" lon="8.640231130453657">
      <ele>1673.4</ele></trkpt>
      <trkpt lat="46.9292259697437" lon="8.64029640416619">
      <ele>1675.0</ele></trkpt>
      <trkpt lat="46.92919717152615" lon="8.640341959733554">
      <ele>1676.6</ele></trkpt>
      <trkpt lat="46.92915696264177" lon="8.640362965411143">
      <ele>1678.2</ele></trkpt>
      <trkpt lat="46.92910370507326" lon="8.640356915751939">
      <ele>1679.9</ele></trkpt>
      <trkpt lat="46.92906669676635" lon="8.640390127147162">
      <ele>1681.5</ele></trkpt>
      <trkpt lat="46.92900939717349" lon="8.640452077786609">
      <ele>1683.1</ele></trkpt>
      <trkpt lat="46.92897398503154" lon="8.640492639404338">
      <ele>1684.7</ele></trkpt>
      <trkpt lat="46.92889863570037" lon="8.64052744901875">
      <ele>1686.3</ele></trkpt>
      <trkpt lat="46.92886529575795" lon="8.640529132972022">
      <ele>1687.7</ele></trkpt>
      <trkpt lat="46.92881660545206" lon="8.64056451233355">
      <ele>1689.2</ele></trkpt>
      <trkpt lat="46.92878323974824" lon="8.640568651404633">
      <ele>1690.6</ele></trkpt>
      <trkpt lat="46.92874134168553" lon="8.640592022167283">
      <ele>1692.1</ele></trkpt>
      <trkpt lat="46.92868119892163" lon="8.640607696548779">
      <ele>1693.5</ele></trkpt>
      <trkpt lat="46.928652518878636" lon="8.64064112001898">
      <ele>1695.0</ele></trkpt>
      <trkpt lat="46.928590763156535" lon="8.640651899356252">
      <ele>1696.4</ele></trkpt>
      <trkpt lat="46.928520440163965" lon="8.640684378331354">
      <ele>1697.9</ele></trkpt>
      <trkpt lat="46.92846020279579" lon="8.640707351883249">
      <ele>1699.3</ele></trkpt>
      <trkpt lat="46.92841825345013" lon="8.640735606392356">
      <ele>1700.8</ele></trkpt>
      <trkpt lat="46.92837655939857" lon="8.640739532803149">
      <ele>1702.2</ele></trkpt>
      <trkpt lat="46.92833115474978" lon="8.640779857139202">
      <ele>1703.6</ele></trkpt>
      <trkpt lat="46.928325592652904" lon="8.640833232828935">
      <ele>1705.1</ele></trkpt>
      <trkpt lat="46.92830301586218" lon="8.640920292534991">
      <ele>1706.5</ele></trkpt>
      <trkpt lat="46.92829568752564" lon="8.640983372672158">
      <ele>1708.0</ele></trkpt>
      <trkpt lat="46.92827007262812" lon="8.641043601155607">
      <ele>1709.4</ele></trkpt>
      <trkpt lat="46.92822623718162" lon="8.641091261684014">
      <ele>1710.9</ele></trkpt>
      <trkpt lat="46.928177402296214" lon="8.641141252848483">
      <ele>1712.3</ele></trkpt>
      <trkpt lat="46.928125604569395" lon="8.641154683722958">
      <ele>1713.8</ele></trkpt>
      <trkpt lat="46.92805576643346" lon="8.641140961054447">
      <ele>1715.2</ele></trkpt>
      <trkpt lat="46.92802078805036" lon="8.641140178524772">
      <ele>1717.1</ele></trkpt>
      <trkpt lat="46.92798707421289" lon="8.641178334391988">
      <ele>1719.0</ele></trkpt>
      <trkpt lat="46.927954929664196" lon="8.641223826707389">
      <ele>1720.8</ele></trkpt>
      <trkpt lat="46.927944468592926" lon="8.641267374701066">
      <ele>1722.7</ele></trkpt>
      <trkpt lat="46.927975745343865" lon="8.641304542039219">
      <ele>1724.6</ele></trkpt>
      <trkpt lat="46.92800499145172" lon="8.641375741527996">
      <ele>1726.5</ele></trkpt>
      <trkpt lat="46.92802787941509" lon="8.6414175932317">
      <ele>1728.3</ele></trkpt>
      <trkpt lat="46.9280725183784" lon="8.641450214016587">
      <ele>1730.2</ele></trkpt>
      <trkpt lat="46.92812365220925" lon="8.641500012443382">
      <ele>1732.1</ele></trkpt>
      <trkpt lat="46.92820124824799" lon="8.6415674091809">
      <ele>1734.0</ele></trkpt>
      <trkpt lat="46.92820904053294" lon="8.64161866725286">
      <ele>1735.8</ele></trkpt>
      <trkpt lat="46.92822039062874" lon="8.641648100702739">
      <ele>1737.7</ele></trkpt>
      <trkpt lat="46.92825037723558" lon="8.641648771843274">
      <ele>1739.6</ele></trkpt>
      <trkpt lat="46.928265843291065" lon="8.641763419498183">
      <ele>1741.5</ele></trkpt>
      <trkpt lat="46.928282270509776" lon="8.641785691490137">
      <ele>1743.3</ele></trkpt>
      <trkpt lat="46.928317351205365" lon="8.641776732731497">
      <ele>1745.2</ele></trkpt>
      <trkpt lat="46.9283542577413" lon="8.641753251344609">
      <ele>1747.1</ele></trkpt>
      <trkpt lat="46.92837590673943" lon="8.64175373592175">
      <ele>1749.0</ele></trkpt>
      <trkpt lat="46.928385653029736" lon="8.641778261585403">
      <ele>1750.8</ele></trkpt>
      <trkpt lat="46.928384478110026" lon="8.641890120739468">
      <ele>1752.7</ele></trkpt>
      <trkpt lat="46.92837240388999" lon="8.641928773969981">
      <ele>1754.8</ele></trkpt>
      <trkpt lat="46.92838063944173" lon="8.641938676086284">
      <ele>1756.9</ele></trkpt>
      <trkpt lat="46.92841594077649" lon="8.641907857398058">
      <ele>1759.0</ele></trkpt>
      <trkpt lat="46.9284359093308" lon="8.641910733859255">
      <ele>1761.0</ele></trkpt>
      <trkpt lat="46.928445518747225" lon="8.641947429981952">
      <ele>1763.1</ele></trkpt>
      <trkpt lat="46.928441424486515" lon="8.642020313457738">
      <ele>1765.2</ele></trkpt>
      <trkpt lat="46.92842905287695" lon="8.642088126452258">
      <ele>1767.3</ele></trkpt>
      <trkpt lat="46.928416630052055" lon="8.642160810280403">
      <ele>1769.4</ele></trkpt>
      <trkpt lat="46.92842459185202" lon="8.642195053236083">
      <ele>1771.5</ele></trkpt>
      <trkpt lat="46.928398814060735" lon="8.642269867416578">
      <ele>1773.6</ele></trkpt>
      <trkpt lat="46.92838831054273" lon="8.642318273501074">
      <ele>1775.6</ele></trkpt>
      <trkpt lat="46.92839459198145" lon="8.64235489513856">
      <ele>1777.7</ele></trkpt>
      <trkpt lat="46.92841479050417" lon="8.642335885697305">
      <ele>1779.8</ele></trkpt>
      <trkpt lat="46.928467936751574" lon="8.64235166564912">
      <ele>1781.9</ele></trkpt>
      <trkpt lat="46.928464276552724" lon="8.642383218948988">
      <ele>1784.0</ele></trkpt>
      <trkpt lat="46.928474218041586" lon="8.642388300473801">
      <ele>1786.1</ele></trkpt>
      <trkpt lat="46.92851926565759" lon="8.642382007861471">
      <ele>1788.1</ele></trkpt>
      <trkpt lat="46.92854758833513" lon="8.642382642151432">
      <ele>1790.2</ele></trkpt>
      <trkpt lat="46.92866729575492" lon="8.642407214342418">
      <ele>1792.3</ele></trkpt>
      <trkpt lat="46.9287087600073" lon="8.642425162262217">
      <ele>1794.4</ele></trkpt>
      <trkpt lat="46.928743389612734" lon="8.642459989582328">
      <ele>1796.6</ele></trkpt>
      <trkpt lat="46.92878987115213" lon="8.642475620484387">
      <ele>1798.8</ele></trkpt>
      <trkpt lat="46.92886803773124" lon="8.642489531612735">
      <ele>1801.0</ele></trkpt>
      <trkpt lat="46.92897291397301" lon="8.642499195215938">
      <ele>1803.2</ele></trkpt>
      <trkpt lat="46.929056149033286" lon="8.642505918411324">
      <ele>1805.4</ele></trkpt>
      <trkpt lat="46.92912075635339" lon="8.64254140432721">
      <ele>1807.6</ele></trkpt>
      <trkpt lat="46.929185184554086" lon="8.642593932033003">
      <ele>1809.8</ele></trkpt>
      <trkpt lat="46.92923799847443" lon="8.642641327616017">
      <ele>1812.0</ele></trkpt>
      <trkpt lat="46.929276109172406" lon="8.642661643396888">
      <ele>1814.2</ele></trkpt>
      <trkpt lat="46.92932942667067" lon="8.64266283774365">
      <ele>1816.4</ele></trkpt>
      <trkpt lat="46.929392769910415" lon="8.642659384576982">
      <ele>1818.6</ele></trkpt>
      <trkpt lat="46.9294427671021" lon="8.642658075060977">
      <ele>1820.8</ele></trkpt>
      <trkpt lat="46.92945410025486" lon="8.642689951651507">
      <ele>1823.0</ele></trkpt>
      <trkpt lat="46.929482183884915" lon="8.64271247241392">
      <ele>1825.2</ele></trkpt>
      <trkpt lat="46.92952195862998" lon="8.642732812483478">
      <ele>1827.4</ele></trkpt>
      <trkpt lat="46.92955015337017" lon="8.642745617822774">
      <ele>1829.6</ele></trkpt>
      <trkpt lat="46.929586395732855" lon="8.64278534101233">
      <ele>1831.8</ele></trkpt>
      <trkpt lat="46.92962773198158" lon="8.642815460400815">
      <ele>1834.0</ele></trkpt>
      <trkpt lat="46.9296523345408" lon="8.642852480284853">
      <ele>1836.2</ele></trkpt>
      <trkpt lat="46.92968210759488" lon="8.642872609570281">
      <ele>1838.4</ele></trkpt>
      <trkpt lat="46.92970179496954" lon="8.642902230898299">
      <ele>1840.4</ele></trkpt>
      <trkpt lat="46.929740058964434" lon="8.642907960345928">
      <ele>1842.4</ele></trkpt>
      <trkpt lat="46.92977809286893" lon="8.642935576422131">
      <ele>1844.3</ele></trkpt>
      <trkpt lat="46.92986127682202" lon="8.642947158259217">
      <ele>1846.3</ele></trkpt>
      <trkpt lat="46.92992630183815" lon="8.642943756207684">
      <ele>1848.3</ele></trkpt>
      <trkpt lat="46.930014435342365" lon="8.642960321147227">
      <ele>1850.2</ele></trkpt>
      <trkpt lat="46.93001919715054" lon="8.642982306584294">
      <ele>1852.2</ele></trkpt>
      <trkpt lat="46.93006750488178" lon="8.64298338901197">
      <ele>1854.2</ele></trkpt>
      <trkpt lat="46.93008274467924" lon="8.642959422206818">
      <ele>1856.2</ele></trkpt>
      <trkpt lat="46.930117808777" lon="8.642952906188945">
      <ele>1858.2</ele></trkpt>
      <trkpt lat="46.93016453818512" lon="8.64294666467146">
      <ele>1860.1</ele></trkpt>
      <trkpt lat="46.93019628198264" lon="8.642937644719906">
      <ele>1862.1</ele></trkpt>
      <trkpt lat="46.93021950160725" lon="8.642947896199649">
      <ele>1864.1</ele></trkpt>
      <trkpt lat="46.93023600547377" lon="8.642962856255178">
      <ele>1866.1</ele></trkpt>
      <trkpt lat="46.930229033942005" lon="8.642991893703764">
      <ele>1868.0</ele></trkpt>
      <trkpt lat="46.930200149050904" lon="8.643044735320439">
      <ele>1870.0</ele></trkpt>
      <trkpt lat="46.930156049295945" lon="8.643119167257494">
      <ele>1872.0</ele></trkpt>
      <trkpt lat="46.930116992756126" lon="8.643188813665445">
      <ele>1874.0</ele></trkpt>
      <trkpt lat="46.93008952471996" lon="8.643266034506844">
      <ele>1875.9</ele></trkpt>
      <trkpt lat="46.930067073943874" lon="8.643340938211157">
      <ele>1877.9</ele></trkpt>
      <trkpt lat="46.93005321672382" lon="8.643391686809608">
      <ele>1880.4</ele></trkpt>
      <trkpt lat="46.93002415227257" lon="8.64346158313579">
      <ele>1882.8</ele></trkpt>
      <trkpt lat="46.929974898333" lon="8.643550462880633">
      <ele>1885.3</ele></trkpt>
      <trkpt lat="46.929939075756295" lon="8.64362993868031">
      <ele>1887.7</ele></trkpt>
      <trkpt lat="46.92989850828864" lon="8.643684973525346">
      <ele>1890.2</ele></trkpt>
      <trkpt lat="46.9298932518755" lon="8.643709163877254">
      <ele>1892.6</ele></trkpt>
      <trkpt lat="46.92992821353491" lon="8.64371239037245">
      <ele>1895.1</ele></trkpt>
      <trkpt lat="46.92990286057539" lon="8.643745874446454">
      <ele>1897.5</ele></trkpt>
      <trkpt lat="46.92987575945917" lon="8.643789037316642">
      <ele>1900.0</ele></trkpt>
      <trkpt lat="46.92988544493334" lon="8.643818447958319">
      <ele>1902.5</ele></trkpt>
      <trkpt lat="46.929884933294026" lon="8.64386707914564">
      <ele>1904.9</ele></trkpt>
      <trkpt lat="46.92988123826696" lon="8.643901048776932">
      <ele>1907.4</ele></trkpt>
      <trkpt lat="46.92985130293045" lon="8.643895505366343">
      <ele>1909.8</ele></trkpt>
      <trkpt lat="46.92984410987292" lon="8.643946429330862">
      <ele>1912.3</ele></trkpt>
      <trkpt lat="46.92981571054024" lon="8.643953080992583">
      <ele>1914.7</ele></trkpt>
      <trkpt lat="46.92980679342455" lon="8.644008825258885">
      <ele>1917.2</ele></trkpt>
      <trkpt lat="46.92978021135786" lon="8.644000940626146">
      <ele>1919.6</ele></trkpt>
      <trkpt lat="46.92976625133291" lon="8.644061430754327">
      <ele>1922.1</ele></trkpt>
      <trkpt lat="46.92973746804796" lon="8.644104568763568">
      <ele>1924.5</ele></trkpt>
      <trkpt lat="46.929696951611" lon="8.644154732064708">
      <ele>1927.0</ele></trkpt>
      <trkpt lat="46.929673126784955" lon="8.644202853310945">
      <ele>1929.0</ele></trkpt>
      <trkpt lat="46.929645930818204" lon="8.644253302130068">
      <ele>1930.9</ele></trkpt>
      <trkpt lat="46.92959711113391" lon="8.644300862620923">
      <ele>1932.9</ele></trkpt>
      <trkpt lat="46.92957996763991" lon="8.644346690965747">
      <ele>1934.9</ele></trkpt>
      <trkpt lat="46.92955252452543" lon="8.644421468396182">
      <ele>1936.8</ele></trkpt>
      <trkpt lat="46.929523587559544" lon="8.644479192671392">
      <ele>1938.8</ele></trkpt>
      <trkpt lat="46.929474793487465" lon="8.644524310804766">
      <ele>1940.8</ele></trkpt>
      <trkpt lat="46.92945418507666" lon="8.64458222180548">
      <ele>1942.7</ele></trkpt>
      <trkpt lat="46.92940037362457" lon="8.644629656696566">
      <ele>1944.7</ele></trkpt>
      <trkpt lat="46.92936502772658" lon="8.644662928926387">
      <ele>1946.7</ele></trkpt>
      <trkpt lat="46.92932609810833" lon="8.644720428647908">
      <ele>1948.6</ele></trkpt>
      <trkpt lat="46.929284224775515" lon="8.644741367503933">
      <ele>1950.6</ele></trkpt>
      <trkpt lat="46.92923202589146" lon="8.64479371036055">
      <ele>1952.5</ele></trkpt>
      <trkpt lat="46.9292232785384" lon="8.644832438229148">
      <ele>1954.5</ele></trkpt>
      <trkpt lat="46.92918961476789" lon="8.644865721702267">
      <ele>1956.5</ele></trkpt>
      <trkpt lat="46.92916915978439" lon="8.64490904573176">
      <ele>1958.4</ele></trkpt>
      <trkpt lat="46.92913750927848" lon="8.64490833541806">
      <ele>1960.4</ele></trkpt>
      <trkpt lat="46.92911431540186" lon="8.644895654399019">
      <ele>1962.4</ele></trkpt>
      <trkpt lat="46.92909388612255" lon="8.644936536329979">
      <ele>1964.3</ele></trkpt>
      <trkpt lat="46.929070009808406" lon="8.644989514481637">
      <ele>1966.3</ele></trkpt>
      <trkpt lat="46.9290349802999" lon="8.644993587221201">
      <ele>1968.3</ele></trkpt>
      <trkpt lat="46.92901285235069" lon="8.64503687352911">
      <ele>1970.3</ele></trkpt>
      <trkpt lat="46.928997663275986" lon="8.64505598148224">
      <ele>1972.3</ele></trkpt>
      <trkpt lat="46.92897155712464" lon="8.64501145502792">
      <ele>1974.3</ele></trkpt>
      <trkpt lat="46.92896021347419" lon="8.645038725612856">
      <ele>1976.3</ele></trkpt>
      <trkpt lat="46.92893409376367" lon="8.645140702144186">
      <ele>1978.4</ele></trkpt>
      <trkpt lat="46.92891083473367" lon="8.645231580398436">
      <ele>1980.4</ele></trkpt>
      <trkpt lat="46.928877443277685" lon="8.64523814546596">
      <ele>1982.4</ele></trkpt>
      <trkpt lat="46.928850630897216" lon="8.645252133464911">
      <ele>1984.4</ele></trkpt>
      <trkpt lat="46.9288584984264" lon="8.645296092903322">
      <ele>1986.4</ele></trkpt>
      <trkpt lat="46.92886627244971" lon="8.645349781232543">
      <ele>1988.4</ele></trkpt>
      <trkpt lat="46.92887554785063" lon="8.645418080055693">
      <ele>1990.4</ele></trkpt>
      <trkpt lat="46.92889266492152" lon="8.645532780420146">
      <ele>1992.4</ele></trkpt>
      <trkpt lat="46.92884933237639" lon="8.645534236895719">
      <ele>1994.4</ele></trkpt>
      <trkpt lat="46.928848845461324" lon="8.64558045137256">
      <ele>1996.5</ele></trkpt>
      <trkpt lat="46.92882206776291" lon="8.645591997381558">
      <ele>1998.5</ele></trkpt>
      <trkpt lat="46.928800768478354" lon="8.645557467293523">
      <ele>2000.5</ele></trkpt>
      <trkpt lat="46.928764398984065" lon="8.645529900353413">
      <ele>2002.5</ele></trkpt>
      <trkpt lat="46.92871319899902" lon="8.645487397467342">
      <ele>2004.5</ele></trkpt>
      <trkpt lat="46.92871930001618" lon="8.645541048115449">
      <ele>2006.5</ele></trkpt>
      <trkpt lat="46.92873674108716" lon="8.645624133146816">
      <ele>2008.9</ele></trkpt>
      <trkpt lat="46.92870038959687" lon="8.645596566598357">
      <ele>2011.2</ele></trkpt>
      <trkpt lat="46.92869432929966" lon="8.64569615629834">
      <ele>2013.6</ele></trkpt>
      <trkpt lat="46.92867773254475" lon="8.645690898417136">
      <ele>2015.9</ele></trkpt>
      <trkpt lat="46.928670222139125" lon="8.645771006746761">
      <ele>2018.3</ele></trkpt>
      <trkpt lat="46.92864205318963" lon="8.645755784281839">
      <ele>2020.7</ele></trkpt>
      <trkpt lat="46.928612015418786" lon="8.645759968594474">
      <ele>2023.0</ele></trkpt>
      <trkpt lat="46.92859000768834" lon="8.645793526024928">
      <ele>2025.4</ele></trkpt>
      <trkpt lat="46.928587754497364" lon="8.645849405272136">
      <ele>2027.7</ele></trkpt>
      <trkpt lat="46.928549413575" lon="8.645850986726643">
      <ele>2030.1</ele></trkpt>
      <trkpt lat="46.92854215959447" lon="8.645906753608394">
      <ele>2032.5</ele></trkpt>
      <trkpt lat="46.928507258040675" lon="8.645898681358554">
      <ele>2034.8</ele></trkpt>
      <trkpt lat="46.928485010608284" lon="8.645954124545744">
      <ele>2037.2</ele></trkpt>
      <trkpt lat="46.92846435926446" lon="8.64601689186995">
      <ele>2039.5</ele></trkpt>
      <trkpt lat="46.928448946812836" lon="8.646055469274275">
      <ele>2041.9</ele></trkpt>
      <trkpt lat="46.92841600034814" lon="8.64602066447844">
      <ele>2044.3</ele></trkpt>
      <trkpt lat="46.92837735179663" lon="8.646051431564343">
      <ele>2046.6</ele></trkpt>
      <trkpt lat="46.928367068519165" lon="8.64607793752773">
      <ele>2049.0</ele></trkpt>
      <trkpt lat="46.928362532199756" lon="8.646128499271418">
      <ele>2051.3</ele></trkpt>
      <trkpt lat="46.9283676005516" lon="8.646362850451148">
      <ele>2053.7</ele></trkpt>
      <trkpt lat="46.92830192912933" lon="8.646267979467916">
      <ele>2055.6</ele></trkpt>
      <trkpt lat="46.928282709977104" lon="8.646348480687864">
      <ele>2057.5</ele></trkpt>
      <trkpt lat="46.92824807433729" lon="8.646428674834036">
      <ele>2059.4</ele></trkpt>
      <trkpt lat="46.92822463590355" lon="8.646434937444125">
      <ele>2061.3</ele></trkpt>
      <trkpt lat="46.928240156354136" lon="8.646474012677002">
      <ele>2063.3</ele></trkpt>
      <trkpt lat="46.92823806190901" lon="8.646484090439804">
      <ele>2065.2</ele></trkpt>
      <trkpt lat="46.92820177844706" lon="8.646481659857706">
      <ele>2067.1</ele></trkpt>
      <trkpt lat="46.928206432573006" lon="8.646512939962422">
      <ele>2069.0</ele></trkpt>
      <trkpt lat="46.92818474233741" lon="8.646543667446286">
      <ele>2070.9</ele></trkpt>
    </trkseg>
  </trk>
</gpx>