<?xml version='1.0' encoding='utf-8'?>
<gpx xmlns="http://www.topografix.com/GPX/1/1" xmlns:xsi="http://www.w3.org/2001/XMLSchema-instance" xsi:schemaLocation="http://www.topografix.com/GPX/1/1 http://www.topografix.com/GPX/1/1/gpx.xsd" version="1.1" creator="gpx.py -- https://github.com/tkrajina/gpxpy">
  <trk>
    <name>loucherhorn</name>
    <trkseg>
      <trkpt lat="46.651859080214976" lon="7.910715007941395">
      <ele>1970.0</ele></trkpt>
    <trkpt lat="46.65185396049519" lon="7.910723977075239">
      <ele>1969.8</ele></trkpt>
      <trkpt lat="46.65183869634484" lon="7.910727945686784">
      <ele>1969.7</ele></trkpt>
      <trkpt lat="46.65181385570365" lon="7.910724449728004">
      <ele>1969.5</ele></trkpt>
      <trkpt lat="46.65177543540013" lon="7.910720025203064">
      <ele>1969.4</ele></trkpt>
      <trkpt lat="46.651728636317685" lon="7.910720857411003">
      <ele>1969.2</ele></trkpt>
      <trkpt lat="46.65170255910428" lon="7.91072922540552">
      <ele>1967.8</ele></trkpt>
      <trkpt lat="46.65169461142669" lon="7.910738992808671">
      <ele>1966.3</ele></trkpt>
      <trkpt lat="46.65169115561866" lon="7.910754547401715">
      <ele>1964.9</ele></trkpt>
      <trkpt lat="46.65169385704286" lon="7.910799496462104">
      <ele>1963.5</ele></trkpt>
      <trkpt lat="46.651701772487286" lon="7.910819226228252">
      <ele>1962.0</ele></trkpt>
      <trkpt lat="46.65176578633204" lon="7.910879917040635">
      <ele>1960.6</ele></trkpt>
      <trkpt lat="46.65186681227383" lon="7.910967907743569">
      <ele>1959.2</ele></trkpt>
      <trkpt lat="46.651969105106396" lon="7.911095309641786">
      <ele>1957.7</ele></trkpt>
      <trkpt lat="46.65204619962567" lon="7.911216495463399">
      <ele>1956.3</ele></trkpt>
      <trkpt lat="46.65207126027079" lon="7.911255879340268">
      <ele>1954.8</ele></trkpt>
      <trkpt lat="46.65221891381581" lon="7.911464556159065">
      <ele>1953.4</ele></trkpt>
      <trkpt lat="46.65233957462894" lon="7.911639816089468">
      <ele>1952.0</ele></trkpt>
      <trkpt lat="46.6524928017691" lon="7.911881725651337">
      <ele>1950.5</ele></trkpt>
      <trkpt lat="46.65258937288659" lon="7.91201115777821">
      <ele>1949.1</ele></trkpt>
      <trkpt lat="46.65263470764406" lon="7.912098650944221">
      <ele>1947.7</ele></trkpt>
      <trkpt lat="46.652671495522895" lon="7.912179864073612">
      <ele>1946.2</ele></trkpt>
      <trkpt lat="46.65272403278456" lon="7.912252906788691">
      <ele>1944.8</ele></trkpt>
      <trkpt lat="46.652817820537486" lon="7.912363647568856">
      <ele>1943.4</ele></trkpt>
      <trkpt lat="46.65289871972355" lon="7.912484635328421">
      <ele>1941.9</ele></trkpt>
      <trkpt lat="46.65296688509127" lon="7.912576483925761">
      <ele>1940.5</ele></trkpt>
      <trkpt lat="46.65302092993878" lon="7.912630885478857">
      <ele>1939.2</ele></trkpt>
      <trkpt lat="46.65307351827749" lon="7.912689415607399">
      <ele>1937.9</ele></trkpt>
      <trkpt lat="46.65313049230493" lon="7.912725161741359">
      <ele>1936.6</ele></trkpt>
      <trkpt lat="46.65319183470892" lon="7.912742291045674">
      <ele>1935.3</ele></trkpt>
      <trkpt lat="46.653267426491425" lon="7.912763699732393">
      <ele>1934.0</ele></trkpt>
      <trkpt lat="46.653325856626495" lon="7.9127932404236">
      <ele>1932.7</ele></trkpt>
      <trkpt lat="46.6533684082208" lon="7.912864132889819">
      <ele>1931.4</ele></trkpt>
      <trkpt lat="46.653440716993856" lon="7.912989201565166">
      <ele>1930.1</ele></trkpt>
      <trkpt lat="46.65350723585735" lon="7.913132888144556">
      <ele>1928.8</ele></trkpt>
      <trkpt lat="46.65353969806671" lon="7.913224425037267">
      <ele>1927.5</ele></trkpt>
      <trkpt lat="46.65356641399439" lon="7.913326271300091">
      <ele>1926.1</ele></trkpt>
      <trkpt lat="46.653580223187745" lon="7.913438390129269">
      <ele>1924.8</ele></trkpt>
      <trkpt lat="46.65359691010769" lon="7.913546379959797">
      <ele>1923.5</ele></trkpt>
      <trkpt lat="46.653618016999815" lon="7.913621226171113">
      <ele>1922.2</ele></trkpt>
      <trkpt lat="46.653654873330794" lon="7.913687915256996">
      <ele>1920.9</ele></trkpt>
      <trkpt lat="46.65374007016637" lon="7.913804803381398">
      <ele>1919.6</ele></trkpt>
      <trkpt lat="46.65384508163973" lon="7.913963344503674">
      <ele>1918.3</ele></trkpt>
      <trkpt lat="46.65391317661013" lon="7.914071787327455">
      <ele>1917.0</ele></trkpt>
      <trkpt lat="46.65397555075037" lon="7.914182257269571">
      <ele>1915.7</ele></trkpt>
      <trkpt lat="46.65404121228997" lon="7.914285283741912">
      <ele>1914.4</ele></trkpt>
      <trkpt lat="46.65407798170327" lon="7.914372705774547">
      <ele>1914.2</ele></trkpt>
      <trkpt lat="46.65413043095433" lon="7.914466497578045">
      <ele>1914.0</ele></trkpt>
      <trkpt lat="46.65419074143691" lon="7.914556204406454">
      <ele>1913.8</ele></trkpt>
      <trkpt lat="46.65422477133197" lon="7.914614574216462">
      <ele>1913.6</ele></trkpt>
      <trkpt lat="46.65425808619807" lon="7.914673982933142">
      <ele>1913.4</ele></trkpt>
      <trkpt lat="46.654273007880214" lon="7.9146917379246595">
      <ele>1913.2</ele></trkpt>
      <trkpt lat="46.6542908070638" lon="7.914703299738751">
      <ele>1913.0</ele></trkpt>
      <trkpt lat="46.65433856647479" lon="7.914722389192103">
      <ele>1912.8</ele></trkpt>
      <trkpt lat="46.6543856022613" lon="7.914744581578251">
      <ele>1912.6</ele></trkpt>
      <trkpt lat="46.65441764276045" lon="7.914766641877479">
      <ele>1912.4</ele></trkpt>
      <trkpt lat="46.654447282528146" lon="7.914801353316771">
      <ele>1912.2</ele></trkpt>
      <trkpt lat="46.65445944065223" lon="7.914854004651137">
      <ele>1912.0</ele></trkpt>
      <trkpt lat="46.654464606640985" lon="7.91487064170935">
      <ele>1911.8</ele></trkpt>
      <trkpt lat="46.65446929303433" lon="7.914887953882282">
      <ele>1911.6</ele></trkpt>
      <trkpt lat="46.65447297673393" lon="7.914917028065149">
      <ele>1911.4</ele></trkpt>
      <trkpt lat="46.6544780531864" lon="7.914955089634791">
      <ele>1911.2</ele></trkpt>
      <trkpt lat="46.65448549314442" lon="7.914998018866208">
      <ele>1911.0</ele></trkpt>
      <trkpt lat="46.65449627005481" lon="7.915038900320214">
      <ele>1910.8</ele></trkpt>
      <trkpt lat="46.65450894528678" lon="7.915081875737247">
      <ele>1910.6</ele></trkpt>
      <trkpt lat="46.65454601127567" lon="7.915210101242618">
      <ele>1910.4</ele></trkpt>
      <trkpt lat="46.65457790287645" lon="7.915325831070754">
      <ele>1910.8</ele></trkpt>
      <trkpt lat="46.654602778942014" lon="7.915409008388614">
      <ele>1911.2</ele></trkpt>
      <trkpt lat="46.65461597128262" lon="7.915442307942947">
      <ele>1911.6</ele></trkpt>
      <trkpt lat="46.65463015731216" lon="7.91546385846739">
      <ele>1912.0</ele></trkpt>
      <trkpt lat="46.65465194534241" lon="7.915491707731277">
      <ele>1912.4</ele></trkpt>
      <trkpt lat="46.65468886099766" lon="7.915541808300994">
      <ele>1912.8</ele></trkpt>
      <trkpt lat="46.6547300992363" lon="7.915584343691415">
      <ele>1913.2</ele></trkpt>
      <trkpt lat="46.65476177085306" lon="7.915636475325861">
      <ele>1913.6</ele></trkpt>
      <trkpt lat="46.65480152674218" lon="7.915691434954842">
      <ele>1914.0</ele></trkpt>
      <trkpt lat="46.65483278266106" lon="7.9157311127846">
      <ele>1914.5</ele></trkpt>
      <trkpt lat="46.65487926193029" lon="7.915772309895235">
      <ele>1914.9</ele></trkpt>
      <trkpt lat="46.65492954617114" lon="7.915813553741306">
      <ele>1915.3</ele></trkpt>
      <trkpt lat="46.65496513016826" lon="7.915842204479694">
      <ele>1915.7</ele></trkpt>
      <trkpt lat="46.655011638032875" lon="7.915874413779682">
      <ele>1916.1</ele></trkpt>
      <trkpt lat="46.65507996304495" lon="7.915929639247569">
      <ele>1916.5</ele></trkpt>
      <trkpt lat="46.6551278838062" lon="7.91596600257415">
      <ele>1916.9</ele></trkpt>
      <trkpt lat="46.65518342357872" lon="7.916002446337046">
      <ele>1917.3</ele></trkpt>
      <trkpt lat="46.65522754241606" lon="7.916040174097769">
      <ele>1917.7</ele></trkpt>
      <trkpt lat="46.6552536350054" lon="7.916060445396109">
      <ele>1918.1</ele></trkpt>
      <trkpt lat="46.655277878760735" lon="7.9160689554864865">
      <ele>1918.5</ele></trkpt>
      <trkpt lat="46.6552935672747" lon="7.916073248579632">
      <ele>1918.7</ele></trkpt>
      <trkpt lat="46.6553092355421" lon="7.916082375325707">
      <ele>1919.0</ele></trkpt>
      <trkpt lat="46.65532628777781" lon="7.916102566794418">
      <ele>1919.2</ele></trkpt>
      <trkpt lat="46.65534096517783" lon="7.91612275035537">
      <ele>1919.5</ele></trkpt>
      <trkpt lat="46.655359915429244" lon="7.916142958621115">
      <ele>1919.7</ele></trkpt>
      <trkpt lat="46.65537649954682" lon="7.916161081812804">
      <ele>1920.0</ele></trkpt>
      <trkpt lat="46.655387854158256" lon="7.916177773971435">
      <ele>1920.2</ele></trkpt>
      <trkpt lat="46.655403476351374" lon="7.916200043169648">
      <ele>1920.5</ele></trkpt>
      <trkpt lat="46.65541672613365" lon="7.916217431444977">
      <ele>1920.7</ele></trkpt>
      <trkpt lat="46.655427618432924" lon="7.916230670531645">
      <ele>1921.0</ele></trkpt>
      <trkpt lat="46.65543899943643" lon="7.916243208463745">
      <ele>1921.2</ele></trkpt>
      <trkpt lat="46.65545325767991" lon="7.9162474889786045">
      <ele>1921.4</ele></trkpt>
      <trkpt lat="46.655495180970675" lon="7.916240256017697">
      <ele>1921.7</ele></trkpt>
      <trkpt lat="46.655531868663985" lon="7.916230899522233">
      <ele>1921.9</ele></trkpt>
      <trkpt lat="46.65554758937547" lon="7.916229653635629">
      <ele>1922.2</ele></trkpt>
      <trkpt lat="46.6555661207664" lon="7.91623603610924">
      <ele>1922.4</ele></trkpt>
      <trkpt lat="46.655578475184996" lon="7.916241684638795">
      <ele>1922.7</ele></trkpt>
      <trkpt lat="46.655588419829314" lon="7.916253517495434">
      <ele>1922.9</ele></trkpt>
      <trkpt lat="46.655605974791214" lon="7.916267507940636">
      <ele>1923.2</ele></trkpt>
      <trkpt lat="46.65562543972566" lon="7.916280809795958">
      <ele>1923.4</ele></trkpt>
      <trkpt lat="46.65564872125047" lon="7.916291388791548">
      <ele>1923.7</ele></trkpt>
      <trkpt lat="46.65567198832149" lon="7.916305416694268">
      <ele>1924.1</ele></trkpt>
      <trkpt lat="46.65569860393356" lon="7.916314640346229">
      <ele>1924.4</ele></trkpt>
      <trkpt lat="46.65573380373759" lon="7.916321170217652">
      <ele>1924.7</ele></trkpt>
      <trkpt lat="46.65576664582847" lon="7.916321460545968">
      <ele>1925.1</ele></trkpt>
      <trkpt lat="46.655803348271384" lon="7.916310732414036">
      <ele>1925.4</ele></trkpt>
      <trkpt lat="46.655840561994204" lon="7.916289622484025">
      <ele>1925.7</ele></trkpt>
      <trkpt lat="46.65586729959284" lon="7.916271882027431">
      <ele>1926.0</ele></trkpt>
      <trkpt lat="46.655889752145484" lon="7.916252731901088">
      <ele>1926.4</ele></trkpt>
      <trkpt lat="46.65590025171156" lon="7.916245913560392">
      <ele>1926.7</ele></trkpt>
      <trkpt lat="46.65591835010121" lon="7.9162439962641145">
      <ele>1927.0</ele></trkpt>
      <trkpt lat="46.65593832626025" lon="7.916246929449236">
      <ele>1927.4</ele></trkpt>
      <trkpt lat="46.65597159003715" lon="7.91626036641199">
      <ele>1927.7</ele></trkpt>
      <trkpt lat="46.65600295584438" lon="7.9162737735499995">
      <ele>1928.0</ele></trkpt>
      <trkpt lat="46.65603001054921" lon="7.916291989553904">
      <ele>1928.3</ele></trkpt>
      <trkpt lat="46.65606705649452" lon="7.916313063590804">
      <ele>1928.7</ele></trkpt>
      <trkpt lat="46.65610317475148" lon="7.916325820372588">
      <ele>1929.0</ele></trkpt>
      <trkpt lat="46.65615352547488" lon="7.916351153565158">
      <ele>1929.3</ele></trkpt>
      <trkpt lat="46.65619670229245" lon="7.916386104261103">
      <ele>1929.7</ele></trkpt>
      <trkpt lat="46.65623087323681" lon="7.916410602069025">
      <ele>1930.0</ele></trkpt>
      <trkpt lat="46.65627599734348" lon="7.916433811907727">
      <ele>1929.9</ele></trkpt>
      <trkpt lat="46.65630826700946" lon="7.916456921181531">
      <ele>1929.9</ele></trkpt>
      <trkpt lat="46.65632486268609" lon="7.916472275184655">
      <ele>1929.8</ele></trkpt>
      <trkpt lat="46.65634237128719" lon="7.916497318178996">
      <ele>1929.7</ele></trkpt>
      <trkpt lat="46.656361757927016" lon="7.916529289003204">
      <ele>1929.7</ele></trkpt>
      <trkpt lat="46.656405243045896" lon="7.916602260890524">
      <ele>1929.6</ele></trkpt>
      <trkpt lat="46.656435510346505" lon="7.916650227751701">
      <ele>1929.5</ele></trkpt>
      <trkpt lat="46.65648610576488" lon="7.916730879459907">
      <ele>1929.5</ele></trkpt>
      <trkpt lat="46.656513521197425" lon="7.916776743943473">
      <ele>1929.4</ele></trkpt>
      <trkpt lat="46.65654426227415" lon="7.916825407621179">
      <ele>1929.3</ele></trkpt>
      <trkpt lat="46.656571703703335" lon="7.91686506669546">
      <ele>1929.3</ele></trkpt>
      <trkpt lat="46.65661153732506" lon="7.91690136027896">
      <ele>1929.2</ele></trkpt>
      <trkpt lat="46.65663804555624" lon="7.91693616416777">
      <ele>1929.2</ele></trkpt>
      <trkpt lat="46.65666976326381" lon="7.916979310312395">
      <ele>1929.1</ele></trkpt>
      <trkpt lat="46.656690544938364" lon="7.917017512670286">
      <ele>1929.0</ele></trkpt>
      <trkpt lat="46.65674216615217" lon="7.91708088952284">
      <ele>1929.0</ele></trkpt>
      <trkpt lat="46.656778154028416" lon="7.917126830313348">
      <ele>1928.9</ele></trkpt>
      <trkpt lat="46.65678854917499" lon="7.917144899477481">
      <ele>1928.8</ele></trkpt>
      <trkpt lat="46.6567955609139" lon="7.9171760687733705">
      <ele>1928.8</ele></trkpt>
      <trkpt lat="46.6568040171133" lon="7.917201724474515">
      <ele>1928.7</ele></trkpt>
      <trkpt lat="46.65681485998638" lon="7.9172267088898955">
      <ele>1929.0</ele></trkpt>
      <trkpt lat="46.65682763016775" lon="7.917246876420983">
      <ele>1929.3</ele></trkpt>
      <trkpt lat="46.65685696107741" lon="7.917290694190878">
      <ele>1929.6</ele></trkpt>
      <trkpt lat="46.656877780392705" lon="7.917319908563889">
      <ele>1929.9</ele></trkpt>
      <trkpt lat="46.656893460134384" lon="7.91732627937136">
      <ele>1930.2</ele></trkpt>
      <trkpt lat="46.65690725935457" lon="7.917328465854554">
      <ele>1930.5</ele></trkpt>
      <trkpt lat="46.6569182212001" lon="7.917325113859572">
      <ele>1930.8</ele></trkpt>
      <trkpt lat="46.65692824407498" lon="7.917318291374027">
      <ele>1931.1</ele></trkpt>
      <trkpt lat="46.656952461618445" lon="7.917333020907039">
      <ele>1931.4</ele></trkpt>
      <trkpt lat="46.656977626853134" lon="7.917349143718874">
      <ele>1931.7</ele></trkpt>
      <trkpt lat="46.657015093940736" lon="7.917381275418652">
      <ele>1932.0</ele></trkpt>
      <trkpt lat="46.65704118074231" lon="7.917405010164365">
      <ele>1932.3</ele></trkpt>
      <trkpt lat="46.65705823268652" lon="7.917425215762096">
      <ele>1932.6</ele></trkpt>
      <trkpt lat="46.65707477308086" lon="7.917453699943064">
      <ele>1932.9</ele></trkpt>
      <trkpt lat="46.65708374372927" lon="7.917470371773951">
      <ele>1933.2</ele></trkpt>
      <trkpt lat="46.65709266498166" lon="7.917498801525172">
      <ele>1933.5</ele></trkpt>
      <trkpt lat="46.657095903526866" lon="7.9175223338673435">
      <ele>1933.8</ele></trkpt>
      <trkpt lat="46.65709435125021" lon="7.9175513632420245">
      <ele>1934.1</ele></trkpt>
      <trkpt lat="46.65708612790324" lon="7.917583782601402">
      <ele>1934.4</ele></trkpt>
      <trkpt lat="46.65707981129792" lon="7.917614141544495">
      <ele>1934.7</ele></trkpt>
      <trkpt lat="46.657077299724605" lon="7.917644534211498">
      <ele>1934.8</ele></trkpt>
      <trkpt lat="46.657078555675646" lon="7.9176860261899105">
      <ele>1935.0</ele></trkpt>
      <trkpt lat="46.65707984356818" lon="7.917719914720641">
      <ele>1935.1</ele></trkpt>
      <trkpt lat="46.657075363886676" lon="7.917764818025656">
      <ele>1935.2</ele></trkpt>
      <trkpt lat="46.657065553257894" lon="7.917834562550259">
      <ele>1935.3</ele></trkpt>
      <trkpt lat="46.65705241700523" lon="7.917901494744639">
      <ele>1935.5</ele></trkpt>
      <trkpt lat="46.65704655086692" lon="7.9179380895498355">
      <ele>1935.6</ele></trkpt>
      <trkpt lat="46.65704207718314" lon="7.917983685298785">
      <ele>1935.7</ele></trkpt>
      <trkpt lat="46.65703566745319" lon="7.918036162090328">
      <ele>1935.8</ele></trkpt>
      <trkpt lat="46.65702599623157" lon="7.918072723108363">
      <ele>1936.0</ele></trkpt>
      <trkpt lat="46.65702299613177" lon="7.918105881131901">
      <ele>1936.1</ele></trkpt>
      <trkpt lat="46.6570248042884" lon="7.918129400788233">
      <ele>1936.2</ele></trkpt>
      <trkpt lat="46.65702796391097" lon="7.918169524762364">
      <ele>1936.3</ele></trkpt>
      <trkpt lat="46.65702599900207" lon="7.918185407211551">
      <ele>1936.5</ele></trkpt>
      <trkpt lat="46.657022080263076" lon="7.918210260915162">
      <ele>1936.6</ele></trkpt>
      <trkpt lat="46.65701912402288" lon="7.918235123158112">
      <ele>1936.7</ele></trkpt>
      <trkpt lat="46.65701756573784" lon="7.9182655372901145">
      <ele>1936.8</ele></trkpt>
      <trkpt lat="46.65701885351305" lon="7.918299412732021">
      <ele>1937.0</ele></trkpt>
      <trkpt lat="46.65702665523112" lon="7.918367236149535">
      <ele>1937.1</ele></trkpt>
      <trkpt lat="46.657038384439716" lon="7.918408128664341">
      <ele>1937.2</ele></trkpt>
      <trkpt lat="46.65705678205954" lon="7.918448401039573">
      <ele>1937.3</ele></trkpt>
      <trkpt lat="46.657073330942296" lon="7.918474808302286">
      <ele>1937.4</ele></trkpt>
      <trkpt lat="46.65709228971446" lon="7.91849503118507">
      <ele>1937.5</ele></trkpt>
      <trkpt lat="46.65713736389368" lon="7.918530001058223">
      <ele>1937.7</ele></trkpt>
      <trkpt lat="46.65719050479382" lon="7.918571953949028">
      <ele>1937.8</ele></trkpt>
      <trkpt lat="46.657219454235644" lon="7.918590880775077">
      <ele>1937.9</ele></trkpt>
      <trkpt lat="46.65723656713953" lon="7.918596559219247">
      <ele>1938.0</ele></trkpt>
      <trkpt lat="46.657254642243295" lon="7.918600181963425">
      <ele>1938.1</ele></trkpt>
      <trkpt lat="46.657272711570926" lon="7.918605176471214">
      <ele>1938.2</ele></trkpt>
      <trkpt lat="46.657290301228414" lon="7.918610859160463">
      <ele>1938.3</ele></trkpt>
      <trkpt lat="46.657303129366454" lon="7.918617205061403">
      <ele>1938.5</ele></trkpt>
      <trkpt lat="46.657318782904554" lon="7.918629781887095">
      <ele>1938.6</ele></trkpt>
      <trkpt lat="46.657328703973775" lon="7.918647154872455">
      <ele>1938.7</ele></trkpt>
      <trkpt lat="46.65733526181953" lon="7.918672794195105">
      <ele>1938.8</ele></trkpt>
      <trkpt lat="46.65734414521957" lon="7.918712276847433">
      <ele>1938.9</ele></trkpt>
      <trkpt lat="46.65734681621693" lon="7.918755166511569">
      <ele>1939.0</ele></trkpt>
      <trkpt lat="46.6573485281564" lon="7.918801496791137">
      <ele>1939.2</ele></trkpt>
      <trkpt lat="46.65734934187977" lon="7.9188346888670615">
      <ele>1939.3</ele></trkpt>
      <trkpt lat="46.65734631822159" lon="7.918873386356383">
      <ele>1939.4</ele></trkpt>
      <trkpt lat="46.65734810293658" lon="7.918902432424683">
      <ele>1939.5</ele></trkpt>
      <trkpt lat="46.65735462868776" lon="7.918935675275098">
      <ele>1939.5</ele></trkpt>
      <trkpt lat="46.65736593334637" lon="7.918964126600841">
      <ele>1939.5</ele></trkpt>
      <trkpt lat="46.6573867201904" lon="7.919000945385889">
      <ele>1939.5</ele></trkpt>
      <trkpt lat="46.65740280667041" lon="7.919023912797183">
      <ele>1939.5</ele></trkpt>
      <trkpt lat="46.657428864002256" lon="7.919054559589497">
      <ele>1939.5</ele></trkpt>
      <trkpt lat="46.65744967702766" lon="7.919085159781408">
      <ele>1939.5</ele></trkpt>
      <trkpt lat="46.65746668786882" lon="7.9191150468111395">
      <ele>1939.5</ele></trkpt>
      <trkpt lat="46.65748647450876" lon="7.919162922826997">
      <ele>1939.5</ele></trkpt>
      <trkpt lat="46.657510060567574" lon="7.9192142948786">
      <ele>1939.5</ele></trkpt>
      <trkpt lat="46.657525185030124" lon="7.919241395436442">
      <ele>1939.5</ele></trkpt>
      <trkpt lat="46.6575654243943" lon="7.919292223255188">
      <ele>1939.4</ele></trkpt>
      <trkpt lat="46.657603306714485" lon="7.91934095285183">
      <ele>1939.4</ele></trkpt>
      <trkpt lat="46.657643087035815" lon="7.919389699403949">
      <ele>1939.4</ele></trkpt>
      <trkpt lat="46.65766964117685" lon="7.919413439557191">
      <ele>1939.4</ele></trkpt>
      <trkpt lat="46.65769149214412" lon="7.9194240075765645">
      <ele>1939.4</ele></trkpt>
      <trkpt lat="46.65771241319965" lon="7.919431105108286">
      <ele>1939.4</ele></trkpt>
      <trkpt lat="46.65773999666592" lon="7.919436877039086">
      <ele>1939.4</ele></trkpt>
      <trkpt lat="46.65777328342685" lon="7.919444777060568">
      <ele>1939.4</ele></trkpt>
      <trkpt lat="46.657789931160416" lon="7.919447694978154">
      <ele>1939.4</ele></trkpt>
      <trkpt lat="46.65780751493389" lon="7.919454762835258">
      <ele>1939.4</ele></trkpt>
      <trkpt lat="46.65783593232115" lon="7.919488893297935">
      <ele>1939.3</ele></trkpt>
      <trkpt lat="46.65786573035754" lon="7.919534794606698">
      <ele>1939.2</ele></trkpt>
      <trkpt lat="46.65788609565692" lon="7.91955847984619">
      <ele>1939.1</ele></trkpt>
      <trkpt lat="46.65791552776165" lon="7.919578104188989">
      <ele>1939.0</ele></trkpt>
      <trkpt lat="46.65794498615647" lon="7.919591496760997">
      <ele>1938.9</ele></trkpt>
      <trkpt lat="46.657959729790235" lon="7.919593705337022">
      <ele>1938.8</ele></trkpt>
      <trkpt lat="46.657979235179354" lon="7.919597328129651">
      <ele>1938.7</ele></trkpt>
      <trkpt lat="46.65799488563179" lon="7.9196106108832645">
      <ele>1938.6</ele></trkpt>
      <trkpt lat="46.65801620150207" lon="7.919634997118217">
      <ele>1938.5</ele></trkpt>
      <trkpt lat="46.65804704345831" lon="7.919659468176402">
      <ele>1938.5</ele></trkpt>
      <trkpt lat="46.65806697598153" lon="7.919674853367762">
      <ele>1938.4</ele></trkpt>
      <trkpt lat="46.658082652723216" lon="7.919681904357396">
      <ele>1938.3</ele></trkpt>
      <trkpt lat="46.65809883830619" lon="7.919681356003734">
      <ele>1938.2</ele></trkpt>
      <trkpt lat="46.658117430981655" lon="7.91967530254792">
      <ele>1938.1</ele></trkpt>
      <trkpt lat="46.65813602342727" lon="7.9196671717364335">
      <ele>1938.0</ele></trkpt>
      <trkpt lat="46.65815987185736" lon="7.919656317909329">
      <ele>1937.9</ele></trkpt>
      <trkpt lat="46.65818800494657" lon="7.9196448228295555">
      <ele>1937.8</ele></trkpt>
      <trkpt lat="46.6582218443027" lon="7.919634750370777">
      <ele>1937.7</ele></trkpt>
      <trkpt lat="46.65823946014824" lon="7.919634214733589">
      <ele>1937.6</ele></trkpt>
      <trkpt lat="46.6582604395143" lon="7.919627490040142">
      <ele>1937.5</ele></trkpt>
      <trkpt lat="46.65829765378902" lon="7.91960639449931">
      <ele>1937.2</ele></trkpt>
      <trkpt lat="46.65831720873346" lon="7.919598272204445">
      <ele>1936.8</ele></trkpt>
      <trkpt lat="46.65833625753231" lon="7.919594979499934">
      <ele>1936.5</ele></trkpt>
      <trkpt lat="46.6583552890329" lon="7.919597918712646">
      <ele>1936.1</ele></trkpt>
      <trkpt lat="46.6583705007109" lon="7.919602195766675">
      <ele>1935.8</ele></trkpt>
      <trkpt lat="46.65838664567679" lon="7.919613405660761">
      <ele>1935.4</ele></trkpt>
      <trkpt lat="46.65840605745032" lon="7.919637082670156">
      <ele>1935.0</ele></trkpt>
      <trkpt lat="46.65842925701127" lon="7.919667012433916">
      <ele>1934.7</ele></trkpt>
      <trkpt lat="46.65846572638397" lon="7.91971158883479">
      <ele>1934.3</ele></trkpt>
      <trkpt lat="46.65849792248511" lon="7.919751972519474">
      <ele>1934.0</ele></trkpt>
      <trkpt lat="46.65852206091112" lon="7.9197853730177235">
      <ele>1933.7</ele></trkpt>
      <trkpt lat="46.65854195232583" lon="7.9198083619648365">
      <ele>1933.3</ele></trkpt>
      <trkpt lat="46.65855661152826" lon="7.919832702308761">
      <ele>1933.0</ele></trkpt>
      <trkpt lat="46.65858728686797" lon="7.919894499517501">
      <ele>1932.6</ele></trkpt>
      <trkpt lat="46.65860620743604" lon="7.919923711987892">
      <ele>1932.2</ele></trkpt>
      <trkpt lat="46.65862894478541" lon="7.919950175588206">
      <ele>1931.9</ele></trkpt>
      <trkpt lat="46.65868159378265" lon="7.919995588940697">
      <ele>1931.5</ele></trkpt>
      <trkpt lat="46.658732376627775" lon="7.920031304416093">
      <ele>1931.2</ele></trkpt>
      <trkpt lat="46.65879315915944" lon="7.920065724139004">
      <ele>1930.8</ele></trkpt>
      <trkpt lat="46.658853447655396" lon="7.92010635860331">
      <ele>1930.5</ele></trkpt>
      <trkpt lat="46.65888665258537" lon="7.920133621205348">
      <ele>1930.6</ele></trkpt>
      <trkpt lat="46.65892456351689" lon="7.920173363927855">
      <ele>1930.8</ele></trkpt>
      <trkpt lat="46.658984328470076" lon="7.920225060251277">
      <ele>1930.9</ele></trkpt>
      <trkpt lat="46.65901182131543" lon="7.9202522720783275">
      <ele>1931.1</ele></trkpt>
      <trkpt lat="46.6590487524201" lon="7.920298225330707">
      <ele>1931.2</ele></trkpt>
      <trkpt lat="46.659108014282076" lon="7.920356136521769">
      <ele>1931.3</ele></trkpt>
      <trkpt lat="46.65913404762521" lon="7.9203902470264245">
      <ele>1931.5</ele></trkpt>
      <trkpt lat="46.6591705225662" lon="7.920433439622956">
      <ele>1931.6</ele></trkpt>
      <trkpt lat="46.65921030826913" lon="7.920480803518369">
      <ele>1931.8</ele></trkpt>
      <trkpt lat="46.65925573001047" lon="7.9205461956877805">
      <ele>1931.9</ele></trkpt>
      <trkpt lat="46.659284164577286" lon="7.920576186073455">
      <ele>1932.0</ele></trkpt>
      <trkpt lat="46.65931113677951" lon="7.920613754429839">
      <ele>1932.2</ele></trkpt>
      <trkpt lat="46.65934429772387" lon="7.920651391098151">
      <ele>1932.3</ele></trkpt>
      <trkpt lat="46.65939933899449" lon="7.920694749682813">
      <ele>1932.5</ele></trkpt>
      <trkpt lat="46.65943397410021" lon="7.920722012618053">
      <ele>1932.6</ele></trkpt>
      <trkpt lat="46.659451042968705" lon="7.920738078578901">
      <ele>1932.7</ele></trkpt>
      <trkpt lat="46.659476146117484" lon="7.920766641448576">
      <ele>1932.9</ele></trkpt>
      <trkpt lat="46.65950786529677" lon="7.920809099666942">
      <ele>1933.0</ele></trkpt>
      <trkpt lat="46.65954770052719" lon="7.920844718753648">
      <ele>1933.2</ele></trkpt>
      <trkpt lat="46.65957280945228" lon="7.920871909904668">
      <ele>1933.3</ele></trkpt>
      <trkpt lat="46.65959553193262" lon="7.920901836589645">
      <ele>1933.4</ele></trkpt>
      <trkpt lat="46.659619678808504" lon="7.920933160951964">
      <ele>1933.6</ele></trkpt>
      <trkpt lat="46.65963718935472" lon="7.920957514476017">
      <ele>1933.7</ele></trkpt>
      <trkpt lat="46.659647095417874" lon="7.92097835084967">
      <ele>1933.8</ele></trkpt>
      <trkpt lat="46.65965555682488" lon="7.921004701023408">
      <ele>1934.0</ele></trkpt>
      <trkpt lat="46.65967021562109" lon="7.9210269517181855">
      <ele>1934.1</ele></trkpt>
      <trkpt lat="46.65969057788144" lon="7.92105340816608">
      <ele>1934.2</ele></trkpt>
      <trkpt lat="46.659698600353956" lon="7.921068688000705">
      <ele>1934.3</ele></trkpt>
      <trkpt lat="46.659708494729685" lon="7.92109228112897">
      <ele>1934.5</ele></trkpt>
      <trkpt lat="46.65971316279498" lon="7.921115827597378">
      <ele>1934.6</ele></trkpt>
      <trkpt lat="46.65971974327313" lon="7.921133864451684">
      <ele>1934.7</ele></trkpt>
      <trkpt lat="46.65973485555256" lon="7.92116373643206">
      <ele>1934.9</ele></trkpt>
      <trkpt lat="46.659749502592966" lon="7.921188756980211">
      <ele>1935.0</ele></trkpt>
      <trkpt lat="46.65976322563402" lon="7.921208921994168">
      <ele>1935.1</ele></trkpt>
      <trkpt lat="46.659769797504225" lon="7.921231113624803">
      <ele>1935.2</ele></trkpt>
      <trkpt lat="46.65977769704607" lon="7.92127542392759">
      <ele>1935.4</ele></trkpt>
      <trkpt lat="46.659786152520525" lon="7.921303159101239">
      <ele>1935.5</ele></trkpt>
      <trkpt lat="46.65979511380798" lon="7.921321909742774">
      <ele>1935.6</ele></trkpt>
      <trkpt lat="46.65980553760787" lon="7.921333056271992">
      <ele>1935.8</ele></trkpt>
      <trkpt lat="46.65981964658856" lon="7.921374665276422">
      <ele>1935.9</ele></trkpt>
      <trkpt lat="46.65983190707706" lon="7.921402434484632">
      <ele>1936.1</ele></trkpt>
      <trkpt lat="46.65984889683395" lon="7.921437157616211">
      <ele>1936.3</ele></trkpt>
      <trkpt lat="46.659863540881354" lon="7.92146287073713">
      <ele>1936.5</ele></trkpt>
      <trkpt lat="46.65988058922481" lon="7.921483758052078">
      <ele>1936.7</ele></trkpt>
      <trkpt lat="46.6598957158821" lon="7.92150809056886">
      <ele>1936.9</ele></trkpt>
      <trkpt lat="46.65991228179209" lon="7.921532435962359">
      <ele>1937.0</ele></trkpt>
      <trkpt lat="46.65992884451297" lon="7.921555409462081">
      <ele>1937.2</ele></trkpt>
      <trkpt lat="46.65994629049723" lon="7.9215949710286555">
      <ele>1937.4</ele></trkpt>
      <trkpt lat="46.65996045482095" lon="7.921621372424091">
      <ele>1937.6</ele></trkpt>
      <trkpt lat="46.659979854687904" lon="7.921649884991224">
      <ele>1937.8</ele></trkpt>
      <trkpt lat="46.659997815234476" lon="7.921678397776906">
      <ele>1938.0</ele></trkpt>
      <trkpt lat="46.66003102584646" lon="7.921706354450982">
      <ele>1938.2</ele></trkpt>
      <trkpt lat="46.660049030395825" lon="7.921724480559504">
      <ele>1938.4</ele></trkpt>
      <trkpt lat="46.66006419822169" lon="7.921741209432745">
      <ele>1938.6</ele></trkpt>
      <trkpt lat="46.66008271188132" lon="7.921753826448474">
      <ele>1938.8</ele></trkpt>
      <trkpt lat="46.66009742324489" lon="7.921763639573827">
      <ele>1938.9</ele></trkpt>
      <trkpt lat="46.66011596624928" lon="7.921769332114457">
      <ele>1939.1</ele></trkpt>
      <trkpt lat="46.660144014606985" lon="7.921777879556586">
      <ele>1939.3</ele></trkpt>
      <trkpt lat="46.660175400052246" lon="7.9217843794196945">
      <ele>1939.5</ele></trkpt>
      <trkpt lat="46.66021962832015" lon="7.921795841468602">
      <ele>1939.7</ele></trkpt>
      <trkpt lat="46.66024099937301" lon="7.92180709913764">
      <ele>1939.7</ele></trkpt>
      <trkpt lat="46.660261876115804" lon="7.92182249419256">
      <ele>1939.8</ele></trkpt>
      <trkpt lat="46.66027989545662" lon="7.921839248660494">
      <ele>1939.8</ele></trkpt>
      <trkpt lat="46.660299315760284" lon="7.9218629273798">
      <ele>1939.8</ele></trkpt>
      <trkpt lat="46.660325884002276" lon="7.921883220722236">
      <ele>1939.8</ele></trkpt>
      <trkpt lat="46.66037237570578" lon="7.921920965052176">
      <ele>1939.9</ele></trkpt>
      <trkpt lat="46.66040083926626" lon="7.921944032254367">
      <ele>1939.9</ele></trkpt>
      <trkpt lat="46.660416477754126" lon="7.921960073029526">
      <ele>1939.9</ele></trkpt>
      <trkpt lat="46.66043158669294" lon="7.9219885606395355">
      <ele>1939.9</ele></trkpt>
      <trkpt lat="46.66044808777127" lon="7.9220260498887916">
      <ele>1940.0</ele></trkpt>
      <trkpt lat="46.660459377028914" lon="7.922057952692206">
      <ele>1940.0</ele></trkpt>
      <trkpt lat="46.66046544566057" lon="7.92208634639759">
      <ele>1940.0</ele></trkpt>
      <trkpt lat="46.66047147610632" lon="7.92212374200602">
      <ele>1940.0</ele></trkpt>
      <trkpt lat="46.66047852460761" lon="7.922145925240033">
      <ele>1940.0</ele></trkpt>
      <trkpt lat="46.660487980132714" lon="7.92216052580531">
      <ele>1940.1</ele></trkpt>
      <trkpt lat="46.660501255507924" lon="7.922173788665745">
      <ele>1940.1</ele></trkpt>
      <trkpt lat="46.66051598152092" lon="7.922180139710731">
      <ele>1940.1</ele></trkpt>
      <trkpt lat="46.66053784709665" lon="7.9221893245774835">
      <ele>1940.2</ele></trkpt>
      <trkpt lat="46.66055589845501" lon="7.9221963978726535">
      <ele>1940.2</ele></trkpt>
      <trkpt lat="46.660584394215526" lon="7.922211861358107">
      <ele>1940.2</ele></trkpt>
      <trkpt lat="46.66060576247213" lon="7.9222258891694635">
      <ele>1940.1</ele></trkpt>
      <trkpt lat="46.6606237993786" lon="7.922238489145345">
      <ele>1940.1</ele></trkpt>
      <trkpt lat="46.660640388395386" lon="7.922255231062307">
      <ele>1940.0</ele></trkpt>
      <trkpt lat="46.66066450533688" lon="7.922291403747149">
      <ele>1939.9</ele></trkpt>
      <trkpt lat="46.660684849729236" lon="7.922322002831125">
      <ele>1939.9</ele></trkpt>
      <trkpt lat="46.660707583524385" lon="7.92234917398073">
      <ele>1939.8</ele></trkpt>
      <trkpt lat="46.660722733447386" lon="7.922367980523164">
      <ele>1939.7</ele></trkpt>
      <trkpt lat="46.66073365147329" lon="7.9223749900375715">
      <ele>1939.7</ele></trkpt>
      <trkpt lat="46.66075317434463" lon="7.922374472342483">
      <ele>1939.6</ele></trkpt>
      <trkpt lat="46.66078746429954" lon="7.922370624436932">
      <ele>1939.6</ele></trkpt>
      <trkpt lat="46.66080269050698" lon="7.922371453240276">
      <ele>1939.5</ele></trkpt>
      <trkpt lat="46.66081264327067" lon="7.922381224060737">
      <ele>1939.4</ele></trkpt>
      <trkpt lat="46.66082211358229" lon="7.922394452987173">
      <ele>1939.4</ele></trkpt>
      <trkpt lat="46.660838731961775" lon="7.922404270430649">
      <ele>1939.3</ele></trkpt>
      <trkpt lat="46.660850609315325" lon="7.92240991665329">
      <ele>1939.2</ele></trkpt>
      <trkpt lat="46.66089677956321" lon="7.922411022532093">
      <ele>1939.2</ele></trkpt>
      <trkpt lat="46.66093153158005" lon="7.922410641205565">
      <ele>1939.1</ele></trkpt>
      <trkpt lat="46.66097053605769" lon="7.922417209750823">
      <ele>1939.0</ele></trkpt>
      <trkpt lat="46.661009075479974" lon="7.922421017260182">
      <ele>1939.0</ele></trkpt>
      <trkpt lat="46.661029528405344" lon="7.922426034737165">
      <ele>1938.9</ele></trkpt>
      <trkpt lat="46.6610537450463" lon="7.922438703279525">
      <ele>1938.6</ele></trkpt>
      <trkpt lat="46.66109171700911" lon="7.922465998052147">
      <ele>1938.3</ele></trkpt>
      <trkpt lat="46.6611083294486" lon="7.922477213555415">
      <ele>1938.1</ele></trkpt>
      <trkpt lat="46.66113340864462" lon="7.922511317805732">
      <ele>1937.8</ele></trkpt>
      <trkpt lat="46.66115568327593" lon="7.92253433021671">
      <ele>1937.5</ele></trkpt>
      <trkpt lat="46.66118557109382" lon="7.922558795811998">
      <ele>1937.2</ele></trkpt>
      <trkpt lat="46.66121065632095" lon="7.922593592692597">
      <ele>1936.9</ele></trkpt>
      <trkpt lat="46.6612480485293" lon="7.922643016003996">
      <ele>1936.7</ele></trkpt>
      <trkpt lat="46.66128503753236" lon="7.922677227116172">
      <ele>1936.4</ele></trkpt>
      <trkpt lat="46.66131968092443" lon="7.922702427946023">
      <ele>1936.1</ele></trkpt>
      <trkpt lat="46.661341993687685" lon="7.922716451539196">
      <ele>1935.8</ele></trkpt>
      <trkpt lat="46.661366651818575" lon="7.922737421071536">
      <ele>1935.5</ele></trkpt>
      <trkpt lat="46.66138984467844" lon="7.92276873873731">
      <ele>1935.3</ele></trkpt>
      <trkpt lat="46.6614186849364" lon="7.922815328795467">
      <ele>1935.0</ele></trkpt>
      <trkpt lat="46.661444261545135" lon="7.922846667887847">
      <ele>1934.7</ele></trkpt>
      <trkpt lat="46.66146276319916" lon="7.922859964924888">
      <ele>1934.4</ele></trkpt>
      <trkpt lat="46.66148273341213" lon="7.922866376335899">
      <ele>1934.1</ele></trkpt>
      <trkpt lat="46.66151126432145" lon="7.922873543902906">
      <ele>1933.9</ele></trkpt>
      <trkpt lat="46.66155638120987" lon="7.922898146342923">
      <ele>1933.6</ele></trkpt>
      <trkpt lat="46.661595300460164" lon="7.922924770755854">
      <ele>1933.3</ele></trkpt>
      <trkpt lat="46.66162659791764" lon="7.922954083799796">
      <ele>1933.6</ele></trkpt>
      <trkpt lat="46.661666411931606" lon="7.922994540081486">
      <ele>1934.0</ele></trkpt>
      <trkpt lat="46.66169863622964" lon="7.923028016487716">
      <ele>1934.3</ele></trkpt>
      <trkpt lat="46.66175079546311" lon="7.923076201024993">
      <ele>1934.6</ele></trkpt>
      <trkpt lat="46.66177779326623" lon="7.923107553177608">
      <ele>1935.0</ele></trkpt>
      <trkpt lat="46.66179388779759" lon="7.9231284332013905">
      <ele>1935.3</ele></trkpt>
      <trkpt lat="46.661803302214224" lon="7.9231547933095845">
      <ele>1935.6</ele></trkpt>
      <trkpt lat="46.661813231419906" lon="7.923170091155699">
      <ele>1936.0</ele></trkpt>
      <trkpt lat="46.66185210651025" lon="7.923207089894011">
      <ele>1936.3</ele></trkpt>
      <trkpt lat="46.66188907479213" lon="7.923246136011293">
      <ele>1936.7</ele></trkpt>
      <trkpt lat="46.66190989840475" lon="7.923273983521764">
      <ele>1937.0</ele></trkpt>
      <trkpt lat="46.661925012901406" lon="7.923301087342433">
      <ele>1937.3</ele></trkpt>
      <trkpt lat="46.66193063974307" lon="7.923321181079577">
      <ele>1937.7</ele></trkpt>
      <trkpt lat="46.66193382414285" lon="7.923357167313231">
      <ele>1938.0</ele></trkpt>
      <trkpt lat="46.66193462770565" lon="7.923392439691564">
      <ele>1938.3</ele></trkpt>
      <trkpt lat="46.66193725582412" lon="7.923445001712362">
      <ele>1938.7</ele></trkpt>
      <trkpt lat="46.66193566380912" lon="7.923483022592237">
      <ele>1939.0</ele></trkpt>
      <trkpt lat="46.661935531496816" lon="7.923514131582779">
      <ele>1939.3</ele></trkpt>
      <trkpt lat="46.66194163499935" lon="7.92353424269027">
      <ele>1939.7</ele></trkpt>
      <trkpt lat="46.66195534878641" lon="7.923556486535806">
      <ele>1940.0</ele></trkpt>
      <trkpt lat="46.661983794338" lon="7.923583710112918">
      <ele>1940.1</ele></trkpt>
      <trkpt lat="46.66203125055099" lon="7.923616631293759">
      <ele>1940.2</ele></trkpt>
      <trkpt lat="46.66207497836149" lon="7.923633617683802">
      <ele>1940.3</ele></trkpt>
      <trkpt lat="46.662100186673364" lon="7.923637293404998">
      <ele>1940.4</ele></trkpt>
      <trkpt lat="46.66211876187677" lon="7.923635395710046">
      <ele>1940.5</ele></trkpt>
      <trkpt lat="46.66214496504276" lon="7.923631475916169">
      <ele>1940.6</ele></trkpt>
      <trkpt lat="46.66217306322774" lon="7.923628278696841">
      <ele>1940.7</ele></trkpt>
      <trkpt lat="46.662197809460025" lon="7.923628500830071">
      <ele>1940.8</ele></trkpt>
      <trkpt lat="46.66222396849109" lon="7.923634955101087">
      <ele>1940.9</ele></trkpt>
      <trkpt lat="46.6622553332581" lon="7.923646290562323">
      <ele>1941.0</ele></trkpt>
      <trkpt lat="46.662300058496044" lon="7.92365084707205">
      <ele>1941.0</ele></trkpt>
      <trkpt lat="46.662337641631254" lon="7.923657403920362">
      <ele>1941.1</ele></trkpt>
      <trkpt lat="46.662384709446826" lon="7.923671663472372">
      <ele>1941.2</ele></trkpt>
      <trkpt lat="46.662410847750024" lon="7.923680874553668">
      <ele>1941.3</ele></trkpt>
      <trkpt lat="46.66243271004325" lon="7.92368868837754">
      <ele>1941.4</ele></trkpt>
      <trkpt lat="46.66245887790961" lon="7.923693065268809">
      <ele>1941.5</ele></trkpt>
      <trkpt lat="46.662472650327636" lon="7.92369940839764">
      <ele>1941.6</ele></trkpt>
      <trkpt lat="46.6625267633815" lon="7.923736544784114">
      <ele>1941.7</ele></trkpt>
      <trkpt lat="46.66257037625768" lon="7.923778421443761">
      <ele>1941.8</ele></trkpt>
      <trkpt lat="46.66261926577529" lon="7.9238127410395895">
      <ele>1941.9</ele></trkpt>
      <trkpt lat="46.66264868524946" lon="7.923833048754223">
      <ele>1941.8</ele></trkpt>
      <trkpt lat="46.66268186001225" lon="7.923869304840753">
      <ele>1941.8</ele></trkpt>
      <trkpt lat="46.66273112015206" lon="7.9239264415147765">
      <ele>1941.7</ele></trkpt>
      <trkpt lat="46.662770933817384" lon="7.9239668993401535">
      <ele>1941.6</ele></trkpt>
      <trkpt lat="46.66282498188056" lon="7.924017167176718">
      <ele>1941.6</ele></trkpt>
      <trkpt lat="46.66286861833536" lon="7.924055595019608">
      <ele>1941.5</ele></trkpt>
      <trkpt lat="46.66289277003113" lon="7.924083473251547">
      <ele>1941.4</ele></trkpt>
      <trkpt lat="46.66292301947799" lon="7.924134899422553">
      <ele>1941.4</ele></trkpt>
      <trkpt lat="46.66295143250292" lon="7.9241697280639665">
      <ele>1941.3</ele></trkpt>
      <trkpt lat="46.6629679858956" lon="7.924194768055208">
      <ele>1941.2</ele></trkpt>
      <trkpt lat="46.662992487842494" lon="7.924254452849537">
      <ele>1941.2</ele></trkpt>
      <trkpt lat="46.663005215586026" lon="7.924284293019521">
      <ele>1941.1</ele></trkpt>
      <trkpt lat="46.663026954154404" lon="7.9243211393319335">
      <ele>1941.1</ele></trkpt>
      <trkpt lat="46.663051559135475" lon="7.924356626417317">
      <ele>1941.0</ele></trkpt>
      <trkpt lat="46.66307797377183" lon="7.924412866008502">
      <ele>1940.9</ele></trkpt>
      <trkpt lat="46.66310292860724" lon="7.924476017665388">
      <ele>1940.9</ele></trkpt>
      <trkpt lat="46.66313839251424" lon="7.924532338752049">
      <ele>1940.8</ele></trkpt>
      <trkpt lat="46.66316391557215" lon="7.9245761313724365">
      <ele>1940.7</ele></trkpt>
      <trkpt lat="46.663181363455514" lon="7.9246150037952345">
      <ele>1940.7</ele></trkpt>
      <trkpt lat="46.66320578544023" lon="7.9246912825272835">
      <ele>1940.6</ele></trkpt>
      <trkpt lat="46.66323164958396" lon="7.924766881789462">
      <ele>1940.8</ele></trkpt>
      <trkpt lat="46.663251889978" lon="7.924819603631821">
      <ele>1940.9</ele></trkpt>
      <trkpt lat="46.6632802231598" lon="7.924873103928563">
      <ele>1941.1</ele></trkpt>
      <trkpt lat="46.66330384793221" lon="7.9249148021916165">
      <ele>1941.3</ele></trkpt>
      <trkpt lat="46.663316098748645" lon="7.9249446383978785">
      <ele>1941.4</ele></trkpt>
      <trkpt lat="46.66332650446683" lon="7.924959941292708">
      <ele>1941.6</ele></trkpt>
      <trkpt lat="46.6633473807229" lon="7.924975351511076">
      <ele>1941.8</ele></trkpt>
      <trkpt lat="46.66335733935824" lon="7.924985802777024">
      <ele>1942.0</ele></trkpt>
      <trkpt lat="46.66336772143604" lon="7.925006645615884">
      <ele>1942.1</ele></trkpt>
      <trkpt lat="46.66337946888325" lon="7.925042710002513">
      <ele>1942.3</ele></trkpt>
      <trkpt lat="46.66339601032035" lon="7.9250705073574">
      <ele>1942.5</ele></trkpt>
      <trkpt lat="46.66340639829238" lon="7.925089965245328">
      <ele>1942.6</ele></trkpt>
      <trkpt lat="46.66342251604268" lon="7.925105319624982">
      <ele>1942.8</ele></trkpt>
      <trkpt lat="46.663449107341386" lon="7.925120075802416">
      <ele>1943.0</ele></trkpt>
      <trkpt lat="46.66347851784484" lon="7.925144539573698">
      <ele>1943.2</ele></trkpt>
      <trkpt lat="46.663554922189036" lon="7.925200550741319">
      <ele>1943.3</ele></trkpt>
      <trkpt lat="46.663588614464786" lon="7.9252250531672">
      <ele>1943.5</ele></trkpt>
      <trkpt lat="46.663622330326056" lon="7.92524402873905">
      <ele>1943.7</ele></trkpt>
      <trkpt lat="46.66364130857872" lon="7.925259408990442">
      <ele>1943.8</ele></trkpt>
      <trkpt lat="46.663653588809495" lon="7.925282333585121">
      <ele>1944.0</ele></trkpt>
      <trkpt lat="46.66366635447551" lon="7.925301120503416">
      <ele>1944.1</ele></trkpt>
      <trkpt lat="46.663680100379096" lon="7.9253157611335405">
      <ele>1944.3</ele></trkpt>
      <trkpt lat="46.66370195374489" lon="7.925325640221124">
      <ele>1944.4</ele></trkpt>
      <trkpt lat="46.66371713563781" lon="7.92533684426134">
      <ele>1944.5</ele></trkpt>
      <trkpt lat="46.66373186750972" lon="7.925343889122861">
      <ele>1944.7</ele></trkpt>
      <trkpt lat="46.663756086959246" lon="7.925357931612928">
      <ele>1944.8</ele></trkpt>
      <trkpt lat="46.66377454698002" lon="7.925380911953563">
      <ele>1944.9</ele></trkpt>
      <trkpt lat="46.66379205065656" lon="7.925406653784119">
      <ele>1945.0</ele></trkpt>
      <trkpt lat="46.6638038422759" lon="7.925432344165155">
      <ele>1945.2</ele></trkpt>
      <trkpt lat="46.66381323255692" lon="7.925464232559477">
      <ele>1945.3</ele></trkpt>
      <trkpt lat="46.663822216759215" lon="7.925477458384041">
      <ele>1945.4</ele></trkpt>
      <trkpt lat="46.66384593879273" lon="7.925496331071997">
      <ele>1945.6</ele></trkpt>
      <trkpt lat="46.663871061331236" lon="7.925520077129324">
      <ele>1945.7</ele></trkpt>
      <trkpt lat="46.66389143733004" lon="7.925543074841692">
      <ele>1945.8</ele></trkpt>
      <trkpt lat="46.66391037702492" lon="7.925565367102473">
      <ele>1945.9</ele></trkpt>
      <trkpt lat="46.66392650956579" lon="7.925579349918883">
      <ele>1946.1</ele></trkpt>
      <trkpt lat="46.66394502272903" lon="7.9255898785110475">
      <ele>1946.2</ele></trkpt>
      <trkpt lat="46.663963482823924" lon="7.925614936586864">
      <ele>1946.3</ele></trkpt>
      <trkpt lat="46.66398714276747" lon="7.925648338786179">
      <ele>1946.5</ele></trkpt>
      <trkpt lat="46.66401694718438" lon="7.925692171221988">
      <ele>1946.6</ele></trkpt>
      <trkpt lat="46.66407902235889" lon="7.925758416294489">
      <ele>1946.5</ele></trkpt>
      <trkpt lat="46.664116913558225" lon="7.925802321784499">
      <ele>1946.5</ele></trkpt>
      <trkpt lat="46.66414681546429" lon="7.9258233280262935">
      <ele>1946.4</ele></trkpt>
      <trkpt lat="46.6641909693203" lon="7.925850003034587">
      <ele>1946.4</ele></trkpt>
      <trkpt lat="46.6642332251498" lon="7.925876660969378">
      <ele>1946.3</ele></trkpt>
      <trkpt lat="46.66427459246859" lon="7.925888101431577">
      <ele>1946.2</ele></trkpt>
      <trkpt lat="46.66430213717183" lon="7.925902866826626">
      <ele>1946.2</ele></trkpt>
      <trkpt lat="46.66434720313211" lon="7.925939232553437">
      <ele>1946.1</ele></trkpt>
      <trkpt lat="46.66438136904054" lon="7.925964432603125">
      <ele>1946.1</ele></trkpt>
      <trkpt lat="46.664407942520064" lon="7.925983331422198">
      <ele>1946.0</ele></trkpt>
      <trkpt lat="46.66442214732664" lon="7.926002131751671">
      <ele>1945.9</ele></trkpt>
      <trkpt lat="46.66443628699556" lon="7.926034063457345">
      <ele>1945.9</ele></trkpt>
      <trkpt lat="46.66445563245688" lon="7.926075045051214">
      <ele>1945.8</ele></trkpt>
      <trkpt lat="46.66447687894046" lon="7.926115338229228">
      <ele>1945.8</ele></trkpt>
      <trkpt lat="46.66450052694697" lon="7.926151497919022">
      <ele>1945.7</ele></trkpt>
      <trkpt lat="46.66453271186616" lon="7.92619396746888">
      <ele>1945.6</ele></trkpt>
      <trkpt lat="46.66457151499358" lon="7.92624756425534">
      <ele>1945.6</ele></trkpt>
      <trkpt lat="46.66461937038525" lon="7.926300550294504">
      <ele>1945.5</ele></trkpt>
      <trkpt lat="46.66464850750009" lon="7.926342600514082">
      <ele>1945.5</ele></trkpt>
      <trkpt lat="46.66467117822478" lon="7.9263842918676675">
      <ele>1945.4</ele></trkpt>
      <trkpt lat="46.66468535042915" lon="7.926410696909015">
      <ele>1945.9</ele></trkpt>
      <trkpt lat="46.66470902199049" lon="7.926441329872511">
      <ele>1946.4</ele></trkpt>
      <trkpt lat="46.66473654587879" lon="7.926460943224523">
      <ele>1946.8</ele></trkpt>
      <trkpt lat="46.664772624612795" lon="7.9264847759887465">
      <ele>1947.3</ele></trkpt>
      <trkpt lat="46.66480391802255" lon="7.92651272078627">
      <ele>1947.8</ele></trkpt>
      <trkpt lat="46.664837029695725" lon="7.926561418918529">
      <ele>1948.2</ele></trkpt>
      <trkpt lat="46.66487857186257" lon="7.926643382745902">
      <ele>1948.7</ele></trkpt>
      <trkpt lat="46.664921099933615" lon="7.926715673153243">
      <ele>1949.2</ele></trkpt>
      <trkpt lat="46.664943782325366" lon="7.926754607897402">
      <ele>1949.7</ele></trkpt>
      <trkpt lat="46.66500256115978" lon="7.926813220693587">
      <ele>1950.2</ele></trkpt>
      <trkpt lat="46.66504526984682" lon="7.926845411119743">
      <ele>1950.6</ele></trkpt>
      <trkpt lat="46.66510686462622" lon="7.926912346982367">
      <ele>1951.1</ele></trkpt>
      <trkpt lat="46.66515042304624" lon="7.926966667312637">
      <ele>1951.6</ele></trkpt>
      <trkpt lat="46.665183564134146" lon="7.9270084539645795">
      <ele>1952.1</ele></trkpt>
      <trkpt lat="46.66521003084373" lon="7.927054335574809">
      <ele>1952.5</ele></trkpt>
      <trkpt lat="46.66524503436997" lon="7.9271044365947">
      <ele>1953.0</ele></trkpt>
      <trkpt lat="46.66526207573773" lon="7.927126712800058">
      <ele>1953.5</ele></trkpt>
      <trkpt lat="46.665280964823616" lon="7.927162843495868">
      <ele>1954.0</ele></trkpt>
      <trkpt lat="46.665299942814876" lon="7.927178224893546">
      <ele>1954.4</ele></trkpt>
      <trkpt lat="46.66532460605244" lon="7.927197812967639">
      <ele>1954.9</ele></trkpt>
      <trkpt lat="46.665338772187944" lon="7.927225590506838">
      <ele>1955.4</ele></trkpt>
      <trkpt lat="46.66535478291127" lon="7.9272658505127005">
      <ele>1955.8</ele></trkpt>
      <trkpt lat="46.66537549296302" lon="7.927319964707972">
      <ele>1956.3</ele></trkpt>
      <trkpt lat="46.66539903382381" lon="7.9273810299865834">
      <ele>1956.7</ele></trkpt>
      <trkpt lat="46.665427404396745" lon="7.927425531034339">
      <ele>1957.2</ele></trkpt>
      <trkpt lat="46.66548043525692" lon="7.927492390544068">
      <ele>1957.6</ele></trkpt>
      <trkpt lat="46.6655012103674" lon="7.927531308760403">
      <ele>1958.1</ele></trkpt>
      <trkpt lat="46.665518162666245" lon="7.927574334612684">
      <ele>1958.5</ele></trkpt>
      <trkpt lat="46.6655436934613" lon="7.92761605304443">
      <ele>1959.0</ele></trkpt>
      <trkpt lat="46.66557304709834" lon="7.927653650845169">
      <ele>1959.5</ele></trkpt>
      <trkpt lat="46.66560617605043" lon="7.927698208321879">
      <ele>1959.9</ele></trkpt>
      <trkpt lat="46.66562987691686" lon="7.927721930244031">
      <ele>1960.4</ele></trkpt>
      <trkpt lat="46.6656469062794" lon="7.9277469768813535">
      <ele>1960.8</ele></trkpt>
      <trkpt lat="46.6656572641372" lon="7.927773348225791">
      <ele>1961.3</ele></trkpt>
      <trkpt lat="46.665664758632516" lon="7.927802450774861">
      <ele>1961.7</ele></trkpt>
      <trkpt lat="46.665670340106395" lon="7.927832934170551">
      <ele>1962.2</ele></trkpt>
      <trkpt lat="46.66568353169703" lon="7.9278634734185935">
      <ele>1962.6</ele></trkpt>
      <trkpt lat="46.6657043750582" lon="7.92788855466482">
      <ele>1963.1</ele></trkpt>
      <trkpt lat="46.665727062992154" lon="7.927926105424697">
      <ele>1963.5</ele></trkpt>
      <trkpt lat="46.66574314474679" lon="7.927949758493751">
      <ele>1964.0</ele></trkpt>
      <trkpt lat="46.66575630069263" lon="7.927988594997107">
      <ele>1964.7</ele></trkpt>
      <trkpt lat="46.66578091939001" lon="7.928020622939103">
      <ele>1965.3</ele></trkpt>
      <trkpt lat="46.66579887252168" lon="7.928052590527317">
      <ele>1966.0</ele></trkpt>
      <trkpt lat="46.66583192412622" lon="7.928115127873263">
      <ele>1966.7</ele></trkpt>
      <trkpt lat="46.66585462387923" lon="7.928149908727846">
      <ele>1967.4</ele></trkpt>
      <trkpt lat="46.665875422554095" lon="7.928183287286428">
      <ele>1968.0</ele></trkpt>
      <trkpt lat="46.665896313369075" lon="7.928197301446961">
      <ele>1968.7</ele></trkpt>
      <trkpt lat="46.665919167512975" lon="7.92819612344317">
      <ele>1969.4</ele></trkpt>
      <trkpt lat="46.665933377826796" lon="7.9282114621825235">
      <ele>1970.1</ele></trkpt>
      <trkpt lat="46.66596747785574" lon="7.928251886864168">
      <ele>1970.8</ele></trkpt>
      <trkpt lat="46.66599111328443" lon="7.928290818582956">
      <ele>1971.4</ele></trkpt>
      <trkpt lat="46.66599764819105" lon="7.928321297789291">
      <ele>1972.1</ele></trkpt>
      <trkpt lat="46.66600996636159" lon="7.928335247397767">
      <ele>1972.8</ele></trkpt>
      <trkpt lat="46.666029906553575" lon="7.928346482829424">
      <ele>1973.5</ele></trkpt>
      <trkpt lat="46.66604604760354" lon="7.928356311795223">
      <ele>1974.1</ele></trkpt>
      <trkpt lat="46.666058472747736" lon="7.928345356662204">
      <ele>1974.8</ele></trkpt>
      <trkpt lat="46.66607382963353" lon="7.928317846050608">
      <ele>1975.5</ele></trkpt>
      <trkpt lat="46.66608819437877" lon="7.9282972258192785">
      <ele>1976.2</ele></trkpt>
      <trkpt lat="46.66610352446842" lon="7.9282738571834575">
      <ele>1976.8</ele></trkpt>
      <trkpt lat="46.666114004054315" lon="7.928273952160988">
      <ele>1977.5</ele></trkpt>
      <trkpt lat="46.66612818467021" lon="7.928296203167203">
      <ele>1978.1</ele></trkpt>
      <trkpt lat="46.666142344531984" lon="7.928325379526028">
      <ele>1978.8</ele></trkpt>
      <trkpt lat="46.666160232244934" lon="7.928372556872014">
      <ele>1979.4</ele></trkpt>
      <trkpt lat="46.66617523561523" lon="7.928425248527087">
      <ele>1980.0</ele></trkpt>
      <trkpt lat="46.66618453286325" lon="7.928476503367956">
      <ele>1980.6</ele></trkpt>
      <trkpt lat="46.66619777487865" lon="7.92849736083897">
      <ele>1981.2</ele></trkpt>
      <trkpt lat="46.666224309249955" lon="7.928525264390158">
      <ele>1981.9</ele></trkpt>
      <trkpt lat="46.66624708018661" lon="7.928543451148424">
      <ele>1982.5</ele></trkpt>
      <trkpt lat="46.666284022874656" lon="7.928588031249374">
      <ele>1983.1</ele></trkpt>
      <trkpt lat="46.666307699744316" lon="7.928617294083931">
      <ele>1983.8</ele></trkpt>
      <trkpt lat="46.666325137198456" lon="7.928633158863395">
      <ele>1984.4</ele></trkpt>
      <trkpt lat="46.6663377854736" lon="7.928674944509737">
      <ele>1985.0</ele></trkpt>
      <trkpt lat="46.66635443307041" lon="7.928717602748557">
      <ele>1985.6</ele></trkpt>
      <trkpt lat="46.66636272523792" lon="7.9287536124660996">
      <ele>1986.2</ele></trkpt>
      <trkpt lat="46.666390758886784" lon="7.928828231633838">
      <ele>1986.9</ele></trkpt>
      <trkpt lat="46.66641585118982" lon="7.928886046027641">
      <ele>1987.5</ele></trkpt>
      <trkpt lat="46.666437359077" lon="7.928934354291657">
      <ele>1988.1</ele></trkpt>
      <trkpt lat="46.66646071497367" lon="7.928977570125988">
      <ele>1988.8</ele></trkpt>
      <trkpt lat="46.66648011156913" lon="7.928995961735922">
      <ele>1989.4</ele></trkpt>
      <trkpt lat="46.66649593625759" lon="7.929001946372785">
      <ele>1990.0</ele></trkpt>
      <trkpt lat="46.6665186018435" lon="7.929000688582012">
      <ele>1990.5</ele></trkpt>
      <trkpt lat="46.66653858533993" lon="7.9289913832266325">
      <ele>1991.1</ele></trkpt>
      <trkpt lat="46.666562736912915" lon="7.928964631864135">
      <ele>1991.7</ele></trkpt>
      <trkpt lat="46.66658465300665" lon="7.928930568723662">
      <ele>1992.2</ele></trkpt>
      <trkpt lat="46.66659888159897" lon="7.928893521820083">
      <ele>1992.8</ele></trkpt>
      <trkpt lat="46.666607727158485" lon="7.928844757087576">
      <ele>1993.3</ele></trkpt>
      <trkpt lat="46.66661342200662" lon="7.928792318018441">
      <ele>1993.8</ele></trkpt>
      <trkpt lat="46.66661913559156" lon="7.928735514679817">
      <ele>1994.4</ele></trkpt>
      <trkpt lat="46.666622981988446" lon="7.928690350292803">
      <ele>1995.0</ele></trkpt>
      <trkpt lat="46.666629841568636" lon="7.928678756613847">
      <ele>1995.5</ele></trkpt>
      <trkpt lat="46.66663528419676" lon="7.928676610700112">
      <ele>1996.0</ele></trkpt>
      <trkpt lat="46.66665110542864" lon="7.928685496138469">
      <ele>1996.6</ele></trkpt>
      <trkpt lat="46.66667136711951" lon="7.92871191879417">
      <ele>1997.2</ele></trkpt>
      <trkpt lat="46.66670153964356" lon="7.928749368601476">
      <ele>1997.7</ele></trkpt>
      <trkpt lat="46.66672583543059" lon="7.928785314676129">
      <ele>1998.2</ele></trkpt>
      <trkpt lat="46.66674965997128" lon="7.928824157422067">
      <ele>1998.8</ele></trkpt>
      <trkpt lat="46.666767164300225" lon="7.928860028869321">
      <ele>1999.3</ele></trkpt>
      <trkpt lat="46.66677695998952" lon="7.928893648165358">
      <ele>1999.9</ele></trkpt>
      <trkpt lat="46.666782664651834" lon="7.9289330713808885">
      <ele>2000.5</ele></trkpt>
      <trkpt lat="46.66678566568199" lon="7.928967360794156">
      <ele>2001.0</ele></trkpt>
      <trkpt lat="46.66679452105858" lon="7.929010445302426">
      <ele>2001.6</ele></trkpt>
      <trkpt lat="46.66681011501609" lon="7.929063796477184">
      <ele>2002.2</ele></trkpt>
      <trkpt lat="46.666820806192206" lon="7.929102533242575">
      <ele>2002.8</ele></trkpt>
      <trkpt lat="46.66682830990877" lon="7.929141959779768">
      <ele>2003.4</ele></trkpt>
      <trkpt lat="46.66682814766074" lon="7.929175488748533">
      <ele>2004.0</ele></trkpt>
      <trkpt lat="46.66682701766789" lon="7.9292206779412515">
      <ele>2004.6</ele></trkpt>
      <trkpt lat="46.66683450520381" lon="7.92926594539306">
      <ele>2005.2</ele></trkpt>
      <trkpt lat="46.66684373847946" lon="7.9293236164249725">
      <ele>2005.8</ele></trkpt>
      <trkpt lat="46.666846577080605" lon="7.9293914348782835">
      <ele>2006.4</ele></trkpt>
      <trkpt lat="46.66685737484705" lon="7.929499415849719">
      <ele>2007.0</ele></trkpt>
      <trkpt lat="46.66686378553092" lon="7.9295774722826975">
      <ele>2007.6</ele></trkpt>
      <trkpt lat="46.666873040193245" lon="7.929632229606172">
      <ele>2008.2</ele></trkpt>
      <trkpt lat="46.666886360727915" lon="7.929687023904947">
      <ele>2008.8</ele></trkpt>
      <trkpt lat="46.66690276598413" lon="7.929760793743188">
      <ele>2009.4</ele></trkpt>
      <trkpt lat="46.66690667844812" lon="7.929794359802707">
      <ele>2010.0</ele></trkpt>
      <trkpt lat="46.666899790439146" lon="7.929812525953911">
      <ele>2010.6</ele></trkpt>
      <trkpt lat="46.66688391908173" lon="7.9298152956454215">
      <ele>2011.2</ele></trkpt>
      <trkpt lat="46.666862645887925" lon="7.929810737785952">
      <ele>2011.8</ele></trkpt>
      <trkpt lat="46.66683726060152" lon="7.929812689214548">
      <ele>2012.4</ele></trkpt>
      <trkpt lat="46.66682133937883" lon="7.929824945237829">
      <ele>2013.0</ele></trkpt>
      <trkpt lat="46.66681309621958" lon="7.929842367271901">
      <ele>2013.4</ele></trkpt>
      <trkpt lat="46.66681018616038" lon="7.929880980520306">
      <ele>2013.9</ele></trkpt>
      <trkpt lat="46.666814051517136" lon="7.929925470282116">
      <ele>2014.3</ele></trkpt>
      <trkpt lat="46.66682427108022" lon="7.929967116920583">
      <ele>2014.8</ele></trkpt>
      <trkpt lat="46.666834078591975" lon="7.930000004799928">
      <ele>2015.2</ele></trkpt>
      <trkpt lat="46.66684981257236" lon="7.9300249363982305">
      <ele>2015.7</ele></trkpt>
      <trkpt lat="46.66686914340039" lon="7.930056460469558">
      <ele>2016.1</ele></trkpt>
      <trkpt lat="46.66689344823767" lon="7.93009021203679">
      <ele>2016.6</ele></trkpt>
      <trkpt lat="46.66692584319908" lon="7.9301378754279215">
      <ele>2017.0</ele></trkpt>
      <trkpt lat="46.66695373586285" lon="7.9301782194623">
      <ele>2017.5</ele></trkpt>
      <trkpt lat="46.66697440607256" lon="7.930214133361702">
      <ele>2017.9</ele></trkpt>
      <trkpt lat="46.666990074498216" lon="7.9302521709356775">
      <ele>2018.3</ele></trkpt>
      <trkpt lat="46.6670119686859" lon="7.930315066827025">
      <ele>2018.8</ele></trkpt>
      <trkpt lat="46.66703119299821" lon="7.930369183408402">
      <ele>2019.2</ele></trkpt>
      <trkpt lat="46.66705539171364" lon="7.930423345310804">
      <ele>2019.7</ele></trkpt>
      <trkpt lat="46.66707007194327" lon="7.930523613378057">
      <ele>2020.1</ele></trkpt>
      <trkpt lat="46.66709400887151" lon="7.930600902070458">
      <ele>2020.6</ele></trkpt>
      <trkpt lat="46.667107897715496" lon="7.930678151585265">
      <ele>2021.0</ele></trkpt>
      <trkpt lat="46.667133300838685" lon="7.930803371465847">
      <ele>2021.5</ele></trkpt>
      <trkpt lat="46.66715031501573" lon="7.93093387260765">
      <ele>2021.9</ele></trkpt>
      <trkpt lat="46.667163139615276" lon="7.931061696053571">
      <ele>2022.1</ele></trkpt>
      <trkpt lat="46.66716855883473" lon="7.9311628601156725">
      <ele>2022.3</ele></trkpt>
      <trkpt lat="46.66716747248709" lon="7.931222750654304">
      <ele>2022.5</ele></trkpt>
      <trkpt lat="46.66715628317683" lon="7.931293225033348">
      <ele>2022.7</ele></trkpt>
      <trkpt lat="46.667149315086036" lon="7.931394393728066">
      <ele>2022.9</ele></trkpt>
      <trkpt lat="46.6671165492739" lon="7.931567915758766">
      <ele>2023.0</ele></trkpt>
      <trkpt lat="46.66710003327091" lon="7.931630305021217">
      <ele>2023.2</ele></trkpt>
      <trkpt lat="46.667092059587794" lon="7.931739278618401">
      <ele>2023.4</ele></trkpt>
      <trkpt lat="46.6670767411575" lon="7.9318117797293235">
      <ele>2023.6</ele></trkpt>
      <trkpt lat="46.667051584644724" lon="7.931864812231162">
      <ele>2023.8</ele></trkpt>
      <trkpt lat="46.6669916823931" lon="7.932020706397733">
      <ele>2024.0</ele></trkpt>
      <trkpt lat="46.66697722234461" lon="7.932083976596279">
      <ele>2024.2</ele></trkpt>
      <trkpt lat="46.666949337256" lon="7.93216466035371">
      <ele>2024.4</ele></trkpt>
      <trkpt lat="46.666923262939214" lon="7.9322156326274245">
      <ele>2024.6</ele></trkpt>
      <trkpt lat="46.66686281968006" lon="7.9323093864908145">
      <ele>2024.8</ele></trkpt>
      <trkpt lat="46.666811048718706" lon="7.932330317488196">
      <ele>2024.9</ele></trkpt>
      <trkpt lat="46.6667526297972" lon="7.93234712379648">
      <ele>2025.1</ele></trkpt>
      <trkpt lat="46.666661813828256" lon="7.932341890231127">
      <ele>2025.3</ele></trkpt>
      <trkpt lat="46.66661010176208" lon="7.932353374106065">
      <ele>2025.5</ele></trkpt>
      <trkpt lat="46.666538524762615" lon="7.9323321784484015">
      <ele>2025.7</ele></trkpt>
      <trkpt lat="46.6664426988885" lon="7.932330936885307">
      <ele>2025.9</ele></trkpt>
      <trkpt lat="46.666359194128425" lon="7.932363625555023">
      <ele>2026.0</ele></trkpt>
      <trkpt lat="46.66631668018041" lon="7.9323657589735825">
      <ele>2026.2</ele></trkpt>
      <trkpt lat="46.66629946523334" lon="7.932363027433861">
      <ele>2026.4</ele></trkpt>
      <trkpt lat="46.6662828020616" lon="7.932355439986949">
      <ele>2026.5</ele></trkpt>
      <trkpt lat="46.66625248643821" lon="7.93234715283025">
      <ele>2026.7</ele></trkpt>
      <trkpt lat="46.66620626199405" lon="7.932348193917534">
      <ele>2026.9</ele></trkpt>
      <trkpt lat="46.66616319763189" lon="7.9323507143235155">
      <ele>2027.0</ele></trkpt>
      <trkpt lat="46.666136460283695" lon="7.932351201736476">
      <ele>2027.2</ele></trkpt>
      <trkpt lat="46.66611467161588" lon="7.932359757531322">
      <ele>2027.3</ele></trkpt>
      <trkpt lat="46.66607472625333" lon="7.9323732435265475">
      <ele>2027.5</ele></trkpt>
      <trkpt lat="46.66603799410507" lon="7.932378017035185">
      <ele>2027.7</ele></trkpt>
      <trkpt lat="46.66601024450076" lon="7.932400369353993">
      <ele>2027.8</ele></trkpt>
      <trkpt lat="46.66598256704399" lon="7.93240813953568">
      <ele>2028.0</ele></trkpt>
      <trkpt lat="46.66592859255433" lon="7.932418583299606">
      <ele>2028.2</ele></trkpt>
      <trkpt lat="46.6658841698352" lon="7.932421104288445">
      <ele>2028.3</ele></trkpt>
      <trkpt lat="46.66584742195143" lon="7.932429510221234">
      <ele>2028.5</ele></trkpt>
      <trkpt lat="46.665819719194396" lon="7.932443121065404">
      <ele>2028.7</ele></trkpt>
      <trkpt lat="46.66579384668689" lon="7.932451626378294">
      <ele>2028.8</ele></trkpt>
      <trkpt lat="46.66577210538222" lon="7.93244924547372">
      <ele>2029.0</ele></trkpt>
      <trkpt lat="46.66575085758978" lon="7.932438845977483">
      <ele>2029.3</ele></trkpt>
      <trkpt lat="46.665725126165185" lon="7.932418931978422">
      <ele>2029.7</ele></trkpt>
      <trkpt lat="46.665658329074844" lon="7.932365844706627">
      <ele>2030.0</ele></trkpt>
      <trkpt lat="46.665609215735515" lon="7.932327710899931">
      <ele>2030.4</ele></trkpt>
      <trkpt lat="46.66558495794178" lon="7.9323144092588525">
      <ele>2030.7</ele></trkpt>
      <trkpt lat="46.66556153268892" lon="7.9323207417201225">
      <ele>2031.0</ele></trkpt>
      <trkpt lat="46.665485872509464" lon="7.932330503849341">
      <ele>2031.4</ele></trkpt>
      <trkpt lat="46.66540571793397" lon="7.932341544633342">
      <ele>2031.7</ele></trkpt>
      <trkpt lat="46.66533726868588" lon="7.932350065917471">
      <ele>2032.1</ele></trkpt>
      <trkpt lat="46.66526119336183" lon="7.9323559825242">
      <ele>2032.4</ele></trkpt>
      <trkpt lat="46.66518756401225" lon="7.932387022807333">
      <ele>2032.7</ele></trkpt>
      <trkpt lat="46.66503799383242" lon="7.932401231470073">
      <ele>2033.1</ele></trkpt>
      <trkpt lat="46.66497936930059" lon="7.9324177347356715">
      <ele>2033.4</ele></trkpt>
      <trkpt lat="46.66488469946611" lon="7.93241127692816">
      <ele>2033.8</ele></trkpt>
      <trkpt lat="46.6648012201838" lon="7.93240692062521">
      <ele>2034.1</ele></trkpt>
      <trkpt lat="46.66477747157478" lon="7.93243183086084">
      <ele>2034.4</ele></trkpt>
      <trkpt lat="46.664738592066506" lon="7.932504531431517">
      <ele>2034.8</ele></trkpt>
      <trkpt lat="46.6646760451157" lon="7.93257923685454">
      <ele>2035.1</ele></trkpt>
      <trkpt lat="46.66462853882774" lon="7.932626979353616">
      <ele>2035.5</ele></trkpt>
      <trkpt lat="46.66456986923499" lon="7.932658025029996">
      <ele>2035.8</ele></trkpt>
      <trkpt lat="46.664472626426445" lon="7.932676526732379">
      <ele>2035.8</ele></trkpt>
      <trkpt lat="46.664392880263684" lon="7.932676346306838">
      <ele>2035.8</ele></trkpt>
      <trkpt lat="46.66436933039361" lon="7.932671988843877">
      <ele>2035.8</ele></trkpt>
      <trkpt lat="46.664341946509126" lon="7.932655601182749">
      <ele>2035.8</ele></trkpt>
      <trkpt lat="46.664309563298985" lon="7.932622076717491">
      <ele>2035.8</ele></trkpt>
      <trkpt lat="46.66426853445304" lon="7.932594954275648">
      <ele>2035.8</ele></trkpt>
      <trkpt lat="46.664222512999636" lon="7.932571980602142">
      <ele>2035.8</ele></trkpt>
      <trkpt lat="46.664168926102825" lon="7.932573934140076">
      <ele>2035.8</ele></trkpt>
      <trkpt lat="46.66412401985446" lon="7.932588393327141">
      <ele>2035.8</ele></trkpt>
      <trkpt lat="46.66408061675228" lon="7.9326151095827395">
      <ele>2035.8</ele></trkpt>
      <trkpt lat="46.66407220364134" lon="7.932640512412939">
      <ele>2035.9</ele></trkpt>
      <trkpt lat="46.664080905858455" lon="7.9326791774801215">
      <ele>2035.9</ele></trkpt>
      <trkpt lat="46.664109140825815" lon="7.932756567505864">
      <ele>2035.9</ele></trkpt>
      <trkpt lat="46.66414364105421" lon="7.932851641707976">
      <ele>2035.9</ele></trkpt>
      <trkpt lat="46.664175274215346" lon="7.932910835146711">
      <ele>2035.9</ele></trkpt>
      <trkpt lat="46.66419234674079" lon="7.933025245416013">
      <ele>2035.9</ele></trkpt>
      <trkpt lat="46.66419682481665" lon="7.933174990088724">
      <ele>2035.9</ele></trkpt>
      <trkpt lat="46.6642078347233" lon="7.93323739228798">
      <ele>2035.9</ele></trkpt>
      <trkpt lat="46.664201374944675" lon="7.9333060110507585">
      <ele>2035.9</ele></trkpt>
      <trkpt lat="46.66418874441847" lon="7.933357965682109">
      <ele>2035.9</ele></trkpt>
      <trkpt lat="46.66418092581168" lon="7.933459839441436">
      <ele>2034.6</ele></trkpt>
      <trkpt lat="46.664140731978065" lon="7.93355332839508">
      <ele>2033.4</ele></trkpt>
      <trkpt lat="46.66412185829006" lon="7.933609433144834">
      <ele>2032.1</ele></trkpt>
      <trkpt lat="46.66412041796595" lon="7.933669748221288">
      <ele>2030.9</ele></trkpt>
      <trkpt lat="46.66410152617648" lon="7.933730007906129">
      <ele>2029.6</ele></trkpt>
      <trkpt lat="46.66409759416115" lon="7.933788209473663">
      <ele>2028.4</ele></trkpt>
      <trkpt lat="46.6640544920652" lon="7.934008547453648">
      <ele>2027.1</ele></trkpt>
      <trkpt lat="46.66403681436991" lon="7.9340750508174285">
      <ele>2025.9</ele></trkpt>
      <trkpt lat="46.66402009725428" lon="7.934233054781168">
      <ele>2024.6</ele></trkpt>
      <trkpt lat="46.66399233451192" lon="7.934336966425458">
      <ele>2023.3</ele></trkpt>
      <trkpt lat="46.66397717545769" lon="7.934399324499204">
      <ele>2022.1</ele></trkpt>
      <trkpt lat="46.663981851021774" lon="7.934492910616821">
      <ele>2020.8</ele></trkpt>
      <trkpt lat="46.663953933962645" lon="7.934644644077393">
      <ele>2019.6</ele></trkpt>
      <trkpt lat="46.66390236741854" lon="7.934785942195221">
      <ele>2018.3</ele></trkpt>
      <trkpt lat="46.66387185845174" lon="7.934966776689349">
      <ele>2017.1</ele></trkpt>
      <trkpt lat="46.66386781681689" lon="7.93505620583559">
      <ele>2015.8</ele></trkpt>
      <trkpt lat="46.663834724820504" lon="7.935264077013406">
      <ele>2014.6</ele></trkpt>
      <trkpt lat="46.663834958109646" lon="7.93556767893961">
      <ele>2013.3</ele></trkpt>
      <trkpt lat="46.6637507336366" lon="7.9357879104562175">
      <ele>2012.1</ele></trkpt>
      <trkpt lat="46.663726566161806" lon="7.935935495860601">
      <ele>2010.8</ele></trkpt>
      <trkpt lat="46.66369252662149" lon="7.93605297660142">
      <ele>2011.6</ele></trkpt>
      <trkpt lat="46.663686530884036" lon="7.936247794435662">
      <ele>2012.5</ele></trkpt>
      <trkpt lat="46.66366648305071" lon="7.936417996236464">
      <ele>2013.3</ele></trkpt>
      <trkpt lat="46.66367579056074" lon="7.936564948863382">
      <ele>2014.2</ele></trkpt>
      <trkpt lat="46.66365615453891" lon="7.936727262181858">
      <ele>2015.0</ele></trkpt>
      <trkpt lat="46.66362150327373" lon="7.936881610116834">
      <ele>2015.8</ele></trkpt>
      <trkpt lat="46.66359541599232" lon="7.937079103806997">
      <ele>2016.7</ele></trkpt>
      <trkpt lat="46.66355205336285" lon="7.937217691251863">
      <ele>2017.5</ele></trkpt>
      <trkpt lat="46.66355929855559" lon="7.93727650473812">
      <ele>2018.4</ele></trkpt>
      <trkpt lat="46.663558755996675" lon="7.937386140063625">
      <ele>2019.2</ele></trkpt>
      <trkpt lat="46.663538402171746" lon="7.937438805821196">
      <ele>2020.0</ele></trkpt>
      <trkpt lat="46.66352176639243" lon="7.937505212534794">
      <ele>2020.9</ele></trkpt>
      <trkpt lat="46.66353749739192" lon="7.937620891032932">
      <ele>2021.7</ele></trkpt>
      <trkpt lat="46.66353557472695" lon="7.937755966941438">
      <ele>2022.6</ele></trkpt>
      <trkpt lat="46.66354358520022" lon="7.937772040771465">
      <ele>2023.4</ele></trkpt>
      <trkpt lat="46.66354358520022" lon="7.937772040771465">
      <ele>2024.2</ele></trkpt>
      <trkpt lat="46.66355421202301" lon="7.937793365346031">
      <ele>2025.1</ele></trkpt>
      <trkpt lat="46.663673556338054" lon="7.937769119046361">
      <ele>2025.9</ele></trkpt>
      <trkpt lat="46.663809980426784" lon="7.937807213808764">
      <ele>2026.8</ele></trkpt>
      <trkpt lat="46.66415049368874" lon="7.937793151228228">
      <ele>2027.6</ele></trkpt>
      <trkpt lat="46.664236334776504" lon="7.937773743373752">
      <ele>2036.8</ele></trkpt>
      <trkpt lat="46.66433305495119" lon="7.937778243321677">
      <ele>2046.0</ele></trkpt>
      <trkpt lat="46.664447977020984" lon="7.9378106911181145">
      <ele>2055.2</ele></trkpt>
      <trkpt lat="46.66455060370592" lon="7.937853008372396">
      <ele>2064.4</ele></trkpt>
      <trkpt lat="46.664694089834995" lon="7.938032720738426">
      <ele>2073.6</ele></trkpt>
      <trkpt lat="46.66475629125041" lon="7.93807879398526">
      <ele>2082.7</ele></trkpt>
      <trkpt lat="46.66480030764124" lon="7.9380889747971315">
      <ele>2091.9</ele></trkpt>
      <trkpt lat="46.66485544044711" lon="7.938085303121572">
      <ele>2101.1</ele></trkpt>
      <trkpt lat="46.66521438918883" lon="7.937757553928815">
      <ele>2110.3</ele></trkpt>
      <trkpt lat="46.66557333697779" lon="7.937429800380632">
      <ele>2119.5</ele></trkpt>
      <trkpt lat="46.66580567660539" lon="7.937091811093053">
      <ele>2128.7</ele></trkpt>
      <trkpt lat="46.666038015226526" lon="7.936753818898158">
      <ele>2137.9</ele></trkpt>
      <trkpt lat="46.666209812460195" lon="7.9363074758043375">
      <ele>2147.1</ele></trkpt>
      <trkpt lat="46.666318624291804" lon="7.935934806527538">
      <ele>2156.3</ele></trkpt>
      <trkpt lat="46.66651119740634" lon="7.935639555390817">
      <ele>2165.4</ele></trkpt>
      <trkpt lat="46.666693175578" lon="7.93550469449992">
      <ele>2174.6</ele></trkpt>
      <trkpt lat="46.6669442844238" lon="7.935399213639288">
      <ele>2183.8</ele></trkpt>
      <trkpt lat="46.66696268444245" lon="7.935339498275405">
      <ele>2193.0</ele></trkpt>
      <trkpt lat="46.66691861154771" lon="7.935236091927115">
      <ele>2202.2</ele></trkpt>
      <trkpt lat="46.66678588132267" lon="7.9350432440038565">
      <ele>2211.4</ele></trkpt>
      <trkpt lat="46.66657517175159" lon="7.9349598655971505">
      <ele>2202.0</ele></trkpt>
      <trkpt lat="46.66639524890948" lon="7.935001328876889">
      <ele>2192.6</ele></trkpt>
      <trkpt lat="46.66619779628853" lon="7.935092333971539">
      <ele>2183.2</ele></trkpt>
      <trkpt lat="46.66619779628853" lon="7.935092333971539">
      <ele>2173.9</ele></trkpt>
      <trkpt lat="46.66639524890948" lon="7.935001328876889">
      <ele>2164.5</ele></trkpt>
      <trkpt lat="46.66657517175159" lon="7.9349598655971505">
      <ele>2155.1</ele></trkpt>
      <trkpt lat="46.66678588132267" lon="7.9350432440038565">
      <ele>2145.7</ele></trkpt>
      <trkpt lat="46.66691861154771" lon="7.935236091927115">
      <ele>2136.3</ele></trkpt>
      <trkpt lat="46.66708189813721" lon="7.935228011959229">
      <ele>2126.9</ele></trkpt>
      <trkpt lat="46.66724058334135" lon="7.935140841577079">
      <ele>2117.6</ele></trkpt>
      <trkpt lat="46.667439050282574" lon="7.935006128688873">
      <ele>2108.2</ele></trkpt>
      <trkpt lat="46.66756380656989" lon="7.934852118025467">
      <ele>2098.8</ele></trkpt>
      <trkpt lat="46.66759064721188" lon="7.934653003187782">
      <ele>2089.4</ele></trkpt>
      <trkpt lat="46.66755747806019" lon="7.934317343823775">
      <ele>2080.0</ele></trkpt>
      <trkpt lat="46.66752430792014" lon="7.933981684871927">
      <ele>2070.6</ele></trkpt>
      <trkpt lat="46.66740448074241" lon="7.933475160807136">
      <ele>2061.2</ele></trkpt>
      <trkpt lat="46.667427828302166" lon="7.933021439684546">
      <ele>2051.9</ele></trkpt>
      <trkpt lat="46.667348739177456" lon="7.9325894939582104">
      <ele>2042.5</ele></trkpt>
      <trkpt lat="46.66726964841568" lon="7.932157549496591">
      <ele>2033.1</ele></trkpt>
      <trkpt lat="46.6670767411575" lon="7.9318117797293235">
      <ele>2023.7</ele></trkpt>
      </trkseg>
  </trk>
</gpx>