<?xml version='1.0' encoding='utf-8'?>
<gpx xmlns="http://www.topografix.com/GPX/1/1" xmlns:xsi="http://www.w3.org/2001/XMLSchema-instance" xsi:schemaLocation="http://www.topografix.com/GPX/1/1 http://www.topografix.com/GPX/1/1/gpx.xsd" version="1.1" creator="gpx.py -- https://github.com/tkrajina/gpxpy">
  <trk>
    <name>wissigstock</name>
    <trkseg>
      <trkpt lat="46.845967100501575" lon="8.46289094617412">
      <ele>2290.0</ele></trkpt>
      <trkpt lat="46.845995194822855" lon="8.462879313090285">
      <ele>2290.2</ele></trkpt>
      <trkpt lat="46.84602286168804" lon="8.462858795393823">
      <ele>2290.4</ele></trkpt>
      <trkpt lat="46.84604895745766" lon="8.462856000855275">
      <ele>2290.6</ele></trkpt>
      <trkpt lat="46.84607445949327" lon="8.462866909790367">
      <ele>2290.7</ele></trkpt>
      <trkpt lat="46.84610038181779" lon="8.462887503019566">
      <ele>2290.9</ele></trkpt>
      <trkpt lat="46.84611949292892" lon="8.462915256723965">
      <ele>2291.1</ele></trkpt>
      <trkpt lat="46.84615282011603" lon="8.46297792176842">
      <ele>2291.3</ele></trkpt>
      <trkpt lat="46.84617626682944" lon="8.463005731805026">
      <ele>2291.5</ele></trkpt>
      <trkpt lat="46.846211910924694" lon="8.463017620452991">
      <ele>2291.7</ele></trkpt>
      <trkpt lat="46.84625970020641" lon="8.463018411772852">
      <ele>2291.8</ele></trkpt>
      <trkpt lat="46.846299632751695" lon="8.463037632781575">
      <ele>2292.0</ele></trkpt>
      <trkpt lat="46.84633080046797" lon="8.463067189461206">
      <ele>2292.2</ele></trkpt>
      <trkpt lat="46.846367460758415" lon="8.46313636920775">
      <ele>2292.4</ele></trkpt>
      <trkpt lat="46.84638062384985" lon="8.46318337585707">
      <ele>2292.6</ele></trkpt>
      <trkpt lat="46.846392894889874" lon="8.463221502072761">
      <ele>2292.8</ele></trkpt>
      <trkpt lat="46.846414277399425" lon="8.463267839167232">
      <ele>2293.0</ele></trkpt>
      <trkpt lat="46.84642796776645" lon="8.463309204798856">
      <ele>2293.1</ele></trkpt>
      <trkpt lat="46.846448913321176" lon="8.463349082700255">
      <ele>2293.3</ele></trkpt>
      <trkpt lat="46.84647818317738" lon="8.463374578233841">
      <ele>2293.5</ele></trkpt>
      <trkpt lat="46.84648417410448" lon="8.463411785207777">
      <ele>2293.7</ele></trkpt>
      <trkpt lat="46.84648393185393" lon="8.463444848250726">
      <ele>2293.3</ele></trkpt>
      <trkpt lat="46.84647630050233" lon="8.463496349878092">
      <ele>2292.9</ele></trkpt>
      <trkpt lat="46.84648337484921" lon="8.463519062861982">
      <ele>2292.5</ele></trkpt>
      <trkpt lat="46.84651116764262" lon="8.463547755859942">
      <ele>2292.0</ele></trkpt>
      <trkpt lat="46.84654628979198" lon="8.463563673406945">
      <ele>2291.6</ele></trkpt>
      <trkpt lat="46.84657091026404" lon="8.463564889499583">
      <ele>2291.2</ele></trkpt>
      <trkpt lat="46.84659678911394" lon="8.46359032064944">
      <ele>2290.8</ele></trkpt>
      <trkpt lat="46.84663479489191" lon="8.463608705706426">
      <ele>2290.4</ele></trkpt>
      <trkpt lat="46.84667827584789" lon="8.46360539023132">
      <ele>2290.0</ele></trkpt>
      <trkpt lat="46.84671460636789" lon="8.463589862706685">
      <ele>2289.6</ele></trkpt>
      <trkpt lat="46.846739933342555" lon="8.463560423902269">
      <ele>2289.1</ele></trkpt>
      <trkpt lat="46.84677831347912" lon="8.463527994967592">
      <ele>2288.7</ele></trkpt>
      <trkpt lat="46.846807535291724" lon="8.463494591823826">
      <ele>2288.3</ele></trkpt>
      <trkpt lat="46.84684963669462" lon="8.463481586610548">
      <ele>2287.9</ele></trkpt>
      <trkpt lat="46.84687712464437" lon="8.463486069644466">
      <ele>2287.5</ele></trkpt>
      <trkpt lat="46.84690061445838" lon="8.463509055964263">
      <ele>2287.1</ele></trkpt>
      <trkpt lat="46.84692290330469" lon="8.463562661684941">
      <ele>2286.6</ele></trkpt>
      <trkpt lat="46.846929347235715" lon="8.463605528793627">
      <ele>2286.2</ele></trkpt>
      <trkpt lat="46.8469348469246" lon="8.463644339503729">
      <ele>2285.8</ele></trkpt>
      <trkpt lat="46.84694740100278" lon="8.463709088547823">
      <ele>2285.4</ele></trkpt>
      <trkpt lat="46.84697345980183" lon="8.463775668196881">
      <ele>2285.4</ele></trkpt>
      <trkpt lat="46.84698573792829" lon="8.463812982174597">
      <ele>2285.5</ele></trkpt>
      <trkpt lat="46.84700577515993" lon="8.463844779629696">
      <ele>2285.5</ele></trkpt>
      <trkpt lat="46.84705754160353" lon="8.46389565591469">
      <ele>2285.5</ele></trkpt>
      <trkpt lat="46.847105918775604" lon="8.463947280681646">
      <ele>2285.5</ele></trkpt>
      <trkpt lat="46.847148698709766" lon="8.463972994829735">
      <ele>2285.6</ele></trkpt>
      <trkpt lat="46.84720216475289" lon="8.463990822535548">
      <ele>2285.6</ele></trkpt>
      <trkpt lat="46.84723939904691" lon="8.46399591107077">
      <ele>2285.6</ele></trkpt>
      <trkpt lat="46.847273306073106" lon="8.464019922231829">
      <ele>2285.6</ele></trkpt>
      <trkpt lat="46.84732351210317" lon="8.464076263097091">
      <ele>2285.7</ele></trkpt>
      <trkpt lat="46.847377667192625" lon="8.464113562145634">
      <ele>2285.7</ele></trkpt>
      <trkpt lat="46.8474320062677" lon="8.464129335015606">
      <ele>2285.7</ele></trkpt>
      <trkpt lat="46.847485315225214" lon="8.464154646887536">
      <ele>2285.7</ele></trkpt>
      <trkpt lat="46.84752836277478" lon="8.464160541234882">
      <ele>2285.8</ele></trkpt>
      <trkpt lat="46.847556542640426" lon="8.464189190050158">
      <ele>2285.8</ele></trkpt>
      <trkpt lat="46.84759064922639" lon="8.464245119764051">
      <ele>2285.8</ele></trkpt>
      <trkpt lat="46.84760833711649" lon="8.464283074935386">
      <ele>2285.8</ele></trkpt>
      <trkpt lat="46.847625464288576" lon="8.464331391008422">
      <ele>2285.8</ele></trkpt>
      <trkpt lat="46.8476312660239" lon="8.464374613673176">
      <ele>2285.9</ele></trkpt>
      <trkpt lat="46.84765135324506" lon="8.464407841878433">
      <ele>2285.9</ele></trkpt>
      <trkpt lat="46.847692313523595" lon="8.464436826200139">
      <ele>2285.8</ele></trkpt>
      <trkpt lat="46.847710569240114" lon="8.464463620920508">
      <ele>2285.6</ele></trkpt>
      <trkpt lat="46.84774207314358" lon="8.464490759896348">
      <ele>2285.5</ele></trkpt>
      <trkpt lat="46.84778207474267" lon="8.464521312613291">
      <ele>2285.3</ele></trkpt>
      <trkpt lat="46.847845314233155" lon="8.464605923238716">
      <ele>2285.2</ele></trkpt>
      <trkpt lat="46.84787507533379" lon="8.46467290280593">
      <ele>2285.0</ele></trkpt>
      <trkpt lat="46.847912548724075" lon="8.464722537999268">
      <ele>2284.8</ele></trkpt>
      <trkpt lat="46.847925181934244" lon="8.464799457957948">
      <ele>2284.7</ele></trkpt>
      <trkpt lat="46.84794273379312" lon="8.464852555361167">
      <ele>2284.6</ele></trkpt>
      <trkpt lat="46.84795565481052" lon="8.464894379948824">
      <ele>2284.4</ele></trkpt>
      <trkpt lat="46.847985696471135" lon="8.464927064046861">
      <ele>2284.2</ele></trkpt>
      <trkpt lat="46.848013399430265" lon="8.464955704418706">
      <ele>2284.1</ele></trkpt>
      <trkpt lat="46.84802783802079" lon="8.46498479998666">
      <ele>2284.0</ele></trkpt>
      <trkpt lat="46.84806663132383" lon="8.464990587726438">
      <ele>2283.8</ele></trkpt>
      <trkpt lat="46.84810931475166" lon="8.464982917975703">
      <ele>2283.7</ele></trkpt>
      <trkpt lat="46.84814181295562" lon="8.465004503779031">
      <ele>2283.5</ele></trkpt>
      <trkpt lat="46.84815954353034" lon="8.465037674494225">
      <ele>2283.3</ele></trkpt>
      <trkpt lat="46.848174267343815" lon="8.465089118610623">
      <ele>2283.2</ele></trkpt>
      <trkpt lat="46.84817757632739" lon="8.465147438742202">
      <ele>2283.1</ele></trkpt>
      <trkpt lat="46.84817394281836" lon="8.465186430387845">
      <ele>2282.9</ele></trkpt>
      <trkpt lat="46.848167096019424" lon="8.465212576462003">
      <ele>2283.2</ele></trkpt>
      <trkpt lat="46.84816945869226" lon="8.465270078710486">
      <ele>2283.5</ele></trkpt>
      <trkpt lat="46.848182188157836" lon="8.465334229825343">
      <ele>2283.7</ele></trkpt>
      <trkpt lat="46.84818719785997" lon="8.465416538223623">
      <ele>2284.0</ele></trkpt>
      <trkpt lat="46.84817969904501" lon="8.465464201902304">
      <ele>2284.3</ele></trkpt>
      <trkpt lat="46.848184484246524" lon="8.465515391019984">
      <ele>2284.6</ele></trkpt>
      <trkpt lat="46.848191181640246" lon="8.4655650169477">
      <ele>2284.8</ele></trkpt>
      <trkpt lat="46.84820688542922" lon="8.465612493858522">
      <ele>2285.1</ele></trkpt>
      <trkpt lat="46.848223053364784" lon="8.465662379167892">
      <ele>2285.4</ele></trkpt>
      <trkpt lat="46.84824111013982" lon="8.465712300543982">
      <ele>2285.7</ele></trkpt>
      <trkpt lat="46.84825168511525" lon="8.465750868346934">
      <ele>2285.9</ele></trkpt>
      <trkpt lat="46.84825122689258" lon="8.465805904261876">
      <ele>2286.2</ele></trkpt>
      <trkpt lat="46.84824379231441" lon="8.46584639684601">
      <ele>2286.5</ele></trkpt>
      <trkpt lat="46.848235382868815" lon="8.465889257221205">
      <ele>2286.8</ele></trkpt>
      <trkpt lat="46.84824652569886" lon="8.465916677483202">
      <ele>2287.0</ele></trkpt>
      <trkpt lat="46.84826938486329" lon="8.46595874466956">
      <ele>2287.3</ele></trkpt>
      <trkpt lat="46.84828457960402" lon="8.466011797817233">
      <ele>2287.6</ele></trkpt>
      <trkpt lat="46.84830500156461" lon="8.4660617907346">
      <ele>2287.8</ele></trkpt>
      <trkpt lat="46.848315449285266" lon="8.466115513849042">
      <ele>2288.1</ele></trkpt>
      <trkpt lat="46.84833790012907" lon="8.46620703236119">
      <ele>2288.4</ele></trkpt>
      <trkpt lat="46.84834544299818" lon="8.466268659156107">
      <ele>2289.0</ele></trkpt>
      <trkpt lat="46.848370099300446" lon="8.466321958650374">
      <ele>2289.6</ele></trkpt>
      <trkpt lat="46.848388738520924" lon="8.466363093256797">
      <ele>2290.3</ele></trkpt>
      <trkpt lat="46.84840014437976" lon="8.466411288368086">
      <ele>2290.9</ele></trkpt>
      <trkpt lat="46.84839416654162" lon="8.46644782270351">
      <ele>2291.5</ele></trkpt>
      <trkpt lat="46.848378694507616" lon="8.466485722992113">
      <ele>2292.1</ele></trkpt>
      <trkpt lat="46.84837330436815" lon="8.466507910726508">
      <ele>2292.7</ele></trkpt>
      <trkpt lat="46.84837403011137" lon="8.466534266885226">
      <ele>2293.4</ele></trkpt>
      <trkpt lat="46.848375539191224" lon="8.466580568465181">
      <ele>2294.0</ele></trkpt>
      <trkpt lat="46.84836803258653" lon="8.466629044962055">
      <ele>2294.6</ele></trkpt>
      <trkpt lat="46.848358680342386" lon="8.466672674044105">
      <ele>2295.2</ele></trkpt>
      <trkpt lat="46.8483656297413" lon="8.466691203091814">
      <ele>2295.8</ele></trkpt>
      <trkpt lat="46.84839617781939" lon="8.466662480802903">
      <ele>2296.5</ele></trkpt>
      <trkpt lat="46.848417072528605" lon="8.466655838585813">
      <ele>2297.1</ele></trkpt>
      <trkpt lat="46.84842253814353" lon="8.46668231150862">
      <ele>2297.7</ele></trkpt>
      <trkpt lat="46.848427448329325" lon="8.466717532752469">
      <ele>2298.3</ele></trkpt>
      <trkpt lat="46.84843846373827" lon="8.466760108514041">
      <ele>2298.9</ele></trkpt>
      <trkpt lat="46.848449543707616" lon="8.466795500059769">
      <ele>2299.6</ele></trkpt>
      <trkpt lat="46.84846336543077" lon="8.46684212866618">
      <ele>2300.2</ele></trkpt>
      <trkpt lat="46.84848383723214" lon="8.466886537237611">
      <ele>2300.8</ele></trkpt>
      <trkpt lat="46.84849389927097" lon="8.466929081756826">
      <ele>2301.2</ele></trkpt>
      <trkpt lat="46.84849248897931" lon="8.46698488646426">
      <ele>2301.6</ele></trkpt>
      <trkpt lat="46.84849856918661" lon="8.467052058286994">
      <ele>2301.9</ele></trkpt>
      <trkpt lat="46.848512725867586" lon="8.4671154507707">
      <ele>2302.3</ele></trkpt>
      <trkpt lat="46.84852811369657" lon="8.467201996705512">
      <ele>2302.7</ele></trkpt>
      <trkpt lat="46.84853522234782" lon="8.46725882962291">
      <ele>2303.1</ele></trkpt>
      <trkpt lat="46.8485446749684" lon="8.467318106876283">
      <ele>2303.4</ele></trkpt>
      <trkpt lat="46.84854343290504" lon="8.467353184473122">
      <ele>2303.8</ele></trkpt>
      <trkpt lat="46.84854309594719" lon="8.46739465188907">
      <ele>2304.2</ele></trkpt>
      <trkpt lat="46.84854847861083" lon="8.46748733993063">
      <ele>2304.6</ele></trkpt>
      <trkpt lat="46.84855102814431" lon="8.467579947617171">
      <ele>2304.9</ele></trkpt>
      <trkpt lat="46.84854822516864" lon="8.467632526377978">
      <ele>2305.3</ele></trkpt>
      <trkpt lat="46.84853742273963" lon="8.467679313980433">
      <ele>2305.7</ele></trkpt>
      <trkpt lat="46.84853578287577" lon="8.467705598795911">
      <ele>2306.1</ele></trkpt>
      <trkpt lat="46.848540482887685" lon="8.46776714547221">
      <ele>2306.4</ele></trkpt>
      <trkpt lat="46.84853485204929" lon="8.467818057352885">
      <ele>2306.8</ele></trkpt>
      <trkpt lat="46.84853383372156" lon="8.467884241322643">
      <ele>2307.2</ele></trkpt>
      <trkpt lat="46.84853849765602" lon="8.467949786542151">
      <ele>2307.6</ele></trkpt>
      <trkpt lat="46.84855079916451" lon="8.468008344782668">
      <ele>2307.9</ele></trkpt>
      <trkpt lat="46.848567378229106" lon="8.46806541138414">
      <ele>2308.3</ele></trkpt>
      <trkpt lat="46.84855948581576" lon="8.468102708890926">
      <ele>2308.7</ele></trkpt>
      <trkpt lat="46.848548403948755" lon="8.468125548205355">
      <ele>2309.0</ele></trkpt>
      <trkpt lat="46.848545650989315" lon="8.468172542102856">
      <ele>2309.4</ele></trkpt>
      <trkpt lat="46.848550085682184" lon="8.468208567434306">
      <ele>2309.7</ele></trkpt>
      <trkpt lat="46.84856535664725" lon="8.468252037956184">
      <ele>2310.1</ele></trkpt>
      <trkpt lat="46.84858038701819" lon="8.4683242327326">
      <ele>2310.5</ele></trkpt>
      <trkpt lat="46.84859401791718" lon="8.468393988134736">
      <ele>2310.8</ele></trkpt>
      <trkpt lat="46.84860810388628" lon="8.468466151812517">
      <ele>2311.2</ele></trkpt>
      <trkpt lat="46.848613810573326" lon="8.468519758793642">
      <ele>2311.5</ele></trkpt>
      <trkpt lat="46.848608543049636" lon="8.468584235645322">
      <ele>2311.9</ele></trkpt>
      <trkpt lat="46.8486185775642" lon="8.468630766178125">
      <ele>2312.3</ele></trkpt>
      <trkpt lat="46.84862983562012" lon="8.46870126304138">
      <ele>2312.6</ele></trkpt>
      <trkpt lat="46.848630755701215" lon="8.468761924634897">
      <ele>2313.0</ele></trkpt>
      <trkpt lat="46.84864356760758" lon="8.46881570697741">
      <ele>2313.3</ele></trkpt>
      <trkpt lat="46.8486524727089" lon="8.468883746235825">
      <ele>2313.7</ele></trkpt>
      <trkpt lat="46.848657783395915" lon="8.468929360387925">
      <ele>2314.1</ele></trkpt>
      <trkpt lat="46.84867727417519" lon="8.468977724157684">
      <ele>2314.4</ele></trkpt>
      <trkpt lat="46.8487105256069" lon="8.469022470124886">
      <ele>2314.8</ele></trkpt>
      <trkpt lat="46.848731663610046" lon="8.469043762508287">
      <ele>2315.1</ele></trkpt>
      <trkpt lat="46.84874048886698" lon="8.469064727443945">
      <ele>2315.5</ele></trkpt>
      <trkpt lat="46.848734081872934" lon="8.46909488096883">
      <ele>2315.6</ele></trkpt>
      <trkpt lat="46.848726275460145" lon="8.469122595047034">
      <ele>2315.8</ele></trkpt>
      <trkpt lat="46.84874297239856" lon="8.469164519805556">
      <ele>2315.9</ele></trkpt>
      <trkpt lat="46.848762470165155" lon="8.46921209713794">
      <ele>2316.1</ele></trkpt>
      <trkpt lat="46.8487725744527" lon="8.46924985716681">
      <ele>2316.2</ele></trkpt>
      <trkpt lat="46.84877555377894" lon="8.469290614629097">
      <ele>2316.4</ele></trkpt>
      <trkpt lat="46.84876759093167" lon="8.469336682853902">
      <ele>2316.5</ele></trkpt>
      <trkpt lat="46.848758223242584" lon="8.46938191120768">
      <ele>2316.7</ele></trkpt>
      <trkpt lat="46.84875195147916" lon="8.469451954744404">
      <ele>2316.8</ele></trkpt>
      <trkpt lat="46.84873856371238" lon="8.469524995823248">
      <ele>2316.9</ele></trkpt>
      <trkpt lat="46.8487240876662" lon="8.46961397361922">
      <ele>2317.1</ele></trkpt>
      <trkpt lat="46.848716112176575" lon="8.469662427939545">
      <ele>2317.2</ele></trkpt>
      <trkpt lat="46.84871029002256" lon="8.469736466123226">
      <ele>2317.4</ele></trkpt>
      <trkpt lat="46.84870416717717" lon="8.469788968243897">
      <ele>2317.5</ele></trkpt>
      <trkpt lat="46.848701575307416" lon="8.469816021584295">
      <ele>2317.7</ele></trkpt>
      <trkpt lat="46.8487218769628" lon="8.46988117180795">
      <ele>2317.8</ele></trkpt>
      <trkpt lat="46.848732330098976" lon="8.469934096371803">
      <ele>2318.0</ele></trkpt>
      <trkpt lat="46.848743749153904" lon="8.469984653033574">
      <ele>2318.1</ele></trkpt>
      <trkpt lat="46.84876596829847" lon="8.4700466538349">
      <ele>2318.3</ele></trkpt>
      <trkpt lat="46.848791078035184" lon="8.470102350629066">
      <ele>2318.4</ele></trkpt>
      <trkpt lat="46.84881007175374" lon="8.470153904820423">
      <ele>2318.7</ele></trkpt>
      <trkpt lat="46.84881727981208" lon="8.470255413837215">
      <ele>2319.0</ele></trkpt>
      <trkpt lat="46.84881928571075" lon="8.470355184150222">
      <ele>2319.3</ele></trkpt>
      <trkpt lat="46.84882506352846" lon="8.470400807553292">
      <ele>2319.6</ele></trkpt>
      <trkpt lat="46.84883616389334" lon="8.470433814082908">
      <ele>2319.9</ele></trkpt>
      <trkpt lat="46.848884663331795" lon="8.470524418528349">
      <ele>2320.2</ele></trkpt>
      <trkpt lat="46.84895939447911" lon="8.470650024454548">
      <ele>2320.5</ele></trkpt>
      <trkpt lat="46.849004128797496" lon="8.470738144454847">
      <ele>2320.8</ele></trkpt>
      <trkpt lat="46.84905154695147" lon="8.470788041197881">
      <ele>2321.1</ele></trkpt>
      <trkpt lat="46.84908677999103" lon="8.470822467863586">
      <ele>2321.4</ele></trkpt>
      <trkpt lat="46.84910669805984" lon="8.470877226620111">
      <ele>2321.7</ele></trkpt>
      <trkpt lat="46.84913386697266" lon="8.470913046002538">
      <ele>2322.0</ele></trkpt>
      <trkpt lat="46.84916262087889" lon="8.470929738674746">
      <ele>2322.3</ele></trkpt>
      <trkpt lat="46.84917937477465" lon="8.470965279723366">
      <ele>2322.6</ele></trkpt>
      <trkpt lat="46.84919860899558" lon="8.471043968678016">
      <ele>2322.9</ele></trkpt>
      <trkpt lat="46.84921258714572" lon="8.471128890151682">
      <ele>2323.2</ele></trkpt>
      <trkpt lat="46.84921945987901" lon="8.471213636043517">
      <ele>2323.5</ele></trkpt>
      <trkpt lat="46.84923560915524" lon="8.471264323517993">
      <ele>2323.8</ele></trkpt>
      <trkpt lat="46.84926694940801" lon="8.47131140805729">
      <ele>2324.1</ele></trkpt>
      <trkpt lat="46.84929823389124" lon="8.471365664054982">
      <ele>2324.4</ele></trkpt>
      <trkpt lat="46.84933039779309" lon="8.471427135690103">
      <ele>2325.0</ele></trkpt>
      <trkpt lat="46.84937025842625" lon="8.471531881755107">
      <ele>2325.6</ele></trkpt>
      <trkpt lat="46.84944053618117" lon="8.471681308714047">
      <ele>2326.2</ele></trkpt>
      <trkpt lat="46.849496821289144" lon="8.4718032329897">
      <ele>2326.8</ele></trkpt>
      <trkpt lat="46.84953676080329" lon="8.471899208954527">
      <ele>2327.3</ele></trkpt>
      <trkpt lat="46.84954906028801" lon="8.471957769184405">
      <ele>2327.9</ele></trkpt>
      <trkpt lat="46.84956174276991" lon="8.47202670873997">
      <ele>2328.5</ele></trkpt>
      <trkpt lat="46.84959049017909" lon="8.472100860796125">
      <ele>2329.1</ele></trkpt>
      <trkpt lat="46.849614613134676" lon="8.472162113272391">
      <ele>2329.7</ele></trkpt>
      <trkpt lat="46.849635400960224" lon="8.472224088517537">
      <ele>2330.3</ele></trkpt>
      <trkpt lat="46.84965500372502" lon="8.47225891135365">
      <ele>2330.9</ele></trkpt>
      <trkpt lat="46.84968121355725" lon="8.4722962868886">
      <ele>2331.5</ele></trkpt>
      <trkpt lat="46.84973278247151" lon="8.47236064975169">
      <ele>2332.1</ele></trkpt>
      <trkpt lat="46.84976602534746" lon="8.472406198410344">
      <ele>2332.7</ele></trkpt>
      <trkpt lat="46.849797314651816" lon="8.472458869036979">
      <ele>2333.2</ele></trkpt>
      <trkpt lat="46.849847675052274" lon="8.472497678912298">
      <ele>2333.8</ele></trkpt>
      <trkpt lat="46.84988763124936" lon="8.472533024018183">
      <ele>2334.4</ele></trkpt>
      <trkpt lat="46.849932767903134" lon="8.472572494225174">
      <ele>2335.0</ele></trkpt>
      <trkpt lat="46.84995379170234" lon="8.472607344676948">
      <ele>2335.6</ele></trkpt>
      <trkpt lat="46.84997930649106" lon="8.472671837108972">
      <ele>2336.2</ele></trkpt>
      <trkpt lat="46.85000721384945" lon="8.472732389345794">
      <ele>2336.9</ele></trkpt>
      <trkpt lat="46.85004570198819" lon="8.472774879104636">
      <ele>2337.6</ele></trkpt>
      <trkpt lat="46.850099697272555" lon="8.4728305433906">
      <ele>2338.3</ele></trkpt>
      <trkpt lat="46.85014059955856" lon="8.472866706955593">
      <ele>2338.9</ele></trkpt>
      <trkpt lat="46.85017664289101" lon="8.472917909161273">
      <ele>2339.6</ele></trkpt>
      <trkpt lat="46.85020398316047" lon="8.472990422663832">
      <ele>2340.3</ele></trkpt>
      <trkpt lat="46.85022513541608" lon="8.473066764229007">
      <ele>2341.0</ele></trkpt>
      <trkpt lat="46.85023848509959" lon="8.473112587093482">
      <ele>2341.7</ele></trkpt>
      <trkpt lat="46.85025982844368" lon="8.473165801766942">
      <ele>2342.4</ele></trkpt>
      <trkpt lat="46.85028713206266" lon="8.47318565449496">
      <ele>2343.1</ele></trkpt>
      <trkpt lat="46.85031389574876" lon="8.473213482460473">
      <ele>2343.7</ele></trkpt>
      <trkpt lat="46.850333099184994" lon="8.473238713088271">
      <ele>2344.4</ele></trkpt>
      <trkpt lat="46.85036148459609" lon="8.473300088195291">
      <ele>2345.1</ele></trkpt>
      <trkpt lat="46.85039059249613" lon="8.473387007590112">
      <ele>2345.8</ele></trkpt>
      <trkpt lat="46.850403247054274" lon="8.473459934287968">
      <ele>2346.5</ele></trkpt>
      <trkpt lat="46.85040816402753" lon="8.47349517073021">
      <ele>2347.2</ele></trkpt>
      <trkpt lat="46.85039585882839" lon="8.473550689182384">
      <ele>2347.8</ele></trkpt>
      <trkpt lat="46.85038984976856" lon="8.473590423011087">
      <ele>2348.5</ele></trkpt>
      <trkpt lat="46.850395313776936" lon="8.47361689760889">
      <ele>2349.2</ele></trkpt>
      <trkpt lat="46.850413941220715" lon="8.473654076091231">
      <ele>2349.9</ele></trkpt>
      <trkpt lat="46.85042681571485" lon="8.473700690002312">
      <ele>2351.3</ele></trkpt>
      <trkpt lat="46.85044285208582" lon="8.473765722467752">
      <ele>2352.6</ele></trkpt>
      <trkpt lat="46.85046749241876" lon="8.473878060486998">
      <ele>2354.0</ele></trkpt>
      <trkpt lat="46.850497674307796" lon="8.474007289423993">
      <ele>2355.4</ele></trkpt>
      <trkpt lat="46.85052176553443" lon="8.47412758962389">
      <ele>2356.8</ele></trkpt>
      <trkpt lat="46.85053886689361" lon="8.474234944363888">
      <ele>2358.1</ele></trkpt>
      <trkpt lat="46.850554256453115" lon="8.474320708969058">
      <ele>2359.5</ele></trkpt>
      <trkpt lat="46.85057753854298" lon="8.474368388849223">
      <ele>2360.9</ele></trkpt>
      <trkpt lat="46.85060467938179" lon="8.474408183604474">
      <ele>2362.2</ele></trkpt>
      <trkpt lat="46.85061619573163" lon="8.474446786093369">
      <ele>2363.6</ele></trkpt>
      <trkpt lat="46.85064263942545" lon="8.474512897837768">
      <ele>2365.0</ele></trkpt>
      <trkpt lat="46.85066055858252" lon="8.474579579912417">
      <ele>2366.3</ele></trkpt>
      <trkpt lat="46.85067506502186" lon="8.474656542292998">
      <ele>2367.7</ele></trkpt>
      <trkpt lat="46.85067980463476" lon="8.474713306712824">
      <ele>2369.1</ele></trkpt>
      <trkpt lat="46.85067663513363" lon="8.474808968607714">
      <ele>2370.5</ele></trkpt>
      <trkpt lat="46.85067311901067" lon="8.474890252273617">
      <ele>2371.8</ele></trkpt>
      <trkpt lat="46.850670696180124" lon="8.47494121413266">
      <ele>2373.2</ele></trkpt>
      <trkpt lat="46.85067578054524" lon="8.474993671126011">
      <ele>2374.6</ele></trkpt>
      <trkpt lat="46.85067426808766" lon="8.475067269963073">
      <ele>2375.9</ele></trkpt>
      <trkpt lat="46.85068077299144" lon="8.475114850164276">
      <ele>2377.3</ele></trkpt>
      <trkpt lat="46.85069778545521" lon="8.47516837607751">
      <ele>2378.1</ele></trkpt>
      <trkpt lat="46.850713671922406" lon="8.47524886635285">
      <ele>2378.9</ele></trkpt>
      <trkpt lat="46.8507268118552" lon="8.475327664691244">
      <ele>2379.7</ele></trkpt>
      <trkpt lat="46.850733548702664" lon="8.475402248573085">
      <ele>2380.5</ele></trkpt>
      <trkpt lat="46.85075031525481" lon="8.475486860214781">
      <ele>2381.3</ele></trkpt>
      <trkpt lat="46.85076171500858" lon="8.475554164605889">
      <ele>2382.1</ele></trkpt>
      <trkpt lat="46.85076845170831" lon="8.475628748564496">
      <ele>2382.9</ele></trkpt>
      <trkpt lat="46.85076959803124" lon="8.47571465916179">
      <ele>2383.7</ele></trkpt>
      <trkpt lat="46.850769140284484" lon="8.475771100733608">
      <ele>2384.5</ele></trkpt>
      <trkpt lat="46.85078113621182" lon="8.475821252104247">
      <ele>2385.2</ele></trkpt>
      <trkpt lat="46.85080124388807" lon="8.47588956361448">
      <ele>2386.0</ele></trkpt>
      <trkpt lat="46.85081316720071" lon="8.475948708997642">
      <ele>2386.8</ele></trkpt>
      <trkpt lat="46.85081692526984" lon="8.4759945974069">
      <ele>2387.6</ele></trkpt>
      <trkpt lat="46.85081132675034" lon="8.47606237428566">
      <ele>2388.4</ele></trkpt>
      <trkpt lat="46.850807003674845" lon="8.476143262267822">
      <ele>2389.2</ele></trkpt>
      <trkpt lat="46.85081107510414" lon="8.476207160548421">
      <ele>2390.0</ele></trkpt>
      <trkpt lat="46.85082540975933" lon="8.476308890306822">
      <ele>2390.8</ele></trkpt>
      <trkpt lat="46.85082842595011" lon="8.476389932892216">
      <ele>2391.6</ele></trkpt>
      <trkpt lat="46.85083344442309" lon="8.476450571285891">
      <ele>2392.4</ele></trkpt>
      <trkpt lat="46.850830291835024" lon="8.476499591593697">
      <ele>2393.2</ele></trkpt>
      <trkpt lat="46.85083338799754" lon="8.476570814278544">
      <ele>2393.3</ele></trkpt>
      <trkpt lat="46.8508338265261" lon="8.47663055139256">
      <ele>2393.4</ele></trkpt>
      <trkpt lat="46.850827543038044" lon="8.476669676742569">
      <ele>2393.6</ele></trkpt>
      <trkpt lat="46.850827660782485" lon="8.476712216828478">
      <ele>2393.7</ele></trkpt>
      <trkpt lat="46.85083542392331" lon="8.47677373429011">
      <ele>2393.8</ele></trkpt>
      <trkpt lat="46.8508358402137" lon="8.476835909956293">
      <ele>2393.9</ele></trkpt>
      <trkpt lat="46.85082887240622" lon="8.476902847379442">
      <ele>2394.1</ele></trkpt>
      <trkpt lat="46.85082157636596" lon="8.476953413722931">
      <ele>2394.2</ele></trkpt>
      <trkpt lat="46.85083126190856" lon="8.477004320729263">
      <ele>2394.3</ele></trkpt>
      <trkpt lat="46.85086551949491" lon="8.47708356640706">
      <ele>2394.4</ele></trkpt>
      <trkpt lat="46.85088709749934" lon="8.477140459417575">
      <ele>2394.6</ele></trkpt>
      <trkpt lat="46.85088954569899" lon="8.477178966440231">
      <ele>2394.7</ele></trkpt>
      <trkpt lat="46.85090652755637" lon="8.47723575772605">
      <ele>2394.8</ele></trkpt>
      <trkpt lat="46.850919462546905" lon="8.477283475590754">
      <ele>2394.9</ele></trkpt>
      <trkpt lat="46.85093425335374" lon="8.477384401668338">
      <ele>2395.1</ele></trkpt>
      <trkpt lat="46.850938609158455" lon="8.477413937058314">
      <ele>2395.2</ele></trkpt>
      <trkpt lat="46.850960121697206" lon="8.477479011406158">
      <ele>2395.3</ele></trkpt>
      <trkpt lat="46.85098064406526" lon="8.4775530620819">
      <ele>2395.4</ele></trkpt>
      <trkpt lat="46.85100887119408" lon="8.477639535117483">
      <ele>2395.6</ele></trkpt>
      <trkpt lat="46.85102588985906" lon="8.477692249303251">
      <ele>2395.7</ele></trkpt>
      <trkpt lat="46.85104947763073" lon="8.477727912529156">
      <ele>2396.3</ele></trkpt>
      <trkpt lat="46.85106809065921" lon="8.47775365824836">
      <ele>2396.8</ele></trkpt>
      <trkpt lat="46.85107203808181" lon="8.47777664255866">
      <ele>2397.4</ele></trkpt>
      <trkpt lat="46.85106699959768" lon="8.477832169911588">
      <ele>2398.0</ele></trkpt>
      <trkpt lat="46.85106108681779" lon="8.47788193695775">
      <ele>2398.5</ele></trkpt>
      <trkpt lat="46.851044206129714" lon="8.477924948941538">
      <ele>2399.1</ele></trkpt>
      <trkpt lat="46.85104242330037" lon="8.477975621803738">
      <ele>2399.7</ele></trkpt>
      <trkpt lat="46.85104327526362" lon="8.47804027135403">
      <ele>2400.2</ele></trkpt>
      <trkpt lat="46.85104572327941" lon="8.478078765418958">
      <ele>2400.8</ele></trkpt>
      <trkpt lat="46.85106155423017" lon="8.478107722631659">
      <ele>2401.3</ele></trkpt>
      <trkpt lat="46.851080138996196" lon="8.478137559147465">
      <ele>2401.9</ele></trkpt>
      <trkpt lat="46.851086350167606" lon="8.478163865415867">
      <ele>2402.5</ele></trkpt>
      <trkpt lat="46.851084304204534" lon="8.478246449865276">
      <ele>2403.0</ele></trkpt>
      <trkpt lat="46.85107794729763" lon="8.478294582316728">
      <ele>2403.6</ele></trkpt>
      <trkpt lat="46.85106226905239" lon="8.47835968630081">
      <ele>2404.2</ele></trkpt>
      <trkpt lat="46.851049154609406" lon="8.478392136384976">
      <ele>2404.7</ele></trkpt>
      <trkpt lat="46.851047006289235" lon="8.478430541689987">
      <ele>2405.3</ele></trkpt>
      <trkpt lat="46.85106794957854" lon="8.478508692194074">
      <ele>2405.9</ele></trkpt>
      <trkpt lat="46.85109409329369" lon="8.478568952415294">
      <ele>2406.4</ele></trkpt>
      <trkpt lat="46.8511070857202" lon="8.478609302471675">
      <ele>2407.0</ele></trkpt>
      <trkpt lat="46.85112100101019" lon="8.478704482060165">
      <ele>2407.4</ele></trkpt>
      <trkpt lat="46.851123084641216" lon="8.478787972453395">
      <ele>2407.8</ele></trkpt>
      <trkpt lat="46.85112844466785" lon="8.478863343752515">
      <ele>2408.2</ele></trkpt>
      <trkpt lat="46.85112570517654" lon="8.478917276394826">
      <ele>2408.6</ele></trkpt>
      <trkpt lat="46.8511267767304" lon="8.478955743963295">
      <ele>2409.0</ele></trkpt>
      <trkpt lat="46.85113811494093" lon="8.479029591721542">
      <ele>2409.4</ele></trkpt>
      <trkpt lat="46.85115457913335" lon="8.47909374328885">
      <ele>2409.8</ele></trkpt>
      <trkpt lat="46.851175719715606" lon="8.479148176871197">
      <ele>2410.2</ele></trkpt>
      <trkpt lat="46.85119361952008" lon="8.479205812954044">
      <ele>2410.6</ele></trkpt>
      <trkpt lat="46.85120498726734" lon="8.479276396327615">
      <ele>2411.1</ele></trkpt>
      <trkpt lat="46.851228421373584" lon="8.479330874374376">
      <ele>2411.5</ele></trkpt>
      <trkpt lat="46.85125058773676" lon="8.47937142831054">
      <ele>2411.9</ele></trkpt>
      <trkpt lat="46.85127447460343" lon="8.479427554309906">
      <ele>2412.3</ele></trkpt>
      <trkpt lat="46.85128728382588" lon="8.479489983270852">
      <ele>2412.7</ele></trkpt>
      <trkpt lat="46.85129308719907" lon="8.479567002562824">
      <ele>2413.1</ele></trkpt>
      <trkpt lat="46.85129853288197" lon="8.479630928292874">
      <ele>2413.5</ele></trkpt>
      <trkpt lat="46.85130414667433" lon="8.479674401179894">
      <ele>2413.9</ele></trkpt>
      <trkpt lat="46.851322105874296" lon="8.4797254822822">
      <ele>2414.3</ele></trkpt>
      <trkpt lat="46.85133282499915" lon="8.479762523717916">
      <ele>2414.7</ele></trkpt>
      <trkpt lat="46.85132708534804" lon="8.47979021204694">
      <ele>2415.1</ele></trkpt>
      <trkpt lat="46.8513103795115" lon="8.479811957930874">
      <ele>2416.2</ele></trkpt>
      <trkpt lat="46.85130998681056" lon="8.479861031887829">
      <ele>2417.2</ele></trkpt>
      <trkpt lat="46.851318848805306" lon="8.479900476418305">
      <ele>2418.3</ele></trkpt>
      <trkpt lat="46.85134215165576" lon="8.47997131721744">
      <ele>2419.3</ele></trkpt>
      <trkpt lat="46.8513541591847" lon="8.480019005093196">
      <ele>2420.4</ele></trkpt>
      <trkpt lat="46.85137121399292" lon="8.480067629863509">
      <ele>2421.4</ele></trkpt>
      <trkpt lat="46.8513749272407" lon="8.480119248542222">
      <ele>2422.5</ele></trkpt>
      <trkpt lat="46.85137488891746" lon="8.480179776983631">
      <ele>2423.5</ele></trkpt>
      <trkpt lat="46.85138084674227" lon="8.480238795448262">
      <ele>2424.6</ele></trkpt>
      <trkpt lat="46.851385577358" lon="8.480333785119534">
      <ele>2425.6</ele></trkpt>
      <trkpt lat="46.85138637740274" lon="8.480404977483495">
      <ele>2426.7</ele></trkpt>
      <trkpt lat="46.85140016927569" lon="8.480516507475725">
      <ele>2427.8</ele></trkpt>
      <trkpt lat="46.85140270883508" lon="8.480599181109639">
      <ele>2428.8</ele></trkpt>
      <trkpt lat="46.851400829435434" lon="8.480661313062733">
      <ele>2429.9</ele></trkpt>
      <trkpt lat="46.851416070047264" lon="8.480763888852785">
      <ele>2430.9</ele></trkpt>
      <trkpt lat="46.8514333554612" lon="8.480896768920909">
      <ele>2432.0</ele></trkpt>
      <trkpt lat="46.85143974771068" lon="8.480957435063821">
      <ele>2433.0</ele></trkpt>
      <trkpt lat="46.85142984346643" lon="8.480989960031055">
      <ele>2434.1</ele></trkpt>
      <trkpt lat="46.85144146475135" lon="8.481085909421907">
      <ele>2435.1</ele></trkpt>
      <trkpt lat="46.85144745463243" lon="8.481195649494934">
      <ele>2436.2</ele></trkpt>
      <trkpt lat="46.85145058503432" lon="8.481262795866474">
      <ele>2436.0</ele></trkpt>
      <trkpt lat="46.85145851250033" lon="8.481360299810182">
      <ele>2435.7</ele></trkpt>
      <trkpt lat="46.851459753375764" lon="8.481420564653323">
      <ele>2435.5</ele></trkpt>
      <trkpt lat="46.851463616855774" lon="8.48146747888986">
      <ele>2435.2</ele></trkpt>
      <trkpt lat="46.85147532356379" lon="8.48151454508344">
      <ele>2435.0</ele></trkpt>
      <trkpt lat="46.8514926943371" lon="8.481566926872086">
      <ele>2434.8</ele></trkpt>
      <trkpt lat="46.851505054224305" lon="8.481621283452347">
      <ele>2434.5</ele></trkpt>
      <trkpt lat="46.85151583200926" lon="8.481692275956659">
      <ele>2434.3</ele></trkpt>
      <trkpt lat="46.85152560507057" lon="8.481795506873489">
      <ele>2434.0</ele></trkpt>
      <trkpt lat="46.85153849511265" lon="8.481869648146855">
      <ele>2433.8</ele></trkpt>
      <trkpt lat="46.85154788063505" lon="8.481936443844765">
      <ele>2433.6</ele></trkpt>
      <trkpt lat="46.85155862976351" lon="8.482010556800809">
      <ele>2433.3</ele></trkpt>
      <trkpt lat="46.85156232268017" lon="8.482075157244793">
      <ele>2433.1</ele></trkpt>
      <trkpt lat="46.851570836053774" lon="8.482159638599969">
      <ele>2432.8</ele></trkpt>
      <trkpt lat="46.85158526986007" lon="8.482221326414576">
      <ele>2432.6</ele></trkpt>
      <trkpt lat="46.851596937765784" lon="8.482273597980162">
      <ele>2432.4</ele></trkpt>
      <trkpt lat="46.85162006706705" lon="8.482329776533629">
      <ele>2432.1</ele></trkpt>
      <trkpt lat="46.85164151940924" lon="8.482344944564467">
      <ele>2431.9</ele></trkpt>
      <trkpt lat="46.851684710397166" lon="8.482340943297267">
      <ele>2431.6</ele></trkpt>
      <trkpt lat="46.85172106395465" lon="8.48233106596158">
      <ele>2431.4</ele></trkpt>
      <trkpt lat="46.85176114685687" lon="8.482314730641447">
      <ele>2431.9</ele></trkpt>
      <trkpt lat="46.8517803712389" lon="8.4823216729896">
      <ele>2432.5</ele></trkpt>
      <trkpt lat="46.851795307497696" lon="8.482348988505755">
      <ele>2433.0</ele></trkpt>
      <trkpt lat="46.85181153797198" lon="8.482385311549628">
      <ele>2433.5</ele></trkpt>
      <trkpt lat="46.85183341837265" lon="8.48246103079214">
      <ele>2434.0</ele></trkpt>
      <trkpt lat="46.85185528534421" lon="8.482539201973413">
      <ele>2434.6</ele></trkpt>
      <trkpt lat="46.85187549942248" lon="8.482594432690153">
      <ele>2435.1</ele></trkpt>
      <trkpt lat="46.851910567567245" lon="8.482685973070316">
      <ele>2435.6</ele></trkpt>
      <trkpt lat="46.85194560584037" lon="8.482780778141969">
      <ele>2436.1</ele></trkpt>
      <trkpt lat="46.851967575619" lon="8.482846677792075">
      <ele>2436.7</ele></trkpt>
      <trkpt lat="46.8519905044182" lon="8.4829060657954">
      <ele>2437.2</ele></trkpt>
      <trkpt lat="46.852006144607714" lon="8.482958742799816">
      <ele>2437.7</ele></trkpt>
      <trkpt lat="46.85202477037984" lon="8.483040116710708">
      <ele>2438.2</ele></trkpt>
      <trkpt lat="46.85204673101426" lon="8.483106016389165">
      <ele>2438.8</ele></trkpt>
      <trkpt lat="46.85206282971376" lon="8.483158715518657">
      <ele>2439.3</ele></trkpt>
      <trkpt lat="46.85207661993415" lon="8.483212995906419">
      <ele>2439.8</ele></trkpt>
      <trkpt lat="46.85209478680331" lon="8.483294361109639">
      <ele>2440.3</ele></trkpt>
      <trkpt lat="46.852113601959935" lon="8.483352017361902">
      <ele>2440.8</ele></trkpt>
      <trkpt lat="46.85213327622936" lon="8.483417059891705">
      <ele>2441.4</ele></trkpt>
      <trkpt lat="46.85214928080687" lon="8.483482018127225">
      <ele>2441.9</ele></trkpt>
      <trkpt lat="46.85216123453654" lon="8.483535436913789">
      <ele>2442.1</ele></trkpt>
      <trkpt lat="46.85217531602348" lon="8.483610992620607">
      <ele>2442.4</ele></trkpt>
      <trkpt lat="46.852197082029974" lon="8.483644984732754">
      <ele>2442.6</ele></trkpt>
      <trkpt lat="46.85222368918299" lon="8.483704444750447">
      <ele>2442.8</ele></trkpt>
      <trkpt lat="46.85224883054045" lon="8.483773684988961">
      <ele>2443.1</ele></trkpt>
      <trkpt lat="46.85226130407915" lon="8.483821396709168">
      <ele>2443.3</ele></trkpt>
      <trkpt lat="46.85226500077759" lon="8.483874642241142">
      <ele>2443.5</ele></trkpt>
      <trkpt lat="46.8522622679183" lon="8.483928575942642">
      <ele>2443.8</ele></trkpt>
      <trkpt lat="46.85224488897699" lon="8.483975655541762">
      <ele>2444.0</ele></trkpt>
      <trkpt lat="46.85224246827368" lon="8.484047599605995">
      <ele>2444.2</ele></trkpt>
      <trkpt lat="46.85224383543852" lon="8.484105704203431">
      <ele>2444.5</ele></trkpt>
      <trkpt lat="46.852253342864756" lon="8.484178706071187">
      <ele>2444.7</ele></trkpt>
      <trkpt lat="46.85225942107955" lon="8.484221376244669">
      <ele>2445.0</ele></trkpt>
      <trkpt lat="46.852261660658236" lon="8.4842844152383">
      <ele>2445.2</ele></trkpt>
      <trkpt lat="46.85226728023166" lon="8.48432706340839">
      <ele>2445.4</ele></trkpt>
      <trkpt lat="46.852261416883294" lon="8.484371114540624">
      <ele>2445.7</ele></trkpt>
      <trkpt lat="46.85224312019647" lon="8.484418189283181">
      <ele>2445.9</ele></trkpt>
      <trkpt lat="46.852236798211074" lon="8.48446221836271">
      <ele>2446.1</ele></trkpt>
      <trkpt lat="46.85223601646658" lon="8.484501476991475">
      <ele>2446.4</ele></trkpt>
      <trkpt lat="46.85222705718469" lon="8.48452991575971">
      <ele>2446.6</ele></trkpt>
      <trkpt lat="46.85221225114314" lon="8.48454351487892">
      <ele>2446.8</ele></trkpt>
      <trkpt lat="46.85221586827145" lon="8.484607393615141">
      <ele>2447.0</ele></trkpt>
      <trkpt lat="46.85222084654322" lon="8.484672937951338">
      <ele>2447.2</ele></trkpt>
      <trkpt lat="46.85221633524553" lon="8.484718654425556">
      <ele>2447.4</ele></trkpt>
      <trkpt lat="46.85220949447308" lon="8.484769229928816">
      <ele>2447.6</ele></trkpt>
      <trkpt lat="46.852197094207625" lon="8.484817822194543">
      <ele>2447.8</ele></trkpt>
      <trkpt lat="46.852192346960344" lon="8.484867690910022">
      <ele>2448.0</ele></trkpt>
      <trkpt lat="46.85218751359148" lon="8.484927956644706">
      <ele>2448.2</ele></trkpt>
      <trkpt lat="46.852192844379786" lon="8.48496969440943">
      <ele>2448.4</ele></trkpt>
      <trkpt lat="46.85218677103115" lon="8.48500913862952">
      <ele>2448.6</ele></trkpt>
      <trkpt lat="46.8521589200603" lon="8.485087695525786">
      <ele>2448.7</ele></trkpt>
      <trkpt lat="46.85215437203581" lon="8.485116757553325">
      <ele>2448.9</ele></trkpt>
      <trkpt lat="46.85216524300814" lon="8.485177328544816">
      <ele>2449.1</ele></trkpt>
      <trkpt lat="46.852177611136405" lon="8.485229614955488">
      <ele>2449.3</ele></trkpt>
      <trkpt lat="46.852179842949525" lon="8.4852983579605">
      <ele>2449.5</ele></trkpt>
      <trkpt lat="46.85218800579828" lon="8.485342235813116">
      <ele>2449.7</ele></trkpt>
      <trkpt lat="46.852211920247115" lon="8.485382250005365">
      <ele>2449.9</ele></trkpt>
      <trkpt lat="46.85221576362915" lon="8.485430200760144">
      <ele>2450.1</ele></trkpt>
      <trkpt lat="46.85221503978992" lon="8.485509298164962">
      <ele>2450.3</ele></trkpt>
      <trkpt lat="46.8522288659716" lon="8.485559528073388">
      <ele>2450.5</ele></trkpt>
      <trkpt lat="46.852225281898434" lon="8.485638556751965">
      <ele>2451.4</ele></trkpt>
      <trkpt lat="46.85221049322877" lon="8.485694471957284">
      <ele>2452.2</ele></trkpt>
      <trkpt lat="46.85220230758673" lon="8.48575334801136">
      <ele>2453.1</ele></trkpt>
      <trkpt lat="46.8521810461784" lon="8.48580483614282">
      <ele>2453.9</ele></trkpt>
      <trkpt lat="46.852142540870226" lon="8.48584237735978">
      <ele>2454.8</ele></trkpt>
      <trkpt lat="46.852094079330946" lon="8.485908140906709">
      <ele>2455.6</ele></trkpt>
      <trkpt lat="46.85204319941381" lon="8.485974709633231">
      <ele>2456.5</ele></trkpt>
      <trkpt lat="46.85202024708371" lon="8.486035973208649">
      <ele>2457.3</ele></trkpt>
      <trkpt lat="46.85199334789642" lon="8.486111702328474">
      <ele>2458.2</ele></trkpt>
      <trkpt lat="46.851981202819125" lon="8.486188361035065">
      <ele>2459.1</ele></trkpt>
      <trkpt lat="46.8519793636896" lon="8.486282109913835">
      <ele>2459.9</ele></trkpt>
      <trkpt lat="46.85198094898729" lon="8.486367349492959">
      <ele>2460.8</ele></trkpt>
      <trkpt lat="46.851982799622526" lon="8.486423614358054">
      <ele>2461.6</ele></trkpt>
      <trkpt lat="46.85199159835463" lon="8.48645007733379">
      <ele>2462.5</ele></trkpt>
      <trkpt lat="46.8520154864883" lon="8.486491940311828">
      <ele>2463.3</ele></trkpt>
      <trkpt lat="46.85203227869956" lon="8.486528669107411">
      <ele>2464.2</ele></trkpt>
      <trkpt lat="46.85203855297033" lon="8.486570464628482">
      <ele>2465.0</ele></trkpt>
      <trkpt lat="46.85202663411977" lon="8.486622396434969">
      <ele>2465.9</ele></trkpt>
      <trkpt lat="46.852006324195514" lon="8.48665639663048">
      <ele>2466.7</ele></trkpt>
      <trkpt lat="46.85198097475618" lon="8.486701379226831">
      <ele>2467.6</ele></trkpt>
      <trkpt lat="46.85195316443325" lon="8.486805807836165">
      <ele>2468.6</ele></trkpt>
      <trkpt lat="46.85194827266394" lon="8.486869389616762">
      <ele>2469.6</ele></trkpt>
      <trkpt lat="46.851965247795334" lon="8.487002962049576">
      <ele>2470.6</ele></trkpt>
      <trkpt lat="46.85195731366437" lon="8.487160937984559">
      <ele>2471.6</ele></trkpt>
      <trkpt lat="46.85193548844107" lon="8.487327835514547">
      <ele>2472.6</ele></trkpt>
      <trkpt lat="46.85190946860948" lon="8.487445909958932">
      <ele>2473.6</ele></trkpt>
      <trkpt lat="46.85191199878644" lon="8.48752023160187">
      <ele>2474.6</ele></trkpt>
      <trkpt lat="46.85190625037622" lon="8.487592818365197">
      <ele>2475.6</ele></trkpt>
      <trkpt lat="46.851891682781904" lon="8.487620596422195">
      <ele>2476.6</ele></trkpt>
      <trkpt lat="46.8518866098105" lon="8.487669553483405">
      <ele>2477.6</ele></trkpt>
      <trkpt lat="46.85186946114963" lon="8.487776693812798">
      <ele>2478.7</ele></trkpt>
      <trkpt lat="46.85186040443481" lon="8.487856860915985">
      <ele>2479.7</ele></trkpt>
      <trkpt lat="46.851867340126915" lon="8.487953993299376">
      <ele>2480.7</ele></trkpt>
      <trkpt lat="46.851867606356734" lon="8.488073051831291">
      <ele>2481.7</ele></trkpt>
      <trkpt lat="46.851859430001" lon="8.488207261792027">
      <ele>2482.7</ele></trkpt>
      <trkpt lat="46.85186473947703" lon="8.488281585153617">
      <ele>2483.7</ele></trkpt>
      <trkpt lat="46.85186396955688" lon="8.488314510110975">
      <ele>2484.7</ele></trkpt>
      <trkpt lat="46.85184958920752" lon="8.488371861515585">
      <ele>2485.7</ele></trkpt>
      <trkpt lat="46.85181282005371" lon="8.48845441224343">
      <ele>2486.7</ele></trkpt>
      <trkpt lat="46.85180110189618" lon="8.488523590981245">
      <ele>2487.7</ele></trkpt>
      <trkpt lat="46.851802836240346" lon="8.488552224328442">
      <ele>2488.6</ele></trkpt>
      <trkpt lat="46.851810268138934" lon="8.488598173106888">
      <ele>2489.5</ele></trkpt>
      <trkpt lat="46.851814887019685" lon="8.488639897082692">
      <ele>2490.4</ele></trkpt>
      <trkpt lat="46.8518058567055" lon="8.488689681590534">
      <ele>2491.4</ele></trkpt>
      <trkpt lat="46.85179043291373" lon="8.48873622045878">
      <ele>2492.3</ele></trkpt>
      <trkpt lat="46.85177368353111" lon="8.488772321698805">
      <ele>2493.2</ele></trkpt>
      <trkpt lat="46.85176138804794" lon="8.488788735371278">
      <ele>2494.1</ele></trkpt>
      <trkpt lat="46.8517420268148" lon="8.488797720353283">
      <ele>2495.0</ele></trkpt>
      <trkpt lat="46.85172619813724" lon="8.488810944183685">
      <ele>2495.9</ele></trkpt>
      <trkpt lat="46.85171035032015" lon="8.488826252601392">
      <ele>2496.8</ele></trkpt>
      <trkpt lat="46.85170370906617" lon="8.488849018346155">
      <ele>2497.8</ele></trkpt>
      <trkpt lat="46.85170634002677" lon="8.488874049956594">
      <ele>2498.7</ele></trkpt>
      <trkpt lat="46.85171753378224" lon="8.488899248635853">
      <ele>2499.6</ele></trkpt>
      <trkpt lat="46.85173656062399" lon="8.488926685128101">
      <ele>2500.5</ele></trkpt>
      <trkpt lat="46.85175410965723" lon="8.488959285561215">
      <ele>2501.4</ele></trkpt>
      <trkpt lat="46.85176941276515" lon="8.489003302975341">
      <ele>2502.3</ele></trkpt>
      <trkpt lat="46.85177566231739" lon="8.489023199363404">
      <ele>2503.3</ele></trkpt>
      <trkpt lat="46.85177604795505" lon="8.489058598944906">
      <ele>2504.2</ele></trkpt>
      <trkpt lat="46.85176716984498" lon="8.489092768709106">
      <ele>2505.1</ele></trkpt>
      <trkpt lat="46.851757562529706" lon="8.489127973273561">
      <ele>2506.0</ele></trkpt>
      <trkpt lat="46.851750067247515" lon="8.489166339942">
      <ele>2506.3</ele></trkpt>
      <trkpt lat="46.85175124886249" lon="8.489193428275428">
      <ele>2506.6</ele></trkpt>
      <trkpt lat="46.8517623755995" lon="8.489225916576254">
      <ele>2506.9</ele></trkpt>
      <trkpt lat="46.851788830846715" lon="8.489222262955211">
      <ele>2507.1</ele></trkpt>
      <trkpt lat="46.85181103386916" lon="8.489214369509194">
      <ele>2507.4</ele></trkpt>
      <trkpt lat="46.85183886181211" lon="8.489216997590262">
      <ele>2507.7</ele></trkpt>
      <trkpt lat="46.851855123403666" lon="8.489235004460788">
      <ele>2508.0</ele></trkpt>
      <trkpt lat="46.851881977077056" lon="8.489279063897367">
      <ele>2508.3</ele></trkpt>
      <trkpt lat="46.851906324899886" lon="8.48935989593473">
      <ele>2508.6</ele></trkpt>
      <trkpt lat="46.8519094247044" lon="8.489498404119345">
      <ele>2508.8</ele></trkpt>
      <trkpt lat="46.851896201308655" lon="8.489648119997524">
      <ele>2509.1</ele></trkpt>
      <trkpt lat="46.851890039962875" lon="8.489732211738351">
      <ele>2509.4</ele></trkpt>
      <trkpt lat="46.851856284714785" lon="8.48978526366512">
      <ele>2509.7</ele></trkpt>
      <trkpt lat="46.851837972706264" lon="8.489906201727031">
      <ele>2510.0</ele></trkpt>
      <trkpt lat="46.85180665623241" lon="8.490041375613838">
      <ele>2510.3</ele></trkpt>
      <trkpt lat="46.851782075324444" lon="8.49015234313905">
      <ele>2510.6</ele></trkpt>
      <trkpt lat="46.85175826294472" lon="8.490186548822788">
      <ele>2510.8</ele></trkpt>
      <trkpt lat="46.85174974720748" lon="8.490238021551463">
      <ele>2511.1</ele></trkpt>
      <trkpt lat="46.851751921729075" lon="8.490334195601568">
      <ele>2511.4</ele></trkpt>
      <trkpt lat="46.851746156222084" lon="8.490421166534396">
      <ele>2511.7</ele></trkpt>
      <trkpt lat="46.85171270338544" lon="8.490560651675743">
      <ele>2512.2</ele></trkpt>
      <trkpt lat="46.85167826438008" lon="8.490650838698004">
      <ele>2512.6</ele></trkpt>
      <trkpt lat="46.8516670542672" lon="8.490704736978923">
      <ele>2513.1</ele></trkpt>
      <trkpt lat="46.85166387754842" lon="8.490740066885389">
      <ele>2513.6</ele></trkpt>
      <trkpt lat="46.85166698894255" lon="8.490790088239144">
      <ele>2514.0</ele></trkpt>
      <trkpt lat="46.85166133701514" lon="8.490860761751534">
      <ele>2514.5</ele></trkpt>
      <trkpt lat="46.85165665365513" lon="8.490904375836951">
      <ele>2515.0</ele></trkpt>
      <trkpt lat="46.85164832274109" lon="8.490956258477315">
      <ele>2515.4</ele></trkpt>
      <trkpt lat="46.85163772728367" lon="8.491020580403205">
      <ele>2515.9</ele></trkpt>
      <trkpt lat="46.851634493051876" lon="8.491062150935313">
      <ele>2516.3</ele></trkpt>
      <trkpt lat="46.8516305774805" lon="8.491099551321957">
      <ele>2516.8</ele></trkpt>
      <trkpt lat="46.85164078248738" lon="8.491154917226746">
      <ele>2517.3</ele></trkpt>
      <trkpt lat="46.85165109344027" lon="8.491197788535462">
      <ele>2517.7</ele></trkpt>
      <trkpt lat="46.85165270742587" lon="8.491255071455281">
      <ele>2518.2</ele></trkpt>
      <trkpt lat="46.85165511755779" lon="8.491304043192365">
      <ele>2518.7</ele></trkpt>
      <trkpt lat="46.851664660455235" lon="8.491353141311768">
      <ele>2519.1</ele></trkpt>
      <trkpt lat="46.85166709926224" lon="8.491398992730588">
      <ele>2519.6</ele></trkpt>
      <trkpt lat="46.851678206308016" lon="8.491433552919156">
      <ele>2520.1</ele></trkpt>
      <trkpt lat="46.8516913774183" lon="8.491476480253851">
      <ele>2520.5</ele></trkpt>
      <trkpt lat="46.85170056396626" lon="8.491487071662268">
      <ele>2521.0</ele></trkpt>
      <trkpt lat="46.85171711425318" lon="8.491550888594809">
      <ele>2521.9</ele></trkpt>
      <trkpt lat="46.85172437261135" lon="8.491615559734598">
      <ele>2522.7</ele></trkpt>
      <trkpt lat="46.851740922826515" lon="8.49167937673485">
      <ele>2523.6</ele></trkpt>
      <trkpt lat="46.851763040781215" lon="8.49175892031742">
      <ele>2524.4</ele></trkpt>
      <trkpt lat="46.851792924720975" lon="8.491847978618678">
      <ele>2525.3</ele></trkpt>
      <trkpt lat="46.85183030637456" lon="8.491975683631654">
      <ele>2526.1</ele></trkpt>
      <trkpt lat="46.85185016848378" lon="8.492067666950799">
      <ele>2527.0</ele></trkpt>
      <trkpt lat="46.85186517324638" lon="8.492143950739447">
      <ele>2527.8</ele></trkpt>
      <trkpt lat="46.851884410991936" lon="8.492226546124954">
      <ele>2528.7</ele></trkpt>
      <trkpt lat="46.85189802392041" lon="8.492298632810769">
      <ele>2529.6</ele></trkpt>
      <trkpt lat="46.851908814280065" lon="8.492367543371637">
      <ele>2530.4</ele></trkpt>
      <trkpt lat="46.851923894990165" lon="8.492436537951175">
      <ele>2531.3</ele></trkpt>
      <trkpt lat="46.85193973484708" lon="8.492499292496573">
      <ele>2532.1</ele></trkpt>
      <trkpt lat="46.851959999140675" lon="8.492547578187956">
      <ele>2533.0</ele></trkpt>
      <trkpt lat="46.851986743129665" lon="8.492589735843747">
      <ele>2533.8</ele></trkpt>
      <trkpt lat="46.85201286290728" lon="8.492622505459117">
      <ele>2534.7</ele></trkpt>
      <trkpt lat="46.85202758825024" lon="8.49265194419254">
      <ele>2535.5</ele></trkpt>
      <trkpt lat="46.852042121863605" lon="8.492702189675876">
      <ele>2536.4</ele></trkpt>
      <trkpt lat="46.8520502238148" lon="8.492753345174066">
      <ele>2537.2</ele></trkpt>
      <trkpt lat="46.8520655734274" lon="8.492792158946315">
      <ele>2538.1</ele></trkpt>
      <trkpt lat="46.852082391579216" lon="8.492826831532064">
      <ele>2539.1</ele></trkpt>
      <trkpt lat="46.852089888940775" lon="8.492865491565972">
      <ele>2540.1</ele></trkpt>
      <trkpt lat="46.8520916172455" lon="8.492910280463366">
      <ele>2541.0</ele></trkpt>
      <trkpt lat="46.85209337429204" lon="8.49295194900624">
      <ele>2542.0</ele></trkpt>
      <trkpt lat="46.85210013228286" lon="8.492993715505358">
      <ele>2543.0</ele></trkpt>
      <trkpt lat="46.85210892533583" lon="8.493046982740985">
      <ele>2544.0</ele></trkpt>
      <trkpt lat="46.85211708533303" lon="8.493090848601044">
      <ele>2545.0</ele></trkpt>
      <trkpt lat="46.85212667212131" lon="8.493122416091698">
      <ele>2545.9</ele></trkpt>
      <trkpt lat="46.85212706101241" lon="8.49318855317725">
      <ele>2546.9</ele></trkpt>
      <trkpt lat="46.85212309970491" lon="8.493255234466046">
      <ele>2547.9</ele></trkpt>
      <trkpt lat="46.85211187636017" lon="8.49331921640232">
      <ele>2548.9</ele></trkpt>
      <trkpt lat="46.85211479214018" lon="8.49338350158378">
      <ele>2549.9</ele></trkpt>
      <trkpt lat="46.85211604273476" lon="8.493434221404502">
      <ele>2550.8</ele></trkpt>
      <trkpt lat="46.85211078663047" lon="8.493494963275078">
      <ele>2551.8</ele></trkpt>
      <trkpt lat="46.852096660321024" lon="8.49357326023179">
      <ele>2552.8</ele></trkpt>
      <trkpt lat="46.85209188632157" lon="8.493631467573087">
      <ele>2553.8</ele></trkpt>
      <trkpt lat="46.852103892437086" lon="8.493700153345173">
      <ele>2554.8</ele></trkpt>
      <trkpt lat="46.852107669650216" lon="8.493769530203576">
      <ele>2555.7</ele></trkpt>
      <trkpt lat="46.85210370396237" lon="8.49387760945542">
      <ele>2556.7</ele></trkpt>
      <trkpt lat="46.85209586762425" lon="8.493964474466488">
      <ele>2557.7</ele></trkpt>
      <trkpt lat="46.85209214034641" lon="8.494050593892108">
      <ele>2558.9</ele></trkpt>
      <trkpt lat="46.85208270212016" lon="8.494118006932817">
      <ele>2560.2</ele></trkpt>
      <trkpt lat="46.85208272365812" lon="8.494196594236188">
      <ele>2561.4</ele></trkpt>
      <trkpt lat="46.852075311029836" lon="8.4942462918126">
      <ele>2562.7</ele></trkpt>
      <trkpt lat="46.85206506688399" lon="8.494303539449191">
      <ele>2563.9</ele></trkpt>
      <trkpt lat="46.852058403058095" lon="8.494367623646077">
      <ele>2565.2</ele></trkpt>
      <trkpt lat="46.85204927599199" lon="8.494407151122152">
      <ele>2566.4</ele></trkpt>
      <trkpt lat="46.85202724054646" lon="8.494458253416513">
      <ele>2567.7</ele></trkpt>
      <trkpt lat="46.85201462350498" lon="8.494523060014803">
      <ele>2568.9</ele></trkpt>
      <trkpt lat="46.851990714274976" lon="8.494578334775225">
      <ele>2570.1</ele></trkpt>
      <trkpt lat="46.85197193538946" lon="8.494623586828522">
      <ele>2571.4</ele></trkpt>
      <trkpt lat="46.85196220548981" lon="8.494675782725231">
      <ele>2572.6</ele></trkpt>
      <trkpt lat="46.851949900873436" lon="8.494713556153023">
      <ele>2573.9</ele></trkpt>
      <trkpt lat="46.851941787191805" lon="8.494744645439292">
      <ele>2575.1</ele></trkpt>
      <trkpt lat="46.851911048512314" lon="8.494798107558463">
      <ele>2576.4</ele></trkpt>
      <trkpt lat="46.85189258321182" lon="8.494855180496408">
      <ele>2577.6</ele></trkpt>
      <trkpt lat="46.85188399711227" lon="8.494927684632815">
      <ele>2578.9</ele></trkpt>
      <trkpt lat="46.85185934871484" lon="8.495007452886343">
      <ele>2580.1</ele></trkpt>
      <trkpt lat="46.851827220390994" lon="8.495102272295831">
      <ele>2581.4</ele></trkpt>
      <trkpt lat="46.8517993698195" lon="8.495181977536891">
      <ele>2582.6</ele></trkpt>
      <trkpt lat="46.85177533955522" lon="8.495247398906788">
      <ele>2584.1</ele></trkpt>
      <trkpt lat="46.85176535367" lon="8.495322406165991">
      <ele>2585.6</ele></trkpt>
      <trkpt lat="46.85174765357335" lon="8.495393026446905">
      <ele>2587.0</ele></trkpt>
      <trkpt lat="46.851744809645105" lon="8.495442813253781">
      <ele>2588.5</ele></trkpt>
      <trkpt lat="46.85174462729222" lon="8.495498579402046">
      <ele>2590.0</ele></trkpt>
      <trkpt lat="46.851733128098424" lon="8.495546517793422">
      <ele>2591.5</ele></trkpt>
      <trkpt lat="46.851716553062786" lon="8.495598565781153">
      <ele>2593.0</ele></trkpt>
      <trkpt lat="46.851702038099276" lon="8.495670087689081">
      <ele>2594.4</ele></trkpt>
      <trkpt lat="46.851686009865894" lon="8.495714553909675">
      <ele>2595.9</ele></trkpt>
      <trkpt lat="46.85167552304091" lon="8.495753201843877">
      <ele>2597.4</ele></trkpt>
      <trkpt lat="46.85166941314303" lon="8.495808851510493">
      <ele>2598.9</ele></trkpt>
      <trkpt lat="46.851660953846704" lon="8.495869516645564">
      <ele>2600.4</ele></trkpt>
      <trkpt lat="46.85163985082034" lon="8.495918944721176">
      <ele>2601.8</ele></trkpt>
      <trkpt lat="46.85163132006073" lon="8.49598636160134">
      <ele>2603.3</ele></trkpt>
      <trkpt lat="46.85162882156536" lon="8.496045465293939">
      <ele>2604.8</ele></trkpt>
      <trkpt lat="46.85162086112825" lon="8.49610275699347">
      <ele>2606.3</ele></trkpt>
      <trkpt lat="46.851613311239355" lon="8.496164292241835">
      <ele>2607.8</ele></trkpt>
      <trkpt lat="46.85160814209831" lon="8.496217416362027">
      <ele>2609.2</ele></trkpt>
      <trkpt lat="46.85159751866073" lon="8.496267902499417">
      <ele>2610.7</ele></trkpt>
      <trkpt lat="46.85156870291941" lon="8.49635266257635">
      <ele>2612.2</ele></trkpt>
      <trkpt lat="46.85154165597654" lon="8.496441679703286">
      <ele>2614.3</ele></trkpt>
      <trkpt lat="46.85152402798024" lon="8.496506373685605">
      <ele>2616.4</ele></trkpt>
      <trkpt lat="46.85148783433146" lon="8.496557183276538">
      <ele>2618.5</ele></trkpt>
      <trkpt lat="46.851446879282406" lon="8.496624788715572">
      <ele>2620.7</ele></trkpt>
      <trkpt lat="46.85142444792927" lon="8.496669954711141">
      <ele>2622.8</ele></trkpt>
      <trkpt lat="46.8514068756087" lon="8.49672958797479">
      <ele>2624.9</ele></trkpt>
      <trkpt lat="46.85138923057159" lon="8.496795133710746">
      <ele>2627.0</ele></trkpt>
      <trkpt lat="46.85136113693311" lon="8.496856251632549">
      <ele>2629.1</ele></trkpt>
      <trkpt lat="46.851328498804975" lon="8.496915575466765">
      <ele>2631.2</ele></trkpt>
      <trkpt lat="46.85129821795023" lon="8.49696903164496">
      <ele>2633.3</ele></trkpt>
      <trkpt lat="46.85128128099549" lon="8.49705234599327">
      <ele>2635.5</ele></trkpt>
      <trkpt lat="46.85127792298969" lon="8.49714691593136">
      <ele>2637.6</ele></trkpt>
      <trkpt lat="46.85128708754153" lon="8.497223990335074">
      <ele>2639.7</ele></trkpt>
      <trkpt lat="46.85131204920538" lon="8.497277745941096">
      <ele>2641.8</ele></trkpt>
      <trkpt lat="46.85135341142911" lon="8.497334354950091">
      <ele>2643.9</ele></trkpt>
      <trkpt lat="46.85138977809921" lon="8.49738833499249">
      <ele>2646.0</ele></trkpt>
      <trkpt lat="46.851426114625816" lon="8.497485416813982">
      <ele>2648.2</ele></trkpt>
      <trkpt lat="46.851461139866075" lon="8.497577398253776">
      <ele>2650.3</ele></trkpt>
      <trkpt lat="46.85148455643875" lon="8.497645469398291">
      <ele>2652.4</ele></trkpt>
      <trkpt lat="46.85153176635353" lon="8.49770981256888">
      <ele>2654.5</ele></trkpt>
      <trkpt lat="46.85157403002305" lon="8.497768144571285">
      <ele>2656.0</ele></trkpt>
      <trkpt lat="46.85160545694648" lon="8.497814422392738">
      <ele>2657.4</ele></trkpt>
      <trkpt lat="46.85163149581165" lon="8.497853827932929">
      <ele>2658.9</ele></trkpt>
      <trkpt lat="46.851660244342845" lon="8.49789497841131">
      <ele>2660.4</ele></trkpt>
      <trkpt lat="46.85168591502099" lon="8.4980061968191">
      <ele>2661.8</ele></trkpt>
      <trkpt lat="46.85170194836307" lon="8.498081728684848">
      <ele>2663.3</ele></trkpt>
      <trkpt lat="46.85171454022207" lon="8.498179157186616">
      <ele>2664.8</ele></trkpt>
      <trkpt lat="46.85173614719298" lon="8.49824636717825">
      <ele>2666.3</ele></trkpt>
      <trkpt lat="46.85174484438821" lon="8.49832428558751">
      <ele>2667.7</ele></trkpt>
      <trkpt lat="46.85175528797561" lon="8.49840984396925">
      <ele>2669.2</ele></trkpt>
      <trkpt lat="46.85177677320803" lon="8.49844745556219">
      <ele>2670.7</ele></trkpt>
      <trkpt lat="46.85178871837453" lon="8.498480656949692">
      <ele>2672.1</ele></trkpt>
      <trkpt lat="46.851789814360046" lon="8.498544906250835">
      <ele>2673.6</ele></trkpt>
      <trkpt lat="46.851794874450576" lon="8.498581342151391">
      <ele>2675.1</ele></trkpt>
      <trkpt lat="46.85181385808152" lon="8.49859863179577">
      <ele>2676.6</ele></trkpt>
      <trkpt lat="46.85182614212764" lon="8.498642828657838">
      <ele>2678.0</ele></trkpt>
      <trkpt lat="46.85183368014719" lon="8.49870213011713">
      <ele>2679.5</ele></trkpt>
      <trkpt lat="46.851831743103865" lon="8.498751947830597">
      <ele>2681.0</ele></trkpt>
      <trkpt lat="46.85184108338214" lon="8.498813828742334">
      <ele>2682.4</ele></trkpt>
      <trkpt lat="46.851848846371226" lon="8.498853701111209">
      <ele>2683.9</ele></trkpt>
      <trkpt lat="46.85185711619056" lon="8.498889361066697">
      <ele>2684.7</ele></trkpt>
      <trkpt lat="46.85185711619056" lon="8.498889361066697">
      <ele>2685.5</ele></trkpt>
      <trkpt lat="46.85184148826034" lon="8.498913797604205">
      <ele>2686.3</ele></trkpt>
      <trkpt lat="46.85181605107332" lon="8.498940545505494">
      <ele>2687.1</ele></trkpt>
      <trkpt lat="46.85178694226979" lon="8.49895383263344">
      <ele>2687.9</ele></trkpt>
      <trkpt lat="46.85175612316245" lon="8.498963348840308">
      <ele>2688.7</ele></trkpt>
      <trkpt lat="46.8517327566455" lon="8.49898798692637">
      <ele>2689.5</ele></trkpt>
      <trkpt lat="46.85170750906555" lon="8.499024363439222">
      <ele>2690.3</ele></trkpt>
      <trkpt lat="46.85168151710619" lon="8.499047874489138">
      <ele>2691.1</ele></trkpt>
      <trkpt lat="46.85164652210699" lon="8.499065333527186">
      <ele>2691.9</ele></trkpt>
      <trkpt lat="46.85160125779255" lon="8.499085239064742">
      <ele>2692.8</ele></trkpt>
      <trkpt lat="46.851561745717824" lon="8.49911542046229">
      <ele>2693.6</ele></trkpt>
      <trkpt lat="46.851527989398285" lon="8.49912541630441">
      <ele>2694.4</ele></trkpt>
      <trkpt lat="46.851489521406705" lon="8.499139043395893">
      <ele>2695.2</ele></trkpt>
      <trkpt lat="46.85144633748757" lon="8.499155790235825">
      <ele>2696.0</ele></trkpt>
      <trkpt lat="46.851416784032345" lon="8.499184043398087">
      <ele>2696.8</ele></trkpt>
      <trkpt lat="46.851390664041766" lon="8.49922038930503">
      <ele>2697.6</ele></trkpt>
      <trkpt lat="46.85136440390875" lon="8.49924177054113">
      <ele>2698.4</ele></trkpt>
      <trkpt lat="46.851332167412856" lon="8.499246970650361">
      <ele>2699.2</ele></trkpt>
      <trkpt lat="46.85130042220319" lon="8.499261280808806">
      <ele>2700.0</ele></trkpt>
      <trkpt lat="46.85127416206218" lon="8.499282661989081">
      <ele>2700.9</ele></trkpt>
      <trkpt lat="46.85124727375382" lon="8.4993077548406">
      <ele>2701.7</ele></trkpt>
      <trkpt lat="46.85122202307667" lon="8.499316318325121">
      <ele>2702.6</ele></trkpt>
      <trkpt lat="46.851192567686134" lon="8.499334961453663">
      <ele>2703.5</ele></trkpt>
      <trkpt lat="46.85117211433823" lon="8.499360731783675">
      <ele>2704.3</ele></trkpt>
      <trkpt lat="46.851151216330805" lon="8.499401468260542">
      <ele>2705.2</ele></trkpt>
      <trkpt lat="46.851126919624654" lon="8.499430362353312">
      <ele>2706.1</ele></trkpt>
      <trkpt lat="46.8511006049822" lon="8.499457616881216">
      <ele>2707.0</ele></trkpt>
      <trkpt lat="46.85106126342672" lon="8.499498501193331">
      <ele>2707.8</ele></trkpt>
      <trkpt lat="46.85103419035098" lon="8.499513440836747">
      <ele>2708.7</ele></trkpt>
      <trkpt lat="46.850992049546825" lon="8.499514708394386">
      <ele>2709.6</ele></trkpt>
      <trkpt lat="46.85096580929843" lon="8.499533939213702">
      <ele>2710.4</ele></trkpt>
      <trkpt lat="46.85093829154278" lon="8.499563844918669">
      <ele>2711.3</ele></trkpt>
      <trkpt lat="46.85091992354928" lon="8.49958591898168">
      <ele>2712.2</ele></trkpt>
      <trkpt lat="46.850900587746196" lon="8.499588186684377">
      <ele>2713.1</ele></trkpt>
      <trkpt lat="46.850880102475614" lon="8.499588294338931">
      <ele>2713.9</ele></trkpt>
      <trkpt lat="46.850845287237014" lon="8.499616430147986">
      <ele>2714.8</ele></trkpt>
      <trkpt lat="46.850814984134416" lon="8.499632381259886">
      <ele>2715.7</ele></trkpt>
      <trkpt lat="46.85078464150764" lon="8.499652593237615">
      <ele>2716.5</ele></trkpt>
      <trkpt lat="46.85074924148717" lon="8.4996807305418">
      <ele>2717.4</ele></trkpt>
      <trkpt lat="46.85071755981814" lon="8.499689153899077">
      <ele>2717.9</ele></trkpt>
      <trkpt lat="46.85069829537833" lon="8.499712823032038">
      <ele>2718.5</ele></trkpt>
      <trkpt lat="46.85067189822135" lon="8.499747025353503">
      <ele>2719.0</ele></trkpt>
      <trkpt lat="46.850651899332455" lon="8.499756767312464">
      <ele>2719.6</ele></trkpt>
      <trkpt lat="46.85061012293113" lon="8.499778878039086">
      <ele>2720.1</ele></trkpt>
      <trkpt lat="46.85058783710802" lon="8.49981209918629">
      <ele>2720.6</ele></trkpt>
      <trkpt lat="46.850556897834025" lon="8.499861711121703">
      <ele>2721.2</ele></trkpt>
      <trkpt lat="46.85054273728009" lon="8.499901530749415">
      <ele>2721.7</ele></trkpt>
      <trkpt lat="46.85052378469806" lon="8.499923579898208">
      <ele>2722.3</ele></trkpt>
      <trkpt lat="46.85049340310081" lon="8.499947016568557">
      <ele>2722.8</ele></trkpt>
      <trkpt lat="46.85048558744587" lon="8.499967160993856">
      <ele>2723.3</ele></trkpt>
      <trkpt lat="46.85047561265794" lon="8.499997975946762">
      <ele>2723.9</ele></trkpt>
      <trkpt lat="46.8504610690911" lon="8.500017987704483">
      <ele>2724.4</ele></trkpt>
      <trkpt lat="46.850434391049205" lon="8.500023309970794">
      <ele>2725.0</ele></trkpt>
      <trkpt lat="46.85038931315558" lon="8.500025043712915">
      <ele>2725.5</ele></trkpt>
      <trkpt lat="46.85035238061974" lon="8.500031212796005">
      <ele>2726.0</ele></trkpt>
      <trkpt lat="46.85031518495359" lon="8.500034714805338">
      <ele>2726.6</ele></trkpt>
      <trkpt lat="46.85028518858503" lon="8.500049596333323">
      <ele>2727.1</ele></trkpt>
      <trkpt lat="46.85026424871783" lon="8.500065731658243">
      <ele>2727.7</ele></trkpt>
      <trkpt lat="46.85024630336103" lon="8.500103325907382">
      <ele>2728.2</ele></trkpt>
      <trkpt lat="46.850226901000745" lon="8.500140878288155">
      <ele>2728.9</ele></trkpt>
      <trkpt lat="46.850202880970805" lon="8.500171927487964">
      <ele>2729.7</ele></trkpt>
      <trkpt lat="46.85016930823022" lon="8.500193150473477">
      <ele>2730.4</ele></trkpt>
      <trkpt lat="46.85013136611237" lon="8.50021213679181">
      <ele>2731.2</ele></trkpt>
      <trkpt lat="46.85008267718243" lon="8.500223948337167">
      <ele>2731.9</ele></trkpt>
      <trkpt lat="46.85005766960348" lon="8.50023732833801">
      <ele>2732.7</ele></trkpt>
      <trkpt lat="46.850025627444964" lon="8.50025163171947">
      <ele>2733.4</ele></trkpt>
      <trkpt lat="46.849999475396466" lon="8.500262314148673">
      <ele>2734.2</ele></trkpt>
      <trkpt lat="46.84996024084925" lon="8.500293574496958">
      <ele>2734.9</ele></trkpt>
      <trkpt lat="46.84993466633772" lon="8.50033314223446">
      <ele>2735.6</ele></trkpt>
      <trkpt lat="46.84991478255949" lon="8.500360522557765">
      <ele>2736.4</ele></trkpt>
      <trkpt lat="46.849882740384935" lon="8.500374825827855">
      <ele>2737.1</ele></trkpt>
      <trkpt lat="46.84985849209453" lon="8.500399445057372">
      <ele>2737.9</ele></trkpt>
      <trkpt lat="46.849826786124005" lon="8.500466690393361">
      <ele>2738.6</ele></trkpt>
      <trkpt lat="46.849800032284435" lon="8.500507309919323">
      <ele>2739.4</ele></trkpt>
      <trkpt lat="46.84976898755311" lon="8.500538207027063">
      <ele>2740.1</ele></trkpt>
      <trkpt lat="46.849744952565025" lon="8.500570855224371">
      <ele>2740.9</ele></trkpt>
      <trkpt lat="46.84972927623872" lon="8.50061596786364">
      <ele>2741.6</ele></trkpt>
      <trkpt lat="46.849712323152" lon="8.50067069301209">
      <ele>2742.4</ele></trkpt>
      <trkpt lat="46.84968781667355" lon="8.50069210747711">
      <ele>2743.1</ele></trkpt>
      <trkpt lat="46.84964393966973" lon="8.500719525554452">
      <ele>2743.4</ele></trkpt>
      <trkpt lat="46.84960046645" lon="8.500763525782274">
      <ele>2743.7</ele></trkpt>
      <trkpt lat="46.84955988062769" lon="8.500812408316014">
      <ele>2744.1</ele></trkpt>
      <trkpt lat="46.84952781131597" lon="8.500857721762465">
      <ele>2744.4</ele></trkpt>
      <trkpt lat="46.8495066357963" lon="8.500896313610276">
      <ele>2744.7</ele></trkpt>
      <trkpt lat="46.8494858844052" lon="8.50092313877715">
      <ele>2745.0</ele></trkpt>
      <trkpt lat="46.84945435327845" lon="8.50094440130271">
      <ele>2745.3</ele></trkpt>
      <trkpt lat="46.84941867497116" lon="8.500971469465215">
      <ele>2745.7</ele></trkpt>
      <trkpt lat="46.84939089982995" lon="8.500997080724934">
      <ele>2746.0</ele></trkpt>
      <trkpt lat="46.84936849272938" lon="8.501014261682002">
      <ele>2746.3</ele></trkpt>
      <trkpt lat="46.84933053561571" lon="8.501034846565366">
      <ele>2746.6</ele></trkpt>
      <trkpt lat="46.84928776414723" lon="8.501068173490228">
      <ele>2746.9</ele></trkpt>
      <trkpt lat="46.849257537055216" lon="8.501104973606104">
      <ele>2747.3</ele></trkpt>
      <trkpt lat="46.84923183648568" lon="8.501129025950096">
      <ele>2747.6</ele></trkpt>
      <trkpt lat="46.84919961231014" lon="8.501160974315646">
      <ele>2747.9</ele></trkpt>
      <trkpt lat="46.84916684497271" lon="8.501217497705365">
      <ele>2748.2</ele></trkpt>
      <trkpt lat="46.84913039116526" lon="8.501262186425853">
      <ele>2748.5</ele></trkpt>
      <trkpt lat="46.84909091085581" lon="8.501316964339038">
      <ele>2748.9</ele></trkpt>
      <trkpt lat="46.84905958806552" lon="8.50134677987151">
      <ele>2749.2</ele></trkpt>
      <trkpt lat="46.849031264531625" lon="8.501397516384536">
      <ele>2749.5</ele></trkpt>
      <trkpt lat="46.84900534811114" lon="8.501441888414838">
      <ele>2749.6</ele></trkpt>
      <trkpt lat="46.848978220079694" lon="8.501462712884958">
      <ele>2749.7</ele></trkpt>
      <trkpt lat="46.848935790010444" lon="8.501491233757678">
      <ele>2749.9</ele></trkpt>
      <trkpt lat="46.84890037466644" lon="8.50152096829911">
      <ele>2750.0</ele></trkpt>
      <trkpt lat="46.848876057438154" lon="8.501552010256853">
      <ele>2750.1</ele></trkpt>
      <trkpt lat="46.84884698960856" lon="8.501589894812362">
      <ele>2750.2</ele></trkpt>
      <trkpt lat="46.84881854025846" lon="8.50162511662367">
      <ele>2750.3</ele></trkpt>
      <trkpt lat="46.84879822608158" lon="8.50166586198451">
      <ele>2750.5</ele></trkpt>
      <trkpt lat="46.84876140811568" lon="8.50174584127327">
      <ele>2750.6</ele></trkpt>
      <trkpt lat="46.84872720662386" lon="8.501826934226026">
      <ele>2750.7</ele></trkpt>
      <trkpt lat="46.84869826849761" lon="8.501880857440948">
      <ele>2750.8</ele></trkpt>
      <trkpt lat="46.84867233689878" lon="8.501926841480632">
      <ele>2750.9</ele></trkpt>
      <trkpt lat="46.848629938045654" lon="8.501981023193217">
      <ele>2751.1</ele></trkpt>
      <trkpt lat="46.84859543135969" lon="8.502035898324166">
      <ele>2751.2</ele></trkpt>
      <trkpt lat="46.84856194162753" lon="8.50210524319916">
      <ele>2751.3</ele></trkpt>
      <trkpt lat="46.848515846343425" lon="8.502148665141977">
      <ele>2751.4</ele></trkpt>
      <trkpt lat="46.848471440490634" lon="8.502199056768728">
      <ele>2751.5</ele></trkpt>
      <trkpt lat="46.848433578919796" lon="8.50223836664592">
      <ele>2751.7</ele></trkpt>
      <trkpt lat="46.84840617119473" lon="8.502285383215334">
      <ele>2751.8</ele></trkpt>
      <trkpt lat="46.84836691621429" lon="8.502318778063042">
      <ele>2751.9</ele></trkpt>
      <trkpt lat="46.84832609163756" lon="8.50236230381487">
      <ele>2753.3</ele></trkpt>
      <trkpt lat="46.84829256322581" lon="8.502378713397553">
      <ele>2754.7</ele></trkpt>
      <trkpt lat="46.84825902493606" lon="8.502396184852731">
      <ele>2756.2</ele></trkpt>
      <trkpt lat="46.84821334984044" lon="8.502427302262705">
      <ele>2757.6</ele></trkpt>
      <trkpt lat="46.84817237063607" lon="8.502457463443328">
      <ele>2759.0</ele></trkpt>
      <trkpt lat="46.84813230288157" lon="8.502484416996724">
      <ele>2760.4</ele></trkpt>
      <trkpt lat="46.848105006203795" lon="8.502492400467704">
      <ele>2761.8</ele></trkpt>
      <trkpt lat="46.84806893998862" lon="8.502500197513243">
      <ele>2763.3</ele></trkpt>
      <trkpt lat="46.84803747218351" lon="8.502515585570858">
      <ele>2764.7</ele></trkpt>
      <trkpt lat="46.84801503598049" lon="8.502534902171757">
      <ele>2766.1</ele></trkpt>
      <trkpt lat="46.847990445647824" lon="8.50256432497613">
      <ele>2767.5</ele></trkpt>
      <trkpt lat="46.847961433902114" lon="8.502569062018797">
      <ele>2768.9</ele></trkpt>
      <trkpt lat="46.847936556618684" lon="8.502597417025328">
      <ele>2770.4</ele></trkpt>
      <trkpt lat="46.84790544668253" lon="8.502635260000169">
      <ele>2771.8</ele></trkpt>
      <trkpt lat="46.84785908336849" lon="8.502676525280698">
      <ele>2773.2</ele></trkpt>
      <trkpt lat="46.8478348883278" lon="8.50269633147014">
      <ele>2774.6</ele></trkpt>
      <trkpt lat="46.84783001516227" lon="8.502714408512793">
      <ele>2776.0</ele></trkpt>
      <trkpt lat="46.84783665159679" lon="8.502751450242725">
      <ele>2777.5</ele></trkpt>
      <trkpt lat="46.847825248945725" lon="8.502779009377422">
      <ele>2778.9</ele></trkpt>
      <trkpt lat="46.84780264827115" lon="8.502786023402502">
      <ele>2780.3</ele></trkpt>
      <trkpt lat="46.84776542774842" lon="8.502792184604104">
      <ele>2781.6</ele></trkpt>
      <trkpt lat="46.84773713118548" lon="8.50281190962923">
      <ele>2782.8</ele></trkpt>
      <trkpt lat="46.84771350576245" lon="8.502833339758004">
      <ele>2784.1</ele></trkpt>
      <trkpt lat="46.84768042363819" lon="8.50286365646712">
      <ele>2785.3</ele></trkpt>
      <trkpt lat="46.847656901731035" lon="8.502874926755641">
      <ele>2786.6</ele></trkpt>
      <trkpt lat="46.84761752692551" lon="8.502891207125183">
      <ele>2787.9</ele></trkpt>
      <trkpt lat="46.847581832028105" lon="8.502890999720334">
      <ele>2789.1</ele></trkpt>
      <trkpt lat="46.84754139646084" lon="8.50289655967172">
      <ele>2790.4</ele></trkpt>
      <trkpt lat="46.84750093588748" lon="8.502904807083663">
      <ele>2791.6</ele></trkpt>
      <trkpt lat="46.847464980292244" lon="8.50292971712192">
      <ele>2792.9</ele></trkpt>
      <trkpt lat="46.84744916838748" lon="8.502959326113">
      <ele>2794.2</ele></trkpt>
      <trkpt lat="46.847423701482086" lon="8.50298819349357">
      <ele>2795.4</ele></trkpt>
      <trkpt lat="46.84738349105542" lon="8.503028530797588">
      <ele>2796.7</ele></trkpt>
      <trkpt lat="46.847330345038785" lon="8.503075535395537">
      <ele>2797.9</ele></trkpt>
      <trkpt lat="46.8472828670535" lon="8.50311089054663">
      <ele>2799.2</ele></trkpt>
      <trkpt lat="46.84724125425116" lon="8.503145312656818">
      <ele>2800.5</ele></trkpt>
      <trkpt lat="46.847227796033735" lon="8.503179137605379">
      <ele>2801.7</ele></trkpt>
      <trkpt lat="46.847222957679804" lon="8.503217630394543">
      <ele>2803.0</ele></trkpt>
      <trkpt lat="46.8472240289923" lon="8.503262009303802">
      <ele>2804.2</ele></trkpt>
      <trkpt lat="46.847239505334606" lon="8.50328779188916">
      <ele>2805.5</ele></trkpt>
      <trkpt lat="46.84724736291331" lon="8.503307667664956">
      <ele>2806.4</ele></trkpt>
      <trkpt lat="46.84722853098304" lon="8.50333601039937">
      <ele>2807.4</ele></trkpt>
      <trkpt lat="46.84719174595164" lon="8.503391061086393">
      <ele>2808.3</ele></trkpt>
      <trkpt lat="46.847138532988026" lon="8.503426879362404">
      <ele>2809.3</ele></trkpt>
      <trkpt lat="46.84710532438843" lon="8.503441773265557">
      <ele>2810.2</ele></trkpt>
      <trkpt lat="46.847062795765595" lon="8.503449900625096">
      <ele>2811.1</ele></trkpt>
      <trkpt lat="46.847019854404124" lon="8.50348593504288">
      <ele>2812.1</ele></trkpt>
      <trkpt lat="46.84699091937753" lon="8.503501752570951">
      <ele>2813.0</ele></trkpt>
      <trkpt lat="46.84699308805675" lon="8.503529710689527">
      <ele>2814.0</ele></trkpt>
      <trkpt lat="46.847012482777956" lon="8.50358103406003">
      <ele>2814.9</ele></trkpt>
      <trkpt lat="46.84702824861041" lon="8.503646249854285">
      <ele>2815.8</ele></trkpt>
      <trkpt lat="46.84703535104566" lon="8.503688282896128">
      <ele>2816.8</ele></trkpt>
      <trkpt lat="46.847022514681754" lon="8.503687189781353">
      <ele>2817.7</ele></trkpt>
      <trkpt lat="46.84699174583781" lon="8.503681598535572">
      <ele>2818.7</ele></trkpt>
      <trkpt lat="46.846963803336195" lon="8.50368840149691">
      <ele>2819.6</ele></trkpt>
      <trkpt lat="46.84695069225244" lon="8.503706184060833">
      <ele>2820.5</ele></trkpt>
      <trkpt lat="46.84696320112457" lon="8.503759836253325">
      <ele>2821.5</ele></trkpt>
      <trkpt lat="46.846974927197266" lon="8.503807703751086">
      <ele>2822.4</ele></trkpt>
      <trkpt lat="46.846968093589275" lon="8.503836309799473">
      <ele>2823.4</ele></trkpt>
      <trkpt lat="46.84694068230129" lon="8.503865282268329">
      <ele>2824.3</ele></trkpt>
      <trkpt lat="46.8469268686887" lon="8.503899571847361">
      <ele>2825.0</ele></trkpt>
      <trkpt lat="46.84693116600202" lon="8.503946243388883">
      <ele>2825.7</ele></trkpt>
      <trkpt lat="46.84692331186624" lon="8.503980100176452">
      <ele>2826.5</ele></trkpt>
      <trkpt lat="46.84689993102258" lon="8.504010017693977">
      <ele>2827.2</ele></trkpt>
      <trkpt lat="46.84687140221569" lon="8.504035335935857">
      <ele>2827.9</ele></trkpt>
      <trkpt lat="46.846846600914034" lon="8.504066116895153">
      <ele>2828.6</ele></trkpt>
      <trkpt lat="46.84683979117956" lon="8.504089255671737">
      <ele>2829.3</ele></trkpt>
      <trkpt lat="46.846841848028525" lon="8.504122443156383">
      <ele>2830.1</ele></trkpt>
      <trkpt lat="46.84683913348664" lon="8.504161790561978">
      <ele>2830.8</ele></trkpt>
      <trkpt lat="46.84682371696478" lon="8.504198172395533">
      <ele>2831.5</ele></trkpt>
      <trkpt lat="46.846786841145416" lon="8.504260025337866">
      <ele>2832.2</ele></trkpt>
      <trkpt lat="46.846761355149326" lon="8.504314079218748">
      <ele>2832.9</ele></trkpt>
      <trkpt lat="46.84674636464263" lon="8.504354940526307">
      <ele>2833.7</ele></trkpt>
      <trkpt lat="46.846716850370036" lon="8.504385601743465">
      <ele>2834.4</ele></trkpt>
      <trkpt lat="46.84668725184878" lon="8.504424338140984">
      <ele>2835.1</ele></trkpt>
      <trkpt lat="46.84665388542019" lon="8.504463878390055">
      <ele>2835.8</ele></trkpt>
      <trkpt lat="46.84663370514358" lon="8.504504623711762">
      <ele>2836.5</ele></trkpt>
      <trkpt lat="46.84662075368172" lon="8.504529397722855">
      <ele>2837.3</ele></trkpt>
      <trkpt lat="46.84659560075841" lon="8.504546731757685">
      <ele>2838.0</ele></trkpt>
      <trkpt lat="46.84657543718966" lon="8.504585681019767">
      <ele>2838.7</ele></trkpt>
      <trkpt lat="46.84655817358918" lon="8.504617528638219">
      <ele>2839.7</ele></trkpt>
      <trkpt lat="46.846525883686226" lon="8.504640975610698">
      <ele>2840.6</ele></trkpt>
      <trkpt lat="46.84649551666907" lon="8.5046617727179">
      <ele>2841.6</ele></trkpt>
      <trkpt lat="46.846464196228844" lon="8.504682550921878">
      <ele>2842.6</ele></trkpt>
      <trkpt lat="46.8464227907883" lon="8.504724593339933">
      <ele>2843.5</ele></trkpt>
      <trkpt lat="46.846393284038726" lon="8.504753471122896">
      <ele>2844.5</ele></trkpt>
      <trkpt lat="46.84635827857913" lon="8.504765194713848">
      <ele>2845.5</ele></trkpt>
      <trkpt lat="46.84632270508203" lon="8.504787671773041">
      <ele>2846.5</ele></trkpt>
      <trkpt lat="46.8462752901519" lon="8.504815237648415">
      <ele>2847.4</ele></trkpt>
      <trkpt lat="46.846238889164766" lon="8.504825150342521">
      <ele>2848.4</ele></trkpt>
      <trkpt lat="46.846216034225364" lon="8.504848810136462">
      <ele>2849.4</ele></trkpt>
      <trkpt lat="46.846193622628725" lon="8.504876058185646">
      <ele>2850.3</ele></trkpt>
      <trkpt lat="46.84615095460788" lon="8.50490105626205">
      <ele>2851.3</ele></trkpt>
      <trkpt lat="46.84612433950311" lon="8.504923723691608">
      <ele>2852.3</ele></trkpt>
      <trkpt lat="46.846109030701115" lon="8.504947559083014">
      <ele>2853.2</ele></trkpt>
      <trkpt lat="46.84609500113514" lon="8.504986642457517">
      <ele>2854.2</ele></trkpt>
      <trkpt lat="46.84608764777179" lon="8.505016929005194">
      <ele>2855.2</ele></trkpt>
      <trkpt lat="46.84607632605203" lon="8.505069518563388">
      <ele>2856.2</ele></trkpt>
      <trkpt lat="46.846065128913125" lon="8.505107779511386">
      <ele>2857.1</ele></trkpt>
      <trkpt lat="46.84604490728316" lon="8.505153899114402">
      <ele>2858.1</ele></trkpt>
      <trkpt lat="46.84602666572698" lon="8.505189306348832">
      <ele>2858.9</ele></trkpt>
      <trkpt lat="46.84601968046622" lon="8.505231243278622">
      <ele>2859.8</ele></trkpt>
      <trkpt lat="46.846011441729814" lon="8.505256136430198">
      <ele>2860.7</ele></trkpt>
      <trkpt lat="46.84599812127121" lon="8.505268367923954">
      <ele>2861.5</ele></trkpt>
      <trkpt lat="46.84596918290362" lon="8.505287409597516">
      <ele>2862.3</ele></trkpt>
      <trkpt lat="46.84594216607598" lon="8.505302018253397">
      <ele>2863.2</ele></trkpt>
      <trkpt lat="46.845922310752286" lon="8.505306921951746">
      <ele>2864.0</ele></trkpt>
      <trkpt lat="46.84592938208098" lon="8.505359941298103">
      <ele>2864.9</ele></trkpt>
      <trkpt lat="46.845933828381405" lon="8.505389609258666">
      <ele>2865.8</ele></trkpt>
      <trkpt lat="46.84590903514844" lon="8.505419484522108">
      <ele>2866.6</ele></trkpt>
      <trkpt lat="46.845887534337464" lon="8.505450342815418">
      <ele>2867.4</ele></trkpt>
      <trkpt lat="46.84590037936854" lon="8.505490050255357">
      <ele>2868.3</ele></trkpt>
      <trkpt lat="46.845894454641126" lon="8.505518581757691">
      <ele>2869.2</ele></trkpt>
      <trkpt lat="46.845880992743645" lon="8.505546937658924">
      <ele>2870.0</ele></trkpt>
      <trkpt lat="46.84585640873817" lon="8.505605492083735">
      <ele>2870.8</ele></trkpt>
      <trkpt lat="46.84582753838745" lon="8.505669311038288">
      <ele>2871.7</ele></trkpt>
      <trkpt lat="46.84579463193969" lon="8.505761711896">
      <ele>2872.5</ele></trkpt>
      <trkpt lat="46.84576785056251" lon="8.505854247175156">
      <ele>2873.4</ele></trkpt>
      <trkpt lat="46.84575026129413" lon="8.505921921452092">
      <ele>2874.2</ele></trkpt>
      <trkpt lat="46.845736708330676" lon="8.506012083422728">
      <ele>2875.1</ele></trkpt>
      <trkpt lat="46.84573928403746" lon="8.506092757680861">
      <ele>2875.8</ele></trkpt>
      <trkpt lat="46.84573714600721" lon="8.506172433776362">
      <ele>2876.4</ele></trkpt>
      <trkpt lat="46.84574728293033" lon="8.506198648194058">
      <ele>2877.1</ele></trkpt>
      <trkpt lat="46.84575446195132" lon="8.506239121829852">
      <ele>2877.7</ele></trkpt>
      <trkpt lat="46.84574666562565" lon="8.506266711359668">
      <ele>2878.4</ele></trkpt>
      <trkpt lat="46.84573133145771" lon="8.506293233580838">
      <ele>2879.1</ele></trkpt>
      <trkpt lat="46.84572230721986" lon="8.506352135439828">
      <ele>2879.7</ele></trkpt>
      <trkpt lat="46.845701466967085" lon="8.506414356160514">
      <ele>2880.4</ele></trkpt>
      <trkpt lat="46.84567419977921" lon="8.506456729539275">
      <ele>2881.0</ele></trkpt>
      <trkpt lat="46.84563559287064" lon="8.506501513370592">
      <ele>2881.7</ele></trkpt>
      <trkpt lat="46.84560103882614" lon="8.506567002018581">
      <ele>2882.3</ele></trkpt>
      <trkpt lat="46.845557936201644" lon="8.506639466791214">
      <ele>2883.0</ele></trkpt>
      <trkpt lat="46.84552389232869" lon="8.506701372816408">
      <ele>2883.7</ele></trkpt>
      <trkpt lat="46.84550123765515" lon="8.506754601997178">
      <ele>2884.3</ele></trkpt>
      <trkpt lat="46.845490333325074" lon="8.506813466228126">
      <ele>2885.0</ele></trkpt>
      <trkpt lat="46.845472859988384" lon="8.506867702835265">
      <ele>2885.6</ele></trkpt>
      <trkpt lat="46.845461712446095" lon="8.506900588249856">
      <ele>2886.3</ele></trkpt>
    </trkseg>
  </trk>
</gpx>