<gpx xmlns="http://www.topografix.com/GPX/1/1" xmlns:xsi="http://www.w3.org/2001/XMLSchema-instance" version="1.1" creator="hiking-skill GPX generator" xsi:schemaLocation="http://www.topografix.com/GPX/1/1 http://www.topografix.com/GPX/1/1/gpx.xsd">
  <metadata>
    <time>2026-05-10T02:55:50.991697Z</time>
  </metadata>
  <trk>
    <name>Hohtürli &amp; Blüemlisalphütte</name>
    <trkseg>
      <trkpt lat="46.513" lon="7.707"/>
      <trkpt lat="46.495" lon="7.715"/>
      <trkpt lat="46.485" lon="7.73"/>
      <trkpt lat="46.475" lon="7.745"/>
    </trkseg>
  </trk>
</gpx>
