<?xml version='1.0' encoding='utf-8'?>
<gpx xmlns="http://www.topografix.com/GPX/1/1" xmlns:xsi="http://www.w3.org/2001/XMLSchema-instance" xsi:schemaLocation="http://www.topografix.com/GPX/1/1 http://www.topografix.com/GPX/1/1/gpx.xsd" version="1.1" creator="gpx.py -- https://github.com/tkrajina/gpxpy">
  <trk>
    <name>munt-pers</name>
    <trkseg>
      <trkpt lat="46.41190825050644" lon="9.965049026293402">
      <ele>2972.2</ele></trkpt>
      <trkpt lat="46.41191362461622" lon="9.965024345517865">
      <ele>2972.2</ele></trkpt>
      <trkpt lat="46.41195242882209" lon="9.964925609165077">
      <ele>2972.2</ele></trkpt>
      <trkpt lat="46.41198903745678" lon="9.964865624611692">
      <ele>2972.2</ele></trkpt>
      <trkpt lat="46.41214300854901" lon="9.964719646364712">
      <ele>2972.2</ele></trkpt>
      <trkpt lat="46.41219916001127" lon="9.964763329350832">
      <ele>2972.2</ele></trkpt>
      <trkpt lat="46.41227822957314" lon="9.964814937826441">
      <ele>2972.2</ele></trkpt>
      <trkpt lat="46.41232073867843" lon="9.964833886656296">
      <ele>2972.2</ele></trkpt>
      <trkpt lat="46.412343978327826" lon="9.964828997005784">
      <ele>2972.2</ele></trkpt>
      <trkpt lat="46.41235550489992" lon="9.964817003364356">
      <ele>2972.2</ele></trkpt>
      <trkpt lat="46.41237111714017" lon="9.964777965506737">
      <ele>2972.2</ele></trkpt>
      <trkpt lat="46.412392620948125" lon="9.96473626139699">
      <ele>2972.2</ele></trkpt>
      <trkpt lat="46.412414307768124" lon="9.964704116767678">
      <ele>2972.2</ele></trkpt>
      <trkpt lat="46.41243298189087" lon="9.964667420579831">
      <ele>2972.2</ele></trkpt>
      <trkpt lat="46.412443666876676" lon="9.964640683829959">
      <ele>2972.2</ele></trkpt>
      <trkpt lat="46.41245553486" lon="9.964595589857797">
      <ele>2972.2</ele></trkpt>
      <trkpt lat="46.41247529581454" lon="9.964562626714926">
      <ele>2972.2</ele></trkpt>
      <trkpt lat="46.41248877191724" lon="9.964549982127885">
      <ele>2972.2</ele></trkpt>
      <trkpt lat="46.41251101876705" lon="9.964527440489242">
      <ele>2972.2</ele></trkpt>
      <trkpt lat="46.412524536580285" lon="9.964513327442555">
      <ele>2972.2</ele></trkpt>
      <trkpt lat="46.412543822589384" lon="9.964501682224318">
      <ele>2972.2</ele></trkpt>
      <trkpt lat="46.41257040322526" lon="9.964458731021288">
      <ele>2972.3</ele></trkpt>
      <trkpt lat="46.41260407870981" lon="9.964428589123095">
      <ele>2972.4</ele></trkpt>
      <trkpt lat="46.41265918208741" lon="9.964412666049844">
      <ele>2972.6</ele></trkpt>
      <trkpt lat="46.41269946678318" lon="9.9643997610212">
      <ele>2972.7</ele></trkpt>
      <trkpt lat="46.41274867712023" lon="9.964369601104595">
      <ele>2972.8</ele></trkpt>
      <trkpt lat="46.41277349209646" lon="9.964353789198487">
      <ele>2972.9</ele></trkpt>
      <trkpt lat="46.412789561545345" lon="9.964347146890384">
      <ele>2973.0</ele></trkpt>
      <trkpt lat="46.41281423178337" lon="9.964355609236753">
      <ele>2973.2</ele></trkpt>
      <trkpt lat="46.41283298377485" lon="9.964350562301425">
      <ele>2973.3</ele></trkpt>
      <trkpt lat="46.41286472914671" lon="9.964354943110571">
      <ele>2973.4</ele></trkpt>
      <trkpt lat="46.41288184375715" lon="9.964353502378234">
      <ele>2973.5</ele></trkpt>
      <trkpt lat="46.41289630132151" lon="9.964349725749477">
      <ele>2973.6</ele></trkpt>
      <trkpt lat="46.41291133254359" lon="9.964337166479199">
      <ele>2973.8</ele></trkpt>
      <trkpt lat="46.41292988820676" lon="9.964340932763616">
      <ele>2973.9</ele></trkpt>
      <trkpt lat="46.41294502687172" lon="9.96432395428428">
      <ele>2974.0</ele></trkpt>
      <trkpt lat="46.41297881037005" lon="9.96430633503238">
      <ele>2974.1</ele></trkpt>
      <trkpt lat="46.41302056587564" lon="9.964279523073316">
      <ele>2974.2</ele></trkpt>
      <trkpt lat="46.41306012023657" lon="9.964282029546146">
      <ele>2974.4</ele></trkpt>
      <trkpt lat="46.41307457118263" lon="9.964295923413921">
      <ele>2974.5</ele></trkpt>
      <trkpt lat="46.413087067531855" lon="9.964275139261753">
      <ele>2974.6</ele></trkpt>
      <trkpt lat="46.413121393720054" lon="9.964250934913657">
      <ele>2974.5</ele></trkpt>
      <trkpt lat="46.41314720491127" lon="9.964242521272649">
      <ele>2974.4</ele></trkpt>
      <trkpt lat="46.41317956889853" lon="9.96425428288378">
      <ele>2974.3</ele></trkpt>
      <trkpt lat="46.413206037740906" lon="9.964234123626603">
      <ele>2974.2</ele></trkpt>
      <trkpt lat="46.41323842939083" lon="9.964209087362754">
      <ele>2974.1</ele></trkpt>
      <trkpt lat="46.41325522914036" lon="9.964187033211811">
      <ele>2974.0</ele></trkpt>
      <trkpt lat="46.41326371652448" lon="9.964154298947612">
      <ele>2973.9</ele></trkpt>
      <trkpt lat="46.41330334263036" lon="9.964136209971034">
      <ele>2973.8</ele></trkpt>
      <trkpt lat="46.41333687036267" lon="9.964112696939495">
      <ele>2973.7</ele></trkpt>
      <trkpt lat="46.41335241962066" lon="9.964094253977647">
      <ele>2973.6</ele></trkpt>
      <trkpt lat="46.4133738742456" lon="9.964054745667665">
      <ele>2973.4</ele></trkpt>
      <trkpt lat="46.41339579740463" lon="9.964011576623898">
      <ele>2973.3</ele></trkpt>
      <trkpt lat="46.41341084143641" lon="9.963963688867016">
      <ele>2973.2</ele></trkpt>
      <trkpt lat="46.4134248022315" lon="9.963946655263703">
      <ele>2973.1</ele></trkpt>
      <trkpt lat="46.413445257004966" lon="9.963935064098527">
      <ele>2973.0</ele></trkpt>
      <trkpt lat="46.41347289556556" lon="9.96393188833043">
      <ele>2972.9</ele></trkpt>
      <trkpt lat="46.41351664525695" lon="9.963920601565897">
      <ele>2972.8</ele></trkpt>
      <trkpt lat="46.413550238375684" lon="9.963894150528889">
      <ele>2972.7</ele></trkpt>
      <trkpt lat="46.41358485692038" lon="9.963908944860036">
      <ele>2972.6</ele></trkpt>
      <trkpt lat="46.41361865929228" lon="9.963908255320407">
      <ele>2972.5</ele></trkpt>
      <trkpt lat="46.41365700188759" lon="9.963895259220973">
      <ele>2972.3</ele></trkpt>
      <trkpt lat="46.41369305724423" lon="9.963880699151145">
      <ele>2972.2</ele></trkpt>
      <trkpt lat="46.41370374233405" lon="9.963853948624273">
      <ele>2972.0</ele></trkpt>
      <trkpt lat="46.41371701182335" lon="9.963833200146977">
      <ele>2971.9</ele></trkpt>
      <trkpt lat="46.41373302206631" lon="9.963811837613937">
      <ele>2971.7</ele></trkpt>
      <trkpt lat="46.41375233797584" lon="9.963781064821545">
      <ele>2971.6</ele></trkpt>
      <trkpt lat="46.41377837090821" lon="9.96376309695443">
      <ele>2971.4</ele></trkpt>
      <trkpt lat="46.4137959575425" lon="9.963722679331044">
      <ele>2971.3</ele></trkpt>
      <trkpt lat="46.413820111090985" lon="9.963684024975214">
      <ele>2971.1</ele></trkpt>
      <trkpt lat="46.413856055536606" lon="9.963639283377198">
      <ele>2970.9</ele></trkpt>
      <trkpt lat="46.41387199754942" lon="9.963603200320746">
      <ele>2970.8</ele></trkpt>
      <trkpt lat="46.41387150725724" lon="9.963572272592467">
      <ele>2970.6</ele></trkpt>
      <trkpt lat="46.41387642405576" lon="9.96354305412168">
      <ele>2970.5</ele></trkpt>
      <trkpt lat="46.41388735703522" lon="9.9635229514075">
      <ele>2970.3</ele></trkpt>
      <trkpt lat="46.41389084922902" lon="9.963487784880808">
      <ele>2970.2</ele></trkpt>
      <trkpt lat="46.413897468777954" lon="9.963452022290552">
      <ele>2970.0</ele></trkpt>
      <trkpt lat="46.41391752789938" lon="9.963440412412023">
      <ele>2969.9</ele></trkpt>
      <trkpt lat="46.41392383655066" lon="9.96341861084877">
      <ele>2969.7</ele></trkpt>
      <trkpt lat="46.41393085271125" lon="9.96339979609251">
      <ele>2969.6</ele></trkpt>
      <trkpt lat="46.41393778443474" lon="9.963366988853235">
      <ele>2969.4</ele></trkpt>
      <trkpt lat="46.41393471195644" lon="9.963277813549034">
      <ele>2969.6</ele></trkpt>
      <trkpt lat="46.41393896362287" lon="9.963261082165925">
      <ele>2969.7</ele></trkpt>
      <trkpt lat="46.413940547579365" lon="9.963237642164577">
      <ele>2969.9</ele></trkpt>
      <trkpt lat="46.41394269581444" lon="9.96317349900036">
      <ele>2970.0</ele></trkpt>
      <trkpt lat="46.41395438775639" lon="9.963116072350516">
      <ele>2970.2</ele></trkpt>
      <trkpt lat="46.4139881385971" lon="9.963048976556488">
      <ele>2970.3</ele></trkpt>
      <trkpt lat="46.41402900191032" lon="9.96298420281748">
      <ele>2970.5</ele></trkpt>
      <trkpt lat="46.41406325819329" lon="9.962947358724609">
      <ele>2970.6</ele></trkpt>
      <trkpt lat="46.414109113751145" lon="9.962925160414924">
      <ele>2970.8</ele></trkpt>
      <trkpt lat="46.41415418044568" lon="9.962879372437193">
      <ele>2970.9</ele></trkpt>
      <trkpt lat="46.41419558538923" lon="9.962849289322103">
      <ele>2971.1</ele></trkpt>
      <trkpt lat="46.414236575635066" lon="9.962832173495691">
      <ele>2971.3</ele></trkpt>
      <trkpt lat="46.41427836667748" lon="9.962821536208244">
      <ele>2971.4</ele></trkpt>
      <trkpt lat="46.41429931355544" lon="9.962804814331683">
      <ele>2971.6</ele></trkpt>
      <trkpt lat="46.41432725277687" lon="9.962770746796293">
      <ele>2971.7</ele></trkpt>
      <trkpt lat="46.414345762481865" lon="9.962741406202909">
      <ele>2971.9</ele></trkpt>
      <trkpt lat="46.4143624508089" lon="9.96268916952053">
      <ele>2972.0</ele></trkpt>
      <trkpt lat="46.41438318406182" lon="9.962612097712709">
      <ele>2972.2</ele></trkpt>
      <trkpt lat="46.41439861555667" lon="9.962581143279643">
      <ele>2972.3</ele></trkpt>
      <trkpt lat="46.414406577571015" lon="9.962555007101164">
      <ele>2972.5</ele></trkpt>
      <trkpt lat="46.41441456639414" lon="9.962492085230021">
      <ele>2972.4</ele></trkpt>
      <trkpt lat="46.41443393717567" lon="9.962441443734047">
      <ele>2972.3</ele></trkpt>
      <trkpt lat="46.41445242763396" lon="9.96239517253013">
      <ele>2972.2</ele></trkpt>
      <trkpt lat="46.414478768424786" lon="9.96234557115844">
      <ele>2972.1</ele></trkpt>
      <trkpt lat="46.414504847056264" lon="9.962307747069397">
      <ele>2972.0</ele></trkpt>
      <trkpt lat="46.4145420239699" lon="9.962259365774317">
      <ele>2971.9</ele></trkpt>
      <trkpt lat="46.41456337958443" lon="9.9622242756218">
      <ele>2971.8</ele></trkpt>
      <trkpt lat="46.414589025960964" lon="9.96215330083035">
      <ele>2971.7</ele></trkpt>
      <trkpt lat="46.414614282412636" lon="9.962117637456803">
      <ele>2971.6</ele></trkpt>
      <trkpt lat="46.4146446064764" lon="9.96208073950969">
      <ele>2971.5</ele></trkpt>
      <trkpt lat="46.41466963105029" lon="9.962037700045096">
      <ele>2971.4</ele></trkpt>
      <trkpt lat="46.4146909140043" lon="9.962006275945665">
      <ele>2971.3</ele></trkpt>
      <trkpt lat="46.41471897778189" lon="9.961983990127509">
      <ele>2971.2</ele></trkpt>
      <trkpt lat="46.41474430383306" lon="9.961979976930131">
      <ele>2971.1</ele></trkpt>
      <trkpt lat="46.41476659338791" lon="9.961972881492114">
      <ele>2971.0</ele></trkpt>
      <trkpt lat="46.41481174803974" lon="9.961950623425672">
      <ele>2970.9</ele></trkpt>
      <trkpt lat="46.41486331340219" lon="9.96193674468768">
      <ele>2970.8</ele></trkpt>
      <trkpt lat="46.41489025002353" lon="9.9619129358475">
      <ele>2970.7</ele></trkpt>
      <trkpt lat="46.414946148712474" lon="9.961878646428858">
      <ele>2970.6</ele></trkpt>
      <trkpt lat="46.41498984597885" lon="9.961851909019328">
      <ele>2970.5</ele></trkpt>
      <trkpt lat="46.415034499388504" lon="9.961813751745554">
      <ele>2971.2</ele></trkpt>
      <trkpt lat="46.4150979595795" lon="9.961732486276727">
      <ele>2971.8</ele></trkpt>
      <trkpt lat="46.41514258338935" lon="9.961635795511441">
      <ele>2972.5</ele></trkpt>
      <trkpt lat="46.41515786545963" lon="9.961603454057371">
      <ele>2973.1</ele></trkpt>
      <trkpt lat="46.415169965469175" lon="9.961559200836199">
      <ele>2973.8</ele></trkpt>
      <trkpt lat="46.41519022761475" lon="9.961531580570824">
      <ele>2974.5</ele></trkpt>
      <trkpt lat="46.415215471074745" lon="9.961500132094379">
      <ele>2975.1</ele></trkpt>
      <trkpt lat="46.415248547296564" lon="9.961439040364805">
      <ele>2975.8</ele></trkpt>
      <trkpt lat="46.415263502025965" lon="9.961395115084043">
      <ele>2976.4</ele></trkpt>
      <trkpt lat="46.41531310635686" lon="9.961171233020723">
      <ele>2977.1</ele></trkpt>
      <trkpt lat="46.41533899319084" lon="9.96108375456354">
      <ele>2977.8</ele></trkpt>
      <trkpt lat="46.415357722082916" lon="9.96098385394515">
      <ele>2978.4</ele></trkpt>
      <trkpt lat="46.415369673060475" lon="9.960899760912893">
      <ele>2979.1</ele></trkpt>
      <trkpt lat="46.41538310827202" lon="9.96083633638089">
      <ele>2979.7</ele></trkpt>
      <trkpt lat="46.415384682770195" lon="9.960800350796042">
      <ele>2980.4</ele></trkpt>
      <trkpt lat="46.41539263501475" lon="9.960721224764518">
      <ele>2981.1</ele></trkpt>
      <trkpt lat="46.415381117479505" lon="9.96068023168494">
      <ele>2981.7</ele></trkpt>
      <trkpt lat="46.41537807448838" lon="9.960641832085376">
      <ele>2982.4</ele></trkpt>
      <trkpt lat="46.41537954766713" lon="9.960592594621467">
      <ele>2983.0</ele></trkpt>
      <trkpt lat="46.41539272724386" lon="9.960576264944455">
      <ele>2983.7</ele></trkpt>
      <trkpt lat="46.41540748297682" lon="9.960540866553703">
      <ele>2984.4</ele></trkpt>
      <trkpt lat="46.415419771865594" lon="9.960511976968382">
      <ele>2985.2</ele></trkpt>
      <trkpt lat="46.415443137874284" lon="9.960491683739898">
      <ele>2985.9</ele></trkpt>
      <trkpt lat="46.415482095676836" lon="9.96046840715914">
      <ele>2986.6</ele></trkpt>
      <trkpt lat="46.41551437200305" lon="9.960448515396056">
      <ele>2987.3</ele></trkpt>
      <trkpt lat="46.41556371798179" lon="9.960394803190582">
      <ele>2988.1</ele></trkpt>
      <trkpt lat="46.41559982952736" lon="9.960377288963318">
      <ele>2988.8</ele></trkpt>
      <trkpt lat="46.41565617999108" lon="9.960340064596249">
      <ele>2989.5</ele></trkpt>
      <trkpt lat="46.41569848480471" lon="9.960305908485246">
      <ele>2990.3</ele></trkpt>
      <trkpt lat="46.41573401941585" lon="9.960279531479367">
      <ele>2991.0</ele></trkpt>
      <trkpt lat="46.41577318966339" lon="9.960246699931496">
      <ele>2991.7</ele></trkpt>
      <trkpt lat="46.415798229730235" lon="9.960202930744005">
      <ele>2992.5</ele></trkpt>
      <trkpt lat="46.41582813719768" lon="9.960185140733637">
      <ele>2993.2</ele></trkpt>
      <trkpt lat="46.41586619341902" lon="9.960132386317653">
      <ele>2993.9</ele></trkpt>
      <trkpt lat="46.41590022708258" lon="9.9600860813781">
      <ele>2994.7</ele></trkpt>
      <trkpt lat="46.41593962026731" lon="9.960060625356485">
      <ele>2995.4</ele></trkpt>
      <trkpt lat="46.41597827317862" lon="9.960033651374493">
      <ele>2996.1</ele></trkpt>
      <trkpt lat="46.41601737802486" lon="9.960003757418605">
      <ele>2996.8</ele></trkpt>
      <trkpt lat="46.41606317456437" lon="9.95998742200087">
      <ele>2997.6</ele></trkpt>
      <trkpt lat="46.41607766131173" lon="9.959964516094962">
      <ele>2998.3</ele></trkpt>
      <trkpt lat="46.41610074274649" lon="9.959921397182447">
      <ele>2998.8</ele></trkpt>
      <trkpt lat="46.41613112422627" lon="9.959882287465929">
      <ele>2999.2</ele></trkpt>
      <trkpt lat="46.41614722528797" lon="9.959821185020301">
      <ele>2999.7</ele></trkpt>
      <trkpt lat="46.416163143983255" lon="9.959803498830077">
      <ele>3000.1</ele></trkpt>
      <trkpt lat="46.41618342161913" lon="9.95981766327554">
      <ele>3000.6</ele></trkpt>
      <trkpt lat="46.41619685141573" lon="9.959824885554013">
      <ele>3001.0</ele></trkpt>
      <trkpt lat="46.41620269095958" lon="9.959806743579291">
      <ele>3001.5</ele></trkpt>
      <trkpt lat="46.4162142170005" lon="9.959794748013014">
      <ele>3001.9</ele></trkpt>
      <trkpt lat="46.416220129059326" lon="9.959772939699162">
      <ele>3002.4</ele></trkpt>
      <trkpt lat="46.416236745905024" lon="9.959794286306693">
      <ele>3002.9</ele></trkpt>
      <trkpt lat="46.41624503912633" lon="9.95978803532382">
      <ele>3003.3</ele></trkpt>
      <trkpt lat="46.416243494935856" lon="9.959752645851644">
      <ele>3003.8</ele></trkpt>
      <trkpt lat="46.41623825361757" lon="9.959708261528725">
      <ele>3004.2</ele></trkpt>
      <trkpt lat="46.41624422378665" lon="9.959684243665976">
      <ele>3004.7</ele></trkpt>
      <trkpt lat="46.416260755472166" lon="9.959691610181777">
      <ele>3005.1</ele></trkpt>
      <trkpt lat="46.41626452791142" lon="9.9596615951434">
      <ele>3005.6</ele></trkpt>
      <trkpt lat="46.41627865474988" lon="9.959654873694275">
      <ele>3006.0</ele></trkpt>
      <trkpt lat="46.41629147463759" lon="9.959654715151029">
      <ele>3006.5</ele></trkpt>
      <trkpt lat="46.416305713711715" lon="9.959678163400158">
      <ele>3006.9</ele></trkpt>
      <trkpt lat="46.416330620409624" lon="9.959675599993927">
      <ele>3007.4</ele></trkpt>
      <trkpt lat="46.41634711195074" lon="9.959685176889211">
      <ele>3008.1</ele></trkpt>
      <trkpt lat="46.41635537840136" lon="9.959662723244403">
      <ele>3008.7</ele></trkpt>
      <trkpt lat="46.416385766986565" lon="9.95962288479576">
      <ele>3009.4</ele></trkpt>
      <trkpt lat="46.4164024974175" lon="9.959586093843077">
      <ele>3010.0</ele></trkpt>
      <trkpt lat="46.41640988895759" lon="9.959550365073381">
      <ele>3010.7</ele></trkpt>
      <trkpt lat="46.41642015346627" lon="9.95952507633817">
      <ele>3011.3</ele></trkpt>
      <trkpt lat="46.416437063630894" lon="9.959480199492884">
      <ele>3012.0</ele></trkpt>
      <trkpt lat="46.416440603412305" lon="9.959442834090337">
      <ele>3012.6</ele></trkpt>
      <trkpt lat="46.416444870985835" lon="9.959425360645163">
      <ele>3013.3</ele></trkpt>
      <trkpt lat="46.41645586327209" lon="9.95941996383611">
      <ele>3013.9</ele></trkpt>
      <trkpt lat="46.41647106651474" lon="9.959400044930277">
      <ele>3014.6</ele></trkpt>
      <trkpt lat="46.416474138160964" lon="9.959366327450457">
      <ele>3015.3</ele></trkpt>
      <trkpt lat="46.41649701594855" lon="9.959332763205769">
      <ele>3015.9</ele></trkpt>
      <trkpt lat="46.41651877374094" lon="9.959296947621489">
      <ele>3016.6</ele></trkpt>
      <trkpt lat="46.41654293670846" lon="9.959275207020148">
      <ele>3017.2</ele></trkpt>
      <trkpt lat="46.41655253172748" lon="9.95922780362807">
      <ele>3017.9</ele></trkpt>
      <trkpt lat="46.41656080527942" lon="9.959204621422773">
      <ele>3018.5</ele></trkpt>
      <trkpt lat="46.41656281470753" lon="9.959166456021801">
      <ele>3019.2</ele></trkpt>
      <trkpt lat="46.41657519568289" lon="9.959150817256237">
      <ele>3019.8</ele></trkpt>
      <trkpt lat="46.416586026742216" lon="9.959117447482221">
      <ele>3020.5</ele></trkpt>
      <trkpt lat="46.4166164316068" lon="9.959076867569586">
      <ele>3021.3</ele></trkpt>
      <trkpt lat="46.41662950981585" lon="9.95904727197017">
      <ele>3022.2</ele></trkpt>
      <trkpt lat="46.41662767123427" lon="9.95902511605312">
      <ele>3023.0</ele></trkpt>
      <trkpt lat="46.41663488286706" lon="9.958997472928196">
      <ele>3023.8</ele></trkpt>
      <trkpt lat="46.41664915674423" lon="9.958984134364167">
      <ele>3024.6</ele></trkpt>
      <trkpt lat="46.41666409520328" lon="9.958958307962455">
      <ele>3025.4</ele></trkpt>
      <trkpt lat="46.41668045848766" lon="9.958938429776236">
      <ele>3026.3</ele></trkpt>
      <trkpt lat="46.416687707949144" lon="9.958943907065505">
      <ele>3027.1</ele></trkpt>
      <trkpt lat="46.416720766221665" lon="9.958924050318666">
      <ele>3027.9</ele></trkpt>
      <trkpt lat="46.41674818903909" lon="9.95886051932095">
      <ele>3028.8</ele></trkpt>
      <trkpt lat="46.416755809187464" lon="9.958814494365116">
      <ele>3029.6</ele></trkpt>
      <trkpt lat="46.41676400088691" lon="9.958794990959504">
      <ele>3030.4</ele></trkpt>
      <trkpt lat="46.41677118304869" lon="9.958786488869379">
      <ele>3031.2</ele></trkpt>
      <trkpt lat="46.416780995766565" lon="9.958764106807497">
      <ele>3032.1</ele></trkpt>
      <trkpt lat="46.41679380859714" lon="9.958728629726803">
      <ele>3032.9</ele></trkpt>
      <trkpt lat="46.416811340666165" lon="9.958708805762551">
      <ele>3033.7</ele></trkpt>
      <trkpt lat="46.41684497269474" lon="9.95868013948859">
      <ele>3034.5</ele></trkpt>
      <trkpt lat="46.41688785260504" lon="9.958637900811922">
      <ele>3035.3</ele></trkpt>
      <trkpt lat="46.416933003053025" lon="9.95859797988292">
      <ele>3036.2</ele></trkpt>
      <trkpt lat="46.416969127233834" lon="9.958562063801411">
      <ele>3037.0</ele></trkpt>
      <trkpt lat="46.41697451438287" lon="9.958546854430441">
      <ele>3037.6</ele></trkpt>
      <trkpt lat="46.416994756260515" lon="9.958544815376408">
      <ele>3038.1</ele></trkpt>
      <trkpt lat="46.41701551206075" lon="9.95851924611045">
      <ele>3038.7</ele></trkpt>
      <trkpt lat="46.417037073434614" lon="9.958492256781586">
      <ele>3039.2</ele></trkpt>
      <trkpt lat="46.41705526428229" lon="9.958477616554312">
      <ele>3039.8</ele></trkpt>
      <trkpt lat="46.41706269916795" lon="9.958457336051687">
      <ele>3040.3</ele></trkpt>
      <trkpt lat="46.417071166589906" lon="9.958460657666365">
      <ele>3040.8</ele></trkpt>
      <trkpt lat="46.41708589587876" lon="9.958462058105017">
      <ele>3041.4</ele></trkpt>
      <trkpt lat="46.417104224777894" lon="9.958440800483775">
      <ele>3041.9</ele></trkpt>
      <trkpt lat="46.417123945886516" lon="9.958426960103184">
      <ele>3042.5</ele></trkpt>
      <trkpt lat="46.41713915614152" lon="9.958406312259187">
      <ele>3043.1</ele></trkpt>
      <trkpt lat="46.41716022575831" lon="9.958384440238925">
      <ele>3043.6</ele></trkpt>
      <trkpt lat="46.41717042859467" lon="9.958379735199994">
      <ele>3044.2</ele></trkpt>
      <trkpt lat="46.417194879488704" lon="9.958362444874542">
      <ele>3044.7</ele></trkpt>
      <trkpt lat="46.41721757729581" lon="9.958336965717866">
      <ele>3045.2</ele></trkpt>
      <trkpt lat="46.41724281068591" lon="9.95831969871816">
      <ele>3045.8</ele></trkpt>
      <trkpt lat="46.417259282859185" lon="9.958312331044558">
      <ele>3046.3</ele></trkpt>
      <trkpt lat="46.41727957714771" lon="9.95832575422174">
      <ele>3046.9</ele></trkpt>
      <trkpt lat="46.41729047116293" lon="9.95832477709005">
      <ele>3047.4</ele></trkpt>
      <trkpt lat="46.4173215546361" lon="9.958306298466741">
      <ele>3048.0</ele></trkpt>
      <trkpt lat="46.41733482670841" lon="9.958303206580487">
      <ele>3048.5</ele></trkpt>
      <trkpt lat="46.417360931244616" lon="9.958281568479624">
      <ele>3049.0</ele></trkpt>
      <trkpt lat="46.417393907939385" lon="9.958265377075117">
      <ele>3049.6</ele></trkpt>
      <trkpt lat="46.417437489961905" lon="9.958243783534508">
      <ele>3050.1</ele></trkpt>
      <trkpt lat="46.417451284594634" lon="9.958217174641394">
      <ele>3050.6</ele></trkpt>
      <trkpt lat="46.4174762585952" lon="9.958176341156712">
      <ele>3051.1</ele></trkpt>
      <trkpt lat="46.41750308003872" lon="9.958157677296995">
      <ele>3051.6</ele></trkpt>
      <trkpt lat="46.41751736491164" lon="9.958161256277915">
      <ele>3052.2</ele></trkpt>
      <trkpt lat="46.417526826868205" lon="9.958155059224786">
      <ele>3052.7</ele></trkpt>
      <trkpt lat="46.41755027805033" lon="9.958112684355944">
      <ele>3053.2</ele></trkpt>
      <trkpt lat="46.41757559315159" lon="9.958091738139233">
      <ele>3053.7</ele></trkpt>
      <trkpt lat="46.41758518566505" lon="9.958079665056129">
      <ele>3054.2</ele></trkpt>
      <trkpt lat="46.41762285229021" lon="9.958062220925756">
      <ele>3054.8</ele></trkpt>
      <trkpt lat="46.417646051024214" lon="9.958031611395251">
      <ele>3055.3</ele></trkpt>
      <trkpt lat="46.41769015045938" lon="9.958004146512126">
      <ele>3055.8</ele></trkpt>
      <trkpt lat="46.41771404065922" lon="9.95797725187201">
      <ele>3056.3</ele></trkpt>
      <trkpt lat="46.41773782012338" lon="9.957973164703494">
      <ele>3056.8</ele></trkpt>
      <trkpt lat="46.41776298452897" lon="9.957941175904741">
      <ele>3057.4</ele></trkpt>
      <trkpt lat="46.41779994514719" lon="9.95788542610233">
      <ele>3057.9</ele></trkpt>
      <trkpt lat="46.41780944885706" lon="9.957841699966835">
      <ele>3058.4</ele></trkpt>
      <trkpt lat="46.41782196580308" lon="9.957802512419986">
      <ele>3058.3</ele></trkpt>
      <trkpt lat="46.41784137798971" lon="9.957767328126607">
      <ele>3058.3</ele></trkpt>
      <trkpt lat="46.41785873934087" lon="9.957719529498942">
      <ele>3058.2</ele></trkpt>
      <trkpt lat="46.417888292224184" lon="9.957611940697337">
      <ele>3058.2</ele></trkpt>
      <trkpt lat="46.41790010831621" lon="9.957569050661341">
      <ele>3058.1</ele></trkpt>
      <trkpt lat="46.41790827273227" lon="9.957533343557811">
      <ele>3058.0</ele></trkpt>
      <trkpt lat="46.417917705399304" lon="9.957457965079811">
      <ele>3058.0</ele></trkpt>
      <trkpt lat="46.41792869538181" lon="9.957399589542955">
      <ele>3057.9</ele></trkpt>
      <trkpt lat="46.41793959297456" lon="9.957327948901945">
      <ele>3057.9</ele></trkpt>
      <trkpt lat="46.417944431680255" lon="9.957284747577523">
      <ele>3057.8</ele></trkpt>
      <trkpt lat="46.41796426323584" lon="9.957248098968567">
      <ele>3057.7</ele></trkpt>
      <trkpt lat="46.41798461538448" lon="9.957223264790931">
      <ele>3057.7</ele></trkpt>
      <trkpt lat="46.41800920241547" lon="9.95718241248159">
      <ele>3057.6</ele></trkpt>
      <trkpt lat="46.4180177132258" lon="9.957148933651034">
      <ele>3057.6</ele></trkpt>
      <trkpt lat="46.41802632908751" lon="9.957110319338472">
      <ele>3057.5</ele></trkpt>
      <trkpt lat="46.41802596753165" lon="9.957073513230682">
      <ele>3057.4</ele></trkpt>
      <trkpt lat="46.41802930358148" lon="9.957045689090897">
      <ele>3057.4</ele></trkpt>
      <trkpt lat="46.41804459178594" lon="9.957003688902127">
      <ele>3057.3</ele></trkpt>
      <trkpt lat="46.41806142794607" lon="9.956962502379788">
      <ele>3057.3</ele></trkpt>
      <trkpt lat="46.4180678949547" lon="9.956915680728818">
      <ele>3057.2</ele></trkpt>
      <trkpt lat="46.418079188211415" lon="9.956896320669632">
      <ele>3057.3</ele></trkpt>
      <trkpt lat="46.41808299387787" lon="9.956829516660436">
      <ele>3057.4</ele></trkpt>
      <trkpt lat="46.41807780696163" lon="9.956729943174466">
      <ele>3057.6</ele></trkpt>
      <trkpt lat="46.41807099799556" lon="9.956668554228088">
      <ele>3057.7</ele></trkpt>
      <trkpt lat="46.418068073383616" lon="9.956607332723237">
      <ele>3057.8</ele></trkpt>
      <trkpt lat="46.41806840114014" lon="9.956557310814931">
      <ele>3057.9</ele></trkpt>
      <trkpt lat="46.41805921822263" lon="9.956515683334215">
      <ele>3058.1</ele></trkpt>
      <trkpt lat="46.41806125965316" lon="9.956476034758595">
      <ele>3058.2</ele></trkpt>
      <trkpt lat="46.41807252560938" lon="9.95644047146426">
      <ele>3058.3</ele></trkpt>
      <trkpt lat="46.41807544915879" lon="9.956413382894802">
      <ele>3058.4</ele></trkpt>
      <trkpt lat="46.41805604009688" lon="9.956377917362541">
      <ele>3058.6</ele></trkpt>
      <trkpt lat="46.41804987730992" lon="9.956340113037854">
      <ele>3058.7</ele></trkpt>
      <trkpt lat="46.418052012907616" lon="9.956278384839015">
      <ele>3058.8</ele></trkpt>
      <trkpt lat="46.41803987070993" lon="9.956212349706306">
      <ele>3058.9</ele></trkpt>
      <trkpt lat="46.418030825982164" lon="9.956200165374803">
      <ele>3059.1</ele></trkpt>
      <trkpt lat="46.41802599026638" lon="9.956172716440763">
      <ele>3059.2</ele></trkpt>
      <trkpt lat="46.4180294311123" lon="9.956139756771456">
      <ele>3059.3</ele></trkpt>
      <trkpt lat="46.41802192142562" lon="9.95611072613894">
      <ele>3059.4</ele></trkpt>
      <trkpt lat="46.41802572875739" lon="9.956060852866463">
      <ele>3059.6</ele></trkpt>
      <trkpt lat="46.41799150967008" lon="9.95599234804145">
      <ele>3059.7</ele></trkpt>
      <trkpt lat="46.4179834889858" lon="9.955934846132829">
      <ele>3059.1</ele></trkpt>
      <trkpt lat="46.417938920624074" lon="9.955794937132985">
      <ele>3058.4</ele></trkpt>
      <trkpt lat="46.417897993537316" lon="9.955674249236319">
      <ele>3057.8</ele></trkpt>
      <trkpt lat="46.41789672595017" lon="9.955605661218454">
      <ele>3057.1</ele></trkpt>
      <trkpt lat="46.4178413548348" lon="9.955525451591503">
      <ele>3056.5</ele></trkpt>
      <trkpt lat="46.41781342489654" lon="9.95549676133935">
      <ele>3055.8</ele></trkpt>
      <trkpt lat="46.417723722682666" lon="9.955369293685138">
      <ele>3055.2</ele></trkpt>
      <trkpt lat="46.4176872071287" lon="9.955296779040303">
      <ele>3054.5</ele></trkpt>
      <trkpt lat="46.41765418291379" lon="9.955251871957167">
      <ele>3053.9</ele></trkpt>
      <trkpt lat="46.41763159117401" lon="9.955227997502725">
      <ele>3053.2</ele></trkpt>
      <trkpt lat="46.417615734901815" lon="9.955142739039262">
      <ele>3052.6</ele></trkpt>
      <trkpt lat="46.41757484099053" lon="9.95503877618865">
      <ele>3052.0</ele></trkpt>
      <trkpt lat="46.41759274538266" lon="9.954972132699684">
      <ele>3051.3</ele></trkpt>
      <trkpt lat="46.41758098958734" lon="9.954945026556638">
      <ele>3050.7</ele></trkpt>
      <trkpt lat="46.41758526418297" lon="9.954875290795478">
      <ele>3050.0</ele></trkpt>
      <trkpt lat="46.417571981341055" lon="9.954855349260692">
      <ele>3049.4</ele></trkpt>
      <trkpt lat="46.41758398842596" lon="9.954744993136508">
      <ele>3048.7</ele></trkpt>
      <trkpt lat="46.417628498657635" lon="9.954640973611008">
      <ele>3048.1</ele></trkpt>
      <trkpt lat="46.417641567573206" lon="9.954565907027561">
      <ele>3047.4</ele></trkpt>
      <trkpt lat="46.41769155998454" lon="9.954451691887305">
      <ele>3046.8</ele></trkpt>
      <trkpt lat="46.417734275892855" lon="9.954359977471045">
      <ele>3047.4</ele></trkpt>
      <trkpt lat="46.41775697234183" lon="9.954251353286683">
      <ele>3048.1</ele></trkpt>
      <trkpt lat="46.41775117236819" lon="9.954186615386043">
      <ele>3048.7</ele></trkpt>
      <trkpt lat="46.41775643341859" lon="9.954144201379602">
      <ele>3049.3</ele></trkpt>
      <trkpt lat="46.417771843742614" lon="9.95409705296243">
      <ele>3049.9</ele></trkpt>
      <trkpt lat="46.41777903347693" lon="9.954052490115407">
      <ele>3050.6</ele></trkpt>
      <trkpt lat="46.41777526876462" lon="9.953994184221036">
      <ele>3051.2</ele></trkpt>
      <trkpt lat="46.41777518433672" lon="9.953909540664377">
      <ele>3051.8</ele></trkpt>
      <trkpt lat="46.417777660898864" lon="9.95383238156949">
      <ele>3052.4</ele></trkpt>
      <trkpt lat="46.41778037686092" lon="9.953797176007727">
      <ele>3053.1</ele></trkpt>
      <trkpt lat="46.41777961615356" lon="9.95374342108699">
      <ele>3053.7</ele></trkpt>
      <trkpt lat="46.41776980078173" lon="9.953712813445492">
      <ele>3054.3</ele></trkpt>
      <trkpt lat="46.41776492040604" lon="9.953669902818008">
      <ele>3054.9</ele></trkpt>
      <trkpt lat="46.41777487859109" lon="9.95364091536801">
      <ele>3055.6</ele></trkpt>
      <trkpt lat="46.41777955298062" lon="9.953605058897843">
      <ele>3056.2</ele></trkpt>
      <trkpt lat="46.41777010835456" lon="9.953539878677576">
      <ele>3056.8</ele></trkpt>
      <trkpt lat="46.41776905835505" lon="9.953517017347679">
      <ele>3057.4</ele></trkpt>
      <trkpt lat="46.4177771070298" lon="9.953486470755772">
      <ele>3058.1</ele></trkpt>
      <trkpt lat="46.41777684667815" lon="9.953462904291605">
      <ele>3058.7</ele></trkpt>
      <trkpt lat="46.41776496812496" lon="9.953402764519954">
      <ele>3059.3</ele></trkpt>
      <trkpt lat="46.41777355449617" lon="9.953383278283377">
      <ele>3059.9</ele></trkpt>
      <trkpt lat="46.417788792074376" lon="9.953378805832182">
      <ele>3060.4</ele></trkpt>
      <trkpt lat="46.41779142630446" lon="9.953347279268591">
      <ele>3061.0</ele></trkpt>
      <trkpt lat="46.41779970273674" lon="9.953341768123689">
      <ele>3061.5</ele></trkpt>
      <trkpt lat="46.417816532701494" lon="9.953353558303386">
      <ele>3062.1</ele></trkpt>
      <trkpt lat="46.417842527030245" lon="9.953319393577111">
      <ele>3062.6</ele></trkpt>
      <trkpt lat="46.41785879105849" lon="9.953339251896038">
      <ele>3063.2</ele></trkpt>
      <trkpt lat="46.41787862517542" lon="9.953355593032136">
      <ele>3063.7</ele></trkpt>
      <trkpt lat="46.41789202742801" lon="9.953346623843503">
      <ele>3064.3</ele></trkpt>
      <trkpt lat="46.41790568568899" lon="9.953343561643923">
      <ele>3064.9</ele></trkpt>
      <trkpt lat="46.417923850194946" lon="9.953364978687556">
      <ele>3065.4</ele></trkpt>
      <trkpt lat="46.41793998852495" lon="9.953373053991202">
      <ele>3066.0</ele></trkpt>
      <trkpt lat="46.41794667693969" lon="9.953368939689879">
      <ele>3066.5</ele></trkpt>
      <trkpt lat="46.41795004465854" lon="9.953339646345704">
      <ele>3067.1</ele></trkpt>
      <trkpt lat="46.41795382665502" lon="9.953326574042482">
      <ele>3067.6</ele></trkpt>
      <trkpt lat="46.41797638811209" lon="9.953324640612585">
      <ele>3068.2</ele></trkpt>
      <trkpt lat="46.4180006681893" lon="9.953315421255418">
      <ele>3068.7</ele></trkpt>
      <trkpt lat="46.41802031554048" lon="9.953340589948276">
      <ele>3069.3</ele></trkpt>
      <trkpt lat="46.41803977073715" lon="9.953320853049052">
      <ele>3069.8</ele></trkpt>
      <trkpt lat="46.418034149566495" lon="9.953276437354019">
      <ele>3070.4</ele></trkpt>
      <trkpt lat="46.4180382088979" lon="9.953250858872218">
      <ele>3071.0</ele></trkpt>
      <trkpt lat="46.41804987609385" lon="9.953249916575395">
      <ele>3071.5</ele></trkpt>
      <trkpt lat="46.418068066041585" lon="9.953270593052311">
      <ele>3072.1</ele></trkpt>
      <trkpt lat="46.41808446754435" lon="9.953283846935435">
      <ele>3072.6</ele></trkpt>
      <trkpt lat="46.4181004711892" lon="9.953280138728212">
      <ele>3073.2</ele></trkpt>
      <trkpt lat="46.418109814330826" lon="9.953261429231949">
      <ele>3073.7</ele></trkpt>
      <trkpt lat="46.41812113288904" lon="9.953205996025195">
      <ele>3074.3</ele></trkpt>
      <trkpt lat="46.41813113508004" lon="9.953192470450658">
      <ele>3074.8</ele></trkpt>
      <trkpt lat="46.418145608417326" lon="9.953187962463968">
      <ele>3075.4</ele></trkpt>
      <trkpt lat="46.418172538400576" lon="9.953217125829102">
      <ele>3075.9</ele></trkpt>
      <trkpt lat="46.41818247982901" lon="9.953224197904303">
      <ele>3076.5</ele></trkpt>
      <trkpt lat="46.41819727023523" lon="9.953204986280385">
      <ele>3077.1</ele></trkpt>
      <trkpt lat="46.41821033047843" lon="9.953176129407053">
      <ele>3077.6</ele></trkpt>
      <trkpt lat="46.418212349718004" lon="9.953154880813857">
      <ele>3078.2</ele></trkpt>
      <trkpt lat="46.4182222100435" lon="9.95313030009879">
      <ele>3078.7</ele></trkpt>
      <trkpt lat="46.4182293432378" lon="9.953088675215831">
      <ele>3079.3</ele></trkpt>
      <trkpt lat="46.418236060093946" lon="9.953065419199666">
      <ele>3079.8</ele></trkpt>
      <trkpt lat="46.418249315591694" lon="9.953063066987774">
      <ele>3080.4</ele></trkpt>
      <trkpt lat="46.41827306642811" lon="9.953078119290005">
      <ele>3080.9</ele></trkpt>
      <trkpt lat="46.41829885274668" lon="9.953106500854284">
      <ele>3081.5</ele></trkpt>
      <trkpt lat="46.4183150962634" lon="9.95310942762984">
      <ele>3082.2</ele></trkpt>
      <trkpt lat="46.41833256935136" lon="9.953091810909125">
      <ele>3082.8</ele></trkpt>
      <trkpt lat="46.41834961139527" lon="9.953058727029237">
      <ele>3083.5</ele></trkpt>
      <trkpt lat="46.41837335810722" lon="9.953056106678543">
      <ele>3084.2</ele></trkpt>
      <trkpt lat="46.41837937129907" lon="9.953047536354878">
      <ele>3084.8</ele></trkpt>
      <trkpt lat="46.418382375617846" lon="9.953016768378426">
      <ele>3085.5</ele></trkpt>
      <trkpt lat="46.41839236207126" lon="9.952968638764274">
      <ele>3086.2</ele></trkpt>
      <trkpt lat="46.418404246106526" lon="9.95290514998439">
      <ele>3086.9</ele></trkpt>
      <trkpt lat="46.41841060173425" lon="9.952881135340329">
      <ele>3087.5</ele></trkpt>
      <trkpt lat="46.418426628659454" lon="9.9528759705461">
      <ele>3088.2</ele></trkpt>
      <trkpt lat="46.41846663947367" lon="9.95289320851969">
      <ele>3088.9</ele></trkpt>
      <trkpt lat="46.41849916790035" lon="9.952862287326658">
      <ele>3089.5</ele></trkpt>
      <trkpt lat="46.4185139743873" lon="9.95284234747588">
      <ele>3090.2</ele></trkpt>
      <trkpt lat="46.41852411193807" lon="9.95280526029827">
      <ele>3090.9</ele></trkpt>
      <trkpt lat="46.418542162485544" lon="9.95279650646784">
      <ele>3091.6</ele></trkpt>
      <trkpt lat="46.418557339351544" lon="9.952812631591854">
      <ele>3092.2</ele></trkpt>
      <trkpt lat="46.418571193229575" lon="9.952836061092492">
      <ele>3092.9</ele></trkpt>
      <trkpt lat="46.4185936211091" lon="9.952858417754841">
      <ele>3093.6</ele></trkpt>
      <trkpt lat="46.41861256337225" lon="9.95289753053039">
      <ele>3094.2</ele></trkpt>
      <trkpt lat="46.41862627506359" lon="9.952909917886663">
      <ele>3094.9</ele></trkpt>
      <trkpt lat="46.418655610925896" lon="9.952917850529776">
      <ele>3095.5</ele></trkpt>
      <trkpt lat="46.41868650678222" lon="9.952908195966677">
      <ele>3096.1</ele></trkpt>
      <trkpt lat="46.41870285961166" lon="9.95292364694607">
      <ele>3096.7</ele></trkpt>
      <trkpt lat="46.41872677349408" lon="9.952966660299516">
      <ele>3097.4</ele></trkpt>
      <trkpt lat="46.418747962804225" lon="9.953009560321838">
      <ele>3098.0</ele></trkpt>
      <trkpt lat="46.41877877693789" lon="9.953038904095807">
      <ele>3098.6</ele></trkpt>
      <trkpt lat="46.41879692535812" lon="9.953061049402342">
      <ele>3099.2</ele></trkpt>
      <trkpt lat="46.41881815665787" lon="9.95306714866385">
      <ele>3099.8</ele></trkpt>
      <trkpt lat="46.41883102067624" lon="9.953082450904581">
      <ele>3100.4</ele></trkpt>
      <trkpt lat="46.41884778551703" lon="9.953097179309033">
      <ele>3101.1</ele></trkpt>
      <trkpt lat="46.41885951768425" lon="9.953128618141955">
      <ele>3101.7</ele></trkpt>
      <trkpt lat="46.418878562463284" lon="9.953145651654586">
      <ele>3102.3</ele></trkpt>
      <trkpt lat="46.418889733284125" lon="9.953167499377862">
      <ele>3102.9</ele></trkpt>
      <trkpt lat="46.41890869647141" lon="9.953188212018254">
      <ele>3103.5</ele></trkpt>
      <trkpt lat="46.418923910456364" lon="9.953185208877928">
      <ele>3104.1</ele></trkpt>
      <trkpt lat="46.41893999051064" lon="9.953195506924931">
      <ele>3104.7</ele></trkpt>
      <trkpt lat="46.41895780589758" lon="9.953197764897634">
      <ele>3105.4</ele></trkpt>
      <trkpt lat="46.418977786775784" lon="9.953207489117862">
      <ele>3106.0</ele></trkpt>
      <trkpt lat="46.41899722990965" lon="9.95320615272648">
      <ele>3106.6</ele></trkpt>
      <trkpt lat="46.41901535442267" lon="9.953229780640735">
      <ele>3107.2</ele></trkpt>
      <trkpt lat="46.419039035984135" lon="9.953230098423667">
      <ele>3107.8</ele></trkpt>
      <trkpt lat="46.41904479259717" lon="9.953215646897435">
      <ele>3108.4</ele></trkpt>
      <trkpt lat="46.4190599416344" lon="9.953180262460464">
      <ele>3109.0</ele></trkpt>
      <trkpt lat="46.41908115982923" lon="9.953168688471202">
      <ele>3109.7</ele></trkpt>
      <trkpt lat="46.41908790642545" lon="9.953127044998094">
      <ele>3110.3</ele></trkpt>
      <trkpt lat="46.4190922217446" lon="9.953107373128866">
      <ele>3110.9</ele></trkpt>
      <trkpt lat="46.41913056310287" lon="9.95309436806359">
      <ele>3111.5</ele></trkpt>
      <trkpt lat="46.41915152955605" lon="9.953059240382013">
      <ele>3112.1</ele></trkpt>
      <trkpt lat="46.419161874485575" lon="9.953030257010308">
      <ele>3112.7</ele></trkpt>
      <trkpt lat="46.419175508074424" lon="9.953003547428803">
      <ele>3113.3</ele></trkpt>
      <trkpt lat="46.41920729174416" lon="9.953009056056555">
      <ele>3114.0</ele></trkpt>
      <trkpt lat="46.419223135455994" lon="9.95303447821164">
      <ele>3114.6</ele></trkpt>
      <trkpt lat="46.41922839140758" lon="9.953060463356799">
      <ele>3115.2</ele></trkpt>
      <trkpt lat="46.41923865871881" lon="9.953088151538397">
      <ele>3115.8</ele></trkpt>
      <trkpt lat="46.41926169689435" lon="9.95311788970725">
      <ele>3116.4</ele></trkpt>
      <trkpt lat="46.41927331518308" lon="9.953154463965888">
      <ele>3117.0</ele></trkpt>
      <trkpt lat="46.419299781572334" lon="9.953169629554939">
      <ele>3117.7</ele></trkpt>
      <trkpt lat="46.4193135168196" lon="9.95318054766778">
      <ele>3118.3</ele></trkpt>
      <trkpt lat="46.41931727012114" lon="9.953221936620757">
      <ele>3118.9</ele></trkpt>
      <trkpt lat="46.41933238177187" lon="9.953241000201707">
      <ele>3119.5</ele></trkpt>
      <trkpt lat="46.41935715057322" lon="9.953245051350159">
      <ele>3120.1</ele></trkpt>
      <trkpt lat="46.41937059641753" lon="9.9532868769872">
      <ele>3120.7</ele></trkpt>
      <trkpt lat="46.419398369129986" lon="9.953330798837875">
      <ele>3121.4</ele></trkpt>
      <trkpt lat="46.41941062743968" lon="9.95335636717335">
      <ele>3122.0</ele></trkpt>
      <trkpt lat="46.4194074387792" lon="9.953412894618689">
      <ele>3122.6</ele></trkpt>
      <trkpt lat="46.41942114577907" lon="9.95344294189126">
      <ele>3123.2</ele></trkpt>
      <trkpt lat="46.41942653601992" lon="9.953480723971479">
      <ele>3123.8</ele></trkpt>
      <trkpt lat="46.41944109347673" lon="9.953489467979225">
      <ele>3124.5</ele></trkpt>
      <trkpt lat="46.41945939785399" lon="9.953469677221541">
      <ele>3125.1</ele></trkpt>
      <trkpt lat="46.41948005419168" lon="9.953483844678138">
      <ele>3125.7</ele></trkpt>
      <trkpt lat="46.41949302082758" lon="9.953477067405482">
      <ele>3126.3</ele></trkpt>
      <trkpt lat="46.41950368702757" lon="9.95345105298401">
      <ele>3126.9</ele></trkpt>
      <trkpt lat="46.419510690021276" lon="9.953415303389681">
      <ele>3127.6</ele></trkpt>
      <trkpt lat="46.419525594632084" lon="9.953390943142253">
      <ele>3128.2</ele></trkpt>
      <trkpt lat="46.41953645602562" lon="9.95339143403556">
      <ele>3128.8</ele></trkpt>
      <trkpt lat="46.41954901498104" lon="9.953403039472157">
      <ele>3129.4</ele></trkpt>
      <trkpt lat="46.41955676269957" lon="9.953421774551545">
      <ele>3130.0</ele></trkpt>
      <trkpt lat="46.41956560422707" lon="9.953478847285677">
      <ele>3130.7</ele></trkpt>
      <trkpt lat="46.41957184431313" lon="9.953565965571563">
      <ele>3131.3</ele></trkpt>
      <trkpt lat="46.41957956595829" lon="9.953620774023236">
      <ele>3131.9</ele></trkpt>
      <trkpt lat="46.419597527471446" lon="9.953651747631616">
      <ele>3132.5</ele></trkpt>
      <trkpt lat="46.41960796931566" lon="9.953689009445942">
      <ele>3133.2</ele></trkpt>
      <trkpt lat="46.419607782151566" lon="9.953733156972202">
      <ele>3133.8</ele></trkpt>
      <trkpt lat="46.419607858401825" lon="9.953782470231836">
      <ele>3134.4</ele></trkpt>
      <trkpt lat="46.41960625755339" lon="9.953837600974191">
      <ele>3135.1</ele></trkpt>
      <trkpt lat="46.41960871144468" lon="9.953884812200116">
      <ele>3135.7</ele></trkpt>
      <trkpt lat="46.4196136171673" lon="9.953926983696046">
      <ele>3136.3</ele></trkpt>
      <trkpt lat="46.41961020483341" lon="9.953976135076507">
      <ele>3137.0</ele></trkpt>
      <trkpt lat="46.41961184067955" lon="9.95404318060342">
      <ele>3137.6</ele></trkpt>
      <trkpt lat="46.4196181738491" lon="9.954108231762039">
      <ele>3138.2</ele></trkpt>
      <trkpt lat="46.419627259374124" lon="9.954189586975446">
      <ele>3138.9</ele></trkpt>
      <trkpt lat="46.419639023828346" lon="9.954219557437018">
      <ele>3139.5</ele></trkpt>
      <trkpt lat="46.41965722975027" lon="9.954239506817082">
      <ele>3140.2</ele></trkpt>
      <trkpt lat="46.419672145930974" lon="9.954232078385632">
      <ele>3140.8</ele></trkpt>
      <trkpt lat="46.419687087541455" lon="9.954223909335903">
      <ele>3141.4</ele></trkpt>
      <trkpt lat="46.41969749766" lon="9.954192000775997">
      <ele>3142.1</ele></trkpt>
      <trkpt lat="46.419716375606065" lon="9.954163400308436">
      <ele>3142.7</ele></trkpt>
      <trkpt lat="46.41972229557227" lon="9.954141590384074">
      <ele>3143.3</ele></trkpt>
      <trkpt lat="46.419733625479864" lon="9.954138407212174">
      <ele>3144.0</ele></trkpt>
      <trkpt lat="46.419758198923205" lon="9.954115966343535">
      <ele>3144.6</ele></trkpt>
      <trkpt lat="46.4197830567571" lon="9.95411559731201">
      <ele>3145.4</ele></trkpt>
      <trkpt lat="46.419790392027664" lon="9.954135068248489">
      <ele>3146.2</ele></trkpt>
      <trkpt lat="46.4198019217156" lon="9.954140730823601">
      <ele>3147.0</ele></trkpt>
      <trkpt lat="46.41983103382557" lon="9.954141301033872">
      <ele>3147.8</ele></trkpt>
      <trkpt lat="46.41985258650096" lon="9.95415035691185">
      <ele>3148.6</ele></trkpt>
      <trkpt lat="46.41988321671241" lon="9.954170128135537">
      <ele>3149.4</ele></trkpt>
      <trkpt lat="46.41990793249902" lon="9.954158716673405">
      <ele>3150.2</ele></trkpt>
      <trkpt lat="46.419918439866464" lon="9.954157720713555">
      <ele>3151.0</ele></trkpt>
      <trkpt lat="46.41993011160033" lon="9.954174425766091">
      <ele>3151.8</ele></trkpt>
      <trkpt lat="46.41995552242696" lon="9.954219722523248">
      <ele>3152.6</ele></trkpt>
      <trkpt lat="46.41998017698356" lon="9.954228922412655">
      <ele>3153.3</ele></trkpt>
      <trkpt lat="46.42001489932245" lon="9.95422164531346">
      <ele>3154.1</ele></trkpt>
      <trkpt lat="46.420032535010264" lon="9.954232003064154">
      <ele>3154.9</ele></trkpt>
      <trkpt lat="46.42004884708128" lon="9.954284985387558">
      <ele>3155.7</ele></trkpt>
      <trkpt lat="46.420070590522094" lon="9.954302886738903">
      <ele>3156.5</ele></trkpt>
      <trkpt lat="46.420089854273094" lon="9.954309637117168">
      <ele>3157.3</ele></trkpt>
      <trkpt lat="46.42011700872676" lon="9.954275525245798">
      <ele>3158.1</ele></trkpt>
      <trkpt lat="46.42012879601281" lon="9.954216428952702">
      <ele>3158.9</ele></trkpt>
      <trkpt lat="46.420136767494554" lon="9.95420722057391">
      <ele>3159.7</ele></trkpt>
      <trkpt lat="46.4201630053232" lon="9.95423268344704">
      <ele>3160.5</ele></trkpt>
      <trkpt lat="46.42018362897508" lon="9.95424832045505">
      <ele>3161.9</ele></trkpt>
      <trkpt lat="46.42019546417939" lon="9.954222360099571">
      <ele>3163.3</ele></trkpt>
      <trkpt lat="46.42022012618414" lon="9.954230818575176">
      <ele>3164.7</ele></trkpt>
      <trkpt lat="46.42024370252372" lon="9.954236285492266">
      <ele>3166.1</ele></trkpt>
      <trkpt lat="46.42025089654939" lon="9.954209380919767">
      <ele>3167.5</ele></trkpt>
      <trkpt lat="46.42026660239142" lon="9.954201247244654">
      <ele>3168.9</ele></trkpt>
      <trkpt lat="46.42027296195577" lon="9.954194918226875">
      <ele>3170.3</ele></trkpt>
      <trkpt lat="46.42026804413642" lon="9.954171147529236">
      <ele>3171.7</ele></trkpt>
      <trkpt lat="46.420274832773345" lon="9.954142636405669">
      <ele>3173.1</ele></trkpt>
      <trkpt lat="46.42031386243337" lon="9.954032474535165">
      <ele>3174.5</ele></trkpt>
      <trkpt lat="46.420400115220396" lon="9.953938181721647">
      <ele>3175.9</ele></trkpt>
      <trkpt lat="46.42044007367703" lon="9.953848624858477">
      <ele>3177.3</ele></trkpt>
      <trkpt lat="46.42048885429663" lon="9.953791439926515">
      <ele>3178.7</ele></trkpt>
      <trkpt lat="46.4205783102258" lon="9.953674455233163">
      <ele>3180.1</ele></trkpt>
      <trkpt lat="46.42059960907048" lon="9.953854023717481">
      <ele>3181.5</ele></trkpt>
      <trkpt lat="46.420628580450064" lon="9.953865402019163">
      <ele>3182.9</ele></trkpt>
      <trkpt lat="46.420694797439765" lon="9.953795100835718">
      <ele>3184.3</ele></trkpt>
      <trkpt lat="46.420728752092444" lon="9.953781449833311">
      <ele>3185.7</ele></trkpt>
      <trkpt lat="46.42074404303366" lon="9.953810686472927">
      <ele>3187.1</ele></trkpt>
      <trkpt lat="46.420735360102356" lon="9.953869420018695">
      <ele>3188.5</ele></trkpt>
      <trkpt lat="46.42076805016242" lon="9.953889247948167">
      <ele>3189.3</ele></trkpt>
      <trkpt lat="46.4208026043802" lon="9.95388062226212">
      <ele>3190.2</ele></trkpt>
      <trkpt lat="46.42081487437045" lon="9.953826128542946">
      <ele>3191.0</ele></trkpt>
      <trkpt lat="46.42084077532267" lon="9.953766150632129">
      <ele>3191.8</ele></trkpt>
      <trkpt lat="46.42087750431162" lon="9.953769846123116">
      <ele>3192.6</ele></trkpt>
      <trkpt lat="46.42091449809233" lon="9.953816383733312">
      <ele>3193.4</ele></trkpt>
      <trkpt lat="46.420934749360555" lon="9.95378875721864">
      <ele>3194.3</ele></trkpt>
      <trkpt lat="46.42095759068641" lon="9.95375513417624">
      <ele>3195.1</ele></trkpt>
      <trkpt lat="46.42099610224765" lon="9.953734458611029">
      <ele>3195.9</ele></trkpt>
      <trkpt lat="46.4210460073274" lon="9.953697991812408">
      <ele>3196.8</ele></trkpt>
      <trkpt lat="46.42107757082248" lon="9.953658643659058">
      <ele>3197.6</ele></trkpt>
      <trkpt lat="46.42111152896305" lon="9.953676487184149">
      <ele>3198.4</ele></trkpt>
      <trkpt lat="46.42113921944048" lon="9.953700169630714">
      <ele>3199.2</ele></trkpt>
      <trkpt lat="46.42115435352409" lon="9.95368250871699">
      <ele>3200.1</ele></trkpt>
      <trkpt lat="46.4211888166441" lon="9.953644713578118">
      <ele>3200.9</ele></trkpt>
      <trkpt lat="46.4212163171965" lon="9.953626233909354">
      <ele>3201.7</ele></trkpt>
      <trkpt lat="46.42123253249372" lon="9.953612982910474">
      <ele>3202.5</ele></trkpt>
      <trkpt lat="46.42125057594805" lon="9.953604957381648">
      <ele>3203.3</ele></trkpt>
      <trkpt lat="46.42127320752255" lon="9.953582412531212">
      <ele>3204.2</ele></trkpt>
      <trkpt lat="46.42128937408634" lon="9.953571358664023">
      <ele>3205.0</ele></trkpt>
      <trkpt lat="46.42130716869569" lon="9.953556697276927">
      <ele>3205.3</ele></trkpt>
      <trkpt lat="46.42132808567564" lon="9.953559112393684">
      <ele>3205.6</ele></trkpt>
      <trkpt lat="46.4213478387701" lon="9.95354380004654">
      <ele>3205.9</ele></trkpt>
      <trkpt lat="46.42137745167432" lon="9.953539239510697">
      <ele>3206.3</ele></trkpt>
      <trkpt lat="46.4214051805335" lon="9.953532379113994">
      <ele>3206.6</ele></trkpt>
      <trkpt lat="46.42142075571427" lon="9.953530134509075">
      <ele>3206.9</ele></trkpt>
      <trkpt lat="46.4214460584686" lon="9.953492252441116">
      <ele>3207.2</ele></trkpt>
    </trkseg>
  </trk>
</gpx>