<?xml version='1.0' encoding='utf-8'?>
<gpx xmlns="http://www.topografix.com/GPX/1/1" xmlns:xsi="http://www.w3.org/2001/XMLSchema-instance" xsi:schemaLocation="http://www.topografix.com/GPX/1/1 http://www.topografix.com/GPX/1/1/gpx.xsd" version="1.1" creator="gpx.py -- https://github.com/tkrajina/gpxpy">
  <trk>
    <name>pizzo-barone</name>
    <trkseg>
      <trkpt lat="46.4175623530485" lon="8.785960861271084">
      <ele>2000.2</ele></trkpt>
      <trkpt lat="46.417569326586715" lon="8.78591456701207">
      <ele>2000.7</ele></trkpt>
      <trkpt lat="46.41757155333684" lon="8.785847509922682">
      <ele>2001.3</ele></trkpt>
      <trkpt lat="46.41755935011555" lon="8.78579247893719">
      <ele>2001.8</ele></trkpt>
      <trkpt lat="46.41754517456534" lon="8.785723973939591">
      <ele>2002.4</ele></trkpt>
      <trkpt lat="46.417546399731236" lon="8.785680646060099">
      <ele>2002.9</ele></trkpt>
      <trkpt lat="46.417566642424724" lon="8.785659462941307">
      <ele>2003.4</ele></trkpt>
      <trkpt lat="46.417598733284976" lon="8.785663355706397">
      <ele>2004.0</ele></trkpt>
      <trkpt lat="46.41763632723754" lon="8.785684933980054">
      <ele>2004.5</ele></trkpt>
      <trkpt lat="46.41765480560768" lon="8.785692625624689">
      <ele>2005.1</ele></trkpt>
      <trkpt lat="46.41768495191224" lon="8.785679948934728">
      <ele>2005.6</ele></trkpt>
      <trkpt lat="46.41771012178441" lon="8.785665093292645">
      <ele>2006.1</ele></trkpt>
      <trkpt lat="46.41774374413571" lon="8.785659722773275">
      <ele>2006.7</ele></trkpt>
      <trkpt lat="46.41777232540332" lon="8.785658376921344">
      <ele>2007.2</ele></trkpt>
      <trkpt lat="46.41778666963191" lon="8.78565356851194">
      <ele>2007.8</ele></trkpt>
      <trkpt lat="46.4177997798477" lon="8.78563220822527">
      <ele>2008.3</ele></trkpt>
      <trkpt lat="46.41781714679391" lon="8.785613022008073">
      <ele>2008.8</ele></trkpt>
      <trkpt lat="46.417837512058234" lon="8.785581512767148">
      <ele>2009.4</ele></trkpt>
      <trkpt lat="46.41784500891941" lon="8.785551752472188">
      <ele>2009.9</ele></trkpt>
      <trkpt lat="46.41785809456951" lon="8.785532459938013">
      <ele>2010.5</ele></trkpt>
      <trkpt lat="46.41787408049894" lon="8.785509102567866">
      <ele>2011.0</ele></trkpt>
      <trkpt lat="46.417888048201775" lon="8.785475379052148">
      <ele>2011.5</ele></trkpt>
      <trkpt lat="46.417897108759576" lon="8.785456376840495">
      <ele>2012.0</ele></trkpt>
      <trkpt lat="46.41791333108675" lon="8.785388847153136">
      <ele>2012.5</ele></trkpt>
      <trkpt lat="46.41792789836685" lon="8.78535690767207">
      <ele>2013.0</ele></trkpt>
      <trkpt lat="46.417941580634334" lon="8.78534192280159">
      <ele>2013.5</ele></trkpt>
      <trkpt lat="46.41795889027018" lon="8.785338931085237">
      <ele>2014.0</ele></trkpt>
      <trkpt lat="46.41797838989388" lon="8.785339415060433">
      <ele>2014.5</ele></trkpt>
      <trkpt lat="46.41800762611439" lon="8.785316997863964">
      <ele>2015.0</ele></trkpt>
      <trkpt lat="46.418034692561484" lon="8.785289401283107">
      <ele>2015.5</ele></trkpt>
      <trkpt lat="46.41806614916926" lon="8.78526789773147">
      <ele>2016.0</ele></trkpt>
      <trkpt lat="46.41810508001358" lon="8.785226871133585">
      <ele>2016.5</ele></trkpt>
      <trkpt lat="46.418116553203085" lon="8.78520850107326">
      <ele>2017.0</ele></trkpt>
      <trkpt lat="46.4181304566535" lon="8.785180941969049">
      <ele>2017.5</ele></trkpt>
      <trkpt lat="46.418143381761446" lon="8.785145605248806">
      <ele>2018.0</ele></trkpt>
      <trkpt lat="46.418160688963226" lon="8.785102636939648">
      <ele>2018.5</ele></trkpt>
      <trkpt lat="46.418174727270554" lon="8.785063711320499">
      <ele>2019.0</ele></trkpt>
      <trkpt lat="46.418188895282626" lon="8.785044939751229">
      <ele>2019.5</ele></trkpt>
      <trkpt lat="46.41820829220805" lon="8.785036640035374">
      <ele>2020.0</ele></trkpt>
      <trkpt lat="46.41822975014336" lon="8.785035104074895">
      <ele>2020.5</ele></trkpt>
      <trkpt lat="46.41824766790079" lon="8.785030904493125">
      <ele>2021.0</ele></trkpt>
      <trkpt lat="46.41826390011606" lon="8.785017869026454">
      <ele>2021.5</ele></trkpt>
      <trkpt lat="46.41827487871931" lon="8.784996442499246">
      <ele>2022.1</ele></trkpt>
      <trkpt lat="46.41827982023147" lon="8.784971236663354">
      <ele>2022.7</ele></trkpt>
      <trkpt lat="46.41828248465955" lon="8.784927904871344">
      <ele>2023.2</ele></trkpt>
      <trkpt lat="46.418287767565424" lon="8.784904255563553">
      <ele>2023.8</ele></trkpt>
      <trkpt lat="46.41829248824348" lon="8.784897660065573">
      <ele>2024.3</ele></trkpt>
      <trkpt lat="46.41831042451278" lon="8.784891899816525">
      <ele>2024.8</ele></trkpt>
      <trkpt lat="46.418322722856146" lon="8.784879807406575">
      <ele>2025.4</ele></trkpt>
      <trkpt lat="46.41833261594607" lon="8.784858874255182">
      <ele>2026.0</ele></trkpt>
      <trkpt lat="46.41834051559345" lon="8.784825481072799">
      <ele>2026.5</ele></trkpt>
      <trkpt lat="46.41834363932067" lon="8.78480333923844">
      <ele>2027.0</ele></trkpt>
      <trkpt lat="46.41835169833622" lon="8.784756511718673">
      <ele>2027.6</ele></trkpt>
      <trkpt lat="46.418350328032275" lon="8.78472186082702">
      <ele>2028.2</ele></trkpt>
      <trkpt lat="46.41834363117022" lon="8.784683448291839">
      <ele>2028.7</ele></trkpt>
      <trkpt lat="46.41833077104258" lon="8.784652649231917">
      <ele>2029.2</ele></trkpt>
      <trkpt lat="46.41831024108728" lon="8.784636633248514">
      <ele>2029.8</ele></trkpt>
      <trkpt lat="46.418289231901326" lon="8.784629919808138">
      <ele>2030.3</ele></trkpt>
      <trkpt lat="46.41827811888945" lon="8.784602767614018">
      <ele>2030.9</ele></trkpt>
      <trkpt lat="46.41826647006374" lon="8.78456010846931">
      <ele>2031.5</ele></trkpt>
      <trkpt lat="46.41825524658" lon="8.784542267973919">
      <ele>2032.0</ele></trkpt>
      <trkpt lat="46.41823977266303" lon="8.784521720264188">
      <ele>2032.1</ele></trkpt>
      <trkpt lat="46.41823254092163" lon="8.784498814245094">
      <ele>2032.2</ele></trkpt>
      <trkpt lat="46.41823120458274" lon="8.784460534783168">
      <ele>2032.4</ele></trkpt>
      <trkpt lat="46.41823305733717" lon="8.784424936212543">
      <ele>2032.5</ele></trkpt>
      <trkpt lat="46.41823371305778" lon="8.784369651425568">
      <ele>2032.6</ele></trkpt>
      <trkpt lat="46.41823829910341" lon="8.78431447712265">
      <ele>2032.8</ele></trkpt>
      <trkpt lat="46.41824741148362" lon="8.784238743836127">
      <ele>2032.9</ele></trkpt>
      <trkpt lat="46.418247968870986" lon="8.784191743299559">
      <ele>2033.0</ele></trkpt>
      <trkpt lat="46.4182548761134" lon="8.784122147562112">
      <ele>2033.1</ele></trkpt>
      <trkpt lat="46.41825959682033" lon="8.78405560673095">
      <ele>2033.2</ele></trkpt>
      <trkpt lat="46.418275028005546" lon="8.784019824456891">
      <ele>2033.4</ele></trkpt>
      <trkpt lat="46.41830006117441" lon="8.78398840408495">
      <ele>2033.5</ele></trkpt>
      <trkpt lat="46.41832576802986" lon="8.783960109532162">
      <ele>2033.6</ele></trkpt>
      <trkpt lat="46.41834987498397" lon="8.783915748224475">
      <ele>2033.8</ele></trkpt>
      <trkpt lat="46.41836997452402" lon="8.783878533525744">
      <ele>2033.9</ele></trkpt>
      <trkpt lat="46.418383240649746" lon="8.783844752872666">
      <ele>2034.0</ele></trkpt>
      <trkpt lat="46.4184079568614" lon="8.783809708000925">
      <ele>2034.1</ele></trkpt>
      <trkpt lat="46.4184232410354" lon="8.783786319488375">
      <ele>2034.2</ele></trkpt>
      <trkpt lat="46.41845328098024" lon="8.783754515694913">
      <ele>2034.4</ele></trkpt>
      <trkpt lat="46.418479654429426" lon="8.783721593261843">
      <ele>2034.5</ele></trkpt>
      <trkpt lat="46.418483946119515" lon="8.783663900625925">
      <ele>2034.6</ele></trkpt>
      <trkpt lat="46.41852346807413" lon="8.783584341505936">
      <ele>2034.7</ele></trkpt>
      <trkpt lat="46.41853348816076" lon="8.783535975169938">
      <ele>2034.8</ele></trkpt>
      <trkpt lat="46.418533935959516" lon="8.78349591848595">
      <ele>2035.0</ele></trkpt>
      <trkpt lat="46.41853005064436" lon="8.783468477225385">
      <ele>2035.1</ele></trkpt>
      <trkpt lat="46.41851673151537" lon="8.783433868346536">
      <ele>2035.2</ele></trkpt>
      <trkpt lat="46.41848523375326" lon="8.783406497266476">
      <ele>2035.3</ele></trkpt>
      <trkpt lat="46.418451892916714" lon="8.783402548777019">
      <ele>2035.4</ele></trkpt>
      <trkpt lat="46.41842428888088" lon="8.783394319416196">
      <ele>2035.5</ele></trkpt>
      <trkpt lat="46.41838962285989" lon="8.783367819541276">
      <ele>2035.7</ele></trkpt>
      <trkpt lat="46.4183651977309" lon="8.783351746523133">
      <ele>2035.8</ele></trkpt>
      <trkpt lat="46.4183468532502" lon="8.783334263138846">
      <ele>2035.9</ele></trkpt>
      <trkpt lat="46.41833755934099" lon="8.78330618059754">
      <ele>2036.0</ele></trkpt>
      <trkpt lat="46.41833095227094" lon="8.783261669275474">
      <ele>2036.1</ele></trkpt>
      <trkpt lat="46.41832547931628" lon="8.783241408770698">
      <ele>2036.2</ele></trkpt>
      <trkpt lat="46.41833360011652" lon="8.783218922367054">
      <ele>2036.3</ele></trkpt>
      <trkpt lat="46.418349719298774" lon="8.783213129540766">
      <ele>2036.5</ele></trkpt>
      <trkpt lat="46.41835925766087" lon="8.783220585890676">
      <ele>2036.6</ele></trkpt>
      <trkpt lat="46.418374861007315" lon="8.783228712898723">
      <ele>2036.7</ele></trkpt>
      <trkpt lat="46.41839105955975" lon="8.783216222410253">
      <ele>2036.8</ele></trkpt>
      <trkpt lat="46.418410356709565" lon="8.783183683791579">
      <ele>2037.6</ele></trkpt>
      <trkpt lat="46.41843493528061" lon="8.783156440592808">
      <ele>2038.3</ele></trkpt>
      <trkpt lat="46.4184474042044" lon="8.783157269928754">
      <ele>2039.1</ele></trkpt>
      <trkpt lat="46.41845978441714" lon="8.783166344774058">
      <ele>2039.8</ele></trkpt>
      <trkpt lat="46.41846899034394" lon="8.78317224482154">
      <ele>2040.6</ele></trkpt>
      <trkpt lat="46.41848095576578" lon="8.783185953610827">
      <ele>2041.3</ele></trkpt>
      <trkpt lat="46.41849696491045" lon="8.78318944646603">
      <ele>2042.1</ele></trkpt>
      <trkpt lat="46.41850825114555" lon="8.783170121559206">
      <ele>2042.8</ele></trkpt>
      <trkpt lat="46.41851403055579" lon="8.783134151747625">
      <ele>2043.6</ele></trkpt>
      <trkpt lat="46.418514241793275" lon="8.783086713105074">
      <ele>2044.3</ele></trkpt>
      <trkpt lat="46.418505643368086" lon="8.783059155105157">
      <ele>2045.1</ele></trkpt>
      <trkpt lat="46.4184990118545" lon="8.783016698495556">
      <ele>2045.9</ele></trkpt>
      <trkpt lat="46.41849937227311" lon="8.782986279349219">
      <ele>2046.6</ele></trkpt>
      <trkpt lat="46.41851255219279" lon="8.78295823324298">
      <ele>2047.4</ele></trkpt>
      <trkpt lat="46.41853020848634" lon="8.782942682613214">
      <ele>2048.1</ele></trkpt>
      <trkpt lat="46.41855244764877" lon="8.782932917450434">
      <ele>2048.9</ele></trkpt>
      <trkpt lat="46.41856848808835" lon="8.782903394099549">
      <ele>2049.6</ele></trkpt>
      <trkpt lat="46.418571477235886" lon="8.78286220351951">
      <ele>2050.4</ele></trkpt>
      <trkpt lat="46.41857723033907" lon="8.78283224315527">
      <ele>2051.1</ele></trkpt>
      <trkpt lat="46.418587988030914" lon="8.782755001853634">
      <ele>2051.9</ele></trkpt>
      <trkpt lat="46.41860427604602" lon="8.782725081284706">
      <ele>2053.6</ele></trkpt>
      <trkpt lat="46.41860388945673" lon="8.78269543712605">
      <ele>2055.3</ele></trkpt>
      <trkpt lat="46.41857561294395" lon="8.782661186397707">
      <ele>2057.0</ele></trkpt>
      <trkpt lat="46.41854402673615" lon="8.782637469085115">
      <ele>2058.6</ele></trkpt>
      <trkpt lat="46.41852931747573" lon="8.782595631988208">
      <ele>2060.3</ele></trkpt>
      <trkpt lat="46.41854848790975" lon="8.782549469486069">
      <ele>2062.0</ele></trkpt>
      <trkpt lat="46.4185542982954" lon="8.782451616432807">
      <ele>2063.7</ele></trkpt>
      <trkpt lat="46.41855526519167" lon="8.782369215211881">
      <ele>2065.4</ele></trkpt>
      <trkpt lat="46.418587021077705" lon="8.782282125655575">
      <ele>2067.1</ele></trkpt>
      <trkpt lat="46.41865470344763" lon="8.78214625707507">
      <ele>2068.8</ele></trkpt>
      <trkpt lat="46.41872412078132" lon="8.782141952734387">
      <ele>2070.4</ele></trkpt>
      <trkpt lat="46.41873570856279" lon="8.78208118811794">
      <ele>2072.1</ele></trkpt>
      <trkpt lat="46.4187273298942" lon="8.782019851075317">
      <ele>2073.8</ele></trkpt>
      <trkpt lat="46.41873900780316" lon="8.782002382832326">
      <ele>2075.5</ele></trkpt>
      <trkpt lat="46.41880031384596" lon="8.781987105959246">
      <ele>2077.2</ele></trkpt>
      <trkpt lat="46.41886116156786" lon="8.781870711020359">
      <ele>2078.9</ele></trkpt>
      <trkpt lat="46.41888969788306" lon="8.781832116975156">
      <ele>2080.5</ele></trkpt>
      <trkpt lat="46.41882270878789" lon="8.781628245414193">
      <ele>2082.2</ele></trkpt>
      <trkpt lat="46.41884822907542" lon="8.781539647731279">
      <ele>2083.9</ele></trkpt>
      <trkpt lat="46.41888213360827" lon="8.781492171078385">
      <ele>2085.6</ele></trkpt>
      <trkpt lat="46.418950249866214" lon="8.781460202322693">
      <ele>2088.1</ele></trkpt>
      <trkpt lat="46.41898255190421" lon="8.781382400636538">
      <ele>2090.5</ele></trkpt>
      <trkpt lat="46.41904947826404" lon="8.781311088622779">
      <ele>2093.0</ele></trkpt>
      <trkpt lat="46.41914747737863" lon="8.781265848138133">
      <ele>2095.5</ele></trkpt>
      <trkpt lat="46.41917241932103" lon="8.781112046513533">
      <ele>2097.9</ele></trkpt>
      <trkpt lat="46.41919362272632" lon="8.780995137338643">
      <ele>2100.4</ele></trkpt>
      <trkpt lat="46.41921179893363" lon="8.780907475871023">
      <ele>2102.9</ele></trkpt>
      <trkpt lat="46.41922232444049" lon="8.780822370027938">
      <ele>2105.4</ele></trkpt>
      <trkpt lat="46.41921723164267" lon="8.780769934146496">
      <ele>2107.8</ele></trkpt>
      <trkpt lat="46.41920288343496" lon="8.78069523180276">
      <ele>2110.3</ele></trkpt>
      <trkpt lat="46.41920973447562" lon="8.78059901628445">
      <ele>2112.8</ele></trkpt>
      <trkpt lat="46.419225482637565" lon="8.780555356703678">
      <ele>2115.2</ele></trkpt>
      <trkpt lat="46.4192468210381" lon="8.780522841120849">
      <ele>2117.7</ele></trkpt>
      <trkpt lat="46.41927760134659" lon="8.780496061907149">
      <ele>2120.2</ele></trkpt>
      <trkpt lat="46.4193179066135" lon="8.78046951822052">
      <ele>2122.7</ele></trkpt>
      <trkpt lat="46.41935463505745" lon="8.780423619400983">
      <ele>2125.1</ele></trkpt>
      <trkpt lat="46.41940616775235" lon="8.780413874980063">
      <ele>2127.6</ele></trkpt>
      <trkpt lat="46.41946892773649" lon="8.780420942924188">
      <ele>2130.1</ele></trkpt>
      <trkpt lat="46.41950913532759" lon="8.780402657544336">
      <ele>2132.5</ele></trkpt>
      <trkpt lat="46.41955286949903" lon="8.780369173470271">
      <ele>2135.0</ele></trkpt>
      <trkpt lat="46.41957300536939" lon="8.780339437883232">
      <ele>2136.0</ele></trkpt>
      <trkpt lat="46.41961816890305" lon="8.780283222838285">
      <ele>2136.9</ele></trkpt>
      <trkpt lat="46.41965202242292" lon="8.78022555721129">
      <ele>2137.9</ele></trkpt>
      <trkpt lat="46.41967865472538" lon="8.780163042633788">
      <ele>2138.9</ele></trkpt>
      <trkpt lat="46.41969872337622" lon="8.78010854856038">
      <ele>2139.9</ele></trkpt>
      <trkpt lat="46.41972174435111" lon="8.780077531161405">
      <ele>2140.8</ele></trkpt>
      <trkpt lat="46.41974890961688" lon="8.780038420334726">
      <ele>2141.8</ele></trkpt>
      <trkpt lat="46.41976431484853" lon="8.779967432141753">
      <ele>2142.8</ele></trkpt>
      <trkpt lat="46.41977653804969" lon="8.779894674038985">
      <ele>2143.8</ele></trkpt>
      <trkpt lat="46.41980513995032" lon="8.779850472925256">
      <ele>2144.8</ele></trkpt>
      <trkpt lat="46.41981924833793" lon="8.77977501637497">
      <ele>2145.7</ele></trkpt>
      <trkpt lat="46.419868252667634" lon="8.779680791216062">
      <ele>2146.7</ele></trkpt>
      <trkpt lat="46.41992051856649" lon="8.779592253523495">
      <ele>2147.7</ele></trkpt>
      <trkpt lat="46.41993751722566" lon="8.779563792890071">
      <ele>2148.7</ele></trkpt>
      <trkpt lat="46.41994096415079" lon="8.77951649803521">
      <ele>2149.6</ele></trkpt>
      <trkpt lat="46.41992742147619" lon="8.779461875360017">
      <ele>2150.6</ele></trkpt>
      <trkpt lat="46.419911565079786" lon="8.779420321961739">
      <ele>2151.6</ele></trkpt>
      <trkpt lat="46.41992291538085" lon="8.77941150891385">
      <ele>2152.6</ele></trkpt>
      <trkpt lat="46.41997639790021" lon="8.77940044563158">
      <ele>2153.5</ele></trkpt>
      <trkpt lat="46.420005338286686" lon="8.77937783499494">
      <ele>2154.5</ele></trkpt>
      <trkpt lat="46.420036952006996" lon="8.779374153979326">
      <ele>2155.9</ele></trkpt>
      <trkpt lat="46.420043789597955" lon="8.77934751062632">
      <ele>2157.3</ele></trkpt>
      <trkpt lat="46.4200442504441" lon="8.77930698481264">
      <ele>2158.7</ele></trkpt>
      <trkpt lat="46.4200687567413" lon="8.779291107468639">
      <ele>2160.1</ele></trkpt>
      <trkpt lat="46.42008319865807" lon="8.779265822827005">
      <ele>2161.5</ele></trkpt>
      <trkpt lat="46.42007786283058" lon="8.779223995925236">
      <ele>2162.9</ele></trkpt>
      <trkpt lat="46.420051955482556" lon="8.77917189072975">
      <ele>2164.3</ele></trkpt>
      <trkpt lat="46.42010481060095" lon="8.779120261430034">
      <ele>2165.7</ele></trkpt>
      <trkpt lat="46.42014038147357" lon="8.779057303149692">
      <ele>2167.1</ele></trkpt>
      <trkpt lat="46.420160811063845" lon="8.77904760849173">
      <ele>2168.4</ele></trkpt>
      <trkpt lat="46.420170065705925" lon="8.77899989748314">
      <ele>2169.8</ele></trkpt>
      <trkpt lat="46.4201470431365" lon="8.778949580810945">
      <ele>2171.2</ele></trkpt>
      <trkpt lat="46.42014667645335" lon="8.778918167073515">
      <ele>2172.6</ele></trkpt>
      <trkpt lat="46.42021350583938" lon="8.778882350812388">
      <ele>2174.0</ele></trkpt>
      <trkpt lat="46.420256874600014" lon="8.778867576619383">
      <ele>2175.4</ele></trkpt>
      <trkpt lat="46.42027218435723" lon="8.778829746111755">
      <ele>2176.8</ele></trkpt>
      <trkpt lat="46.42024459484479" lon="8.77876617710416">
      <ele>2178.2</ele></trkpt>
      <trkpt lat="46.420244326944605" lon="8.778725633141235">
      <ele>2179.6</ele></trkpt>
      <trkpt lat="46.4202560051199" lon="8.778656295159864">
      <ele>2181.0</ele></trkpt>
      <trkpt lat="46.42024735037923" lon="8.778618939520165">
      <ele>2182.4</ele></trkpt>
      <trkpt lat="46.420233108099" lon="8.778594572401378">
      <ele>2183.5</ele></trkpt>
      <trkpt lat="46.42022759465651" lon="8.778569289043297">
      <ele>2184.7</ele></trkpt>
      <trkpt lat="46.42025071529697" lon="8.778514556989537">
      <ele>2185.8</ele></trkpt>
      <trkpt lat="46.42026105758458" lon="8.77843490852715">
      <ele>2186.9</ele></trkpt>
      <trkpt lat="46.42030209364452" lon="8.778337284346232">
      <ele>2188.1</ele></trkpt>
      <trkpt lat="46.42032097330406" lon="8.77827140239816">
      <ele>2189.2</ele></trkpt>
      <trkpt lat="46.42041160941366" lon="8.778150141478731">
      <ele>2190.3</ele></trkpt>
      <trkpt lat="46.420495345279456" lon="8.778053987229399">
      <ele>2191.4</ele></trkpt>
      <trkpt lat="46.42053157338207" lon="8.778000085626351">
      <ele>2192.6</ele></trkpt>
      <trkpt lat="46.42058952702061" lon="8.777938732405756">
      <ele>2193.7</ele></trkpt>
      <trkpt lat="46.42061062235788" lon="8.777918359870206">
      <ele>2194.8</ele></trkpt>
      <trkpt lat="46.4206451976481" lon="8.777912253241324">
      <ele>2196.0</ele></trkpt>
      <trkpt lat="46.42067086739743" lon="8.777912886873374">
      <ele>2197.1</ele></trkpt>
      <trkpt lat="46.420688692140146" lon="8.777898248823497">
      <ele>2198.2</ele></trkpt>
      <trkpt lat="46.42070433911754" lon="8.777863834568196">
      <ele>2199.3</ele></trkpt>
      <trkpt lat="46.42073463631928" lon="8.777812375142368">
      <ele>2200.5</ele></trkpt>
      <trkpt lat="46.42076481506446" lon="8.777770188537964">
      <ele>2201.6</ele></trkpt>
      <trkpt lat="46.42080298457522" lon="8.777731685663525">
      <ele>2202.7</ele></trkpt>
      <trkpt lat="46.42082640808154" lon="8.777718343549521">
      <ele>2203.9</ele></trkpt>
      <trkpt lat="46.42085571784613" lon="8.777681937640548">
      <ele>2205.0</ele></trkpt>
      <trkpt lat="46.42087076495073" lon="8.77763125946726">
      <ele>2205.8</ele></trkpt>
      <trkpt lat="46.420876096870444" lon="8.777587314642732">
      <ele>2206.6</ele></trkpt>
      <trkpt lat="46.42088686350684" lon="8.777558569004617">
      <ele>2207.5</ele></trkpt>
      <trkpt lat="46.420908350813114" lon="8.777505733987754">
      <ele>2208.3</ele></trkpt>
      <trkpt lat="46.42093079394311" lon="8.777438989256156">
      <ele>2209.1</ele></trkpt>
      <trkpt lat="46.42094972918138" lon="8.77739885358093">
      <ele>2209.9</ele></trkpt>
      <trkpt lat="46.42097549261915" lon="8.77732291484191">
      <ele>2210.7</ele></trkpt>
      <trkpt lat="46.42099433673392" lon="8.777289736978467">
      <ele>2211.6</ele></trkpt>
      <trkpt lat="46.42101153873239" lon="8.777260005150001">
      <ele>2212.4</ele></trkpt>
      <trkpt lat="46.42102160053215" lon="8.777223123997215">
      <ele>2213.2</ele></trkpt>
      <trkpt lat="46.42102472243838" lon="8.777162875500352">
      <ele>2214.0</ele></trkpt>
      <trkpt lat="46.421028389579256" lon="8.777123520858138">
      <ele>2214.8</ele></trkpt>
      <trkpt lat="46.421042626946736" lon="8.777072822399376">
      <ele>2215.7</ele></trkpt>
      <trkpt lat="46.42106725672922" lon="8.777025853838204">
      <ele>2216.5</ele></trkpt>
      <trkpt lat="46.421087824771924" lon="8.776982284630476">
      <ele>2217.3</ele></trkpt>
      <trkpt lat="46.4211069972068" lon="8.776921261084798">
      <ele>2218.1</ele></trkpt>
      <trkpt lat="46.42113013996252" lon="8.776863822003529">
      <ele>2218.9</ele></trkpt>
      <trkpt lat="46.421161319262914" lon="8.776805423228588">
      <ele>2219.8</ele></trkpt>
      <trkpt lat="46.421187358354764" lon="8.7767747382422">
      <ele>2220.6</ele></trkpt>
      <trkpt lat="46.421219618815414" lon="8.776760455710596">
      <ele>2221.4</ele></trkpt>
      <trkpt lat="46.42123592447727" lon="8.776738819509937">
      <ele>2222.3</ele></trkpt>
      <trkpt lat="46.42124598610763" lon="8.776701938107692">
      <ele>2223.2</ele></trkpt>
      <trkpt lat="46.42126015488671" lon="8.776657039954396">
      <ele>2224.1</ele></trkpt>
      <trkpt lat="46.42128145503651" lon="8.776619277808303">
      <ele>2225.1</ele></trkpt>
      <trkpt lat="46.42130053143066" lon="8.776566382593552">
      <ele>2226.0</ele></trkpt>
      <trkpt lat="46.421317302161384" lon="8.776505299444795">
      <ele>2226.9</ele></trkpt>
      <trkpt lat="46.421347981633" lon="8.776421362957455">
      <ele>2227.8</ele></trkpt>
      <trkpt lat="46.42136712632012" lon="8.776362666976683">
      <ele>2228.7</ele></trkpt>
      <trkpt lat="46.421378302789414" lon="8.776299130044565">
      <ele>2229.6</ele></trkpt>
      <trkpt lat="46.42138277911845" lon="8.776259795044167">
      <ele>2230.6</ele></trkpt>
      <trkpt lat="46.42139069882396" lon="8.776200822243768">
      <ele>2231.5</ele></trkpt>
      <trkpt lat="46.42140324377906" lon="8.776157041676298">
      <ele>2232.4</ele></trkpt>
      <trkpt lat="46.42142528487748" lon="8.776125099827038">
      <ele>2233.3</ele></trkpt>
      <trkpt lat="46.42144651167645" lon="8.776094308751762">
      <ele>2234.2</ele></trkpt>
      <trkpt lat="46.42145252070538" lon="8.776060800784544">
      <ele>2235.1</ele></trkpt>
      <trkpt lat="46.42144268402339" lon="8.776010679126571">
      <ele>2236.0</ele></trkpt>
      <trkpt lat="46.421442530754135" lon="8.775954980832752">
      <ele>2237.0</ele></trkpt>
      <trkpt lat="46.42147292273475" lon="8.775895403941234">
      <ele>2237.9</ele></trkpt>
      <trkpt lat="46.42151165618089" lon="8.775848691019794">
      <ele>2238.8</ele></trkpt>
      <trkpt lat="46.42157512696386" lon="8.775771793667595">
      <ele>2239.7</ele></trkpt>
      <trkpt lat="46.42153710852061" lon="8.775602836177685">
      <ele>2241.5</ele></trkpt>
      <trkpt lat="46.4214697654532" lon="8.775374599739692">
      <ele>2243.2</ele></trkpt>
      <trkpt lat="46.42152410176094" lon="8.775251305381396">
      <ele>2245.0</ele></trkpt>
      <trkpt lat="46.421550492564876" lon="8.775194543626426">
      <ele>2246.7</ele></trkpt>
      <trkpt lat="46.42159745880993" lon="8.7750660195932">
      <ele>2248.5</ele></trkpt>
      <trkpt lat="46.42161024330783" lon="8.774950677953603">
      <ele>2250.2</ele></trkpt>
      <trkpt lat="46.42163294891291" lon="8.774801156823836">
      <ele>2252.0</ele></trkpt>
      <trkpt lat="46.42168690928464" lon="8.774666182529405">
      <ele>2253.7</ele></trkpt>
      <trkpt lat="46.42173711088415" lon="8.77460821128568">
      <ele>2255.5</ele></trkpt>
      <trkpt lat="46.42178843237463" lon="8.774616357176281">
      <ele>2257.2</ele></trkpt>
      <trkpt lat="46.42183886524151" lon="8.774618978060197">
      <ele>2259.0</ele></trkpt>
      <trkpt lat="46.42190383132964" lon="8.774599931214045">
      <ele>2260.8</ele></trkpt>
      <trkpt lat="46.42197597374467" lon="8.774538362791183">
      <ele>2262.5</ele></trkpt>
      <trkpt lat="46.422016069579676" lon="8.774448476375547">
      <ele>2264.3</ele></trkpt>
      <trkpt lat="46.42202472474531" lon="8.774360573872878">
      <ele>2266.0</ele></trkpt>
      <trkpt lat="46.422029017928374" lon="8.774238139942684">
      <ele>2267.8</ele></trkpt>
      <trkpt lat="46.42202065234616" lon="8.774140165124727">
      <ele>2269.5</ele></trkpt>
      <trkpt lat="46.422006026741506" lon="8.77400762526575">
      <ele>2271.3</ele></trkpt>
      <trkpt lat="46.422001918878465" lon="8.773871220210268">
      <ele>2273.0</ele></trkpt>
      <trkpt lat="46.422010580824136" lon="8.773781938774114">
      <ele>2274.8</ele></trkpt>
      <trkpt lat="46.42204359929351" lon="8.773727667662804">
      <ele>2277.8</ele></trkpt>
      <trkpt lat="46.42212079572739" lon="8.773721306015716">
      <ele>2280.8</ele></trkpt>
      <trkpt lat="46.422210296227455" lon="8.773722142354519">
      <ele>2283.8</ele></trkpt>
      <trkpt lat="46.4222520928028" lon="8.773730053091125">
      <ele>2286.8</ele></trkpt>
      <trkpt lat="46.42229949636659" lon="8.773747742149276">
      <ele>2289.8</ele></trkpt>
      <trkpt lat="46.42237374443002" lon="8.77374956924391">
      <ele>2292.8</ele></trkpt>
      <trkpt lat="46.42242729674053" lon="8.77373022729565">
      <ele>2295.8</ele></trkpt>
      <trkpt lat="46.42245715328383" lon="8.773690058761005">
      <ele>2298.8</ele></trkpt>
      <trkpt lat="46.42250486949256" lon="8.773642939992108">
      <ele>2301.8</ele></trkpt>
      <trkpt lat="46.42262466900334" lon="8.773663880593464">
      <ele>2304.9</ele></trkpt>
      <trkpt lat="46.42265170942881" lon="8.773552595076211">
      <ele>2307.9</ele></trkpt>
      <trkpt lat="46.42268088898871" lon="8.773380293196055">
      <ele>2310.9</ele></trkpt>
      <trkpt lat="46.42274105399138" lon="8.77324697670753">
      <ele>2313.9</ele></trkpt>
      <trkpt lat="46.42282997304258" lon="8.773099119429158">
      <ele>2316.9</ele></trkpt>
      <trkpt lat="46.42292272416066" lon="8.772989553405571">
      <ele>2319.9</ele></trkpt>
      <trkpt lat="46.42297137630703" lon="8.772863576670892">
      <ele>2322.9</ele></trkpt>
      <trkpt lat="46.422916201830496" lon="8.772694156095639">
      <ele>2325.9</ele></trkpt>
      <trkpt lat="46.42297935113113" lon="8.772428586371383">
      <ele>2328.9</ele></trkpt>
      <trkpt lat="46.42306300636769" lon="8.77224241316196">
      <ele>2331.9</ele></trkpt>
      <trkpt lat="46.42313338565834" lon="8.772191426227506">
      <ele>2334.9</ele></trkpt>
      <trkpt lat="46.423175725086864" lon="8.772153917980084">
      <ele>2338.2</ele></trkpt>
      <trkpt lat="46.42323245174092" lon="8.772107122791386">
      <ele>2341.5</ele></trkpt>
      <trkpt lat="46.4233013282038" lon="8.772079894121482">
      <ele>2344.8</ele></trkpt>
      <trkpt lat="46.42334850643868" lon="8.772035622228728">
      <ele>2348.2</ele></trkpt>
      <trkpt lat="46.4234297275154" lon="8.771930219490054">
      <ele>2351.5</ele></trkpt>
      <trkpt lat="46.42350825012568" lon="8.771810972345948">
      <ele>2354.8</ele></trkpt>
      <trkpt lat="46.42357421122032" lon="8.77170795217635">
      <ele>2358.1</ele></trkpt>
      <trkpt lat="46.42363737680864" lon="8.771599346745463">
      <ele>2361.4</ele></trkpt>
      <trkpt lat="46.42365996428341" lon="8.771540692195442">
      <ele>2364.7</ele></trkpt>
      <trkpt lat="46.42369131717785" lon="8.771465742960283">
      <ele>2368.1</ele></trkpt>
      <trkpt lat="46.42373771974364" lon="8.771406294241071">
      <ele>2371.4</ele></trkpt>
      <trkpt lat="46.42380998965542" lon="8.771333715988026">
      <ele>2374.7</ele></trkpt>
      <trkpt lat="46.42388069896771" lon="8.771312047426637">
      <ele>2378.0</ele></trkpt>
      <trkpt lat="46.42395901941977" lon="8.771291931844528">
      <ele>2381.3</ele></trkpt>
      <trkpt lat="46.42402081038283" lon="8.771300345104287">
      <ele>2384.6</ele></trkpt>
      <trkpt lat="46.42407831878236" lon="8.771304164627841">
      <ele>2387.9</ele></trkpt>
      <trkpt lat="46.42411611729586" lon="8.771247262199442">
      <ele>2391.3</ele></trkpt>
      <trkpt lat="46.42416179255062" lon="8.771168526657593">
      <ele>2394.6</ele></trkpt>
      <trkpt lat="46.42420156239554" lon="8.771106169088519">
      <ele>2397.9</ele></trkpt>
      <trkpt lat="46.42426810453428" lon="8.771034828250869">
      <ele>2401.2</ele></trkpt>
      <trkpt lat="46.42431229297115" lon="8.771001488021497">
      <ele>2404.0</ele></trkpt>
      <trkpt lat="46.424354874509376" lon="8.770943323497447">
      <ele>2406.8</ele></trkpt>
      <trkpt lat="46.42440512980507" lon="8.770879843923598">
      <ele>2409.5</ele></trkpt>
      <trkpt lat="46.42444809912055" lon="8.770788642300005">
      <ele>2412.3</ele></trkpt>
      <trkpt lat="46.424493854978216" lon="8.770703012356512">
      <ele>2415.1</ele></trkpt>
      <trkpt lat="46.42453672720543" lon="8.770620069683511">
      <ele>2417.8</ele></trkpt>
      <trkpt lat="46.42458107704205" lon="8.770572967875328">
      <ele>2420.6</ele></trkpt>
      <trkpt lat="46.424688462414316" lon="8.770590748416563">
      <ele>2423.4</ele></trkpt>
      <trkpt lat="46.424808983321356" lon="8.770625387855423">
      <ele>2426.2</ele></trkpt>
      <trkpt lat="46.42488596843512" lon="8.770637009820371">
      <ele>2428.9</ele></trkpt>
      <trkpt lat="46.424962548300336" lon="8.770642532941828">
      <ele>2431.7</ele></trkpt>
      <trkpt lat="46.42510715278338" lon="8.770498673597874">
      <ele>2434.5</ele></trkpt>
      <trkpt lat="46.42510715278338" lon="8.770498673597874">
      <ele>2437.3</ele></trkpt>
      <trkpt lat="46.425008658000195" lon="8.77036729516867">
      <ele>2440.0</ele></trkpt>
      <trkpt lat="46.42497555273041" lon="8.77026734230158">
      <ele>2442.8</ele></trkpt>
      <trkpt lat="46.424930709727334" lon="8.770193942178093">
      <ele>2445.6</ele></trkpt>
      <trkpt lat="46.424868449852646" lon="8.770023056372134">
      <ele>2448.4</ele></trkpt>
      <trkpt lat="46.42473626241867" lon="8.769846317806989">
      <ele>2451.1</ele></trkpt>
      <trkpt lat="46.42467973366003" lon="8.76930792414861">
      <ele>2453.9</ele></trkpt>
      <trkpt lat="46.42469108957948" lon="8.769070670735408">
      <ele>2456.7</ele></trkpt>
      <trkpt lat="46.42466956904269" lon="8.768590968030237">
      <ele>2457.3</ele></trkpt>
      <trkpt lat="46.42458798719261" lon="8.768239924280472">
      <ele>2457.9</ele></trkpt>
      <trkpt lat="46.42457373463058" lon="8.768115650664019">
      <ele>2458.5</ele></trkpt>
      <trkpt lat="46.42456625759848" lon="8.767900665315555">
      <ele>2459.1</ele></trkpt>
      <trkpt lat="46.42447293096461" lon="8.767698031523704">
      <ele>2459.6</ele></trkpt>
      <trkpt lat="46.42441124779942" lon="8.767477581657555">
      <ele>2460.2</ele></trkpt>
      <trkpt lat="46.42438224453086" lon="8.767148476288392">
      <ele>2460.8</ele></trkpt>
      <trkpt lat="46.42439049396932" lon="8.766931808260154">
      <ele>2461.4</ele></trkpt>
      <trkpt lat="46.42437449566119" lon="8.766834346153061">
      <ele>2462.0</ele></trkpt>
      <trkpt lat="46.42432672662157" lon="8.766767084049631">
      <ele>2462.6</ele></trkpt>
      <trkpt lat="46.42428972350956" lon="8.766633992998031">
      <ele>2463.2</ele></trkpt>
      <trkpt lat="46.424253730553914" lon="8.766536041780336">
      <ele>2463.8</ele></trkpt>
      <trkpt lat="46.424237973585065" lon="8.766417925526843">
      <ele>2464.4</ele></trkpt>
      <trkpt lat="46.424225535646585" lon="8.766260651384176">
      <ele>2465.0</ele></trkpt>
      <trkpt lat="46.424250182737424" lon="8.765862630579342">
      <ele>2465.6</ele></trkpt>
      <trkpt lat="46.42423139381218" lon="8.765515185204585">
      <ele>2466.1</ele></trkpt>
      <trkpt lat="46.424202275863564" lon="8.765440119025161">
      <ele>2466.7</ele></trkpt>
      <trkpt lat="46.42414969365855" lon="8.765418172712192">
      <ele>2467.3</ele></trkpt>
      <trkpt lat="46.42409547641881" lon="8.765169000511394">
      <ele>2467.9</ele></trkpt>
      <trkpt lat="46.42405747283404" lon="8.765120570715128">
      <ele>2468.5</ele></trkpt>
      <trkpt lat="46.42398782873667" lon="8.765092014730143">
      <ele>2469.0</ele></trkpt>
      <trkpt lat="46.423967007514044" lon="8.765039880905292">
      <ele>2469.6</ele></trkpt>
      <trkpt lat="46.42397119519627" lon="8.7649263775702">
      <ele>2470.1</ele></trkpt>
      <trkpt lat="46.42401621801369" lon="8.764495809971221">
      <ele>2470.6</ele></trkpt>
      <trkpt lat="46.42400885254932" lon="8.764392367365566">
      <ele>2471.2</ele></trkpt>
      <trkpt lat="46.423945274475244" lon="8.764211128974798">
      <ele>2471.7</ele></trkpt>
      <trkpt lat="46.423856875386235" lon="8.763830995522849">
      <ele>2472.2</ele></trkpt>
      <trkpt lat="46.42384101900533" lon="8.763721153070957">
      <ele>2472.8</ele></trkpt>
      <trkpt lat="46.42383801557314" lon="8.763611611566226">
      <ele>2473.3</ele></trkpt>
      <trkpt lat="46.42381970878584" lon="8.763466581751983">
      <ele>2473.8</ele></trkpt>
      <trkpt lat="46.42381643984307" lon="8.763379762704098">
      <ele>2474.4</ele></trkpt>
      <trkpt lat="46.423840321888065" lon="8.763291537953695">
      <ele>2474.9</ele></trkpt>
      <trkpt lat="46.42389166827316" lon="8.763175061859862">
      <ele>2475.5</ele></trkpt>
      <trkpt lat="46.42399238522783" lon="8.76298957431114">
      <ele>2476.0</ele></trkpt>
      <trkpt lat="46.424023577257486" lon="8.762887060104141">
      <ele>2476.5</ele></trkpt>
      <trkpt lat="46.424037755341026" lon="8.762773813374546">
      <ele>2477.1</ele></trkpt>
      <trkpt lat="46.42406886594335" lon="8.762677489873871">
      <ele>2477.6</ele></trkpt>
      <trkpt lat="46.42408607260764" lon="8.762549862466612">
      <ele>2478.1</ele></trkpt>
      <trkpt lat="46.424100160103" lon="8.76219908430354">
      <ele>2478.7</ele></trkpt>
      <trkpt lat="46.42408381130032" lon="8.762008670124331">
      <ele>2479.2</ele></trkpt>
      <trkpt lat="46.42408174518588" lon="8.761818604403954">
      <ele>2478.9</ele></trkpt>
      <trkpt lat="46.42410442692841" lon="8.761587834494215">
      <ele>2478.6</ele></trkpt>
      <trkpt lat="46.424127684574664" lon="8.761185654705715">
      <ele>2478.3</ele></trkpt>
      <trkpt lat="46.42417287227742" lon="8.760862487233132">
      <ele>2478.0</ele></trkpt>
      <trkpt lat="46.424183453801454" lon="8.760567397984628">
      <ele>2477.7</ele></trkpt>
      <trkpt lat="46.424161607342285" lon="8.760358258405109">
      <ele>2477.4</ele></trkpt>
      <trkpt lat="46.4240180277458" lon="8.760055277086742">
      <ele>2477.1</ele></trkpt>
      <trkpt lat="46.42400606433349" lon="8.759978576392339">
      <ele>2476.8</ele></trkpt>
      <trkpt lat="46.42401539370571" lon="8.759790844219193">
      <ele>2476.5</ele></trkpt>
      <trkpt lat="46.42406673649696" lon="8.759674364431987">
      <ele>2476.1</ele></trkpt>
      <trkpt lat="46.424137893122875" lon="8.759450979823152">
      <ele>2475.8</ele></trkpt>
      <trkpt lat="46.424154258015626" lon="8.75927167992176">
      <ele>2475.5</ele></trkpt>
      <trkpt lat="46.42415973715768" lon="8.759046696006378">
      <ele>2475.2</ele></trkpt>
      <trkpt lat="46.42408701377761" lon="8.758790874244134">
      <ele>2474.9</ele></trkpt>
      <trkpt lat="46.4240467086856" lon="8.758694892473532">
      <ele>2474.6</ele></trkpt>
      <trkpt lat="46.42402274115736" lon="8.758545601937076">
      <ele>2474.3</ele></trkpt>
      <trkpt lat="46.42401575465385" lon="8.758409110384719">
      <ele>2474.0</ele></trkpt>
      <trkpt lat="46.42399497404062" lon="8.758230988782252">
      <ele>2473.7</ele></trkpt>
      <trkpt lat="46.42391586045044" lon="8.757910990138075">
      <ele>2473.4</ele></trkpt>
      <trkpt lat="46.423916110553364" lon="8.757766426412509">
      <ele>2473.1</ele></trkpt>
      <trkpt lat="46.423863128788234" lon="8.757655670155376">
      <ele>2469.4</ele></trkpt>
      <trkpt lat="46.42380690272989" lon="8.757577881195067">
      <ele>2465.7</ele></trkpt>
      <trkpt lat="46.423752769649326" lon="8.757442312929001">
      <ele>2462.0</ele></trkpt>
      <trkpt lat="46.42350032623981" lon="8.757065083594071">
      <ele>2458.3</ele></trkpt>
      <trkpt lat="46.423247881575755" lon="8.756687857771142">
      <ele>2454.6</ele></trkpt>
      <trkpt lat="46.42299543565717" lon="8.756310635460192">
      <ele>2450.9</ele></trkpt>
      <trkpt lat="46.422694889947486" lon="8.755949562050755">
      <ele>2447.2</ele></trkpt>
      <trkpt lat="46.422394343088314" lon="8.755588492643824">
      <ele>2443.5</ele></trkpt>
      <trkpt lat="46.4220937950797" lon="8.75522742723935">
      <ele>2439.8</ele></trkpt>
      <trkpt lat="46.42179324592164" lon="8.754866365837273">
      <ele>2436.1</ele></trkpt>
      <trkpt lat="46.42142561388885" lon="8.75459364784378">
      <ele>2432.3</ele></trkpt>
      <trkpt lat="46.42105798120014" lon="8.754320933549046">
      <ele>2428.6</ele></trkpt>
      <trkpt lat="46.42069034785557" lon="8.754048222952997">
      <ele>2424.9</ele></trkpt>
      <trkpt lat="46.42032271385515" lon="8.75377551605558">
      <ele>2421.2</ele></trkpt>
      <trkpt lat="46.4199550791989" lon="8.753502812856714">
      <ele>2417.5</ele></trkpt>
      <trkpt lat="46.4198911495861" lon="8.752939122494757">
      <ele>2413.8</ele></trkpt>
      <trkpt lat="46.419827217172354" lon="8.752375433459669">
      <ele>2410.1</ele></trkpt>
      <trkpt lat="46.4197632819577" lon="8.751811745751494">
      <ele>2406.4</ele></trkpt>
      <trkpt lat="46.41937852325815" lon="8.751558922953109">
      <ele>2402.7</ele></trkpt>
      <trkpt lat="46.41899376399494" lon="8.751306103743516">
      <ele>2399.0</ele></trkpt>
    </trkseg>
    <trkseg>
      <trkpt lat="46.416978568487316" lon="8.749825769008757">
      <ele>2390.6</ele></trkpt>
      <trkpt lat="46.416626702845505" lon="8.749836103087109">
      <ele>2388.9</ele></trkpt>
      <trkpt lat="46.41627483720282" lon="8.749846437032982">
      <ele>2387.2</ele></trkpt>
      <trkpt lat="46.41592297155929" lon="8.749856770846382">
      <ele>2385.5</ele></trkpt>
      <trkpt lat="46.41557110591489" lon="8.749867104527311">
      <ele>2383.9</ele></trkpt>
      <trkpt lat="46.41523634330517" lon="8.749775299643494">
      <ele>2382.2</ele></trkpt>
      <trkpt lat="46.414901580621176" lon="8.749683495894349">
      <ele>2380.5</ele></trkpt>
      <trkpt lat="46.41456681786295" lon="8.749591693279871">
      <ele>2378.8</ele></trkpt>
    </trkseg>
    <trkseg>
      <trkpt lat="46.4123887951657" lon="8.747117336666404">
      <ele>2443.3</ele></trkpt>
      <trkpt lat="46.41199568676814" lon="8.747185412424363">
      <ele>2459.6</ele></trkpt>
      <trkpt lat="46.41160257833005" lon="8.747253487197584">
      <ele>2476.0</ele></trkpt>
      <trkpt lat="46.411209469851514" lon="8.747321560986082">
      <ele>2492.3</ele></trkpt>
      <trkpt lat="46.410816361332515" lon="8.747389633789885">
      <ele>2508.7</ele></trkpt>
      <trkpt lat="46.410484530825734" lon="8.7471423026009">
      <ele>2525.0</ele></trkpt>
      <trkpt lat="46.41015269977972" lon="8.74689497443907">
      <ele>2541.3</ele></trkpt>
      <trkpt lat="46.40982086819456" lon="8.74664764930434">
      <ele>2557.7</ele></trkpt>
      <trkpt lat="46.40948903607023" lon="8.746400327196671">
      <ele>2574.0</ele></trkpt>
      <trkpt lat="46.40915720340674" lon="8.746153008116005">
      <ele>2590.4</ele></trkpt>
      <trkpt lat="46.409212065220544" lon="8.745604358960502">
      <ele>2606.7</ele></trkpt>
      <trkpt lat="46.40926692438051" lon="8.745055708693119">
      <ele>2623.0</ele></trkpt>
      <trkpt lat="46.409321780886636" lon="8.744507057313896">
      <ele>2639.4</ele></trkpt>
      <trkpt lat="46.40937663473892" lon="8.743958404822894">
      <ele>2655.7</ele></trkpt>
      <trkpt lat="46.40943148593735" lon="8.743409751220158">
      <ele>2672.1</ele></trkpt>
      <trkpt lat="46.40921688276799" lon="8.74291306022741">
      <ele>2688.4</ele></trkpt>
      <trkpt lat="46.40900227742354" lon="8.742416373163634">
      <ele>2704.7</ele></trkpt>
      <trkpt lat="46.408722918319235" lon="8.742654939966503">
      <ele>2721.1</ele></trkpt>
      <trkpt lat="46.40844355871352" lon="8.74289350431276">
      <ele>2737.4</ele></trkpt>
      <trkpt lat="46.40816419860644" lon="8.743132066202442">
      <ele>2753.8</ele></trkpt>
      <trkpt lat="46.40788865650648" lon="8.742901846023962">
      <ele>2770.1</ele></trkpt>
      <trkpt lat="46.40761311393934" lon="8.742671628184963">
      <ele>2773.3</ele></trkpt>
      <trkpt lat="46.40733757090504" lon="8.742441412685402">
      <ele>2776.6</ele></trkpt>
      <trkpt lat="46.40700535172731" lon="8.742689601294893">
      <ele>2779.8</ele></trkpt>
      <trkpt lat="46.40667313200707" lon="8.742937786865475">
      <ele>2783.1</ele></trkpt>
      <trkpt lat="46.40644066217386" lon="8.742897135200685">
      <ele>2786.3</ele></trkpt>
      <trkpt lat="46.40620819232625" lon="8.742856483885033">
      <ele>2789.5</ele></trkpt>
      <trkpt lat="46.40597454954507" lon="8.742441183497442">
      <ele>2792.8</ele></trkpt>
      <trkpt lat="46.40574090524324" lon="8.74202588668676">
      <ele>2796.0</ele></trkpt>
      <trkpt lat="46.40574090524324" lon="8.74202588668676">
      <ele>2799.3</ele></trkpt>
      <trkpt lat="46.40563672744268" lon="8.74232164590644">
      <ele>2802.5</ele></trkpt>
      <trkpt lat="46.40561558351811" lon="8.742359336082611">
      <ele>2805.7</ele></trkpt>
      <trkpt lat="46.40558565439679" lon="8.742415400485497">
      <ele>2809.0</ele></trkpt>
      <trkpt lat="46.405563704989405" lon="8.742461329922643">
      <ele>2812.2</ele></trkpt>
      <trkpt lat="46.405529183365466" lon="8.742545142289707">
      <ele>2815.5</ele></trkpt>
      <trkpt lat="46.40549790714584" lon="8.742593942922134">
      <ele>2818.7</ele></trkpt>
      <trkpt lat="46.40547233937015" lon="8.742643921115112">
      <ele>2821.9</ele></trkpt>
      <trkpt lat="46.40544991667007" lon="8.742669185827543">
      <ele>2825.2</ele></trkpt>
      <trkpt lat="46.40541026758191" lon="8.742701267817177">
      <ele>2828.4</ele></trkpt>
      <trkpt lat="46.40536314642453" lon="8.742751755439432">
      <ele>2831.7</ele></trkpt>
      <trkpt lat="46.40532926174761" lon="8.742800493125916">
      <ele>2834.9</ele></trkpt>
      <trkpt lat="46.40530993589225" lon="8.742824804671098">
      <ele>2832.6</ele></trkpt>
      <trkpt lat="46.40528696356852" lon="8.742835268507234">
      <ele>2830.3</ele></trkpt>
      <trkpt lat="46.40526145816804" lon="8.7428422509579">
      <ele>2828.1</ele></trkpt>
      <trkpt lat="46.4052016990564" lon="8.74287685377327">
      <ele>2825.8</ele></trkpt>
      <trkpt lat="46.405150267707" lon="8.742889052731378">
      <ele>2823.5</ele></trkpt>
      <trkpt lat="46.40502888850912" lon="8.742882234182622">
      <ele>2821.2</ele></trkpt>
      <trkpt lat="46.40486983505659" lon="8.742787372586157">
      <ele>2819.0</ele></trkpt>
      <trkpt lat="46.40480380601085" lon="8.742717818623827">
      <ele>2816.7</ele></trkpt>
      <trkpt lat="46.40475004939772" lon="8.742642720176542">
      <ele>2814.4</ele></trkpt>
      <trkpt lat="46.4047141410522" lon="8.742564617202989">
      <ele>2812.2</ele></trkpt>
      <trkpt lat="46.404665547477464" lon="8.742453604594884">
      <ele>2809.9</ele></trkpt>
      <trkpt lat="46.40460873088471" lon="8.742335527725546">
      <ele>2807.6</ele></trkpt>
      <trkpt lat="46.40456595503534" lon="8.742234955678944">
      <ele>2805.3</ele></trkpt>
      <trkpt lat="46.404543491530404" lon="8.742122854497648">
      <ele>2803.1</ele></trkpt>
      <trkpt lat="46.40451092767585" lon="8.742063716544333">
      <ele>2800.8</ele></trkpt>
      <trkpt lat="46.40445375573663" lon="8.741976533039546">
      <ele>2798.5</ele></trkpt>
      <trkpt lat="46.40436153780886" lon="8.74183872310197">
      <ele>2796.2</ele></trkpt>
      <trkpt lat="46.40432179111187" lon="8.741784563238214">
      <ele>2794.0</ele></trkpt>
      <trkpt lat="46.40422461605736" lon="8.741665518910064">
      <ele>2791.7</ele></trkpt>
      <trkpt lat="46.40415439484591" lon="8.74157629330167">
      <ele>2789.4</ele></trkpt>
      <trkpt lat="46.40407791116681" lon="8.741516101806077">
      <ele>2785.5</ele></trkpt>
      <trkpt lat="46.40402062538927" lon="8.741542194116905">
      <ele>2781.6</ele></trkpt>
      <trkpt lat="46.4039461152437" lon="8.741613313783157">
      <ele>2777.8</ele></trkpt>
      <trkpt lat="46.40389886959414" lon="8.741654317053715">
      <ele>2773.9</ele></trkpt>
      <trkpt lat="46.403832901758946" lon="8.741732105174231">
      <ele>2770.0</ele></trkpt>
      <trkpt lat="46.403780018566835" lon="8.741791596590277">
      <ele>2766.1</ele></trkpt>
      <trkpt lat="46.40371536603504" lon="8.741872355168162">
      <ele>2762.2</ele></trkpt>
      <trkpt lat="46.40368138217696" lon="8.741939153960127">
      <ele>2758.4</ele></trkpt>
      <trkpt lat="46.40363231679257" lon="8.742020286530742">
      <ele>2754.5</ele></trkpt>
      <trkpt lat="46.40357428823713" lon="8.742114924313173">
      <ele>2750.6</ele></trkpt>
      <trkpt lat="46.40352697395965" lon="8.742220600628904">
      <ele>2746.7</ele></trkpt>
      <trkpt lat="46.40348509439876" lon="8.742325431905806">
      <ele>2742.8</ele></trkpt>
      <trkpt lat="46.40346228298306" lon="8.742422878879207">
      <ele>2739.0</ele></trkpt>
      <trkpt lat="46.403452864773335" lon="8.742467364836436">
      <ele>2735.1</ele></trkpt>
      <trkpt lat="46.403445944230604" lon="8.742557546348566">
      <ele>2731.2</ele></trkpt>
      <trkpt lat="46.403450001993335" lon="8.74265223132619">
      <ele>2727.3</ele></trkpt>
      <trkpt lat="46.4034589889069" lon="8.742702400582074">
      <ele>2723.4</ele></trkpt>
      <trkpt lat="46.40348425319582" lon="8.742807167058283">
      <ele>2719.6</ele></trkpt>
      <trkpt lat="46.40349554912567" lon="8.742911597966405">
      <ele>2715.7</ele></trkpt>
      <trkpt lat="46.40351417798726" lon="8.743018325014425">
      <ele>2711.8</ele></trkpt>
      <trkpt lat="46.40352668777051" lon="8.743081337272347">
      <ele>2710.3</ele></trkpt>
      <trkpt lat="46.40353550670893" lon="8.743145314281586">
      <ele>2708.8</ele></trkpt>
      <trkpt lat="46.40354980464645" lon="8.743244498349574">
      <ele>2707.4</ele></trkpt>
      <trkpt lat="46.403560559248966" lon="8.743309133194218">
      <ele>2705.9</ele></trkpt>
      <trkpt lat="46.40357248150409" lon="8.74339270587594">
      <ele>2704.4</ele></trkpt>
      <trkpt lat="46.403585763920915" lon="8.743475348901272">
      <ele>2702.9</ele></trkpt>
      <trkpt lat="46.40358909696724" lon="8.743539116124516">
      <ele>2701.4</ele></trkpt>
      <trkpt lat="46.40357824590248" lon="8.743598627719535">
      <ele>2700.0</ele></trkpt>
      <trkpt lat="46.40357298966172" lon="8.743642602398943">
      <ele>2698.5</ele></trkpt>
      <trkpt lat="46.40355419754389" lon="8.743744060251744">
      <ele>2697.0</ele></trkpt>
      <trkpt lat="46.403542344771154" lon="8.743831977307126">
      <ele>2695.5</ele></trkpt>
      <trkpt lat="46.403539254842" lon="8.743919896979902">
      <ele>2694.0</ele></trkpt>
      <trkpt lat="46.40353922054601" lon="8.743961188038657">
      <ele>2692.6</ele></trkpt>
      <trkpt lat="46.403562787461844" lon="8.74402337404458">
      <ele>2691.1</ele></trkpt>
      <trkpt lat="46.40357860473295" lon="8.744054577093415">
      <ele>2689.6</ele></trkpt>
      <trkpt lat="46.40359993756835" lon="8.744117788892872">
      <ele>2688.1</ele></trkpt>
      <trkpt lat="46.40361621430861" lon="8.744172386638406">
      <ele>2686.6</ele></trkpt>
      <trkpt lat="46.403622886789684" lon="8.744232072571421">
      <ele>2685.2</ele></trkpt>
      <trkpt lat="46.403619236291135" lon="8.74429363005935">
      <ele>2683.7</ele></trkpt>
      <trkpt lat="46.403604338508764" lon="8.744374047807979">
      <ele>2682.2</ele></trkpt>
      <trkpt lat="46.403584381650916" lon="8.744446891743136">
      <ele>2680.4</ele></trkpt>
      <trkpt lat="46.40357249826206" lon="8.744521009317786">
      <ele>2678.6</ele></trkpt>
      <trkpt lat="46.40356807986252" lon="8.744578139450388">
      <ele>2676.8</ele></trkpt>
      <trkpt lat="46.40356523479824" lon="8.74466896521566">
      <ele>2674.9</ele></trkpt>
      <trkpt lat="46.403563563210874" lon="8.74475554046032">
      <ele>2673.1</ele></trkpt>
      <trkpt lat="46.40356132385353" lon="8.744831255595741">
      <ele>2671.3</ele></trkpt>
      <trkpt lat="46.40356423416122" lon="8.744874633371083">
      <ele>2669.5</ele></trkpt>
      <trkpt lat="46.40358194114505" lon="8.744933128322264">
      <ele>2667.7</ele></trkpt>
      <trkpt lat="46.40359459176355" lon="8.744958038887264">
      <ele>2665.9</ele></trkpt>
      <trkpt lat="46.40361814832313" lon="8.744981235145621">
      <ele>2664.1</ele></trkpt>
      <trkpt lat="46.40365988527969" lon="8.745022595303944">
      <ele>2662.2</ele></trkpt>
      <trkpt lat="46.40370626465159" lon="8.745074887730974">
      <ele>2660.4</ele></trkpt>
      <trkpt lat="46.403732489727616" lon="8.745103077356458">
      <ele>2658.6</ele></trkpt>
      <trkpt lat="46.40378216695255" lon="8.745164305972615">
      <ele>2656.8</ele></trkpt>
      <trkpt lat="46.40381968680546" lon="8.745216385363044">
      <ele>2655.0</ele></trkpt>
      <trkpt lat="46.40385994092264" lon="8.745268530651327">
      <ele>2653.2</ele></trkpt>
      <trkpt lat="46.40392383101139" lon="8.745320568776739">
      <ele>2651.3</ele></trkpt>
      <trkpt lat="46.404010147968044" lon="8.745454808101963">
      <ele>2649.5</ele></trkpt>
      <trkpt lat="46.40404310945567" lon="8.745502707452399">
      <ele>2647.7</ele></trkpt>
      <trkpt lat="46.40407686978595" lon="8.745570290339057">
      <ele>2645.9</ele></trkpt>
      <trkpt lat="46.404093350168736" lon="8.745627455995285">
      <ele>2642.0</ele></trkpt>
      <trkpt lat="46.40412345335583" lon="8.745679799588196">
      <ele>2638.1</ele></trkpt>
      <trkpt lat="46.40415138020242" lon="8.745735186128865">
      <ele>2634.1</ele></trkpt>
      <trkpt lat="46.404177237678724" lon="8.745784332282234">
      <ele>2630.2</ele></trkpt>
      <trkpt lat="46.40420147489416" lon="8.7458499434153">
      <ele>2626.3</ele></trkpt>
      <trkpt lat="46.404222138314815" lon="8.74591650896729">
      <ele>2622.4</ele></trkpt>
      <trkpt lat="46.404240866022256" lon="8.745964456102767">
      <ele>2618.5</ele></trkpt>
      <trkpt lat="46.40424513248063" lon="8.746027518458392">
      <ele>2614.5</ele></trkpt>
      <trkpt lat="46.40425358191773" lon="8.74609999352494">
      <ele>2610.6</ele></trkpt>
      <trkpt lat="46.404261856224295" lon="8.746125995756106">
      <ele>2606.7</ele></trkpt>
      <trkpt lat="46.40426088685079" lon="8.746147652566377">
      <ele>2602.8</ele></trkpt>
      <trkpt lat="46.40424255435504" lon="8.746189530797377">
      <ele>2598.9</ele></trkpt>
      <trkpt lat="46.40421082469859" lon="8.746216650146327">
      <ele>2594.9</ele></trkpt>
      <trkpt lat="46.40417475736136" lon="8.746247774689389">
      <ele>2591.0</ele></trkpt>
      <trkpt lat="46.404120961215554" lon="8.746276989429086">
      <ele>2587.1</ele></trkpt>
      <trkpt lat="46.40408602232112" lon="8.746289049061017">
      <ele>2583.2</ele></trkpt>
      <trkpt lat="46.40399149537378" lon="8.746351993859037">
      <ele>2579.3</ele></trkpt>
      <trkpt lat="46.403838976480664" lon="8.7464444289192">
      <ele>2575.3</ele></trkpt>
      <trkpt lat="46.403649150382066" lon="8.746521788618994">
      <ele>2571.4</ele></trkpt>
      <trkpt lat="46.40344539791428" lon="8.746636527550445">
      <ele>2567.5</ele></trkpt>
      <trkpt lat="46.40336762643207" lon="8.7467490998175">
      <ele>2562.9</ele></trkpt>
      <trkpt lat="46.40324335218665" lon="8.747130592006487">
      <ele>2558.3</ele></trkpt>
      <trkpt lat="46.40320136836713" lon="8.747306451187933">
      <ele>2553.7</ele></trkpt>
      <trkpt lat="46.40318268854596" lon="8.747350322651995">
      <ele>2549.1</ele></trkpt>
      <trkpt lat="46.40315361633446" lon="8.747391940687677">
      <ele>2544.5</ele></trkpt>
      <trkpt lat="46.40312176211005" lon="8.747438407569993">
      <ele>2539.9</ele></trkpt>
      <trkpt lat="46.40307605201627" lon="8.747505205556296">
      <ele>2535.3</ele></trkpt>
      <trkpt lat="46.40298847844018" lon="8.74763992137516">
      <ele>2530.7</ele></trkpt>
      <trkpt lat="46.402959694799" lon="8.747795289450671">
      <ele>2526.1</ele></trkpt>
      <trkpt lat="46.40290759961483" lon="8.748021623490338">
      <ele>2521.6</ele></trkpt>
      <trkpt lat="46.402863180949936" lon="8.748128494794601">
      <ele>2517.0</ele></trkpt>
      <trkpt lat="46.40281240837512" lon="8.748084352822247">
      <ele>2512.4</ele></trkpt>
      <trkpt lat="46.402728312647206" lon="8.747965277754542">
      <ele>2507.8</ele></trkpt>
      <trkpt lat="46.40264481513611" lon="8.747950258399017">
      <ele>2503.2</ele></trkpt>
      <trkpt lat="46.40256843807872" lon="8.747941913402821">
      <ele>2498.6</ele></trkpt>
      <trkpt lat="46.402520249098444" lon="8.747942844764117">
      <ele>2494.0</ele></trkpt>
      <trkpt lat="46.40246452421177" lon="8.747965299799004">
      <ele>2489.4</ele></trkpt>
      <trkpt lat="46.40241322502865" lon="8.747985481626431">
      <ele>2484.8</ele></trkpt>
      <trkpt lat="46.40235437493678" lon="8.748026926576157">
      <ele>2480.2</ele></trkpt>
      <trkpt lat="46.4023161710541" lon="8.74804980414671">
      <ele>2475.6</ele></trkpt>
      <trkpt lat="46.40227473179371" lon="8.748101214687395">
      <ele>2473.3</ele></trkpt>
      <trkpt lat="46.40223132192597" lon="8.748197848064585">
      <ele>2471.0</ele></trkpt>
      <trkpt lat="46.40218812304381" lon="8.748275421042138">
      <ele>2468.7</ele></trkpt>
      <trkpt lat="46.40216653729425" lon="8.748369901729312">
      <ele>2466.4</ele></trkpt>
      <trkpt lat="46.40212165019563" lon="8.748456537232856">
      <ele>2464.1</ele></trkpt>
      <trkpt lat="46.40197827667162" lon="8.748640348687633">
      <ele>2461.8</ele></trkpt>
      <trkpt lat="46.40182938919852" lon="8.748678370967095">
      <ele>2459.5</ele></trkpt>
      <trkpt lat="46.40153230495542" lon="8.748694609266742">
      <ele>2457.2</ele></trkpt>
      <trkpt lat="46.40146934441839" lon="8.748693089633518">
      <ele>2454.9</ele></trkpt>
      <trkpt lat="46.40141222027535" lon="8.748701919656291">
      <ele>2452.6</ele></trkpt>
      <trkpt lat="46.40121744098093" lon="8.748732045188774">
      <ele>2450.4</ele></trkpt>
      <trkpt lat="46.40113411601478" lon="8.748744937437174">
      <ele>2448.1</ele></trkpt>
      <trkpt lat="46.40105474783127" lon="8.748757209891616">
      <ele>2445.8</ele></trkpt>
      <trkpt lat="46.40094389192668" lon="8.748774041203601">
      <ele>2443.5</ele></trkpt>
      <trkpt lat="46.40089633543208" lon="8.748787978758049">
      <ele>2441.2</ele></trkpt>
      <trkpt lat="46.40087568202917" lon="8.74880715633093">
      <ele>2438.9</ele></trkpt>
      <trkpt lat="46.40086446922302" lon="8.74883543096874">
      <ele>2436.6</ele></trkpt>
      <trkpt lat="46.40086166610257" lon="8.748901297078206">
      <ele>2434.3</ele></trkpt>
      <trkpt lat="46.4008594239778" lon="8.748977008269355">
      <ele>2432.0</ele></trkpt>
      <trkpt lat="46.4008607268952" lon="8.749041009788932">
      <ele>2429.7</ele></trkpt>
      <trkpt lat="46.40086838219472" lon="8.749085488583919">
      <ele>2428.9</ele></trkpt>
      <trkpt lat="46.400881476794325" lon="8.749131074070638">
      <ele>2428.0</ele></trkpt>
      <trkpt lat="46.40090245647234" lon="8.749200466498642">
      <ele>2427.2</ele></trkpt>
      <trkpt lat="46.40095037079867" lon="8.74931207242023">
      <ele>2426.3</ele></trkpt>
      <trkpt lat="46.401046686190455" lon="8.749534399291367">
      <ele>2425.5</ele></trkpt>
      <trkpt lat="46.40108315118559" lon="8.74961607845278">
      <ele>2424.6</ele></trkpt>
      <trkpt lat="46.4010892335672" lon="8.74968297872013">
      <ele>2423.8</ele></trkpt>
      <trkpt lat="46.40107399492328" lon="8.749744292132732">
      <ele>2422.9</ele></trkpt>
      <trkpt lat="46.401048002288555" lon="8.749810508612343">
      <ele>2422.1</ele></trkpt>
      <trkpt lat="46.40101463443731" lon="8.749854737930583">
      <ele>2421.2</ele></trkpt>
      <trkpt lat="46.40099014132088" lon="8.749923539438319">
      <ele>2420.4</ele></trkpt>
      <trkpt lat="46.400969426124554" lon="8.749996294560598">
      <ele>2419.6</ele></trkpt>
      <trkpt lat="46.40095184925655" lon="8.750061400654728">
      <ele>2418.7</ele></trkpt>
      <trkpt lat="46.4009193943429" lon="8.75009280315148">
      <ele>2417.9</ele></trkpt>
      <trkpt lat="46.40088852783862" lon="8.750119107134582">
      <ele>2417.0</ele></trkpt>
      <trkpt lat="46.400878700132616" lon="8.750175401090274">
      <ele>2416.2</ele></trkpt>
      <trkpt lat="46.40087544437225" lon="8.750256224633066">
      <ele>2415.3</ele></trkpt>
      <trkpt lat="46.400876612551286" lon="8.750351265173428">
      <ele>2414.5</ele></trkpt>
      <trkpt lat="46.40088788874716" lon="8.750431126439922">
      <ele>2413.6</ele></trkpt>
      <trkpt lat="46.400881482713714" lon="8.750515164033382">
      <ele>2412.8</ele></trkpt>
      <trkpt lat="46.40081589056506" lon="8.75074116064732">
      <ele>2412.6</ele></trkpt>
      <trkpt lat="46.40080163372565" lon="8.750813213058187">
      <ele>2412.4</ele></trkpt>
      <trkpt lat="46.40078443673582" lon="8.750846219336909">
      <ele>2412.3</ele></trkpt>
      <trkpt lat="46.40077475727398" lon="8.750889668027902">
      <ele>2412.1</ele></trkpt>
      <trkpt lat="46.400781234014076" lon="8.750923194608704">
      <ele>2411.9</ele></trkpt>
      <trkpt lat="46.40077432142315" lon="8.750991106948796">
      <ele>2411.7</ele></trkpt>
      <trkpt lat="46.40076530837949" lon="8.751042270486131">
      <ele>2411.5</ele></trkpt>
      <trkpt lat="46.40074509172007" lon="8.75107265474184">
      <ele>2411.4</ele></trkpt>
      <trkpt lat="46.400720948349964" lon="8.751111943251514">
      <ele>2411.2</ele></trkpt>
      <trkpt lat="46.40071010893738" lon="8.751188759761156">
      <ele>2411.0</ele></trkpt>
      <trkpt lat="46.400700976949054" lon="8.751250194009609">
      <ele>2410.8</ele></trkpt>
      <trkpt lat="46.40068573745789" lon="8.751311506542557">
      <ele>2410.6</ele></trkpt>
      <trkpt lat="46.400652033218506" lon="8.751383972610327">
      <ele>2410.5</ele></trkpt>
      <trkpt lat="46.40062845221175" lon="8.751439959470947">
      <ele>2410.3</ele></trkpt>
      <trkpt lat="46.40061283761547" lon="8.75146915435116">
      <ele>2410.1</ele></trkpt>
      <trkpt lat="46.400577570830066" lon="8.75147995349891">
      <ele>2409.9</ele></trkpt>
      <trkpt lat="46.40055498615487" lon="8.75151670449568">
      <ele>2409.7</ele></trkpt>
      <trkpt lat="46.40053791552953" lon="8.751551989271007">
      <ele>2409.6</ele></trkpt>
      <trkpt lat="46.400517008782494" lon="8.751587571370141">
      <ele>2409.4</ele></trkpt>
      <trkpt lat="46.400517350085785" lon="8.751624928876593">
      <ele>2409.2</ele></trkpt>
      <trkpt lat="46.40050641702554" lon="8.751683380227014">
      <ele>2408.2</ele></trkpt>
      <trkpt lat="46.40049960873631" lon="8.751725922666404">
      <ele>2407.3</ele></trkpt>
      <trkpt lat="46.40050306521873" lon="8.751772406735576">
      <ele>2406.3</ele></trkpt>
      <trkpt lat="46.40049276943984" lon="8.751803004585046">
      <ele>2405.4</ele></trkpt>
      <trkpt lat="46.40047421557719" lon="8.751821854541122">
      <ele>2404.4</ele></trkpt>
      <trkpt lat="46.40045722025354" lon="8.751838193289892">
      <ele>2403.4</ele></trkpt>
      <trkpt lat="46.40043223789021" lon="8.751883872222495">
      <ele>2402.5</ele></trkpt>
      <trkpt lat="46.4004218380669" lon="8.751923453667008">
      <ele>2401.5</ele></trkpt>
      <trkpt lat="46.40038758595014" lon="8.751977933419989">
      <ele>2400.6</ele></trkpt>
      <trkpt lat="46.400333731593285" lon="8.75205166671748">
      <ele>2399.6</ele></trkpt>
      <trkpt lat="46.400287830967684" lon="8.752109037537055">
      <ele>2398.6</ele></trkpt>
      <trkpt lat="46.400247983942954" lon="8.752157971752395">
      <ele>2397.7</ele></trkpt>
      <trkpt lat="46.400208385129915" lon="8.752186247687167">
      <ele>2396.7</ele></trkpt>
      <trkpt lat="46.40014290230042" lon="8.752188109198723">
      <ele>2395.8</ele></trkpt>
      <trkpt lat="46.40008724369482" lon="8.75218145641626">
      <ele>2394.8</ele></trkpt>
      <trkpt lat="46.40004534039165" lon="8.752176436973215">
      <ele>2393.8</ele></trkpt>
      <trkpt lat="46.399967262894336" lon="8.752139370386892">
      <ele>2392.9</ele></trkpt>
      <trkpt lat="46.3999105383526" lon="8.752110558274305">
      <ele>2391.9</ele></trkpt>
      <trkpt lat="46.399872977103065" lon="8.75206543418146">
      <ele>2391.0</ele></trkpt>
      <trkpt lat="46.39981977516071" lon="8.752049412778948">
      <ele>2390.0</ele></trkpt>
      <trkpt lat="46.3997594189473" lon="8.752018003108908">
      <ele>2389.0</ele></trkpt>
      <trkpt lat="46.39969110038766" lon="8.75197883228026">
      <ele>2388.0</ele></trkpt>
      <trkpt lat="46.39965193756718" lon="8.751947701467529">
      <ele>2386.9</ele></trkpt>
      <trkpt lat="46.399615433238445" lon="8.751943385069149">
      <ele>2385.9</ele></trkpt>
      <trkpt lat="46.39957803233726" lon="8.751954340145891">
      <ele>2384.9</ele></trkpt>
      <trkpt lat="46.39956668671377" lon="8.751910097801332">
      <ele>2383.9</ele></trkpt>
      <trkpt lat="46.399538527920065" lon="8.751875006919207">
      <ele>2382.9</ele></trkpt>
      <trkpt lat="46.39951575670478" lon="8.751888227624365">
      <ele>2381.8</ele></trkpt>
      <trkpt lat="46.39949173862478" lon="8.751906567881187">
      <ele>2380.8</ele></trkpt>
      <trkpt lat="46.39945729618377" lon="8.751900558825444">
      <ele>2379.8</ele></trkpt>
      <trkpt lat="46.399437505898504" lon="8.751862237335395">
      <ele>2378.8</ele></trkpt>
      <trkpt lat="46.39942579462874" lon="8.751846465811829">
      <ele>2377.8</ele></trkpt>
      <trkpt lat="46.399409167823535" lon="8.751842630403992">
      <ele>2376.7</ele></trkpt>
      <trkpt lat="46.39938564751448" lon="8.75181797732526">
      <ele>2375.7</ele></trkpt>
      <trkpt lat="46.3993398430148" lon="8.751765254988479">
      <ele>2374.7</ele></trkpt>
      <trkpt lat="46.39929591512667" lon="8.751755596433087">
      <ele>2373.7</ele></trkpt>
      <trkpt lat="46.399274957554454" lon="8.751715517299187">
      <ele>2372.7</ele></trkpt>
      <trkpt lat="46.399239571376704" lon="8.75171098105467">
      <ele>2371.6</ele></trkpt>
      <trkpt lat="46.39920361628222" lon="8.751700410063098">
      <ele>2370.6</ele></trkpt>
      <trkpt lat="46.39919105616846" lon="8.751698896826158">
      <ele>2369.6</ele></trkpt>
      <trkpt lat="46.39913395281972" lon="8.75170357545748">
      <ele>2368.5</ele></trkpt>
      <trkpt lat="46.39909067600575" lon="8.75167342500185">
      <ele>2367.4</ele></trkpt>
      <trkpt lat="46.39906679535373" lon="8.751634042596358">
      <ele>2366.3</ele></trkpt>
      <trkpt lat="46.39904011060015" lon="8.751620054738787">
      <ele>2365.2</ele></trkpt>
      <trkpt lat="46.398987212620774" lon="8.751623625769486">
      <ele>2364.1</ele></trkpt>
      <trkpt lat="46.39895012622592" lon="8.751638502822772">
      <ele>2363.0</ele></trkpt>
      <trkpt lat="46.3989410895598" lon="8.751622510093055">
      <ele>2361.9</ele></trkpt>
      <trkpt lat="46.39892625455619" lon="8.751599120752237">
      <ele>2360.8</ele></trkpt>
      <trkpt lat="46.39889177101035" lon="8.751606765395954">
      <ele>2359.7</ele></trkpt>
      <trkpt lat="46.39887483364461" lon="8.751548148813322">
      <ele>2358.6</ele></trkpt>
      <trkpt lat="46.39885279780461" lon="8.751567018105366">
      <ele>2357.5</ele></trkpt>
      <trkpt lat="46.39884015856778" lon="8.751571562958008">
      <ele>2356.4</ele></trkpt>
      <trkpt lat="46.398820225582114" lon="8.751554110326929">
      <ele>2355.3</ele></trkpt>
      <trkpt lat="46.39878103683315" lon="8.75153376017611">
      <ele>2354.2</ele></trkpt>
      <trkpt lat="46.398747712401175" lon="8.75151355189499">
      <ele>2353.1</ele></trkpt>
      <trkpt lat="46.39870589796793" lon="8.751501630023505">
      <ele>2352.0</ele></trkpt>
      <trkpt lat="46.398667475562235" lon="8.751487358432014">
      <ele>2350.9</ele></trkpt>
      <trkpt lat="46.3986271798375" lon="8.751488802594611">
      <ele>2349.8</ele></trkpt>
      <trkpt lat="46.39859681739576" lon="8.7515026198813">
      <ele>2348.7</ele></trkpt>
      <trkpt lat="46.39855706734727" lon="8.7515307617315">
      <ele>2347.6</ele></trkpt>
      <trkpt lat="46.3985233640004" lon="8.751543288784362">
      <ele>2346.4</ele></trkpt>
      <trkpt lat="46.398500561812476" lon="8.75155607949535">
      <ele>2345.3</ele></trkpt>
      <trkpt lat="46.398457756661415" lon="8.751557462905367">
      <ele>2344.2</ele></trkpt>
      <trkpt lat="46.39838419891364" lon="8.75155118429705">
      <ele>2343.0</ele></trkpt>
      <trkpt lat="46.39830096191802" lon="8.751544008382044">
      <ele>2341.8</ele></trkpt>
      <trkpt lat="46.39826898256816" lon="8.751531180109232">
      <ele>2340.7</ele></trkpt>
      <trkpt lat="46.39823630804713" lon="8.751576853338246">
      <ele>2339.5</ele></trkpt>
      <trkpt lat="46.39820914645877" lon="8.751558978979881">
      <ele>2338.4</ele></trkpt>
      <trkpt lat="46.39819341732717" lon="8.751580965507426">
      <ele>2337.2</ele></trkpt>
      <trkpt lat="46.39817133572276" lon="8.751637207086311">
      <ele>2336.1</ele></trkpt>
      <trkpt lat="46.39814305910114" lon="8.751715652715472">
      <ele>2334.9</ele></trkpt>
      <trkpt lat="46.39811036276008" lon="8.751764758267123">
      <ele>2333.8</ele></trkpt>
      <trkpt lat="46.39805841721841" lon="8.751830602404011">
      <ele>2332.7</ele></trkpt>
      <trkpt lat="46.39802685935016" lon="8.751883168415107">
      <ele>2331.5</ele></trkpt>
      <trkpt lat="46.3979915206711" lon="8.751954563724393">
      <ele>2330.3</ele></trkpt>
      <trkpt lat="46.39799306780033" lon="8.752026851434685">
      <ele>2329.2</ele></trkpt>
      <trkpt lat="46.39799139358022" lon="8.752068098654968">
      <ele>2328.0</ele></trkpt>
      <trkpt lat="46.397962458178284" lon="8.752100077567373">
      <ele>2326.9</ele></trkpt>
      <trkpt lat="46.39791444166972" lon="8.752135053782494">
      <ele>2325.8</ele></trkpt>
      <trkpt lat="46.39789189877362" lon="8.752129332701529">
      <ele>2324.6</ele></trkpt>
      <trkpt lat="46.39783999291844" lon="8.752191731136717">
      <ele>2322.9</ele></trkpt>
      <trkpt lat="46.397781333022444" lon="8.752221274049704">
      <ele>2321.2</ele></trkpt>
      <trkpt lat="46.39773122081226" lon="8.752232116014344">
      <ele>2319.6</ele></trkpt>
      <trkpt lat="46.39768925835197" lon="8.752258616864433">
      <ele>2317.9</ele></trkpt>
      <trkpt lat="46.39766737175028" lon="8.752220310780011">
      <ele>2316.2</ele></trkpt>
      <trkpt lat="46.39766622957044" lon="8.752188423506599">
      <ele>2314.5</ele></trkpt>
      <trkpt lat="46.39765946413642" lon="8.752134800633227">
      <ele>2312.9</ele></trkpt>
      <trkpt lat="46.39764879318105" lon="8.752105335596756">
      <ele>2311.2</ele></trkpt>
      <trkpt lat="46.397612065026664" lon="8.752122678365126">
      <ele>2309.5</ele></trkpt>
      <trkpt lat="46.39759834989704" lon="8.75210592254528">
      <ele>2307.8</ele></trkpt>
      <trkpt lat="46.39759512755258" lon="8.75206254153748">
      <ele>2306.2</ele></trkpt>
      <trkpt lat="46.39758588810852" lon="8.752037649552896">
      <ele>2304.5</ele></trkpt>
      <trkpt lat="46.39756256700261" lon="8.751995797869178">
      <ele>2302.8</ele></trkpt>
      <trkpt lat="46.397540871326356" lon="8.75191613119216">
      <ele>2301.2</ele></trkpt>
      <trkpt lat="46.397500633727944" lon="8.751896237027504">
      <ele>2299.5</ele></trkpt>
      <trkpt lat="46.39748804486712" lon="8.751852915596563">
      <ele>2297.8</ele></trkpt>
      <trkpt lat="46.39747176572117" lon="8.751819829995258">
      <ele>2296.1</ele></trkpt>
      <trkpt lat="46.39746202890483" lon="8.751735316283465">
      <ele>2294.4</ele></trkpt>
      <trkpt lat="46.39745070685251" lon="8.751685146513895">
      <ele>2292.8</ele></trkpt>
      <trkpt lat="46.39739514742588" lon="8.751652827348874">
      <ele>2291.1</ele></trkpt>
      <trkpt lat="46.39734238391261" lon="8.751685972254613">
      <ele>2289.3</ele></trkpt>
      <trkpt lat="46.397309886853456" lon="8.751717864829137">
      <ele>2287.5</ele></trkpt>
      <trkpt lat="46.397252142741564" lon="8.751668314806896">
      <ele>2285.7</ele></trkpt>
      <trkpt lat="46.39721091710035" lon="8.751631179974138">
      <ele>2283.8</ele></trkpt>
      <trkpt lat="46.397194337333055" lon="8.751520688619301">
      <ele>2282.0</ele></trkpt>
      <trkpt lat="46.3971858077121" lon="8.751434462083289">
      <ele>2280.2</ele></trkpt>
      <trkpt lat="46.397150467528576" lon="8.75140263232116">
      <ele>2278.4</ele></trkpt>
      <trkpt lat="46.39711246314551" lon="8.75139655070779">
      <ele>2276.6</ele></trkpt>
      <trkpt lat="46.39708651051809" lon="8.751375273047495">
      <ele>2274.8</ele></trkpt>
      <trkpt lat="46.39707664319308" lon="8.751302785371484">
      <ele>2272.9</ele></trkpt>
      <trkpt lat="46.397053786431655" lon="8.751118164100676">
      <ele>2271.1</ele></trkpt>
      <trkpt lat="46.397016396609025" lon="8.750955558137424">
      <ele>2269.3</ele></trkpt>
      <trkpt lat="46.39699839429453" lon="8.750853654510367">
      <ele>2267.5</ele></trkpt>
      <trkpt lat="46.39698675405111" lon="8.750775740639718">
      <ele>2265.7</ele></trkpt>
      <trkpt lat="46.39696582532684" lon="8.750748694063814">
      <ele>2263.9</ele></trkpt>
      <trkpt lat="46.39695838077652" lon="8.750689945186272">
      <ele>2262.1</ele></trkpt>
      <trkpt lat="46.396947753658324" lon="8.750656658778965">
      <ele>2260.2</ele></trkpt>
      <trkpt lat="46.396914552054874" lon="8.750614153265694">
      <ele>2258.4</ele></trkpt>
      <trkpt lat="46.39689345869675" lon="8.750603669577812">
      <ele>2256.6</ele></trkpt>
      <trkpt lat="46.396864707939635" lon="8.750627499735526">
      <ele>2254.8</ele></trkpt>
      <trkpt lat="46.396824031630764" lon="8.750710065537083">
      <ele>2253.7</ele></trkpt>
      <trkpt lat="46.39678521148451" lon="8.750774496888617">
      <ele>2252.7</ele></trkpt>
      <trkpt lat="46.39676302000509" lon="8.750841046614472">
      <ele>2251.6</ele></trkpt>
      <trkpt lat="46.396735753913276" lon="8.750933285963846">
      <ele>2250.6</ele></trkpt>
      <trkpt lat="46.39667947785035" lon="8.750962887260666">
      <ele>2249.5</ele></trkpt>
      <trkpt lat="46.396656914846204" lon="8.75097522843344">
      <ele>2248.4</ele></trkpt>
      <trkpt lat="46.396646229549155" lon="8.750974970104473">
      <ele>2247.4</ele></trkpt>
      <trkpt lat="46.396636844351875" lon="8.750964210224632">
      <ele>2246.3</ele></trkpt>
      <trkpt lat="46.39661942991547" lon="8.750925805472557">
      <ele>2245.3</ele></trkpt>
      <trkpt lat="46.39660395757825" lon="8.75091627683954">
      <ele>2244.2</ele></trkpt>
      <trkpt lat="46.39656291207978" lon="8.75092031698299">
      <ele>2243.1</ele></trkpt>
      <trkpt lat="46.39651582048597" lon="8.750899491011488">
      <ele>2242.1</ele></trkpt>
      <trkpt lat="46.3964623282693" lon="8.750837782946224">
      <ele>2241.0</ele></trkpt>
      <trkpt lat="46.39644397399986" lon="8.750827729573029">
      <ele>2240.0</ele></trkpt>
      <trkpt lat="46.39642915503092" lon="8.75083560264862">
      <ele>2238.9</ele></trkpt>
      <trkpt lat="46.39639411659801" lon="8.7508663284473">
      <ele>2237.8</ele></trkpt>
      <trkpt lat="46.39638768870061" lon="8.750872128718221">
      <ele>2236.8</ele></trkpt>
      <trkpt lat="46.396377012397714" lon="8.750871870628309">
      <ele>2235.7</ele></trkpt>
      <trkpt lat="46.3963580306204" lon="8.750775302045309">
      <ele>2234.7</ele></trkpt>
      <trkpt lat="46.39633754003991" lon="8.750729047039009">
      <ele>2233.6</ele></trkpt>
      <trkpt lat="46.3963199290865" lon="8.750728621357148">
      <ele>2232.9</ele></trkpt>
      <trkpt lat="46.39631765456052" lon="8.750748695958817">
      <ele>2232.2</ele></trkpt>
      <trkpt lat="46.39629091743675" lon="8.750785109930598">
      <ele>2231.5</ele></trkpt>
      <trkpt lat="46.39628665448444" lon="8.750802860824027">
      <ele>2230.8</ele></trkpt>
      <trkpt lat="46.39627335542807" lon="8.750849664375092">
      <ele>2230.1</ele></trkpt>
      <trkpt lat="46.39624162267384" lon="8.75086995008686">
      <ele>2229.3</ele></trkpt>
      <trkpt lat="46.39623475286353" lon="8.750933384552106">
      <ele>2228.6</ele></trkpt>
      <trkpt lat="46.396221743802435" lon="8.750934903561216">
      <ele>2227.9</ele></trkpt>
      <trkpt lat="46.396209018815554" lon="8.750959302733131">
      <ele>2227.2</ele></trkpt>
      <trkpt lat="46.39619554135146" lon="8.750997415478247">
      <ele>2226.5</ele></trkpt>
      <trkpt lat="46.3961913116097" lon="8.75103484153681">
      <ele>2225.8</ele></trkpt>
      <trkpt lat="46.39619406419153" lon="8.751068314272736">
      <ele>2225.1</ele></trkpt>
      <trkpt lat="46.39618557028235" lon="8.751077718551421">
      <ele>2224.4</ele></trkpt>
      <trkpt lat="46.39617894312706" lon="8.751076635067779">
      <ele>2223.7</ele></trkpt>
      <trkpt lat="46.396173670417106" lon="8.751059576935836">
      <ele>2222.9</ele></trkpt>
      <trkpt lat="46.39614371009681" lon="8.750986552757025">
      <ele>2222.2</ele></trkpt>
      <trkpt lat="46.396118842055394" lon="8.750943846025338">
      <ele>2221.5</ele></trkpt>
      <trkpt lat="46.39609550661328" lon="8.750917196759005">
      <ele>2220.8</ele></trkpt>
      <trkpt lat="46.39608121049117" lon="8.750906318278993">
      <ele>2220.1</ele></trkpt>
      <trkpt lat="46.39605721931" lon="8.75093090015779">
      <ele>2219.4</ele></trkpt>
      <trkpt lat="46.39604387626755" lon="8.750958951313102">
      <ele>2218.2</ele></trkpt>
      <trkpt lat="46.39603972578402" lon="8.75101285466968">
      <ele>2217.0</ele></trkpt>
      <trkpt lat="46.39602409320709" lon="8.751029615387687">
      <ele>2215.7</ele></trkpt>
      <trkpt lat="46.39598494327878" lon="8.751018344067678">
      <ele>2214.5</ele></trkpt>
      <trkpt lat="46.39596489397182" lon="8.751002385153724">
      <ele>2213.3</ele></trkpt>
      <trkpt lat="46.39591750368194" lon="8.750984048793132">
      <ele>2212.1</ele></trkpt>
      <trkpt lat="46.39589323803264" lon="8.751023018806883">
      <ele>2210.9</ele></trkpt>
      <trkpt lat="46.39587283971055" lon="8.751037999807757">
      <ele>2209.6</ele></trkpt>
      <trkpt lat="46.39583652404473" lon="8.751090462124889">
      <ele>2208.4</ele></trkpt>
      <trkpt lat="46.395821624070074" lon="8.751143429175151">
      <ele>2207.2</ele></trkpt>
      <trkpt lat="46.39580521847191" lon="8.751223875161726">
      <ele>2206.0</ele></trkpt>
      <trkpt lat="46.39577171332377" lon="8.751240268595026">
      <ele>2204.8</ele></trkpt>
      <trkpt lat="46.395700296257004" lon="8.751240258146353">
      <ele>2203.5</ele></trkpt>
      <trkpt lat="46.39562763205612" lon="8.751245392910837">
      <ele>2202.3</ele></trkpt>
      <trkpt lat="46.39557376814155" lon="8.751168397496006">
      <ele>2201.1</ele></trkpt>
      <trkpt lat="46.39556193522666" lon="8.751059727841385">
      <ele>2199.9</ele></trkpt>
      <trkpt lat="46.395542980392115" lon="8.75094918261501">
      <ele>2198.7</ele></trkpt>
      <trkpt lat="46.39554397536156" lon="8.750863189046594">
      <ele>2197.4</ele></trkpt>
      <trkpt lat="46.39556618670625" lon="8.750794924852478">
      <ele>2196.2</ele></trkpt>
      <trkpt lat="46.39557555903132" lon="8.750705700829128">
      <ele>2195.0</ele></trkpt>
      <trkpt lat="46.39558357335139" lon="8.750526980367656">
      <ele>2193.5</ele></trkpt>
      <trkpt lat="46.39560731598141" lon="8.750326300021404">
      <ele>2192.1</ele></trkpt>
      <trkpt lat="46.39561505806921" lon="8.75024886959413">
      <ele>2190.6</ele></trkpt>
      <trkpt lat="46.395628683845146" lon="8.750122441308328">
      <ele>2189.2</ele></trkpt>
      <trkpt lat="46.395636718955146" lon="8.75005155863388">
      <ele>2187.7</ele></trkpt>
      <trkpt lat="46.395634645712285" lon="8.750019221007665">
      <ele>2186.3</ele></trkpt>
      <trkpt lat="46.39561407646693" lon="8.749981300211987">
      <ele>2184.8</ele></trkpt>
      <trkpt lat="46.39559414065048" lon="8.749960182174002">
      <ele>2183.4</ele></trkpt>
      <trkpt lat="46.395588820032124" lon="8.749855428063594">
      <ele>2181.9</ele></trkpt>
      <trkpt lat="46.3955925059752" lon="8.749812865851803">
      <ele>2180.5</ele></trkpt>
      <trkpt lat="46.395618006448714" lon="8.749768216840012">
      <ele>2179.0</ele></trkpt>
      <trkpt lat="46.39561472909314" lon="8.749698387262839">
      <ele>2177.6</ele></trkpt>
      <trkpt lat="46.39561872532007" lon="8.749627420011217">
      <ele>2176.1</ele></trkpt>
      <trkpt lat="46.3956294153958" lon="8.749534638595277">
      <ele>2174.7</ele></trkpt>
      <trkpt lat="46.39563552070147" lon="8.74949213475616">
      <ele>2173.2</ele></trkpt>
      <trkpt lat="46.39562403122327" lon="8.74936139384114">
      <ele>2171.8</ele></trkpt>
      <trkpt lat="46.39562793167606" lon="8.749299474636226">
      <ele>2170.3</ele></trkpt>
      <trkpt lat="46.395646370343826" lon="8.74923527973343">
      <ele>2168.9</ele></trkpt>
      <trkpt lat="46.395651235407236" lon="8.749159171022724">
      <ele>2167.4</ele></trkpt>
    </trkseg>
  </trk>
</gpx>