<?xml version='1.0' encoding='utf-8'?>
<gpx xmlns="http://www.topografix.com/GPX/1/1" xmlns:xsi="http://www.w3.org/2001/XMLSchema-instance" xsi:schemaLocation="http://www.topografix.com/GPX/1/1 http://www.topografix.com/GPX/1/1/gpx.xsd" version="1.1" creator="gpx.py -- https://github.com/tkrajina/gpxpy">
  <trk>
    <name>presa-cima</name>
    <trkseg>
      <trkpt lat="46.198294290245634" lon="8.127109691876756">
      <ele>957.0</ele></trkpt>
      <trkpt lat="46.19839360074645" lon="8.127319930353057">
      <ele>957.8</ele></trkpt>
      <trkpt lat="46.19862653849202" lon="8.127656535172221">
      <ele>958.6</ele></trkpt>
      <trkpt lat="46.19874685777929" lon="8.127801733185128">
      <ele>959.4</ele></trkpt>
      <trkpt lat="46.19881834666391" lon="8.12784182274089">
      <ele>960.2</ele></trkpt>
      <trkpt lat="46.19889832670746" lon="8.127841646105262">
      <ele>961.0</ele></trkpt>
      <trkpt lat="46.19902982942359" lon="8.12787075599314">
      <ele>961.7</ele></trkpt>
      <trkpt lat="46.199059772588996" lon="8.127970281305883">
      <ele>962.5</ele></trkpt>
      <trkpt lat="46.19912096775305" lon="8.128083027776569">
      <ele>963.3</ele></trkpt>
      <trkpt lat="46.19915053921751" lon="8.128177094495344">
      <ele>964.1</ele></trkpt>
      <trkpt lat="46.199176058103404" lon="8.12815685729046">
      <ele>964.9</ele></trkpt>
      <trkpt lat="46.19918501476176" lon="8.128099876605903">
      <ele>965.7</ele></trkpt>
      <trkpt lat="46.1991980970839" lon="8.128027233308885">
      <ele>966.5</ele></trkpt>
      <trkpt lat="46.19920008320246" lon="8.127967081058834">
      <ele>967.3</ele></trkpt>
      <trkpt lat="46.19918957198024" lon="8.127913157720227">
      <ele>968.1</ele></trkpt>
      <trkpt lat="46.19920408877424" lon="8.127838343066928">
      <ele>968.8</ele></trkpt>
      <trkpt lat="46.19920697059852" lon="8.127765531844544">
      <ele>969.6</ele></trkpt>
      <trkpt lat="46.19921603578215" lon="8.127754168063584">
      <ele>970.4</ele></trkpt>
      <trkpt lat="46.199228528036514" lon="8.12778860575353">
      <ele>971.2</ele></trkpt>
      <trkpt lat="46.19924982932675" lon="8.127827132129436">
      <ele>972.0</ele></trkpt>
      <trkpt lat="46.19926065344302" lon="8.127820894985064">
      <ele>972.8</ele></trkpt>
      <trkpt lat="46.199276710751185" lon="8.127769315618691">
      <ele>974.0</ele></trkpt>
      <trkpt lat="46.199270485303" lon="8.127691155208797">
      <ele>975.2</ele></trkpt>
      <trkpt lat="46.19927743288009" lon="8.127633151394592">
      <ele>976.4</ele></trkpt>
      <trkpt lat="46.199281333846926" lon="8.127524466712263">
      <ele>977.6</ele></trkpt>
      <trkpt lat="46.19928096824059" lon="8.127436845267349">
      <ele>978.8</ele></trkpt>
      <trkpt lat="46.19925981541818" lon="8.127353262317506">
      <ele>980.0</ele></trkpt>
      <trkpt lat="46.199246974344106" lon="8.127269745583979">
      <ele>981.2</ele></trkpt>
      <trkpt lat="46.19924437655997" lon="8.127133552452127">
      <ele>982.4</ele></trkpt>
      <trkpt lat="46.199235043583414" lon="8.127013131568162">
      <ele>983.6</ele></trkpt>
      <trkpt lat="46.19921715060082" lon="8.126942247355077">
      <ele>984.8</ele></trkpt>
      <trkpt lat="46.199185864694215" lon="8.126890238356042">
      <ele>986.0</ele></trkpt>
      <trkpt lat="46.19915797899376" lon="8.126823490365853">
      <ele>987.2</ele></trkpt>
      <trkpt lat="46.199132370351236" lon="8.126797930126848">
      <ele>988.4</ele></trkpt>
      <trkpt lat="46.199124275802816" lon="8.126757744285326">
      <ele>989.6</ele></trkpt>
      <trkpt lat="46.199128623208146" lon="8.126721887130957">
      <ele>990.8</ele></trkpt>
      <trkpt lat="46.19911314081989" lon="8.126665802601025">
      <ele>992.0</ele></trkpt>
      <trkpt lat="46.199133931801015" lon="8.126659652193217">
      <ele>993.2</ele></trkpt>
      <trkpt lat="46.199170496837695" lon="8.126655760794343">
      <ele>994.4</ele></trkpt>
      <trkpt lat="46.19920043996201" lon="8.126647588282509">
      <ele>995.6</ele></trkpt>
      <trkpt lat="46.19920475524166" lon="8.126617003471189">
      <ele>996.8</ele></trkpt>
      <trkpt lat="46.19918740687709" lon="8.12659996851352">
      <ele>998.6</ele></trkpt>
      <trkpt lat="46.19917508828052" lon="8.126572412578671">
      <ele>1000.4</ele></trkpt>
      <trkpt lat="46.19917122408966" lon="8.126518534567536">
      <ele>1002.1</ele></trkpt>
      <trkpt lat="46.19916227871432" lon="8.12648362376065">
      <ele>1003.9</ele></trkpt>
      <trkpt lat="46.19911026711444" lon="8.126424046759473">
      <ele>1005.7</ele></trkpt>
      <trkpt lat="46.199047380057216" lon="8.126379153465132">
      <ele>1007.5</ele></trkpt>
      <trkpt lat="46.19902955459845" lon="8.126328156881788">
      <ele>1009.3</ele></trkpt>
      <trkpt lat="46.19904406635437" lon="8.126289487153768">
      <ele>1011.0</ele></trkpt>
      <trkpt lat="46.19908857707745" lon="8.126276342054522">
      <ele>1012.8</ele></trkpt>
      <trkpt lat="46.19910500066336" lon="8.126185136836883">
      <ele>1014.6</ele></trkpt>
      <trkpt lat="46.199075094021836" lon="8.126145906720934">
      <ele>1016.4</ele></trkpt>
      <trkpt lat="46.19894392318703" lon="8.126057426128307">
      <ele>1018.2</ele></trkpt>
      <trkpt lat="46.1989164739731" lon="8.125975034452647">
      <ele>1019.9</ele></trkpt>
      <trkpt lat="46.19887679913308" lon="8.125954803316448">
      <ele>1021.7</ele></trkpt>
      <trkpt lat="46.19887234657243" lon="8.12593106502526">
      <ele>1023.5</ele></trkpt>
      <trkpt lat="46.198885301055356" lon="8.125876259371049">
      <ele>1025.3</ele></trkpt>
      <trkpt lat="46.19889372247041" lon="8.125813908417824">
      <ele>1027.1</ele></trkpt>
      <trkpt lat="46.19886705925899" lon="8.125807884909308">
      <ele>1028.8</ele></trkpt>
      <trkpt lat="46.19883285226" lon="8.125798281345356">
      <ele>1030.6</ele></trkpt>
      <trkpt lat="46.19880051519661" lon="8.125778518579295">
      <ele>1032.4</ele></trkpt>
      <trkpt lat="46.19877733725177" lon="8.125780739677467">
      <ele>1033.9</ele></trkpt>
      <trkpt lat="46.19874503335069" lon="8.125789556508087">
      <ele>1035.4</ele></trkpt>
      <trkpt lat="46.19874708050981" lon="8.125753204144122">
      <ele>1037.0</ele></trkpt>
      <trkpt lat="46.198767804984804" lon="8.12571358932325">
      <ele>1038.5</ele></trkpt>
      <trkpt lat="46.19879480848872" lon="8.125589624575971">
      <ele>1040.0</ele></trkpt>
      <trkpt lat="46.19880526286296" lon="8.125508021961805">
      <ele>1041.5</ele></trkpt>
      <trkpt lat="46.198801910693604" lon="8.125467507663792">
      <ele>1043.0</ele></trkpt>
      <trkpt lat="46.19881375929337" lon="8.125384432735324">
      <ele>1044.6</ele></trkpt>
      <trkpt lat="46.19884711838864" lon="8.125272997750654">
      <ele>1046.1</ele></trkpt>
      <trkpt lat="46.198874680781586" lon="8.125172462686784">
      <ele>1047.6</ele></trkpt>
      <trkpt lat="46.19892906028328" lon="8.125108889707162">
      <ele>1049.1</ele></trkpt>
      <trkpt lat="46.19896290222477" lon="8.124906035271957">
      <ele>1050.6</ele></trkpt>
      <trkpt lat="46.198967297300236" lon="8.124730339811833">
      <ele>1052.2</ele></trkpt>
      <trkpt lat="46.1989701029506" lon="8.12464306975696">
      <ele>1053.7</ele></trkpt>
      <trkpt lat="46.19898255209202" lon="8.124579525511002">
      <ele>1055.2</ele></trkpt>
      <trkpt lat="46.198945580155126" lon="8.124484448124">
      <ele>1056.7</ele></trkpt>
      <trkpt lat="46.198938100566224" lon="8.1243916981738">
      <ele>1058.2</ele></trkpt>
      <trkpt lat="46.19892507249037" lon="8.124329750763138">
      <ele>1059.8</ele></trkpt>
      <trkpt lat="46.19892811611167" lon="8.124269935886746">
      <ele>1061.3</ele></trkpt>
      <trkpt lat="46.19894996783047" lon="8.124204566591281">
      <ele>1062.8</ele></trkpt>
      <trkpt lat="46.19898968470287" lon="8.12428614009335">
      <ele>1064.3</ele></trkpt>
      <trkpt lat="46.199009552033615" lon="8.124326939956363">
      <ele>1065.9</ele></trkpt>
      <trkpt lat="46.19903766284614" lon="8.124333097564454">
      <ele>1067.4</ele></trkpt>
      <trkpt lat="46.199037861977416" lon="8.124300271448119">
      <ele>1069.0</ele></trkpt>
      <trkpt lat="46.19904244497414" lon="8.124207647186445">
      <ele>1070.5</ele></trkpt>
      <trkpt lat="46.19903837915308" lon="8.124186828767487">
      <ele>1072.0</ele></trkpt>
      <trkpt lat="46.199044315425446" lon="8.12410541485906">
      <ele>1073.6</ele></trkpt>
      <trkpt lat="46.199058801203485" lon="8.124067936095035">
      <ele>1075.1</ele></trkpt>
      <trkpt lat="46.199077685194794" lon="8.124029100495834">
      <ele>1076.7</ele></trkpt>
      <trkpt lat="46.19908784341012" lon="8.123978352897886">
      <ele>1078.2</ele></trkpt>
      <trkpt lat="46.1991039916433" lon="8.123936710420747">
      <ele>1079.7</ele></trkpt>
      <trkpt lat="46.19911881241801" lon="8.123938930748535">
      <ele>1081.3</ele></trkpt>
      <trkpt lat="46.19914489212049" lon="8.123989279007773">
      <ele>1082.8</ele></trkpt>
      <trkpt lat="46.19916980368897" lon="8.12405423914604">
      <ele>1084.4</ele></trkpt>
      <trkpt lat="46.19918849398446" lon="8.124151185449211">
      <ele>1085.9</ele></trkpt>
      <trkpt lat="46.19920844104292" lon="8.124218894567127">
      <ele>1087.4</ele></trkpt>
      <trkpt lat="46.199215721022455" lon="8.12429415278671">
      <ele>1089.0</ele></trkpt>
      <trkpt lat="46.19922762980504" lon="8.124325589655434">
      <ele>1090.5</ele></trkpt>
      <trkpt lat="46.199250540175655" lon="8.124365987516605">
      <ele>1092.1</ele></trkpt>
      <trkpt lat="46.19926051173142" lon="8.124387554011442">
      <ele>1093.6</ele></trkpt>
      <trkpt lat="46.19928817069803" lon="8.124451875366411">
      <ele>1097.0</ele></trkpt>
      <trkpt lat="46.199313724598454" lon="8.124479131028258">
      <ele>1100.4</ele></trkpt>
      <trkpt lat="46.1993528987916" lon="8.12450185532848">
      <ele>1103.8</ele></trkpt>
      <trkpt lat="46.19939572515016" lon="8.124536466804695">
      <ele>1107.2</ele></trkpt>
      <trkpt lat="46.199449041067254" lon="8.124587326811138">
      <ele>1110.6</ele></trkpt>
      <trkpt lat="46.19950547771329" lon="8.124716878240262">
      <ele>1114.0</ele></trkpt>
      <trkpt lat="46.19957978767864" lon="8.124913336346061">
      <ele>1117.4</ele></trkpt>
      <trkpt lat="46.199591076641724" lon="8.125040894747817">
      <ele>1120.8</ele></trkpt>
      <trkpt lat="46.19959551146222" lon="8.125193487370579">
      <ele>1124.2</ele></trkpt>
      <trkpt lat="46.19960218129157" lon="8.125360190692483">
      <ele>1127.7</ele></trkpt>
      <trkpt lat="46.19965302110535" lon="8.125432085989637">
      <ele>1131.1</ele></trkpt>
      <trkpt lat="46.199731555589985" lon="8.125415754210877">
      <ele>1134.5</ele></trkpt>
      <trkpt lat="46.19978926565609" lon="8.125465867532862">
      <ele>1137.9</ele></trkpt>
      <trkpt lat="46.19981111617571" lon="8.12545855099853">
      <ele>1141.3</ele></trkpt>
      <trkpt lat="46.199821172289745" lon="8.125361045489774">
      <ele>1144.7</ele></trkpt>
      <trkpt lat="46.19980853487121" lon="8.12528078276437">
      <ele>1148.1</ele></trkpt>
      <trkpt lat="46.199781118078654" lon="8.125077425691567">
      <ele>1151.5</ele></trkpt>
      <trkpt lat="46.19978146594718" lon="8.125020141139771">
      <ele>1154.9</ele></trkpt>
      <trkpt lat="46.19984676461552" lon="8.125102038693143">
      <ele>1158.3</ele></trkpt>
      <trkpt lat="46.19993588996884" lon="8.125217078700262">
      <ele>1161.7</ele></trkpt>
      <trkpt lat="46.199955918897885" lon="8.12517938441838">
      <ele>1165.0</ele></trkpt>
      <trkpt lat="46.19998428125338" lon="8.124953020731235">
      <ele>1168.2</ele></trkpt>
      <trkpt lat="46.20011115836845" lon="8.125243526368832">
      <ele>1171.5</ele></trkpt>
      <trkpt lat="46.200155859003466" lon="8.125289433831561">
      <ele>1174.8</ele></trkpt>
      <trkpt lat="46.20019189450586" lon="8.125226094785727">
      <ele>1178.1</ele></trkpt>
      <trkpt lat="46.200207209471046" lon="8.125133616764266">
      <ele>1181.4</ele></trkpt>
      <trkpt lat="46.20022131581129" lon="8.125017946010178">
      <ele>1184.6</ele></trkpt>
      <trkpt lat="46.20023295247503" lon="8.124867484381436">
      <ele>1187.9</ele></trkpt>
      <trkpt lat="46.20024750366433" lon="8.124678477765581">
      <ele>1191.2</ele></trkpt>
      <trkpt lat="46.20025931292306" lon="8.124500979941281">
      <ele>1194.5</ele></trkpt>
      <trkpt lat="46.20029201467167" lon="8.12434798473386">
      <ele>1197.7</ele></trkpt>
      <trkpt lat="46.20032527338306" lon="8.124352289843008">
      <ele>1201.0</ele></trkpt>
      <trkpt lat="46.200355954954205" lon="8.124484822682128">
      <ele>1204.3</ele></trkpt>
      <trkpt lat="46.200380400937746" lon="8.124903595438518">
      <ele>1207.5</ele></trkpt>
      <trkpt lat="46.20044140068159" lon="8.125228253317793">
      <ele>1210.8</ele></trkpt>
      <trkpt lat="46.200479328838405" lon="8.125365736602145">
      <ele>1214.1</ele></trkpt>
      <trkpt lat="46.20053349833857" lon="8.125499615812798">
      <ele>1217.4</ele></trkpt>
      <trkpt lat="46.20057137747027" lon="8.1256007065581">
      <ele>1220.7</ele></trkpt>
      <trkpt lat="46.20061302261898" lon="8.125717119612386">
      <ele>1223.9</ele></trkpt>
      <trkpt lat="46.2006164678033" lon="8.125797073397079">
      <ele>1227.2</ele></trkpt>
      <trkpt lat="46.200633193600716" lon="8.125851425889632">
      <ele>1230.1</ele></trkpt>
      <trkpt lat="46.200663973338465" lon="8.125948294687388">
      <ele>1233.1</ele></trkpt>
      <trkpt lat="46.20069805277546" lon="8.126041007581435">
      <ele>1236.0</ele></trkpt>
      <trkpt lat="46.20073312111739" lon="8.126158957741787">
      <ele>1239.0</ele></trkpt>
      <trkpt lat="46.20081686929756" lon="8.12635624097206">
      <ele>1241.9</ele></trkpt>
      <trkpt lat="46.2009541033636" lon="8.126718141539927">
      <ele>1244.9</ele></trkpt>
      <trkpt lat="46.20100823308013" lon="8.12698830409265">
      <ele>1247.8</ele></trkpt>
      <trkpt lat="46.20109560505955" lon="8.127117669527266">
      <ele>1250.8</ele></trkpt>
      <trkpt lat="46.201148167762284" lon="8.127191572446783">
      <ele>1253.7</ele></trkpt>
      <trkpt lat="46.20117043829639" lon="8.12722903686172">
      <ele>1256.7</ele></trkpt>
      <trkpt lat="46.20117948820037" lon="8.127285146041395">
      <ele>1259.6</ele></trkpt>
      <trkpt lat="46.20117767742146" lon="8.127362352505862">
      <ele>1262.5</ele></trkpt>
      <trkpt lat="46.20118124226448" lon="8.127435766084893">
      <ele>1265.5</ele></trkpt>
      <trkpt lat="46.20117801766685" lon="8.12752648050204">
      <ele>1268.4</ele></trkpt>
      <trkpt lat="46.20123728051166" lon="8.127700992561518">
      <ele>1271.4</ele></trkpt>
      <trkpt lat="46.20128893968053" lon="8.127802040166275">
      <ele>1274.3</ele></trkpt>
      <trkpt lat="46.2013812948714" lon="8.12791953829854">
      <ele>1277.3</ele></trkpt>
      <trkpt lat="46.201461240492" lon="8.128084907150457">
      <ele>1280.2</ele></trkpt>
      <trkpt lat="46.201666587536316" lon="8.128487841770424">
      <ele>1283.2</ele></trkpt>
      <trkpt lat="46.20175530013043" lon="8.128544675075451">
      <ele>1286.1</ele></trkpt>
      <trkpt lat="46.20181066632445" lon="8.128590954876266">
      <ele>1288.5</ele></trkpt>
      <trkpt lat="46.20188254229447" lon="8.128720854130485">
      <ele>1291.0</ele></trkpt>
      <trkpt lat="46.201983327227836" lon="8.128782116382526">
      <ele>1293.4</ele></trkpt>
      <trkpt lat="46.202072333520206" lon="8.12882323860906">
      <ele>1295.8</ele></trkpt>
      <trkpt lat="46.20216894737157" lon="8.128833907051622">
      <ele>1298.2</ele></trkpt>
      <trkpt lat="46.202207921108" lon="8.128899634166562">
      <ele>1300.7</ele></trkpt>
      <trkpt lat="46.20225275443243" lon="8.128948618672887">
      <ele>1303.1</ele></trkpt>
      <trkpt lat="46.20229087754324" lon="8.129016628414993">
      <ele>1305.5</ele></trkpt>
      <trkpt lat="46.202295334452685" lon="8.129098463385064">
      <ele>1308.0</ele></trkpt>
      <trkpt lat="46.20232747407059" lon="8.129095968408938">
      <ele>1310.4</ele></trkpt>
      <trkpt lat="46.202384281269694" lon="8.129050629309303">
      <ele>1312.8</ele></trkpt>
      <trkpt lat="46.20242679442503" lon="8.129024361766618">
      <ele>1315.3</ele></trkpt>
      <trkpt lat="46.20245590917166" lon="8.128961841790401">
      <ele>1317.7</ele></trkpt>
      <trkpt lat="46.202496466895916" lon="8.12892432940628">
      <ele>1320.1</ele></trkpt>
      <trkpt lat="46.202529103756696" lon="8.128897858887477">
      <ele>1322.5</ele></trkpt>
      <trkpt lat="46.20258122816156" lon="8.12891813460911">
      <ele>1325.0</ele></trkpt>
      <trkpt lat="46.20260931470651" lon="8.12897536768164">
      <ele>1327.4</ele></trkpt>
      <trkpt lat="46.20264561610135" lon="8.129044119221357">
      <ele>1329.8</ele></trkpt>
      <trkpt lat="46.20268098952341" lon="8.129058598824905">
      <ele>1332.3</ele></trkpt>
      <trkpt lat="46.20272739721533" lon="8.128989728866047">
      <ele>1334.7</ele></trkpt>
      <trkpt lat="46.20274752972421" lon="8.128948537178301">
      <ele>1336.8</ele></trkpt>
      <trkpt lat="46.20275874956867" lon="8.128880452217873">
      <ele>1338.9</ele></trkpt>
      <trkpt lat="46.20279751974366" lon="8.128894067835333">
      <ele>1341.0</ele></trkpt>
      <trkpt lat="46.20285713894716" lon="8.128911199538079">
      <ele>1343.1</ele></trkpt>
      <trkpt lat="46.202915694244176" lon="8.128919883326263">
      <ele>1345.2</ele></trkpt>
      <trkpt lat="46.20296733604589" lon="8.128941111858959">
      <ele>1347.3</ele></trkpt>
      <trkpt lat="46.20304489315363" lon="8.12900389537357">
      <ele>1349.4</ele></trkpt>
      <trkpt lat="46.20309848919047" lon="8.129048340442303">
      <ele>1351.5</ele></trkpt>
      <trkpt lat="46.203167035458335" lon="8.129191610901545">
      <ele>1353.6</ele></trkpt>
      <trkpt lat="46.203204919624575" lon="8.129331098585718">
      <ele>1355.8</ele></trkpt>
      <trkpt lat="46.20327279988622" lon="8.12930947973914">
      <ele>1357.9</ele></trkpt>
      <trkpt lat="46.203290028735836" lon="8.129316564908558">
      <ele>1360.0</ele></trkpt>
      <trkpt lat="46.20335388119912" lon="8.129294558102794">
      <ele>1362.1</ele></trkpt>
      <trkpt lat="46.203371025805914" lon="8.129312486628665">
      <ele>1364.2</ele></trkpt>
      <trkpt lat="46.2033901073564" lon="8.129299033645818">
      <ele>1366.3</ele></trkpt>
      <trkpt lat="46.203412055091796" lon="8.129296461402296">
      <ele>1368.4</ele></trkpt>
      <trkpt lat="46.203442472290064" lon="8.129235757871184">
      <ele>1370.5</ele></trkpt>
      <trkpt lat="46.203459042137574" lon="8.12922113286097">
      <ele>1372.6</ele></trkpt>
      <trkpt lat="46.20348465619085" lon="8.129180930059299">
      <ele>1374.7</ele></trkpt>
      <trkpt lat="46.203573346934995" lon="8.129163241238446">
      <ele>1376.8</ele></trkpt>
      <trkpt lat="46.20361581297984" lon="8.129125545111245">
      <ele>1378.3</ele></trkpt>
      <trkpt lat="46.203668041463686" lon="8.129121412984189">
      <ele>1379.8</ele></trkpt>
      <trkpt lat="46.203764143017885" lon="8.129124638812867">
      <ele>1381.3</ele></trkpt>
      <trkpt lat="46.20387216467425" lon="8.129113051023161">
      <ele>1382.8</ele></trkpt>
      <trkpt lat="46.20419280466907" lon="8.128871652769725">
      <ele>1384.2</ele></trkpt>
      <trkpt lat="46.20430438944858" lon="8.128806897106905">
      <ele>1385.7</ele></trkpt>
      <trkpt lat="46.20436612166585" lon="8.128777049658261">
      <ele>1387.2</ele></trkpt>
      <trkpt lat="46.204420057622194" lon="8.128742257670286">
      <ele>1388.7</ele></trkpt>
      <trkpt lat="46.20447398522618" lon="8.128705884808031">
      <ele>1390.2</ele></trkpt>
      <trkpt lat="46.20452315693761" lon="8.128716185994229">
      <ele>1391.7</ele></trkpt>
      <trkpt lat="46.204597797623215" lon="8.128771911579372">
      <ele>1393.2</ele></trkpt>
      <trkpt lat="46.20467006141273" lon="8.128848583954243">
      <ele>1394.7</ele></trkpt>
      <trkpt lat="46.20471786187395" lon="8.128900769628391">
      <ele>1396.2</ele></trkpt>
      <trkpt lat="46.20477021002021" lon="8.128943334399851">
      <ele>1397.7</ele></trkpt>
      <trkpt lat="46.204810567728686" lon="8.128973930911517">
      <ele>1399.1</ele></trkpt>
      <trkpt lat="46.204883968948536" lon="8.128980704163304">
      <ele>1400.6</ele></trkpt>
      <trkpt lat="46.20498240652943" lon="8.128968204089938">
      <ele>1402.1</ele></trkpt>
      <trkpt lat="46.20503629286533" lon="8.128975429813181">
      <ele>1403.6</ele></trkpt>
      <trkpt lat="46.20507125419318" lon="8.128960169166291">
      <ele>1405.1</ele></trkpt>
      <trkpt lat="46.20508911426556" lon="8.12896995744917">
      <ele>1406.6</ele></trkpt>
      <trkpt lat="46.20510432256706" lon="8.12896026413169">
      <ele>1407.8</ele></trkpt>
      <trkpt lat="46.20511640390486" lon="8.128947032888199">
      <ele>1408.9</ele></trkpt>
      <trkpt lat="46.20513726284085" lon="8.12895776613187">
      <ele>1410.1</ele></trkpt>
      <trkpt lat="46.20516895221106" lon="8.12899953835668">
      <ele>1411.2</ele></trkpt>
      <trkpt lat="46.20516571578031" lon="8.129021290561642">
      <ele>1412.4</ele></trkpt>
      <trkpt lat="46.205149739209425" lon="8.12905661548259">
      <ele>1413.5</ele></trkpt>
      <trkpt lat="46.20512316247794" lon="8.129114519196587">
      <ele>1414.7</ele></trkpt>
      <trkpt lat="46.20510819447436" lon="8.12916145309491">
      <ele>1415.8</ele></trkpt>
      <trkpt lat="46.205074278939506" lon="8.129223461687959">
      <ele>1417.0</ele></trkpt>
      <trkpt lat="46.20503530454286" lon="8.12932868143665">
      <ele>1418.2</ele></trkpt>
      <trkpt lat="46.20503934182761" lon="8.129399657530817">
      <ele>1419.3</ele></trkpt>
      <trkpt lat="46.20505893958962" lon="8.129490162279055">
      <ele>1420.5</ele></trkpt>
      <trkpt lat="46.20507113846237" lon="8.129588710092797">
      <ele>1421.6</ele></trkpt>
      <trkpt lat="46.20506774284973" lon="8.12969829366278">
      <ele>1422.8</ele></trkpt>
      <trkpt lat="46.20502978495064" lon="8.129846114593938">
      <ele>1423.9</ele></trkpt>
      <trkpt lat="46.20500178508405" lon="8.129976323951594">
      <ele>1425.1</ele></trkpt>
      <trkpt lat="46.20495142915446" lon="8.130099356570469">
      <ele>1426.2</ele></trkpt>
      <trkpt lat="46.20490007986868" lon="8.130189168440758">
      <ele>1427.4</ele></trkpt>
      <trkpt lat="46.204859058440576" lon="8.130233296505104">
      <ele>1428.5</ele></trkpt>
      <trkpt lat="46.204786639942405" lon="8.130362915548515">
      <ele>1429.7</ele></trkpt>
      <trkpt lat="46.204746928230776" lon="8.130451734451643">
      <ele>1432.2</ele></trkpt>
      <trkpt lat="46.2047158413674" lon="8.130498281638564">
      <ele>1434.7</ele></trkpt>
      <trkpt lat="46.20468084521225" lon="8.130567699377883">
      <ele>1437.2</ele></trkpt>
      <trkpt lat="46.20463812009704" lon="8.130666741321528">
      <ele>1439.8</ele></trkpt>
      <trkpt lat="46.204606192048544" lon="8.13088444712012">
      <ele>1442.3</ele></trkpt>
      <trkpt lat="46.204549046145594" lon="8.1314019843018">
      <ele>1444.8</ele></trkpt>
      <trkpt lat="46.20452950722626" lon="8.131654389092034">
      <ele>1447.3</ele></trkpt>
      <trkpt lat="46.204531284360144" lon="8.131804707941509">
      <ele>1449.8</ele></trkpt>
      <trkpt lat="46.20453388672748" lon="8.131901112039863">
      <ele>1452.3</ele></trkpt>
      <trkpt lat="46.20454439476472" lon="8.132012452011084">
      <ele>1454.8</ele></trkpt>
      <trkpt lat="46.2045617415527" lon="8.132102941215397">
      <ele>1457.4</ele></trkpt>
      <trkpt lat="46.204578210203096" lon="8.132154730939543">
      <ele>1459.9</ele></trkpt>
      <trkpt lat="46.20461161134833" lon="8.132184165803997">
      <ele>1462.4</ele></trkpt>
      <trkpt lat="46.20462143071917" lon="8.132222966204957">
      <ele>1464.9</ele></trkpt>
      <trkpt lat="46.20465592745857" lon="8.132255641273275">
      <ele>1467.4</ele></trkpt>
      <trkpt lat="46.20469178202004" lon="8.132322124510516">
      <ele>1469.9</ele></trkpt>
      <trkpt lat="46.20472987024559" lon="8.132370574740024">
      <ele>1472.5</ele></trkpt>
      <trkpt lat="46.20483843188791" lon="8.132449890931504">
      <ele>1475.0</ele></trkpt>
      <trkpt lat="46.20489776145695" lon="8.132506800437746">
      <ele>1477.5</ele></trkpt>
      <trkpt lat="46.204931500802665" lon="8.132545607670238">
      <ele>1480.0</ele></trkpt>
      <trkpt lat="46.20494311203345" lon="8.132547478752805">
      <ele>1480.9</ele></trkpt>
      <trkpt lat="46.20496504701302" lon="8.132555791190727">
      <ele>1481.8</ele></trkpt>
      <trkpt lat="46.204990205930095" lon="8.132576738583154">
      <ele>1482.7</ele></trkpt>
      <trkpt lat="46.20500719121262" lon="8.132580971439033">
      <ele>1483.7</ele></trkpt>
      <trkpt lat="46.20503904523167" lon="8.132595707160897">
      <ele>1484.6</ele></trkpt>
      <trkpt lat="46.20504641587725" lon="8.132608407884119">
      <ele>1485.5</ele></trkpt>
      <trkpt lat="46.20505076977516" lon="8.132634804294383">
      <ele>1486.4</ele></trkpt>
      <trkpt lat="46.20504727393867" lon="8.132657667217043">
      <ele>1487.3</ele></trkpt>
      <trkpt lat="46.20504663939634" lon="8.132686293436864">
      <ele>1488.2</ele></trkpt>
      <trkpt lat="46.20504068353611" lon="8.13270396825886">
      <ele>1489.2</ele></trkpt>
      <trkpt lat="46.20498529671658" lon="8.132743363792677">
      <ele>1490.1</ele></trkpt>
      <trkpt lat="46.20493116080248" lon="8.132811979513603">
      <ele>1491.0</ele></trkpt>
      <trkpt lat="46.20493703984889" lon="8.13294743865918">
      <ele>1491.9</ele></trkpt>
      <trkpt lat="46.20492100303516" lon="8.133008480513366">
      <ele>1492.8</ele></trkpt>
      <trkpt lat="46.20493189694261" lon="8.133055366984117">
      <ele>1493.7</ele></trkpt>
      <trkpt lat="46.20493479586802" lon="8.133131148622617">
      <ele>1494.6</ele></trkpt>
      <trkpt lat="46.20495561582082" lon="8.133202338791266">
      <ele>1495.6</ele></trkpt>
      <trkpt lat="46.20496489825617" lon="8.133331389004148">
      <ele>1496.5</ele></trkpt>
      <trkpt lat="46.20497336319288" lon="8.133410467878717">
      <ele>1497.4</ele></trkpt>
      <trkpt lat="46.20499740853144" lon="8.133504256922059">
      <ele>1498.3</ele></trkpt>
      <trkpt lat="46.20500821215239" lon="8.13356726053033">
      <ele>1499.6</ele></trkpt>
      <trkpt lat="46.20501875821768" lon="8.133672149864198">
      <ele>1500.9</ele></trkpt>
      <trkpt lat="46.205030429390355" lon="8.133775459917832">
      <ele>1502.2</ele></trkpt>
      <trkpt lat="46.20504319514871" lon="8.133883616829298">
      <ele>1503.4</ele></trkpt>
      <trkpt lat="46.205059416118246" lon="8.13397408015446">
      <ele>1504.7</ele></trkpt>
      <trkpt lat="46.20509244102737" lon="8.13406313837838">
      <ele>1506.0</ele></trkpt>
      <trkpt lat="46.20513248267727" lon="8.134103944741376">
      <ele>1507.3</ele></trkpt>
      <trkpt lat="46.20519152032974" lon="8.134148219825015">
      <ele>1508.6</ele></trkpt>
      <trkpt lat="46.20525068783258" lon="8.13416992600754">
      <ele>1509.9</ele></trkpt>
      <trkpt lat="46.20530989317105" lon="8.134188406486517">
      <ele>1511.2</ele></trkpt>
      <trkpt lat="46.20537969936763" lon="8.134228219599875">
      <ele>1512.4</ele></trkpt>
      <trkpt lat="46.20539810973627" lon="8.134258151535116">
      <ele>1513.7</ele></trkpt>
      <trkpt lat="46.20540315721279" lon="8.134303344442777">
      <ele>1515.0</ele></trkpt>
      <trkpt lat="46.2054094776638" lon="8.13434340976607">
      <ele>1516.3</ele></trkpt>
      <trkpt lat="46.20540642058718" lon="8.134365086310993">
      <ele>1517.6</ele></trkpt>
      <trkpt lat="46.20540243359338" lon="8.134400459258957">
      <ele>1518.9</ele></trkpt>
      <trkpt lat="46.205397981708984" lon="8.134442667447834">
      <ele>1520.1</ele></trkpt>
      <trkpt lat="46.20536786632763" lon="8.134484573855444">
      <ele>1521.4</ele></trkpt>
      <trkpt lat="46.20535804221749" lon="8.134525586171566">
      <ele>1522.7</ele></trkpt>
      <trkpt lat="46.20533660374916" lon="8.134568160449597">
      <ele>1524.0</ele></trkpt>
      <trkpt lat="46.20528743837256" lon="8.134610976606616">
      <ele>1525.0</ele></trkpt>
      <trkpt lat="46.205271805289485" lon="8.13465305484389">
      <ele>1526.1</ele></trkpt>
      <trkpt lat="46.20525971445697" lon="8.134720314396684">
      <ele>1527.2</ele></trkpt>
      <trkpt lat="46.20527209325698" lon="8.134781602474051">
      <ele>1528.2</ele></trkpt>
      <trkpt lat="46.20525884289676" lon="8.134893975548826">
      <ele>1529.2</ele></trkpt>
      <trkpt lat="46.20524291486812" lon="8.134976617490345">
      <ele>1530.3</ele></trkpt>
      <trkpt lat="46.20521670215432" lon="8.135049410399146">
      <ele>1531.3</ele></trkpt>
      <trkpt lat="46.20521521723398" lon="8.135083091905544">
      <ele>1532.4</ele></trkpt>
      <trkpt lat="46.20520013377669" lon="8.135107478075339">
      <ele>1533.5</ele></trkpt>
      <trkpt lat="46.20518303901338" lon="8.135161911103532">
      <ele>1534.5</ele></trkpt>
      <trkpt lat="46.20513612287538" lon="8.13519880822093">
      <ele>1535.5</ele></trkpt>
      <trkpt lat="46.20512456108857" lon="8.135207898582545">
      <ele>1536.6</ele></trkpt>
      <trkpt lat="46.20507198394666" lon="8.135256889606689">
      <ele>1537.7</ele></trkpt>
      <trkpt lat="46.204979801018595" lon="8.135333088580378">
      <ele>1538.7</ele></trkpt>
      <trkpt lat="46.20492014521339" lon="8.135345399215264">
      <ele>1539.8</ele></trkpt>
      <trkpt lat="46.20489255132559" lon="8.13535471211769">
      <ele>1540.8</ele></trkpt>
      <trkpt lat="46.20486612003368" lon="8.135385573839574">
      <ele>1541.8</ele></trkpt>
      <trkpt lat="46.20484647252047" lon="8.135422132497276">
      <ele>1542.9</ele></trkpt>
      <trkpt lat="46.20483090878909" lon="8.135460207447007">
      <ele>1544.0</ele></trkpt>
      <trkpt lat="46.20476766760177" lon="8.13557109796817">
      <ele>1545.0</ele></trkpt>
      <trkpt lat="46.204733487069184" lon="8.135636117731313">
      <ele>1547.1</ele></trkpt>
      <trkpt lat="46.20463033895775" lon="8.135748609303924">
      <ele>1549.2</ele></trkpt>
      <trkpt lat="46.20453868145704" lon="8.135863540774288">
      <ele>1551.3</ele></trkpt>
      <trkpt lat="46.20444407949242" lon="8.136041610361783">
      <ele>1553.4</ele></trkpt>
      <trkpt lat="46.20440852697118" lon="8.136124828797652">
      <ele>1555.5</ele></trkpt>
      <trkpt lat="46.20437687600256" lon="8.136180771716955">
      <ele>1557.5</ele></trkpt>
      <trkpt lat="46.20436314985696" lon="8.136256314045857">
      <ele>1559.6</ele></trkpt>
      <trkpt lat="46.20434318882954" lon="8.136396092756204">
      <ele>1561.7</ele></trkpt>
      <trkpt lat="46.20433566734732" lon="8.136520107087852">
      <ele>1563.8</ele></trkpt>
      <trkpt lat="46.20432997312362" lon="8.136566703597644">
      <ele>1565.9</ele></trkpt>
      <trkpt lat="46.20430431055719" lon="8.13664493036524">
      <ele>1568.0</ele></trkpt>
      <trkpt lat="46.20428675426978" lon="8.13668511689596">
      <ele>1570.1</ele></trkpt>
      <trkpt lat="46.20426765416194" lon="8.136711627455973">
      <ele>1572.2</ele></trkpt>
      <trkpt lat="46.20423064002742" lon="8.136751759031675">
      <ele>1574.3</ele></trkpt>
      <trkpt lat="46.20418675172459" lon="8.136796466829573">
      <ele>1576.3</ele></trkpt>
      <trkpt lat="46.204154988702015" lon="8.136848650317198">
      <ele>1578.4</ele></trkpt>
      <trkpt lat="46.204126284071904" lon="8.136899408847812">
      <ele>1580.5</ele></trkpt>
      <trkpt lat="46.20411376170595" lon="8.136957669176882">
      <ele>1582.6</ele></trkpt>
      <trkpt lat="46.204111447386765" lon="8.137022123926478">
      <ele>1584.7</ele></trkpt>
      <trkpt lat="46.20410574373827" lon="8.13736280625006">
      <ele>1586.8</ele></trkpt>
      <trkpt lat="46.204049495427476" lon="8.137584936309558">
      <ele>1587.4</ele></trkpt>
      <trkpt lat="46.203988282240125" lon="8.137737037376311">
      <ele>1588.1</ele></trkpt>
      <trkpt lat="46.20397064628653" lon="8.137771132774123">
      <ele>1588.7</ele></trkpt>
      <trkpt lat="46.20392958274134" lon="8.137840493016174">
      <ele>1589.4</ele></trkpt>
      <trkpt lat="46.20386166781036" lon="8.137860170563279">
      <ele>1590.0</ele></trkpt>
      <trkpt lat="46.203812473092064" lon="8.137879893906232">
      <ele>1590.6</ele></trkpt>
      <trkpt lat="46.20378299236853" lon="8.137891707628002">
      <ele>1591.3</ele></trkpt>
      <trkpt lat="46.20372702039518" lon="8.137904697325968">
      <ele>1591.9</ele></trkpt>
      <trkpt lat="46.20366879187687" lon="8.137897096273127">
      <ele>1592.6</ele></trkpt>
      <trkpt lat="46.20362932175549" lon="8.137934266954643">
      <ele>1593.2</ele></trkpt>
      <trkpt lat="46.20356950321212" lon="8.137991738200228">
      <ele>1593.8</ele></trkpt>
      <trkpt lat="46.20352168234277" lon="8.13803222205309">
      <ele>1594.5</ele></trkpt>
      <trkpt lat="46.20347830191194" lon="8.138124160591744">
      <ele>1595.1</ele></trkpt>
      <trkpt lat="46.203451889573095" lon="8.138164919054883">
      <ele>1595.8</ele></trkpt>
      <trkpt lat="46.203392101155444" lon="8.13821895682585">
      <ele>1596.4</ele></trkpt>
      <trkpt lat="46.203340613613015" lon="8.138274824230358">
      <ele>1597.0</ele></trkpt>
      <trkpt lat="46.20330453578675" lon="8.1383394534788">
      <ele>1597.7</ele></trkpt>
      <trkpt lat="46.203248023071936" lon="8.138439786883266">
      <ele>1598.3</ele></trkpt>
      <trkpt lat="46.203195187484596" lon="8.13852302616571">
      <ele>1599.0</ele></trkpt>
      <trkpt lat="46.20315536883504" lon="8.138614996558692">
      <ele>1599.6</ele></trkpt>
      <trkpt lat="46.20312284232356" lon="8.138681381206275">
      <ele>1599.4</ele></trkpt>
      <trkpt lat="46.2030915848383" lon="8.138737494822324">
      <ele>1599.2</ele></trkpt>
      <trkpt lat="46.20307091653517" lon="8.138810872559004">
      <ele>1599.0</ele></trkpt>
      <trkpt lat="46.20302754614635" lon="8.138901086676173">
      <ele>1598.8</ele></trkpt>
      <trkpt lat="46.20300441988824" lon="8.138998013000958">
      <ele>1598.6</ele></trkpt>
      <trkpt lat="46.202959629863194" lon="8.13911260515801">
      <ele>1598.4</ele></trkpt>
      <trkpt lat="46.20291233621658" lon="8.139261006535062">
      <ele>1598.2</ele></trkpt>
      <trkpt lat="46.202871074778834" lon="8.13939406735634">
      <ele>1598.0</ele></trkpt>
      <trkpt lat="46.20284564758951" lon="8.139467383355537">
      <ele>1597.8</ele></trkpt>
      <trkpt lat="46.20282371706164" lon="8.139552741677722">
      <ele>1597.7</ele></trkpt>
      <trkpt lat="46.202787468588895" lon="8.13964476957987">
      <ele>1597.5</ele></trkpt>
      <trkpt lat="46.20276929125563" lon="8.139699340349614">
      <ele>1597.3</ele></trkpt>
      <trkpt lat="46.20277009623415" lon="8.139761009096727">
      <ele>1597.1</ele></trkpt>
      <trkpt lat="46.20277009623415" lon="8.139761009096727">
      <ele>1596.9</ele></trkpt>
      <trkpt lat="46.20274454235529" lon="8.139799600653875">
      <ele>1596.7</ele></trkpt>
      <trkpt lat="46.20272195567577" lon="8.139858726987807">
      <ele>1596.5</ele></trkpt>
      <trkpt lat="46.20270966466736" lon="8.140050540141623">
      <ele>1596.3</ele></trkpt>
      <trkpt lat="46.202691609438894" lon="8.14014628690888">
      <ele>1596.1</ele></trkpt>
      <trkpt lat="46.20266591295346" lon="8.140196238931686">
      <ele>1595.9</ele></trkpt>
      <trkpt lat="46.202619760680605" lon="8.140218499437589">
      <ele>1595.7</ele></trkpt>
      <trkpt lat="46.20258750196028" lon="8.140219846197756">
      <ele>1594.5</ele></trkpt>
      <trkpt lat="46.20254552696292" lon="8.140277828607232">
      <ele>1593.3</ele></trkpt>
      <trkpt lat="46.202537083623" lon="8.140326486707288">
      <ele>1592.1</ele></trkpt>
      <trkpt lat="46.20256097253444" lon="8.14033731464766">
      <ele>1590.8</ele></trkpt>
      <trkpt lat="46.20260078633775" lon="8.14033620774936">
      <ele>1589.6</ele></trkpt>
      <trkpt lat="46.20261930722657" lon="8.140353872208017">
      <ele>1588.4</ele></trkpt>
      <trkpt lat="46.20263327786038" lon="8.140377062183388">
      <ele>1587.2</ele></trkpt>
      <trkpt lat="46.2026272119913" lon="8.140383280759034">
      <ele>1586.0</ele></trkpt>
      <trkpt lat="46.202597630886174" lon="8.140363400897558">
      <ele>1584.8</ele></trkpt>
      <trkpt lat="46.20261255725359" lon="8.140396385049879">
      <ele>1583.6</ele></trkpt>
      <trkpt lat="46.20259041587681" lon="8.140398224751806">
      <ele>1582.3</ele></trkpt>
      <trkpt lat="46.20260239747549" lon="8.14041721724092">
      <ele>1581.1</ele></trkpt>
      <trkpt lat="46.2025746722419" lon="8.140428779858237">
      <ele>1579.9</ele></trkpt>
      <trkpt lat="46.20258377129663" lon="8.140471574494052">
      <ele>1578.7</ele></trkpt>
      <trkpt lat="46.202576976681506" lon="8.140508230552575">
      <ele>1577.5</ele></trkpt>
      <trkpt lat="46.20255857149948" lon="8.14051250225001">
      <ele>1576.3</ele></trkpt>
      <trkpt lat="46.20254254827499" lon="8.140517089655438">
      <ele>1575.0</ele></trkpt>
      <trkpt lat="46.202514482552665" lon="8.140531329738236">
      <ele>1573.8</ele></trkpt>
      <trkpt lat="46.202510845993956" lon="8.14055631409837">
      <ele>1572.6</ele></trkpt>
      <trkpt lat="46.20252379817734" lon="8.140574010528761">
      <ele>1571.4</ele></trkpt>
      <trkpt lat="46.20255649860255" lon="8.140598594856877">
      <ele>1569.5</ele></trkpt>
      <trkpt lat="46.202565604434" lon="8.140683743145512">
      <ele>1567.5</ele></trkpt>
      <trkpt lat="46.20252849643701" lon="8.140711237371416">
      <ele>1565.6</ele></trkpt>
      <trkpt lat="46.20250755135488" lon="8.140739172992113">
      <ele>1563.6</ele></trkpt>
      <trkpt lat="46.202482338263735" lon="8.140782225197192">
      <ele>1561.7</ele></trkpt>
      <trkpt lat="46.20247199586989" lon="8.140859958089315">
      <ele>1559.7</ele></trkpt>
      <trkpt lat="46.20244271863195" lon="8.14089978359964">
      <ele>1557.8</ele></trkpt>
      <trkpt lat="46.202432846308" lon="8.140925011450724">
      <ele>1555.8</ele></trkpt>
      <trkpt lat="46.20241480129849" lon="8.140924882569362">
      <ele>1553.9</ele></trkpt>
      <trkpt lat="46.20239775608293" lon="8.140834773649132">
      <ele>1552.0</ele></trkpt>
      <trkpt lat="46.20236570899624" lon="8.140854183528889">
      <ele>1550.0</ele></trkpt>
      <trkpt lat="46.20236440487326" lon="8.140896131438653">
      <ele>1548.1</ele></trkpt>
      <trkpt lat="46.20234210277483" lon="8.140916599680493">
      <ele>1546.1</ele></trkpt>
      <trkpt lat="46.20230759632924" lon="8.141008959271666">
      <ele>1544.2</ele></trkpt>
      <trkpt lat="46.20229094591827" lon="8.141101445250458">
      <ele>1542.2</ele></trkpt>
      <trkpt lat="46.202244436675116" lon="8.141168087639507">
      <ele>1540.3</ele></trkpt>
      <trkpt lat="46.20217304113759" lon="8.141209248485858">
      <ele>1538.3</ele></trkpt>
      <trkpt lat="46.20213798858614" lon="8.14127075228965">
      <ele>1536.4</ele></trkpt>
      <trkpt lat="46.202084989232745" lon="8.141364077773865">
      <ele>1534.4</ele></trkpt>
      <trkpt lat="46.20203534481517" lon="8.14140538916103">
      <ele>1532.5</ele></trkpt>
      <trkpt lat="46.202011888287075" lon="8.141491425395355">
      <ele>1530.8</ele></trkpt>
      <trkpt lat="46.20197956869774" lon="8.141556086477355">
      <ele>1529.0</ele></trkpt>
      <trkpt lat="46.201936624510296" lon="8.141588984916044">
      <ele>1527.3</ele></trkpt>
      <trkpt lat="46.20191610277432" lon="8.141674657140367">
      <ele>1525.5</ele></trkpt>
      <trkpt lat="46.20189837608091" lon="8.141786782565482">
      <ele>1523.8</ele></trkpt>
      <trkpt lat="46.20188026810086" lon="8.141847390113833">
      <ele>1522.0</ele></trkpt>
      <trkpt lat="46.20183309843212" lon="8.141944922778341">
      <ele>1520.3</ele></trkpt>
      <trkpt lat="46.20178639662218" lon="8.142006288343115">
      <ele>1518.5</ele></trkpt>
      <trkpt lat="46.20176917544853" lon="8.142083387085462">
      <ele>1516.8</ele></trkpt>
      <trkpt lat="46.20170327571535" lon="8.142178086380184">
      <ele>1515.0</ele></trkpt>
      <trkpt lat="46.20166935566003" lon="8.142222320477273">
      <ele>1513.3</ele></trkpt>
      <trkpt lat="46.201610371259136" lon="8.142336192750129">
      <ele>1511.6</ele></trkpt>
      <trkpt lat="46.20156498710635" lon="8.142490753455778">
      <ele>1509.8</ele></trkpt>
      <trkpt lat="46.20155149213685" lon="8.142620941235768">
      <ele>1508.1</ele></trkpt>
      <trkpt lat="46.20157705575758" lon="8.142732601370529">
      <ele>1506.3</ele></trkpt>
      <trkpt lat="46.201607786199844" lon="8.14280185895354">
      <ele>1504.6</ele></trkpt>
      <trkpt lat="46.20164345787272" lon="8.142896703591134">
      <ele>1502.8</ele></trkpt>
      <trkpt lat="46.20167404846236" lon="8.143004270169454">
      <ele>1501.1</ele></trkpt>
      <trkpt lat="46.20169180982341" lon="8.14305136125916">
      <ele>1499.3</ele></trkpt>
      <trkpt lat="46.201730009505916" lon="8.143079749090818">
      <ele>1497.6</ele></trkpt>
      <trkpt lat="46.20177550715644" lon="8.143130865312429">
      <ele>1497.5</ele></trkpt>
      <trkpt lat="46.20185384470335" lon="8.143168219385965">
      <ele>1497.4</ele></trkpt>
      <trkpt lat="46.201908775821785" lon="8.143203975375936">
      <ele>1497.2</ele></trkpt>
      <trkpt lat="46.20196346272079" lon="8.14323417016595">
      <ele>1497.1</ele></trkpt>
      <trkpt lat="46.20202911515882" lon="8.143301962569321">
      <ele>1497.0</ele></trkpt>
      <trkpt lat="46.202067317970005" lon="8.14335869852952">
      <ele>1496.9</ele></trkpt>
      <trkpt lat="46.20213948797266" lon="8.143411326261432">
      <ele>1496.8</ele></trkpt>
      <trkpt lat="46.202182538877146" lon="8.143403241309409">
      <ele>1496.6</ele></trkpt>
      <trkpt lat="46.20221728293015" lon="8.143407279426508">
      <ele>1496.5</ele></trkpt>
      <trkpt lat="46.20223419745745" lon="8.143427126564413">
      <ele>1496.4</ele></trkpt>
      <trkpt lat="46.20225176393913" lon="8.143443406276873">
      <ele>1496.3</ele></trkpt>
      <trkpt lat="46.20227958042142" lon="8.143444672931649">
      <ele>1496.2</ele></trkpt>
      <trkpt lat="46.20231688333158" lon="8.143445181257285">
      <ele>1496.0</ele></trkpt>
      <trkpt lat="46.20236507928586" lon="8.14342709597268">
      <ele>1495.9</ele></trkpt>
      <trkpt lat="46.202404935561425" lon="8.143424955397983">
      <ele>1495.8</ele></trkpt>
      <trkpt lat="46.20244663289965" lon="8.143429083465895">
      <ele>1495.7</ele></trkpt>
      <trkpt lat="46.202498370694435" lon="8.143443149157395">
      <ele>1495.6</ele></trkpt>
      <trkpt lat="46.20253132718755" lon="8.143433780540246">
      <ele>1495.4</ele></trkpt>
      <trkpt lat="46.202577153760146" lon="8.143396048961028">
      <ele>1495.3</ele></trkpt>
      <trkpt lat="46.202619114212425" lon="8.143368075120407">
      <ele>1495.2</ele></trkpt>
      <trkpt lat="46.202654708765735" lon="8.143345356853654">
      <ele>1495.9</ele></trkpt>
      <trkpt lat="46.20268071196552" lon="8.143335898241602">
      <ele>1496.5</ele></trkpt>
      <trkpt lat="46.20271432931864" lon="8.143322975130268">
      <ele>1497.2</ele></trkpt>
      <trkpt lat="46.202775895855424" lon="8.143294360688135">
      <ele>1497.9</ele></trkpt>
      <trkpt lat="46.20280196360738" lon="8.143275989014871">
      <ele>1498.5</ele></trkpt>
      <trkpt lat="46.20283061042887" lon="8.143252286808414">
      <ele>1499.2</ele></trkpt>
      <trkpt lat="46.202861186352706" lon="8.143225059520868">
      <ele>1499.9</ele></trkpt>
      <trkpt lat="46.202887285375354" lon="8.143203112279387">
      <ele>1500.6</ele></trkpt>
      <trkpt lat="46.20292860163121" lon="8.143176010826068">
      <ele>1501.2</ele></trkpt>
      <trkpt lat="46.20295852224506" lon="8.143151443956107">
      <ele>1501.9</ele></trkpt>
      <trkpt lat="46.2029884963362" lon="8.14311973887203">
      <ele>1502.6</ele></trkpt>
      <trkpt lat="46.20300876321898" lon="8.1431155568668">
      <ele>1503.2</ele></trkpt>
      <trkpt lat="46.203018803703834" lon="8.14312549452045">
      <ele>1503.9</ele></trkpt>
      <trkpt lat="46.20302184505584" lon="8.143139811600589">
      <ele>1504.6</ele></trkpt>
      <trkpt lat="46.2030071048294" lon="8.143163693724354">
      <ele>1505.2</ele></trkpt>
      <trkpt lat="46.20300238836158" lon="8.143200195221675">
      <ele>1505.9</ele></trkpt>
      <trkpt lat="46.202986241699655" lon="8.143241886898979">
      <ele>1506.6</ele></trkpt>
      <trkpt lat="46.20298728372088" lon="8.143269548949094">
      <ele>1507.3</ele></trkpt>
      <trkpt lat="46.202991429555" lon="8.143304390011046">
      <ele>1507.9</ele></trkpt>
      <trkpt lat="46.20298856525451" lon="8.14334537237643">
      <ele>1508.6</ele></trkpt>
      <trkpt lat="46.202979973622845" lon="8.143391631594287">
      <ele>1508.4</ele></trkpt>
      <trkpt lat="46.20297825046575" lon="8.143448694417586">
      <ele>1508.3</ele></trkpt>
      <trkpt lat="46.20298190123755" lon="8.143544164200687">
      <ele>1508.1</ele></trkpt>
      <trkpt lat="46.20298798919194" lon="8.143651274300776">
      <ele>1507.9</ele></trkpt>
      <trkpt lat="46.20297494058261" lon="8.143701038771361">
      <ele>1507.8</ele></trkpt>
      <trkpt lat="46.20297825592137" lon="8.143760835752289">
      <ele>1507.6</ele></trkpt>
      <trkpt lat="46.20299011688365" lon="8.143858199758665">
      <ele>1507.4</ele></trkpt>
      <trkpt lat="46.20297384834247" lon="8.143915061390754">
      <ele>1507.2</ele></trkpt>
      <trkpt lat="46.20295401027369" lon="8.143944228228605">
      <ele>1507.1</ele></trkpt>
      <trkpt lat="46.20293289280042" lon="8.143975153487798">
      <ele>1506.9</ele></trkpt>
      <trkpt lat="46.20291798836482" lon="8.144019555854918">
      <ele>1506.7</ele></trkpt>
      <trkpt lat="46.20290739362901" lon="8.144078265806721">
      <ele>1506.6</ele></trkpt>
      <trkpt lat="46.202893238318545" lon="8.144109294067043">
      <ele>1506.4</ele></trkpt>
      <trkpt lat="46.20287655193393" lon="8.144139395568423">
      <ele>1506.2</ele></trkpt>
      <trkpt lat="46.20287308889891" lon="8.14417680710211">
      <ele>1506.0</ele></trkpt>
      <trkpt lat="46.202871963856346" lon="8.144237427534971">
      <ele>1505.9</ele></trkpt>
      <trkpt lat="46.202855853546126" lon="8.144274675306509">
      <ele>1505.7</ele></trkpt>
      <trkpt lat="46.20283580898007" lon="8.144329699828141">
      <ele>1505.5</ele></trkpt>
      <trkpt lat="46.20281794242654" lon="8.144349978117893">
      <ele>1505.4</ele></trkpt>
      <trkpt lat="46.20280312272565" lon="8.144383666627068">
      <ele>1505.2</ele></trkpt>
      <trkpt lat="46.20277293068726" lon="8.144443016562764">
      <ele>1505.2</ele></trkpt>
      <trkpt lat="46.2027442155526" lon="8.144474737103247">
      <ele>1505.2</ele></trkpt>
      <trkpt lat="46.20271168777234" lon="8.144509077198034">
      <ele>1505.2</ele></trkpt>
      <trkpt lat="46.2026962216138" lon="8.144545439149567">
      <ele>1505.2</ele></trkpt>
      <trkpt lat="46.20269326087797" lon="8.144598909716667">
      <ele>1505.2</ele></trkpt>
      <trkpt lat="46.202694762581814" lon="8.144647981170117">
      <ele>1505.2</ele></trkpt>
      <trkpt lat="46.202666371147735" lon="8.144689798590592">
      <ele>1505.2</ele></trkpt>
      <trkpt lat="46.20264443972753" lon="8.144771785969365">
      <ele>1505.2</ele></trkpt>
      <trkpt lat="46.202649914441665" lon="8.144847274618865">
      <ele>1505.2</ele></trkpt>
      <trkpt lat="46.202635146541375" lon="8.144925921370392">
      <ele>1505.2</ele></trkpt>
      <trkpt lat="46.202609665230455" lon="8.145004442179221">
      <ele>1505.2</ele></trkpt>
      <trkpt lat="46.20257700961997" lon="8.145088000545098">
      <ele>1505.2</ele></trkpt>
      <trkpt lat="46.20254313443551" lon="8.145176686580204">
      <ele>1505.2</ele></trkpt>
      <trkpt lat="46.20251289618825" lon="8.145253435257985">
      <ele>1505.2</ele></trkpt>
      <trkpt lat="46.2024993368339" lon="8.145328664007495">
      <ele>1505.2</ele></trkpt>
      <trkpt lat="46.20248677184701" lon="8.145434767060333">
      <ele>1505.2</ele></trkpt>
      <trkpt lat="46.20249553681734" lon="8.145556577458224">
      <ele>1505.2</ele></trkpt>
      <trkpt lat="46.20249524741079" lon="8.145602852923506">
      <ele>1505.2</ele></trkpt>
      <trkpt lat="46.202508221678535" lon="8.145647097917085">
      <ele>1505.2</ele></trkpt>
      <trkpt lat="46.20254720620994" lon="8.145675031763766">
      <ele>1505.2</ele></trkpt>
      <trkpt lat="46.2025667181716" lon="8.145731151712262">
      <ele>1503.9</ele></trkpt>
      <trkpt lat="46.20259227354667" lon="8.14583070133397">
      <ele>1502.7</ele></trkpt>
      <trkpt lat="46.2025841088129" lon="8.14584738653121">
      <ele>1501.4</ele></trkpt>
      <trkpt lat="46.20256166571178" lon="8.145960694599635">
      <ele>1500.2</ele></trkpt>
      <trkpt lat="46.20258384386959" lon="8.146089559075556">
      <ele>1498.9</ele></trkpt>
      <trkpt lat="46.20262903937819" lon="8.1461326807669">
      <ele>1497.6</ele></trkpt>
      <trkpt lat="46.20264796862445" lon="8.146224370976938">
      <ele>1496.4</ele></trkpt>
      <trkpt lat="46.20271850035853" lon="8.146364604337082">
      <ele>1495.1</ele></trkpt>
      <trkpt lat="46.20278395632667" lon="8.146436182127369">
      <ele>1493.9</ele></trkpt>
      <trkpt lat="46.2028259667704" lon="8.146464998134881">
      <ele>1492.6</ele></trkpt>
      <trkpt lat="46.202889498858475" lon="8.146578024005594">
      <ele>1491.3</ele></trkpt>
      <trkpt lat="46.20291978255541" lon="8.146739774040473">
      <ele>1490.1</ele></trkpt>
      <trkpt lat="46.20289688057785" lon="8.146848645464681">
      <ele>1488.8</ele></trkpt>
      <trkpt lat="46.20289418269087" lon="8.146894449459378">
      <ele>1487.6</ele></trkpt>
      <trkpt lat="46.20292887432165" lon="8.146998718442923">
      <ele>1486.3</ele></trkpt>
      <trkpt lat="46.2029932909094" lon="8.14709684403474">
      <ele>1485.0</ele></trkpt>
      <trkpt lat="46.20303040533908" lon="8.14721066767388">
      <ele>1483.8</ele></trkpt>
      <trkpt lat="46.2030393552636" lon="8.147338545521626">
      <ele>1482.5</ele></trkpt>
      <trkpt lat="46.20307696954359" lon="8.147435740101592">
      <ele>1481.3</ele></trkpt>
      <trkpt lat="46.203135451232356" lon="8.147586495362324">
      <ele>1480.0</ele></trkpt>
      <trkpt lat="46.203175956561026" lon="8.147711804145121">
      <ele>1477.9</ele></trkpt>
      <trkpt lat="46.20323644820966" lon="8.147795926036759">
      <ele>1475.8</ele></trkpt>
      <trkpt lat="46.20328656904727" lon="8.147842521269403">
      <ele>1473.7</ele></trkpt>
      <trkpt lat="46.203305404976476" lon="8.147868575344837">
      <ele>1471.6</ele></trkpt>
      <trkpt lat="46.20331520008201" lon="8.147944795204946">
      <ele>1469.5</ele></trkpt>
      <trkpt lat="46.2033424119122" lon="8.14803811091911">
      <ele>1467.4</ele></trkpt>
      <trkpt lat="46.203347694448574" lon="8.148130972806538">
      <ele>1465.3</ele></trkpt>
      <trkpt lat="46.2033800637943" lon="8.14821234531273">
      <ele>1463.2</ele></trkpt>
      <trkpt lat="46.20344743713957" lon="8.148299304434751">
      <ele>1461.1</ele></trkpt>
      <trkpt lat="46.20339728109795" lon="8.148298469929367">
      <ele>1459.0</ele></trkpt>
      <trkpt lat="46.2034017310525" lon="8.148340506377318">
      <ele>1456.9</ele></trkpt>
      <trkpt lat="46.203392356831536" lon="8.148362073191027">
      <ele>1454.8</ele></trkpt>
      <trkpt lat="46.20334269793667" lon="8.148323607011477">
      <ele>1452.7</ele></trkpt>
      <trkpt lat="46.203273722705" lon="8.148324159913566">
      <ele>1450.6</ele></trkpt>
      <trkpt lat="46.20324888765491" lon="8.148375311854764">
      <ele>1448.5</ele></trkpt>
      <trkpt lat="46.203212224917564" lon="8.148424716083163">
      <ele>1446.4</ele></trkpt>
      <trkpt lat="46.20321560691904" lon="8.148519341001563">
      <ele>1444.3</ele></trkpt>
      <trkpt lat="46.20326434321823" lon="8.148592971594638">
      <ele>1442.2</ele></trkpt>
      <trkpt lat="46.20331110976154" lon="8.148682292657352">
      <ele>1440.1</ele></trkpt>
      <trkpt lat="46.20335849376523" lon="8.148697654299943">
      <ele>1438.0</ele></trkpt>
      <trkpt lat="46.20337959401241" lon="8.148705482751488">
      <ele>1435.8</ele></trkpt>
      <trkpt lat="46.2033999677645" lon="8.148761654759323">
      <ele>1433.6</ele></trkpt>
      <trkpt lat="46.20340391935882" lon="8.148861508851638">
      <ele>1431.4</ele></trkpt>
      <trkpt lat="46.203416223317284" lon="8.148982163085382">
      <ele>1429.1</ele></trkpt>
      <trkpt lat="46.20341905159867" lon="8.14903026794483">
      <ele>1426.9</ele></trkpt>
      <trkpt lat="46.203369955279825" lon="8.149035445357352">
      <ele>1424.7</ele></trkpt>
      <trkpt lat="46.2033361049671" lon="8.149093916468265">
      <ele>1422.5</ele></trkpt>
      <trkpt lat="46.20330681455275" lon="8.149065238057934">
      <ele>1420.3</ele></trkpt>
      <trkpt lat="46.20327984733085" lon="8.149126377120007">
      <ele>1418.1</ele></trkpt>
      <trkpt lat="46.20330108619429" lon="8.149219485933653">
      <ele>1415.8</ele></trkpt>
      <trkpt lat="46.2033598121526" lon="8.149305258046413">
      <ele>1413.6</ele></trkpt>
      <trkpt lat="46.2033340562599" lon="8.149425532505157">
      <ele>1411.4</ele></trkpt>
      <trkpt lat="46.20333353244543" lon="8.149481652422">
      <ele>1409.2</ele></trkpt>
      <trkpt lat="46.203325865384386" lon="8.149577895549585">
      <ele>1407.0</ele></trkpt>
      <trkpt lat="46.20335368205351" lon="8.149735016916686">
      <ele>1404.8</ele></trkpt>
      <trkpt lat="46.20341023419884" lon="8.14983165758038">
      <ele>1402.6</ele></trkpt>
      <trkpt lat="46.20344444548768" lon="8.14995321989977">
      <ele>1400.3</ele></trkpt>
      <trkpt lat="46.20348545602774" lon="8.150009273132268">
      <ele>1398.1</ele></trkpt>
      <trkpt lat="46.2035435401766" lon="8.150144038984068">
      <ele>1395.9</ele></trkpt>
      <trkpt lat="46.20356068077245" lon="8.150249261172853">
      <ele>1393.7</ele></trkpt>
      <trkpt lat="46.20362891992941" lon="8.150351341572257">
      <ele>1391.1</ele></trkpt>
      <trkpt lat="46.20371189637973" lon="8.15045881023513">
      <ele>1388.4</ele></trkpt>
      <trkpt lat="46.20370188045576" lon="8.150512215266957">
      <ele>1385.8</ele></trkpt>
      <trkpt lat="46.20373377707955" lon="8.150582674265122">
      <ele>1383.2</ele></trkpt>
      <trkpt lat="46.20381450514045" lon="8.150578611083455">
      <ele>1380.5</ele></trkpt>
      <trkpt lat="46.203847690569994" lon="8.15061869130343">
      <ele>1377.9</ele></trkpt>
      <trkpt lat="46.20389274723305" lon="8.15060217743018">
      <ele>1375.3</ele></trkpt>
      <trkpt lat="46.20391335755245" lon="8.150654920318708">
      <ele>1372.6</ele></trkpt>
      <trkpt lat="46.20388461242567" lon="8.150748245779226">
      <ele>1370.0</ele></trkpt>
      <trkpt lat="46.203873465034974" lon="8.1508170154415">
      <ele>1367.3</ele></trkpt>
      <trkpt lat="46.20387736432736" lon="8.150899184342519">
      <ele>1364.7</ele></trkpt>
      <trkpt lat="46.203861608644615" lon="8.15097117171138">
      <ele>1362.1</ele></trkpt>
      <trkpt lat="46.203701222861525" lon="8.151413165122745">
      <ele>1359.4</ele></trkpt>
      <trkpt lat="46.20351537631191" lon="8.151595987722787">
      <ele>1356.8</ele></trkpt>
      <trkpt lat="46.203329529468995" lon="8.151778809075978">
      <ele>1354.2</ele></trkpt>
      <trkpt lat="46.203095369356284" lon="8.152039372478269">
      <ele>1351.5</ele></trkpt>
      <trkpt lat="46.20286120864674" lon="8.15229993364142">
      <ele>1348.9</ele></trkpt>
      <trkpt lat="46.20258248157726" lon="8.15256703334821">
      <ele>1346.3</ele></trkpt>
      <trkpt lat="46.20258248157726" lon="8.15256703334821">
      <ele>1343.6</ele></trkpt>
      <trkpt lat="46.202629938513404" lon="8.152885904724213">
      <ele>1341.0</ele></trkpt>
      <trkpt lat="46.20269487521842" lon="8.153048255673243">
      <ele>1341.1</ele></trkpt>
      <trkpt lat="46.20280792669469" lon="8.153424989160776">
      <ele>1341.2</ele></trkpt>
      <trkpt lat="46.202904487844144" lon="8.153801507831894">
      <ele>1341.3</ele></trkpt>
      <trkpt lat="46.20302062488719" lon="8.15421153448737">
      <ele>1341.3</ele></trkpt>
      <trkpt lat="46.20311802565024" lon="8.154455065800015">
      <ele>1341.4</ele></trkpt>
      <trkpt lat="46.2032254400395" lon="8.154679729153482">
      <ele>1341.5</ele></trkpt>
      <trkpt lat="46.203314739444664" lon="8.155160659288118">
      <ele>1341.6</ele></trkpt>
      <trkpt lat="46.203349269602484" lon="8.155436616575756">
      <ele>1341.7</ele></trkpt>
      <trkpt lat="46.20341783074099" lon="8.1555467701">
      <ele>1341.8</ele></trkpt>
      <trkpt lat="46.20349727967007" lon="8.15550031462027">
      <ele>1341.8</ele></trkpt>
      <trkpt lat="46.20361342689827" lon="8.155387840446826">
      <ele>1341.9</ele></trkpt>
      <trkpt lat="46.20367863021317" lon="8.155507449910186">
      <ele>1342.0</ele></trkpt>
      <trkpt lat="46.20365428061163" lon="8.155706633528254">
      <ele>1342.1</ele></trkpt>
      <trkpt lat="46.20356001276792" lon="8.156009398998279">
      <ele>1342.2</ele></trkpt>
      <trkpt lat="46.203532062233904" lon="8.156256035199913">
      <ele>1342.3</ele></trkpt>
      <trkpt lat="46.2035969027201" lon="8.156432642375002">
      <ele>1342.4</ele></trkpt>
      <trkpt lat="46.20372173741015" lon="8.156510287616355">
      <ele>1342.4</ele></trkpt>
      <trkpt lat="46.203991646749074" lon="8.15659459556472">
      <ele>1342.5</ele></trkpt>
      <trkpt lat="46.204148674972274" lon="8.156796170023545">
      <ele>1342.6</ele></trkpt>
      <trkpt lat="46.20421027735329" lon="8.156963236143984">
      <ele>1342.7</ele></trkpt>
      <trkpt lat="46.20418961528296" lon="8.157100717598928">
      <ele>1340.7</ele></trkpt>
      <trkpt lat="46.204102271162675" lon="8.157351323992064">
      <ele>1338.8</ele></trkpt>
      <trkpt lat="46.204096677858644" lon="8.15771225994723">
      <ele>1336.8</ele></trkpt>
      <trkpt lat="46.204091083402076" lon="8.158073195827404">
      <ele>1334.8</ele></trkpt>
      <trkpt lat="46.20410993406117" lon="8.158479580746663">
      <ele>1332.9</ele></trkpt>
      <trkpt lat="46.204128783259236" lon="8.158885965945963">
      <ele>1330.9</ele></trkpt>
      <trkpt lat="46.20422429662764" lon="8.159423994348023">
      <ele>1328.9</ele></trkpt>
      <trkpt lat="46.20432456008611" lon="8.159734080526345">
      <ele>1327.0</ele></trkpt>
      <trkpt lat="46.20442482269451" lon="8.16004416784531">
      <ele>1325.0</ele></trkpt>
      <trkpt lat="46.20455915459209" lon="8.16018370085144">
      <ele>1323.1</ele></trkpt>
      <trkpt lat="46.20472652508417" lon="8.16031417224572">
      <ele>1321.1</ele></trkpt>
      <trkpt lat="46.20481444445945" lon="8.16049109389989">
      <ele>1319.1</ele></trkpt>
      <trkpt lat="46.20490912567739" lon="8.160641979819447">
      <ele>1317.2</ele></trkpt>
      <trkpt lat="46.20513776334397" lon="8.160732888176476">
      <ele>1315.2</ele></trkpt>
      <trkpt lat="46.2052243461069" lon="8.161118803827186">
      <ele>1313.2</ele></trkpt>
      <trkpt lat="46.20531092755274" lon="8.161504720703427">
      <ele>1311.3</ele></trkpt>
      <trkpt lat="46.20534510752617" lon="8.161832941183052">
      <ele>1309.3</ele></trkpt>
      <trkpt lat="46.20537928654662" lon="8.16216116207373">
      <ele>1307.3</ele></trkpt>
      <trkpt lat="46.20533367776291" lon="8.162588078056082">
      <ele>1305.4</ele></trkpt>
      <trkpt lat="46.20528806736698" lon="8.16301499332251">
      <ele>1303.4</ele></trkpt>
      <trkpt lat="46.205252349152104" lon="8.163442039461364">
      <ele>1301.5</ele></trkpt>
      <trkpt lat="46.205216629324" lon="8.163869085039101">
      <ele>1299.5</ele></trkpt>
      <trkpt lat="46.20529321656717" lon="8.164269124459869">
      <ele>1297.6</ele></trkpt>
      <trkpt lat="46.20551429698312" lon="8.164766094891974">
      <ele>1295.7</ele></trkpt>
      <trkpt lat="46.205723465017336" lon="8.1650634001446">
      <ele>1293.8</ele></trkpt>
      <trkpt lat="46.206144487090704" lon="8.16524002282724">
      <ele>1291.8</ele></trkpt>
      <trkpt lat="46.20630143973306" lon="8.165451130753524">
      <ele>1289.9</ele></trkpt>
      <trkpt lat="46.206219542786286" lon="8.16587756709502">
      <ele>1288.0</ele></trkpt>
      <trkpt lat="46.206177615048205" lon="8.166242782104396">
      <ele>1286.0</ele></trkpt>
      <trkpt lat="46.206135686130324" lon="8.166607996550798">
      <ele>1284.1</ele></trkpt>
      <trkpt lat="46.20619204853144" lon="8.167074279561199">
      <ele>1282.2</ele></trkpt>
      <trkpt lat="46.206294517258584" lon="8.16755068295509">
      <ele>1280.2</ele></trkpt>
      <trkpt lat="46.20651315339816" lon="8.167401596052457">
      <ele>1278.3</ele></trkpt>
      <trkpt lat="46.20679115028369" lon="8.167253301635098">
      <ele>1276.4</ele></trkpt>
      <trkpt lat="46.20700141514587" lon="8.167379623705777">
      <ele>1274.5</ele></trkpt>
      <trkpt lat="46.20705869346276" lon="8.167703415884008">
      <ele>1272.5</ele></trkpt>
      <trkpt lat="46.20696310614104" lon="8.168205678558147">
      <ele>1270.6</ele></trkpt>
      <trkpt lat="46.20677499350883" lon="8.168735201786502">
      <ele>1268.7</ele></trkpt>
      <trkpt lat="46.2067558343586" lon="8.169148227155674">
      <ele>1266.7</ele></trkpt>
      <trkpt lat="46.2067366736993" lon="8.1695612522332">
      <ele>1264.8</ele></trkpt>
      <trkpt lat="46.20683265962505" lon="8.170018575197519">
      <ele>1265.3</ele></trkpt>
      <trkpt lat="46.20690195290725" lon="8.170523045628897">
      <ele>1265.8</ele></trkpt>
      <trkpt lat="46.206971243938355" lon="8.171027517341706">
      <ele>1266.3</ele></trkpt>
      <trkpt lat="46.20715968608934" lon="8.171467087785867">
      <ele>1266.9</ele></trkpt>
      <trkpt lat="46.207151242063944" lon="8.171751998805865">
      <ele>1267.4</ele></trkpt>
      <trkpt lat="46.2072180005465" lon="8.172137679864672">
      <ele>1267.9</ele></trkpt>
      <trkpt lat="46.207284757713424" lon="8.172523361867624">
      <ele>1268.4</ele></trkpt>
      <trkpt lat="46.20740788490161" lon="8.172862300275114">
      <ele>1268.9</ele></trkpt>
      <trkpt lat="46.207531011074465" lon="8.173201240213896">
      <ele>1269.4</ele></trkpt>
      <trkpt lat="46.20770785902084" lon="8.173393642890453">
      <ele>1269.9</ele></trkpt>
      <trkpt lat="46.20795171263722" lon="8.173425433371484">
      <ele>1270.5</ele></trkpt>
      <trkpt lat="46.20803646738376" lon="8.173578591903983">
      <ele>1271.0</ele></trkpt>
      <trkpt lat="46.207981973018036" lon="8.173843883828427">
      <ele>1271.5</ele></trkpt>
      <trkpt lat="46.20785467849397" lon="8.174146196801916">
      <ele>1272.0</ele></trkpt>
      <trkpt lat="46.2080697378254" lon="8.174548140515219">
      <ele>1272.5</ele></trkpt>
      <trkpt lat="46.208250703761024" lon="8.175120643971816">
      <ele>1273.0</ele></trkpt>
      <trkpt lat="46.20825423445" lon="8.175590991372937">
      <ele>1273.6</ele></trkpt>
      <trkpt lat="46.208257763181955" lon="8.17606133883347">
      <ele>1274.1</ele></trkpt>
      <trkpt lat="46.20832727799178" lon="8.176527829673157">
      <ele>1274.6</ele></trkpt>
      <trkpt lat="46.20857605138039" lon="8.17681623053904">
      <ele>1275.1</ele></trkpt>
      <trkpt lat="46.208735441847125" lon="8.177155678312177">
      <ele>1277.0</ele></trkpt>
      <trkpt lat="46.208894831296114" lon="8.177495128070948">
      <ele>1278.8</ele></trkpt>
      <trkpt lat="46.209028085833886" lon="8.177796220992704">
      <ele>1280.7</ele></trkpt>
      <trkpt lat="46.209161339570734" lon="8.178097315386893">
      <ele>1282.5</ele></trkpt>
      <trkpt lat="46.20920853798963" lon="8.17844474871789">
      <ele>1284.4</ele></trkpt>
      <trkpt lat="46.2092557353408" lon="8.178792182650039">
      <ele>1286.3</ele></trkpt>
      <trkpt lat="46.20929947842532" lon="8.179163323153466">
      <ele>1288.1</ele></trkpt>
      <trkpt lat="46.20934322029147" lon="8.179534464251912">
      <ele>1290.0</ele></trkpt>
      <trkpt lat="46.20945854711152" lon="8.180053849198165">
      <ele>1291.8</ele></trkpt>
      <trkpt lat="46.20957387154598" lon="8.180573236341532">
      <ele>1293.7</ele></trkpt>
      <trkpt lat="46.20973944096823" lon="8.180974544199227">
      <ele>1295.6</ele></trkpt>
      <trkpt lat="46.20990500896746" lon="8.181375854495288">
      <ele>1297.4</ele></trkpt>
      <trkpt lat="46.21012471440382" lon="8.181568875947372">
      <ele>1299.3</ele></trkpt>
      <trkpt lat="46.21034441951364" lon="8.181761898956628">
      <ele>1301.1</ele></trkpt>
      <trkpt lat="46.210545791757035" lon="8.182234965035976">
      <ele>1303.0</ele></trkpt>
      <trkpt lat="46.21074716202318" lon="8.18270803461137">
      <ele>1304.9</ele></trkpt>
      <trkpt lat="46.21082763268208" lon="8.18330962601288">
      <ele>1306.7</ele></trkpt>
      <trkpt lat="46.210908100139854" lon="8.183911219189083">
      <ele>1308.6</ele></trkpt>
      <trkpt lat="46.2109885643965" lon="8.1845128141399">
      <ele>1310.4</ele></trkpt>
      <trkpt lat="46.21106902545199" lon="8.185114410865284">
      <ele>1312.3</ele></trkpt>
      <trkpt lat="46.21114948330633" lon="8.185716009365155">
      <ele>1299.0</ele></trkpt>
      <trkpt lat="46.21122919710596" lon="8.18613041906489">
      <ele>1285.7</ele></trkpt>
      <trkpt lat="46.211308909386794" lon="8.186544829976192">
      <ele>1272.4</ele></trkpt>
      <trkpt lat="46.21156349885057" lon="8.186947391566617">
      <ele>1259.1</ele></trkpt>
      <trkpt lat="46.21187368208644" lon="8.186923145512978">
      <ele>1245.8</ele></trkpt>
      <trkpt lat="46.212111501738136" lon="8.186869402038207">
      <ele>1232.6</ele></trkpt>
      <trkpt lat="46.21245353109999" lon="8.187016624540602">
      <ele>1219.3</ele></trkpt>
      <trkpt lat="46.212802533821886" lon="8.187106934541113">
      <ele>1206.0</ele></trkpt>
      <trkpt lat="46.21293136298376" lon="8.187574294259143">
      <ele>1192.7</ele></trkpt>
      <trkpt lat="46.213039585717105" lon="8.188164896207464">
      <ele>1179.4</ele></trkpt>
      <trkpt lat="46.21332695750414" lon="8.188596434788618">
      <ele>1166.1</ele></trkpt>
      <trkpt lat="46.21360886823894" lon="8.18885686842017">
      <ele>1152.8</ele></trkpt>
      <trkpt lat="46.21373191496087" lon="8.189200633331243">
      <ele>1139.5</ele></trkpt>
      <trkpt lat="46.213950516680825" lon="8.189061114901897">
      <ele>1126.2</ele></trkpt>
      <trkpt lat="46.214166721734344" lon="8.18928264008498">
      <ele>1113.0</ele></trkpt>
      <trkpt lat="46.214476968596664" lon="8.189248905495411">
      <ele>1099.7</ele></trkpt>
      <trkpt lat="46.21448148183052" lon="8.189562537133646">
      <ele>1086.4</ele></trkpt>
      <trkpt lat="46.214552582412345" lon="8.189782066061015">
      <ele>1073.1</ele></trkpt>
      <trkpt lat="46.21440571116701" lon="8.190046100037002">
      <ele>1059.8</ele></trkpt>
      <trkpt lat="46.214528438399675" lon="8.190437378716766">
      <ele>1046.5</ele></trkpt>
      <trkpt lat="46.21461133726039" lon="8.190866118245868">
      <ele>1052.0</ele></trkpt>
      <trkpt lat="46.21453663623227" lon="8.191188159630777">
      <ele>1057.5</ele></trkpt>
      <trkpt lat="46.21435532751759" lon="8.191670262247406">
      <ele>1063.0</ele></trkpt>
      <trkpt lat="46.214162598977474" lon="8.191886144838637">
      <ele>1068.5</ele></trkpt>
      <trkpt lat="46.21410121218601" lon="8.192189362072538">
      <ele>1074.0</ele></trkpt>
      <trkpt lat="46.214184231122616" lon="8.192599098343546">
      <ele>1079.5</ele></trkpt>
      <trkpt lat="46.214233891079054" lon="8.193065387005333">
      <ele>1085.0</ele></trkpt>
      <trkpt lat="46.2142151191965" lon="8.193407201636626">
      <ele>1090.5</ele></trkpt>
      <trkpt lat="46.21419634628049" lon="8.193749016031543">
      <ele>1096.0</ele></trkpt>
      <trkpt lat="46.21420385942026" lon="8.19410544757711">
      <ele>1101.5</ele></trkpt>
      <trkpt lat="46.21421137143628" lon="8.194461879220105">
      <ele>1107.0</ele></trkpt>
      <trkpt lat="46.214365726680775" lon="8.195053149643563">
      <ele>1112.5</ele></trkpt>
      <trkpt lat="46.21440199430983" lon="8.195547763427255">
      <ele>1118.0</ele></trkpt>
      <trkpt lat="46.21460461351" lon="8.19582613966256">
      <ele>1123.5</ele></trkpt>
      <trkpt lat="46.21479974554431" lon="8.196237444967114">
      <ele>1129.0</ele></trkpt>
      <trkpt lat="46.21499487608447" lon="8.196648753217564">
      <ele>1134.5</ele></trkpt>
      <trkpt lat="46.21491190438015" lon="8.197217729607871">
      <ele>1140.0</ele></trkpt>
      <trkpt lat="46.2150752818264" lon="8.196953942026097">
      <ele>1145.5</ele></trkpt>
      <trkpt lat="46.21523865865897" lon="8.196690152861978">
      <ele>1151.0</ele></trkpt>
      <trkpt lat="46.215354608314435" lon="8.19710511468248">
      <ele>1156.5</ele></trkpt>
      <trkpt lat="46.215470556447556" lon="8.19752007826841">
      <ele>1155.9</ele></trkpt>
      <trkpt lat="46.21558621500914" lon="8.197977800752914">
      <ele>1155.3</ele></trkpt>
      <trkpt lat="46.21576282937546" lon="8.198198816280629">
      <ele>1154.7</ele></trkpt>
      <trkpt lat="46.215845507206886" lon="8.198656081344827">
      <ele>1154.1</ele></trkpt>
      <trkpt lat="46.21593573784121" lon="8.19897091817455">
      <ele>1153.5</ele></trkpt>
      <trkpt lat="46.21570893070495" lon="8.199347846304905">
      <ele>1153.0</ele></trkpt>
      <trkpt lat="46.21564955056256" lon="8.199952946889045">
      <ele>1152.4</ele></trkpt>
      <trkpt lat="46.215656172643094" lon="8.200325849188058">
      <ele>1151.8</ele></trkpt>
      <trkpt lat="46.215562233250715" lon="8.200806778229081">
      <ele>1151.2</ele></trkpt>
      <trkpt lat="46.21546829181317" lon="8.201287705609921">
      <ele>1150.6</ele></trkpt>
      <trkpt lat="46.215374348330485" lon="8.201768631330554">
      <ele>1150.0</ele></trkpt>
      <trkpt lat="46.21528040280268" lon="8.20224955539094">
      <ele>1149.4</ele></trkpt>
      <trkpt lat="46.21524003220392" lon="8.202692427833249">
      <ele>1148.8</ele></trkpt>
      <trkpt lat="46.21519965987045" lon="8.203135299617777">
      <ele>1148.2</ele></trkpt>
      <trkpt lat="46.215159285802294" lon="8.2035781707445">
      <ele>1147.7</ele></trkpt>
      <trkpt lat="46.2151928934301" lon="8.20397298625037">
      <ele>1147.1</ele></trkpt>
      <trkpt lat="46.215226499679126" lon="8.204367802242295">
      <ele>1146.5</ele></trkpt>
      <trkpt lat="46.215151566166284" lon="8.204718331700125">
      <ele>1145.9</ele></trkpt>
      <trkpt lat="46.215076631567015" lon="8.20506886019282">
      <ele>1145.3</ele></trkpt>
      <trkpt lat="46.215086730440575" lon="8.205525110022682">
      <ele>1144.7</ele></trkpt>
      <trkpt lat="46.21505702813866" lon="8.206014056010867">
      <ele>1142.2</ele></trkpt>
      <trkpt lat="46.21502732372222" lon="8.206503001464172">
      <ele>1139.8</ele></trkpt>
      <trkpt lat="46.214905407682515" lon="8.206971642741374">
      <ele>1137.3</ele></trkpt>
      <trkpt lat="46.21478348970124" lon="8.20744028191959">
      <ele>1134.9</ele></trkpt>
      <trkpt lat="46.21481967037262" lon="8.207939656752382">
      <ele>1132.4</ele></trkpt>
      <trkpt lat="46.21485584883826" lon="8.208439032246721">
      <ele>1129.9</ele></trkpt>
      <trkpt lat="46.2149710748008" lon="8.208953779781604">
      <ele>1127.5</ele></trkpt>
      <trkpt lat="46.21488936992611" lon="8.20932796176416">
      <ele>1125.0</ele></trkpt>
      <trkpt lat="46.214807663813474" lon="8.209702142623371">
      <ele>1122.6</ele></trkpt>
      <trkpt lat="46.21465644319438" lon="8.210113346525638">
      <ele>1120.1</ele></trkpt>
      <trkpt lat="46.21450522108124" lon="8.210524548144072">
      <ele>1117.6</ele></trkpt>
      <trkpt lat="46.2144269708654" lon="8.210875018386432">
      <ele>1115.2</ele></trkpt>
      <trkpt lat="46.21434871956353" lon="8.21122548762115">
      <ele>1112.7</ele></trkpt>
      <trkpt lat="46.21416432059331" lon="8.211664719069354">
      <ele>1110.3</ele></trkpt>
      <trkpt lat="46.21397991991897" lon="8.212103947543115">
      <ele>1107.8</ele></trkpt>
      <trkpt lat="46.2138851433318" lon="8.212458928233152">
      <ele>1105.3</ele></trkpt>
      <trkpt lat="46.213790365630686" lon="8.212813907687249">
      <ele>1102.9</ele></trkpt>
      <trkpt lat="46.213445051469996" lon="8.213151072429051">
      <ele>1100.4</ele></trkpt>
      <trkpt lat="46.213166799013635" lon="8.21332765322625">
      <ele>1098.0</ele></trkpt>
      <trkpt lat="46.213166799013635" lon="8.21332765322625">
      <ele>1095.5</ele></trkpt>
      <trkpt lat="46.213202055012296" lon="8.212995587511866">
      <ele>1090.8</ele></trkpt>
      <trkpt lat="46.2132905298449" lon="8.212597763893635">
      <ele>1086.0</ele></trkpt>
      <trkpt lat="46.213392000508215" lon="8.212228628974392">
      <ele>1081.2</ele></trkpt>
      <trkpt lat="46.21333699369544" lon="8.211591219222973">
      <ele>1076.5</ele></trkpt>
      <trkpt lat="46.21334958196556" lon="8.21119706711784">
      <ele>1071.8</ele></trkpt>
      <trkpt lat="46.213362168861494" lon="8.210802914829449">
      <ele>1067.0</ele></trkpt>
      <trkpt lat="46.213335440179335" lon="8.210370198687393">
      <ele>1062.2</ele></trkpt>
      <trkpt lat="46.21330870984094" lon="8.209937482968629">
      <ele>1057.5</ele></trkpt>
      <trkpt lat="46.21324664152816" lon="8.209366488924736">
      <ele>1052.8</ele></trkpt>
      <trkpt lat="46.213103481100774" lon="8.209079406948483">
      <ele>1048.0</ele></trkpt>
      <trkpt lat="46.212908589932425" lon="8.208639566689106">
      <ele>1043.2</ele></trkpt>
      <trkpt lat="46.212948423660734" lon="8.208117527175752">
      <ele>1038.5</ele></trkpt>
      <trkpt lat="46.212988254978534" lon="8.207595486897075">
      <ele>1033.8</ele></trkpt>
      <trkpt lat="46.212877808714694" lon="8.207346880278662">
      <ele>1029.0</ele></trkpt>
      <trkpt lat="46.21260221473598" lon="8.207133951817278">
      <ele>1024.2</ele></trkpt>
      <trkpt lat="46.21249296213875" lon="8.206709581663684">
      <ele>1019.5</ele></trkpt>
      <trkpt lat="46.21238370794918" lon="8.206285213211068">
      <ele>1014.8</ele></trkpt>
      <trkpt lat="46.21218870921326" lon="8.205859639150807">
      <ele>1010.0</ele></trkpt>
      <trkpt lat="46.211993708877536" lon="8.20543406813634">
      <ele>1005.2</ele></trkpt>
      <trkpt lat="46.21190536386787" lon="8.204843721556308">
      <ele>1000.5</ele></trkpt>
      <trkpt lat="46.211550745741654" lon="8.204610696596818">
      <ele>992.0</ele></trkpt>
      <trkpt lat="46.21119612714305" lon="8.204377674672308">
      <ele>983.6</ele></trkpt>
      <trkpt lat="46.21121105565678" lon="8.204121341882669">
      <ele>975.1</ele></trkpt>
      <trkpt lat="46.210843952039085" lon="8.203783632489435">
      <ele>966.7</ele></trkpt>
      <trkpt lat="46.21078639232239" lon="8.203516782743552">
      <ele>958.2</ele></trkpt>
      <trkpt lat="46.21059006606536" lon="8.203285992529239">
      <ele>949.8</ele></trkpt>
      <trkpt lat="46.21028814508327" lon="8.203063223484135">
      <ele>941.4</ele></trkpt>
      <trkpt lat="46.21015925157639" lon="8.202614851006615">
      <ele>932.9</ele></trkpt>
      <trkpt lat="46.21004252003648" lon="8.202318672882534">
      <ele>924.5</ele></trkpt>
      <trkpt lat="46.2100777436903" lon="8.201986619062367">
      <ele>916.0</ele></trkpt>
      <trkpt lat="46.21020536915687" lon="8.20164635788743">
      <ele>907.5</ele></trkpt>
      <trkpt lat="46.21015369451624" lon="8.201484110105419">
      <ele>899.1</ele></trkpt>
      <trkpt lat="46.20995659501759" lon="8.201367334959244">
      <ele>890.6</ele></trkpt>
      <trkpt lat="46.20984005241929" lon="8.201042659725603">
      <ele>882.2</ele></trkpt>
      <trkpt lat="46.209844087195485" lon="8.200444133382748">
      <ele>873.8</ele></trkpt>
      <trkpt lat="46.210024409509074" lon="8.200114107305232">
      <ele>865.3</ele></trkpt>
      <trkpt lat="46.210091964992706" lon="8.19987751707354">
      <ele>856.9</ele></trkpt>
      <trkpt lat="46.209994885891064" lon="8.199600622578805">
      <ele>848.4</ele></trkpt>
      <trkpt lat="46.20971306389873" lon="8.199330650824304">
      <ele>840.0</ele></trkpt>
      <trkpt lat="46.209536836132976" lon="8.199052654737347">
      <ele>831.5</ele></trkpt>
      <trkpt lat="46.20937520329871" lon="8.198565836249703">
      <ele>821.3</ele></trkpt>
      <trkpt lat="46.209179123213204" lon="8.198297068270506">
      <ele>811.0</ele></trkpt>
      <trkpt lat="46.208901596367475" lon="8.198369209235365">
      <ele>800.8</ele></trkpt>
      <trkpt lat="46.20882334188186" lon="8.198235102332426">
      <ele>790.5</ele></trkpt>
      <trkpt lat="46.20867304749554" lon="8.198023982188436">
      <ele>780.3</ele></trkpt>
      <trkpt lat="46.208277629003476" lon="8.197970966771951">
      <ele>770.0</ele></trkpt>
      <trkpt lat="46.20838047830472" lon="8.198371444303092">
      <ele>759.8</ele></trkpt>
      <trkpt lat="46.20835109443207" lon="8.198817583866">
      <ele>749.5</ele></trkpt>
      <trkpt lat="46.20832170879874" lon="8.199263722946258">
      <ele>739.3</ele></trkpt>
      <trkpt lat="46.20847846913151" lon="8.199493936496815">
      <ele>729.0</ele></trkpt>
      <trkpt lat="46.20839829868833" lon="8.19964483426195">
      <ele>718.8</ele></trkpt>
      <trkpt lat="46.2082843175734" lon="8.199918772108107">
      <ele>708.6</ele></trkpt>
      <trkpt lat="46.20803419603837" lon="8.199839270394868">
      <ele>698.3</ele></trkpt>
      <trkpt lat="46.207698075161915" lon="8.199796571060407">
      <ele>688.1</ele></trkpt>
      <trkpt lat="46.2076099013984" lon="8.200156374181446">
      <ele>677.8</ele></trkpt>
      <trkpt lat="46.20749649606926" lon="8.200344808031073">
      <ele>667.6</ele></trkpt>
      <trkpt lat="46.20752393556157" lon="8.200677723408575">
      <ele>657.3</ele></trkpt>
      <trkpt lat="46.20755137407342" lon="8.201010639120618">
      <ele>647.1</ele></trkpt>
      <trkpt lat="46.20747302519831" lon="8.20138007787063">
      <ele>636.8</ele></trkpt>
      <trkpt lat="46.2073946751163" lon="8.20174951555722">
      <ele>626.6</ele></trkpt>
      <trkpt lat="46.20728186138757" lon="8.202175474896048">
      <ele>626.5</ele></trkpt>
      <trkpt lat="46.20716904605466" lon="8.202601432469786">
      <ele>626.5</ele></trkpt>
      <trkpt lat="46.207056229117626" lon="8.203027388278405">
      <ele>626.4</ele></trkpt>
      <trkpt lat="46.2071653995487" lon="8.2034659578001">
      <ele>626.3</ele></trkpt>
      <trkpt lat="46.207072854481595" lon="8.203982454562627">
      <ele>626.2</ele></trkpt>
      <trkpt lat="46.20698030705518" lon="8.204498949568723">
      <ele>626.2</ele></trkpt>
      <trkpt lat="46.206917067500164" lon="8.20507048407359">
      <ele>626.1</ele></trkpt>
      <trkpt lat="46.20685382505578" lon="8.205642017249371">
      <ele>626.0</ele></trkpt>
      <trkpt lat="46.20679057972203" lon="8.206213549096022">
      <ele>626.0</ele></trkpt>
      <trkpt lat="46.20672733149891" lon="8.206785079613484">
      <ele>625.9</ele></trkpt>
    </trkseg>
  </trk>
</gpx>