<?xml version='1.0' encoding='utf-8'?>
<gpx xmlns="http://www.topografix.com/GPX/1/1" xmlns:xsi="http://www.w3.org/2001/XMLSchema-instance" xsi:schemaLocation="http://www.topografix.com/GPX/1/1 http://www.topografix.com/GPX/1/1/gpx.xsd" version="1.1" creator="gpx.py -- https://github.com/tkrajina/gpxpy">
  <trk>
    <name>le-soliat-creux-du-van</name>
    <trkseg>
      <trkpt lat="46.95501536918987" lon="6.722026659244243">
      <ele>729.1</ele></trkpt>
      <trkpt lat="46.95503296748821" lon="6.722367071714423">
      <ele>729.0</ele></trkpt>
      <trkpt lat="46.955041559368276" lon="6.722577165199829">
      <ele>729.0</ele></trkpt>
      <trkpt lat="46.95503225737548" lon="6.722954443017534">
      <ele>728.9</ele></trkpt>
      <trkpt lat="46.95501871662927" lon="6.723320813799412">
      <ele>728.9</ele></trkpt>
      <trkpt lat="46.95500517471196" lon="6.723687184396202">
      <ele>728.8</ele></trkpt>
      <trkpt lat="46.95498814649121" lon="6.724161887612768">
      <ele>728.8</ele></trkpt>
      <trkpt lat="46.954981673198205" lon="6.724461247589332">
      <ele>728.7</ele></trkpt>
      <trkpt lat="46.954980539750494" lon="6.724546433533728">
      <ele>728.7</ele></trkpt>
      <trkpt lat="46.954976008442095" lon="6.724621916545159">
      <ele>728.6</ele></trkpt>
      <trkpt lat="46.954969646449264" lon="6.724670675775281">
      <ele>728.5</ele></trkpt>
      <trkpt lat="46.95495989564064" lon="6.724709731942399">
      <ele>728.5</ele></trkpt>
      <trkpt lat="46.95493328946974" lon="6.724717389916473">
      <ele>728.4</ele></trkpt>
      <trkpt lat="46.95489828446856" lon="6.724715424541824">
      <ele>728.4</ele></trkpt>
      <trkpt lat="46.95461483991432" lon="6.724680250846635">
      <ele>728.3</ele></trkpt>
      <trkpt lat="46.954331230488954" lon="6.724646051881997">
      <ele>728.3</ele></trkpt>
      <trkpt lat="46.95425136179602" lon="6.724636419263437">
      <ele>728.2</ele></trkpt>
      <trkpt lat="46.95412583788072" lon="6.724622020130568">
      <ele>728.2</ele></trkpt>
      <trkpt lat="46.95407011247855" lon="6.724620921350693">
      <ele>728.1</ele></trkpt>
      <trkpt lat="46.95402838158617" lon="6.72460929753535">
      <ele>728.1</ele></trkpt>
      <trkpt lat="46.953984904808664" lon="6.724583114502452">
      <ele>728.0</ele></trkpt>
      <trkpt lat="46.95389779066783" lon="6.724506420404389">
      <ele>727.9</ele></trkpt>
      <trkpt lat="46.953787110275165" lon="6.724391100873536">
      <ele>727.7</ele></trkpt>
      <trkpt lat="46.95374520645942" lon="6.72435028858151">
      <ele>727.6</ele></trkpt>
      <trkpt lat="46.95369517894125" lon="6.724313696304619">
      <ele>727.4</ele></trkpt>
      <trkpt lat="46.953660016074295" lon="6.724284959622385">
      <ele>727.3</ele></trkpt>
      <trkpt lat="46.95362159201479" lon="6.724268444554131">
      <ele>727.2</ele></trkpt>
      <trkpt lat="46.95358489258086" lon="6.724261628133004">
      <ele>727.0</ele></trkpt>
      <trkpt lat="46.953549942079064" lon="6.724266966676057">
      <ele>726.9</ele></trkpt>
      <trkpt lat="46.953528443075015" lon="6.724291569471891">
      <ele>726.7</ele></trkpt>
      <trkpt lat="46.95351032398195" lon="6.724325888267981">
      <ele>726.6</ele></trkpt>
      <trkpt lat="46.95340543645969" lon="6.724604661085293">
      <ele>726.5</ele></trkpt>
      <trkpt lat="46.953228482468596" lon="6.725083890673165">
      <ele>726.3</ele></trkpt>
      <trkpt lat="46.953102327222744" lon="6.725426211148219">
      <ele>726.2</ele></trkpt>
      <trkpt lat="46.953066106088635" lon="6.725494807760741">
      <ele>726.0</ele></trkpt>
      <trkpt lat="46.953019867627894" lon="6.725561119982146">
      <ele>725.9</ele></trkpt>
      <trkpt lat="46.952968636917305" lon="6.72562748519142">
      <ele>725.8</ele></trkpt>
      <trkpt lat="46.95292727561932" lon="6.725676706830441">
      <ele>725.6</ele></trkpt>
      <trkpt lat="46.95282122875591" lon="6.72576812882345">
      <ele>725.5</ele></trkpt>
      <trkpt lat="46.9527034309677" lon="6.725847554582757">
      <ele>725.3</ele></trkpt>
      <trkpt lat="46.952544873981765" lon="6.725947199761757">
      <ele>725.2</ele></trkpt>
      <trkpt lat="46.952258208441116" lon="6.726139043266932">
      <ele>726.2</ele></trkpt>
      <trkpt lat="46.952170809314616" lon="6.726200119392397">
      <ele>727.2</ele></trkpt>
      <trkpt lat="46.952109509451155" lon="6.726254464817056">
      <ele>728.2</ele></trkpt>
      <trkpt lat="46.95205986669755" lon="6.726308629321903">
      <ele>729.1</ele></trkpt>
      <trkpt lat="46.951994613839176" lon="6.726397090728886">
      <ele>730.1</ele></trkpt>
      <trkpt lat="46.95193521084681" lon="6.726490348157967">
      <ele>731.1</ele></trkpt>
      <trkpt lat="46.951894069614106" lon="6.726573602750884">
      <ele>732.1</ele></trkpt>
      <trkpt lat="46.95180864330463" lon="6.726766952257723">
      <ele>733.1</ele></trkpt>
      <trkpt lat="46.95166916766564" lon="6.727111853201222">
      <ele>734.1</ele></trkpt>
      <trkpt lat="46.951523080126705" lon="6.727464143860051">
      <ele>735.0</ele></trkpt>
      <trkpt lat="46.95145735816034" lon="6.727613432123673">
      <ele>736.0</ele></trkpt>
      <trkpt lat="46.95142603739537" lon="6.727667378578064">
      <ele>737.0</ele></trkpt>
      <trkpt lat="46.95138301999829" lon="6.727716592857662">
      <ele>738.0</ele></trkpt>
      <trkpt lat="46.95134157019485" lon="6.727748787461118">
      <ele>739.0</ele></trkpt>
      <trkpt lat="46.95129177601395" lon="6.727778648974468">
      <ele>740.0</ele></trkpt>
      <trkpt lat="46.95122863624864" lon="6.7278062304070865">
      <ele>741.0</ele></trkpt>
      <trkpt lat="46.951117185309954" lon="6.727834463921625">
      <ele>741.9</ele></trkpt>
      <trkpt lat="46.95105401555227" lon="6.727857211324318">
      <ele>742.9</ele></trkpt>
      <trkpt lat="46.95100752812186" lon="6.727882142028643">
      <ele>743.9</ele></trkpt>
      <trkpt lat="46.95097611673533" lon="6.727921494322628">
      <ele>744.9</ele></trkpt>
      <trkpt lat="46.950958011615384" lon="6.7279582403330584">
      <ele>746.8</ele></trkpt>
      <trkpt lat="46.950949893508295" lon="6.727992397710363">
      <ele>748.6</ele></trkpt>
      <trkpt lat="46.95094519404009" lon="6.728041117748298">
      <ele>750.5</ele></trkpt>
      <trkpt lat="46.95095057221241" lon="6.728101869003448">
      <ele>752.4</ele></trkpt>
      <trkpt lat="46.95097309136236" lon="6.728240254201108">
      <ele>754.3</ele></trkpt>
      <trkpt lat="46.951050746602974" lon="6.728672315244345">
      <ele>756.1</ele></trkpt>
      <trkpt lat="46.95113184578435" lon="6.729126217658412">
      <ele>758.0</ele></trkpt>
      <trkpt lat="46.95122161538588" lon="6.729631095429486">
      <ele>759.9</ele></trkpt>
      <trkpt lat="46.9512975532177" lon="6.730058309353287">
      <ele>761.8</ele></trkpt>
      <trkpt lat="46.95131477704524" lon="6.730148094689736">
      <ele>763.6</ele></trkpt>
      <trkpt lat="46.951364688938334" lon="6.730295815444673">
      <ele>765.5</ele></trkpt>
      <trkpt lat="46.95134267501126" lon="6.730435275533942">
      <ele>767.4</ele></trkpt>
      <trkpt lat="46.95132398511603" lon="6.730493980016686">
      <ele>769.3</ele></trkpt>
      <trkpt lat="46.95130136916058" lon="6.730536026354001">
      <ele>771.1</ele></trkpt>
      <trkpt lat="46.9512729555326" lon="6.73056423732658">
      <ele>773.0</ele></trkpt>
      <trkpt lat="46.9512425145697" lon="6.730572980193949">
      <ele>774.9</ele></trkpt>
      <trkpt lat="46.95120628415803" lon="6.730570672598358">
      <ele>776.8</ele></trkpt>
      <trkpt lat="46.951162417997836" lon="6.730565693786304">
      <ele>778.6</ele></trkpt>
      <trkpt lat="46.951097361220135" lon="6.730524789688115">
      <ele>780.5</ele></trkpt>
      <trkpt lat="46.950761769663146" lon="6.730192430449985">
      <ele>782.4</ele></trkpt>
      <trkpt lat="46.950709298822964" lon="6.730134270566214">
      <ele>783.7</ele></trkpt>
      <trkpt lat="46.95071682222951" lon="6.730321064657705">
      <ele>784.9</ele></trkpt>
      <trkpt lat="46.95072409885156" lon="6.730574254031655">
      <ele>786.2</ele></trkpt>
      <trkpt lat="46.95074073754579" lon="6.730799483859412">
      <ele>787.4</ele></trkpt>
      <trkpt lat="46.95078347921797" lon="6.7309297345054775">
      <ele>788.7</ele></trkpt>
      <trkpt lat="46.95093223118155" lon="6.731253431167979">
      <ele>790.0</ele></trkpt>
      <trkpt lat="46.9509720727707" lon="6.731345296299444">
      <ele>791.2</ele></trkpt>
      <trkpt lat="46.95099264072442" lon="6.731394064469794">
      <ele>792.5</ele></trkpt>
      <trkpt lat="46.95100050549777" lon="6.731426565976115">
      <ele>793.7</ele></trkpt>
      <trkpt lat="46.9509968462507" lon="6.731454581926445">
      <ele>795.0</ele></trkpt>
      <trkpt lat="46.95098997397266" lon="6.7314779635287785">
      <ele>796.3</ele></trkpt>
      <trkpt lat="46.95097990852273" lon="6.731501387142897">
      <ele>797.5</ele></trkpt>
      <trkpt lat="46.95096364401158" lon="6.731553792790797">
      <ele>798.8</ele></trkpt>
      <trkpt lat="46.95093853049548" lon="6.731621211703968">
      <ele>800.0</ele></trkpt>
      <trkpt lat="46.95092365808448" lon="6.731692226615689">
      <ele>801.3</ele></trkpt>
      <trkpt lat="46.95090806905935" lon="6.731752071696759">
      <ele>802.6</ele></trkpt>
      <trkpt lat="46.95090704211938" lon="6.73179121903183">
      <ele>803.8</ele></trkpt>
      <trkpt lat="46.95090409027084" lon="6.731830391682596">
      <ele>805.1</ele></trkpt>
      <trkpt lat="46.95089282791577" lon="6.731866875539422">
      <ele>806.3</ele></trkpt>
      <trkpt lat="46.95084491219977" lon="6.731857259210361">
      <ele>807.6</ele></trkpt>
      <trkpt lat="46.95080406413515" lon="6.731855931055609">
      <ele>809.6</ele></trkpt>
      <trkpt lat="46.95077667588901" lon="6.731863752817059">
      <ele>811.5</ele></trkpt>
      <trkpt lat="46.950732155129764" lon="6.731879524167438">
      <ele>813.5</ele></trkpt>
      <trkpt lat="46.95063863342909" lon="6.731858487756726">
      <ele>815.5</ele></trkpt>
      <trkpt lat="46.950510661228535" lon="6.731811605313916">
      <ele>817.4</ele></trkpt>
      <trkpt lat="46.95025195416979" lon="6.731746856347942">
      <ele>819.4</ele></trkpt>
      <trkpt lat="46.95020344171315" lon="6.731728000069546">
      <ele>821.4</ele></trkpt>
      <trkpt lat="46.95014573798825" lon="6.731708043049448">
      <ele>823.3</ele></trkpt>
      <trkpt lat="46.950107184196874" lon="6.731680530333673">
      <ele>825.3</ele></trkpt>
      <trkpt lat="46.95005770889125" lon="6.7316397491157485">
      <ele>827.2</ele></trkpt>
      <trkpt lat="46.950017391775276" lon="6.731597625801565">
      <ele>829.2</ele></trkpt>
      <trkpt lat="46.949982077313294" lon="6.731554228185201">
      <ele>831.2</ele></trkpt>
      <trkpt lat="46.94994277108144" lon="6.7315389029411286">
      <ele>833.1</ele></trkpt>
      <trkpt lat="46.9499057684828" lon="6.731493084281059">
      <ele>835.1</ele></trkpt>
      <trkpt lat="46.94987715821951" lon="6.731454472172351">
      <ele>837.1</ele></trkpt>
      <trkpt lat="46.94984075299204" lon="6.731368435535628">
      <ele>839.0</ele></trkpt>
      <trkpt lat="46.94980525045463" lon="6.731294577615881">
      <ele>841.0</ele></trkpt>
      <trkpt lat="46.94977407932324" lon="6.731246239130248">
      <ele>843.0</ele></trkpt>
      <trkpt lat="46.94976219956058" lon="6.731214723920018">
      <ele>844.9</ele></trkpt>
      <trkpt lat="46.94973850900448" lon="6.731161413480292">
      <ele>846.9</ele></trkpt>
      <trkpt lat="46.94970059456594" lon="6.731103429934105">
      <ele>848.9</ele></trkpt>
      <trkpt lat="46.949657597622405" lon="6.7310308795955835">
      <ele>850.9</ele></trkpt>
      <trkpt lat="46.94961542069614" lon="6.73095711003924">
      <ele>852.9</ele></trkpt>
      <trkpt lat="46.94956671247059" lon="6.7309065726664885">
      <ele>854.9</ele></trkpt>
      <trkpt lat="46.94951638132861" lon="6.730840871281773">
      <ele>856.9</ele></trkpt>
      <trkpt lat="46.949365490219435" lon="6.730628331492278">
      <ele>858.9</ele></trkpt>
      <trkpt lat="46.94916617953151" lon="6.730452831233315">
      <ele>860.9</ele></trkpt>
      <trkpt lat="46.949062633223804" lon="6.730351208588064">
      <ele>862.9</ele></trkpt>
      <trkpt lat="46.94898108452123" lon="6.730184666777776">
      <ele>864.9</ele></trkpt>
      <trkpt lat="46.94897191012394" lon="6.730165924289724">
      <ele>866.9</ele></trkpt>
      <trkpt lat="46.948935993190005" lon="6.73012265461916">
      <ele>868.9</ele></trkpt>
      <trkpt lat="46.948891827423544" lon="6.730099775863498">
      <ele>870.9</ele></trkpt>
      <trkpt lat="46.94883019284767" lon="6.7300449835275815">
      <ele>872.9</ele></trkpt>
      <trkpt lat="46.948759104383264" lon="6.7299989989025315">
      <ele>874.9</ele></trkpt>
      <trkpt lat="46.94868465985029" lon="6.729987816575599">
      <ele>876.9</ele></trkpt>
      <trkpt lat="46.94863599537075" lon="6.730008438153717">
      <ele>878.9</ele></trkpt>
      <trkpt lat="46.94858496060456" lon="6.730127282546241">
      <ele>880.9</ele></trkpt>
      <trkpt lat="46.94851761778239" lon="6.730221554074989">
      <ele>882.9</ele></trkpt>
      <trkpt lat="46.94838580903595" lon="6.7303705587041645">
      <ele>884.9</ele></trkpt>
      <trkpt lat="46.94823811363054" lon="6.730542812320604">
      <ele>886.9</ele></trkpt>
      <trkpt lat="46.94810336590586" lon="6.7306923007165205">
      <ele>889.6</ele></trkpt>
      <trkpt lat="46.94792106747794" lon="6.730847629539876">
      <ele>892.2</ele></trkpt>
      <trkpt lat="46.94774332492735" lon="6.730971607860629">
      <ele>894.9</ele></trkpt>
      <trkpt lat="46.947642433781006" lon="6.731026031141796">
      <ele>897.6</ele></trkpt>
      <trkpt lat="46.94748855608171" lon="6.731096060875275">
      <ele>900.2</ele></trkpt>
      <trkpt lat="46.94740909403479" lon="6.731140559952397">
      <ele>902.9</ele></trkpt>
      <trkpt lat="46.947288071548655" lon="6.731199490400507">
      <ele>905.6</ele></trkpt>
      <trkpt lat="46.947193372535736" lon="6.7312806805728345">
      <ele>908.3</ele></trkpt>
      <trkpt lat="46.94703222358695" lon="6.73139400773184">
      <ele>910.9</ele></trkpt>
      <trkpt lat="46.94683239387318" lon="6.731549666806443">
      <ele>913.6</ele></trkpt>
      <trkpt lat="46.94666886142915" lon="6.7316514250761434">
      <ele>916.3</ele></trkpt>
      <trkpt lat="46.94653327120937" lon="6.7317272666645955">
      <ele>918.9</ele></trkpt>
      <trkpt lat="46.946463280814676" lon="6.731762943751125">
      <ele>921.6</ele></trkpt>
      <trkpt lat="46.946395836537754" lon="6.731826395030979">
      <ele>924.3</ele></trkpt>
      <trkpt lat="46.946328358290785" lon="6.731882884811771">
      <ele>926.9</ele></trkpt>
      <trkpt lat="46.94623322116774" lon="6.731894565430903">
      <ele>929.6</ele></trkpt>
      <trkpt lat="46.94612265397782" lon="6.731911650530029">
      <ele>932.3</ele></trkpt>
      <trkpt lat="46.94600272031497" lon="6.731953198556117">
      <ele>935.0</ele></trkpt>
      <trkpt lat="46.94591476792957" lon="6.731971733106179">
      <ele>937.6</ele></trkpt>
      <trkpt lat="46.9457686180949" lon="6.732008410807163">
      <ele>940.3</ele></trkpt>
      <trkpt lat="46.94563321317405" lon="6.732050148611395">
      <ele>941.1</ele></trkpt>
      <trkpt lat="46.94560849336361" lon="6.732093925077051">
      <ele>942.0</ele></trkpt>
      <trkpt lat="46.94559215628406" lon="6.732146273716947">
      <ele>942.8</ele></trkpt>
      <trkpt lat="46.94556398320185" lon="6.732209194161352">
      <ele>943.7</ele></trkpt>
      <trkpt lat="46.94554050416168" lon="6.732261636590479">
      <ele>944.5</ele></trkpt>
      <trkpt lat="46.945473102338276" lon="6.732332020997929">
      <ele>945.4</ele></trkpt>
      <trkpt lat="46.94540470594339" lon="6.732433706388585">
      <ele>946.2</ele></trkpt>
      <trkpt lat="46.94534699019308" lon="6.73253003651992">
      <ele>947.1</ele></trkpt>
      <trkpt lat="46.94531313897076" lon="6.732636482295612">
      <ele>947.9</ele></trkpt>
      <trkpt lat="46.9452982137137" lon="6.732725301499105">
      <ele>948.8</ele></trkpt>
      <trkpt lat="46.94530139846148" lon="6.732817363642079">
      <ele>949.6</ele></trkpt>
      <trkpt lat="46.94530281200111" lon="6.73289205805713">
      <ele>950.4</ele></trkpt>
      <trkpt lat="46.945267518031294" lon="6.732958552089207">
      <ele>951.3</ele></trkpt>
      <trkpt lat="46.945235934067135" lon="6.733047589828618">
      <ele>952.1</ele></trkpt>
      <trkpt lat="46.94522224757796" lon="6.733143341031496">
      <ele>953.0</ele></trkpt>
      <trkpt lat="46.94521212296841" lon="6.7332390454350515">
      <ele>953.8</ele></trkpt>
      <trkpt lat="46.94521113888318" lon="6.733272080168877">
      <ele>954.7</ele></trkpt>
      <trkpt lat="46.94522927340928" lon="6.7333187610087215">
      <ele>955.5</ele></trkpt>
      <trkpt lat="46.94524034984864" lon="6.733377697674263">
      <ele>956.4</ele></trkpt>
      <trkpt lat="46.945241932718616" lon="6.733441960461727">
      <ele>957.2</ele></trkpt>
      <trkpt lat="46.94524326979502" lon="6.733466282401999">
      <ele>957.4</ele></trkpt>
      <trkpt lat="46.94526378649349" lon="6.733474695563699">
      <ele>957.6</ele></trkpt>
      <trkpt lat="46.94528173759805" lon="6.73349011717787">
      <ele>957.8</ele></trkpt>
      <trkpt lat="46.94529380878131" lon="6.733517752862424">
      <ele>958.0</ele></trkpt>
      <trkpt lat="46.945308234544214" lon="6.733580113390725">
      <ele>958.2</ele></trkpt>
      <trkpt lat="46.94530976389378" lon="6.733635694602829">
      <ele>958.4</ele></trkpt>
      <trkpt lat="46.945291201092694" lon="6.733712398037556">
      <ele>958.6</ele></trkpt>
      <trkpt lat="46.94525253877124" lon="6.733811957526815">
      <ele>958.8</ele></trkpt>
      <trkpt lat="46.94519959079689" lon="6.733909957214109">
      <ele>959.0</ele></trkpt>
      <trkpt lat="46.9451279104893" lon="6.734058601864797">
      <ele>959.2</ele></trkpt>
      <trkpt lat="46.94508445753806" lon="6.734153008943406">
      <ele>959.3</ele></trkpt>
      <trkpt lat="46.94501386635245" lon="6.734284247774859">
      <ele>959.5</ele></trkpt>
      <trkpt lat="46.94494442687068" lon="6.734397988346402">
      <ele>959.7</ele></trkpt>
      <trkpt lat="46.944823717849765" lon="6.734562379267934">
      <ele>959.9</ele></trkpt>
      <trkpt lat="46.94465536857531" lon="6.734810341125209">
      <ele>960.1</ele></trkpt>
      <trkpt lat="46.94454005736175" lon="6.7349924837574875">
      <ele>960.3</ele></trkpt>
      <trkpt lat="46.944481153860934" lon="6.735090572063617">
      <ele>960.5</ele></trkpt>
      <trkpt lat="46.94443522939466" lon="6.735169365750559">
      <ele>960.7</ele></trkpt>
      <trkpt lat="46.94439637386418" lon="6.735237650758791">
      <ele>960.9</ele></trkpt>
      <trkpt lat="46.94435224686963" lon="6.735297138555535">
      <ele>961.1</ele></trkpt>
      <trkpt lat="46.94431771073088" lon="6.73531877718243">
      <ele>961.2</ele></trkpt>
      <trkpt lat="46.94427914819475" lon="6.73532634840973">
      <ele>961.2</ele></trkpt>
      <trkpt lat="46.944245323792366" lon="6.735312986219049">
      <ele>961.3</ele></trkpt>
      <trkpt lat="46.944177430193434" lon="6.735240516184713">
      <ele>961.4</ele></trkpt>
      <trkpt lat="46.94414740854723" lon="6.735197458818509">
      <ele>961.5</ele></trkpt>
      <trkpt lat="46.94410912166698" lon="6.735164938793012">
      <ele>961.5</ele></trkpt>
      <trkpt lat="46.94406376422913" lon="6.735141206658447">
      <ele>961.6</ele></trkpt>
      <trkpt lat="46.944025594726334" lon="6.735127809568649">
      <ele>961.7</ele></trkpt>
      <trkpt lat="46.943989892513166" lon="6.7351265430902">
      <ele>961.7</ele></trkpt>
      <trkpt lat="46.94394834229552" lon="6.735142717444207">
      <ele>961.8</ele></trkpt>
      <trkpt lat="46.94390917908629" lon="6.735162341264813">
      <ele>961.9</ele></trkpt>
      <trkpt lat="46.94384522755714" lon="6.735211842872703">
      <ele>961.9</ele></trkpt>
      <trkpt lat="46.943774103656" lon="6.7352579443660465">
      <ele>962.0</ele></trkpt>
      <trkpt lat="46.94372077959019" lon="6.735293396907085">
      <ele>962.1</ele></trkpt>
      <trkpt lat="46.94366616656841" lon="6.73531670342961">
      <ele>962.1</ele></trkpt>
      <trkpt lat="46.94361746212455" lon="6.735329503574913">
      <ele>962.2</ele></trkpt>
      <trkpt lat="46.94356750964937" lon="6.735335358602435">
      <ele>962.3</ele></trkpt>
      <trkpt lat="46.94353070711744" lon="6.735349749889912">
      <ele>962.4</ele></trkpt>
      <trkpt lat="46.943493432035964" lon="6.735369341156957">
      <ele>962.4</ele></trkpt>
      <trkpt lat="46.94345327929537" lon="6.7354134636006755">
      <ele>962.5</ele></trkpt>
      <trkpt lat="46.94345327929537" lon="6.7354134636006755">
      <ele>962.8</ele></trkpt>
      <trkpt lat="46.9434539680705" lon="6.7354497899588734">
      <ele>963.1</ele></trkpt>
      <trkpt lat="46.94347995798811" lon="6.735805664162891">
      <ele>963.4</ele></trkpt>
      <trkpt lat="46.94350594680038" lon="6.73616153871077">
      <ele>963.8</ele></trkpt>
      <trkpt lat="46.94352078878975" lon="6.736318462632038">
      <ele>964.1</ele></trkpt>
      <trkpt lat="46.94353265053267" lon="6.73644268062783">
      <ele>964.4</ele></trkpt>
      <trkpt lat="46.94353748631198" lon="6.736481693348258">
      <ele>964.7</ele></trkpt>
      <trkpt lat="46.94354641946065" lon="6.736553725870876">
      <ele>965.0</ele></trkpt>
      <trkpt lat="46.94355297000328" lon="6.736650929467298">
      <ele>965.3</ele></trkpt>
      <trkpt lat="46.94355091466419" lon="6.736703088171032">
      <ele>965.6</ele></trkpt>
      <trkpt lat="46.94354048921748" lon="6.736750154813129">
      <ele>966.0</ele></trkpt>
      <trkpt lat="46.94352165987221" lon="6.736785142127835">
      <ele>966.3</ele></trkpt>
      <trkpt lat="46.94348975370125" lon="6.736822047094594">
      <ele>966.6</ele></trkpt>
      <trkpt lat="46.94343658978057" lon="6.73686757013718">
      <ele>966.9</ele></trkpt>
      <trkpt lat="46.94339820765584" lon="6.736819420283475">
      <ele>967.2</ele></trkpt>
      <trkpt lat="46.94335632733537" lon="6.736781732006568">
      <ele>967.5</ele></trkpt>
      <trkpt lat="46.943304921532174" lon="6.736744181318684">
      <ele>967.9</ele></trkpt>
      <trkpt lat="46.943232056331944" lon="6.736699949579908">
      <ele>968.2</ele></trkpt>
      <trkpt lat="46.94316286688243" lon="6.736671313337521">
      <ele>968.5</ele></trkpt>
      <trkpt lat="46.94308481966559" lon="6.736643147496399">
      <ele>968.8</ele></trkpt>
      <trkpt lat="46.94302036715718" lon="6.7366109688566365">
      <ele>969.1</ele></trkpt>
      <trkpt lat="46.942973762136724" lon="6.73658030406965">
      <ele>969.4</ele></trkpt>
      <trkpt lat="46.942917470126204" lon="6.736521946782548">
      <ele>969.7</ele></trkpt>
      <trkpt lat="46.94285878219875" lon="6.736460153386619">
      <ele>969.9</ele></trkpt>
      <trkpt lat="46.94281922165351" lon="6.736412032870408">
      <ele>970.2</ele></trkpt>
      <trkpt lat="46.94277109010882" lon="6.7363275103134255">
      <ele>970.5</ele></trkpt>
      <trkpt lat="46.94273138034813" lon="6.736255053583944">
      <ele>970.8</ele></trkpt>
      <trkpt lat="46.942688046289014" lon="6.7361739492575605">
      <ele>971.1</ele></trkpt>
      <trkpt lat="46.94267228112364" lon="6.736142330300934">
      <ele>971.4</ele></trkpt>
      <trkpt lat="46.94265791854812" lon="6.736113530090696">
      <ele>971.6</ele></trkpt>
      <trkpt lat="46.94262908290934" lon="6.736068724197152">
      <ele>971.9</ele></trkpt>
      <trkpt lat="46.94260148624596" lon="6.736030863454853">
      <ele>972.2</ele></trkpt>
      <trkpt lat="46.942573933883985" lon="6.736001697225279">
      <ele>972.5</ele></trkpt>
      <trkpt lat="46.94251659276892" lon="6.735965946043275">
      <ele>972.8</ele></trkpt>
      <trkpt lat="46.94245326515658" lon="6.735925071947293">
      <ele>973.1</ele></trkpt>
      <trkpt lat="46.942420975750984" lon="6.735899435291895">
      <ele>973.4</ele></trkpt>
      <trkpt lat="46.94239100594528" lon="6.735863326428828">
      <ele>973.6</ele></trkpt>
      <trkpt lat="46.94234539625661" lon="6.735801376468789">
      <ele>973.9</ele></trkpt>
      <trkpt lat="46.94229860648895" lon="6.735737695163796">
      <ele>974.2</ele></trkpt>
      <trkpt lat="46.94226496980585" lon="6.735686004438293">
      <ele>974.5</ele></trkpt>
      <trkpt lat="46.94223002127575" lon="6.735616967208873">
      <ele>974.9</ele></trkpt>
      <trkpt lat="46.94218177924666" lon="6.735511603393761">
      <ele>975.4</ele></trkpt>
      <trkpt lat="46.94213965333486" lon="6.735433965302862">
      <ele>975.8</ele></trkpt>
      <trkpt lat="46.942099912651024" lon="6.73535802986445">
      <ele>976.2</ele></trkpt>
      <trkpt lat="46.942088702173706" lon="6.735340116745723">
      <ele>976.6</ele></trkpt>
      <trkpt lat="46.94205785055718" lon="6.735290806751997">
      <ele>977.0</ele></trkpt>
      <trkpt lat="46.94201108359333" lon="6.735232353415281">
      <ele>977.5</ele></trkpt>
      <trkpt lat="46.94196315212899" lon="6.735179103498589">
      <ele>977.9</ele></trkpt>
      <trkpt lat="46.94192844690957" lon="6.7351482847996245">
      <ele>978.3</ele></trkpt>
      <trkpt lat="46.941893772042874" lon="6.735120946347545">
      <ele>978.8</ele></trkpt>
      <trkpt lat="46.94187651349042" lon="6.735111334617082">
      <ele>979.2</ele></trkpt>
      <trkpt lat="46.94183301809156" lon="6.735109579162635">
      <ele>979.6</ele></trkpt>
      <trkpt lat="46.941800943413604" lon="6.735120414524996">
      <ele>980.0</ele></trkpt>
      <trkpt lat="46.9417642155565" lon="6.73514696689464">
      <ele>980.5</ele></trkpt>
      <trkpt lat="46.94171095543837" lon="6.7351928328931">
      <ele>980.9</ele></trkpt>
      <trkpt lat="46.94165295103692" lon="6.735243975204346">
      <ele>981.3</ele></trkpt>
      <trkpt lat="46.94159855864618" lon="6.735300297583875">
      <ele>981.7</ele></trkpt>
      <trkpt lat="46.941559607024516" lon="6.735352937229022">
      <ele>982.1</ele></trkpt>
      <trkpt lat="46.94153256621072" lon="6.7354071546829">
      <ele>982.6</ele></trkpt>
      <trkpt lat="46.94150336388037" lon="6.735496140479384">
      <ele>983.0</ele></trkpt>
      <trkpt lat="46.94148490642243" lon="6.735590213064932">
      <ele>983.8</ele></trkpt>
      <trkpt lat="46.94148178482901" lon="6.735664974673031">
      <ele>984.5</ele></trkpt>
      <trkpt lat="46.94147928598432" lon="6.735751811641631">
      <ele>985.3</ele></trkpt>
      <trkpt lat="46.94146863978571" lon="6.7357965547833905">
      <ele>986.1</ele></trkpt>
      <trkpt lat="46.94144816909638" lon="6.7358322849328935">
      <ele>986.8</ele></trkpt>
      <trkpt lat="46.94142656204369" lon="6.7358572729696355">
      <ele>987.6</ele></trkpt>
      <trkpt lat="46.941390710880086" lon="6.73586252259519">
      <ele>988.4</ele></trkpt>
      <trkpt lat="46.941363981588694" lon="6.73584289492853">
      <ele>989.1</ele></trkpt>
      <trkpt lat="46.941333855894676" lon="6.73579897398549">
      <ele>989.9</ele></trkpt>
      <trkpt lat="46.94130833695396" lon="6.73571415858156">
      <ele>990.6</ele></trkpt>
      <trkpt lat="46.94127066929499" lon="6.735586067345896">
      <ele>991.4</ele></trkpt>
      <trkpt lat="46.94123429723506" lon="6.735477095859752">
      <ele>992.2</ele></trkpt>
      <trkpt lat="46.94120272574497" lon="6.735374970289801">
      <ele>992.9</ele></trkpt>
      <trkpt lat="46.94116634111678" lon="6.7352625186888435">
      <ele>993.7</ele></trkpt>
      <trkpt lat="46.94113723853133" lon="6.735174283279766">
      <ele>994.5</ele></trkpt>
      <trkpt lat="46.941093788024936" lon="6.735075807249846">
      <ele>995.2</ele></trkpt>
      <trkpt lat="46.94105043182949" lon="6.734991239208878">
      <ele>996.0</ele></trkpt>
      <trkpt lat="46.941010660558064" lon="6.734911838620374">
      <ele>996.8</ele></trkpt>
      <trkpt lat="46.9409757507571" lon="6.734846257269325">
      <ele>997.5</ele></trkpt>
      <trkpt lat="46.94093734316552" lon="6.734791176569442">
      <ele>998.3</ele></trkpt>
      <trkpt lat="46.94089425519619" lon="6.734751773702549">
      <ele>999.3</ele></trkpt>
      <trkpt lat="46.94087034799966" lon="6.734734697227735">
      <ele>1000.3</ele></trkpt>
      <trkpt lat="46.9408524718328" lon="6.7347314507980505">
      <ele>1001.3</ele></trkpt>
      <trkpt lat="46.94083227450936" lon="6.734736942675574">
      <ele>1002.3</ele></trkpt>
      <trkpt lat="46.940781995512786" lon="6.734688177566472">
      <ele>1003.3</ele></trkpt>
      <trkpt lat="46.94073767750518" lon="6.734641843080669">
      <ele>1004.3</ele></trkpt>
      <trkpt lat="46.9406812991968" lon="6.734569608667321">
      <ele>1005.3</ele></trkpt>
      <trkpt lat="46.94061764020303" lon="6.734474892360719">
      <ele>1006.3</ele></trkpt>
      <trkpt lat="46.9405564696472" lon="6.734395746901014">
      <ele>1007.3</ele></trkpt>
      <trkpt lat="46.9405082923158" lon="6.734302561836416">
      <ele>1008.2</ele></trkpt>
      <trkpt lat="46.94047191720698" lon="6.734191832831099">
      <ele>1009.2</ele></trkpt>
      <trkpt lat="46.9404246469003" lon="6.734050145480122">
      <ele>1010.2</ele></trkpt>
      <trkpt lat="46.94039237339135" lon="6.733926229048269">
      <ele>1011.2</ele></trkpt>
      <trkpt lat="46.94037565011437" lon="6.733816451162844">
      <ele>1012.2</ele></trkpt>
      <trkpt lat="46.940356854896365" lon="6.733650644678204">
      <ele>1013.2</ele></trkpt>
      <trkpt lat="46.94034245152641" lon="6.733574380698933">
      <ele>1014.2</ele></trkpt>
      <trkpt lat="46.94033140252409" lon="6.7335228171669375">
      <ele>1015.2</ele></trkpt>
      <trkpt lat="46.940308095385376" lon="6.73346587193983">
      <ele>1016.2</ele></trkpt>
      <trkpt lat="46.94024548325402" lon="6.733366008473059">
      <ele>1017.2</ele></trkpt>
      <trkpt lat="46.940223788524975" lon="6.7333211254802485">
      <ele>1018.2</ele></trkpt>
      <trkpt lat="46.94020685197592" lon="6.733276166947619">
      <ele>1019.6</ele></trkpt>
      <trkpt lat="46.94019217242129" lon="6.733212068934717">
      <ele>1021.0</ele></trkpt>
      <trkpt lat="46.940172599321805" lon="6.733123146372068">
      <ele>1022.3</ele></trkpt>
      <trkpt lat="46.94012840240617" lon="6.732892070268561">
      <ele>1023.7</ele></trkpt>
      <trkpt lat="46.940092881487196" lon="6.732727469559042">
      <ele>1025.1</ele></trkpt>
      <trkpt lat="46.94004457430437" lon="6.732613431834714">
      <ele>1026.5</ele></trkpt>
      <trkpt lat="46.939990214258685" lon="6.73248208455571">
      <ele>1027.9</ele></trkpt>
      <trkpt lat="46.93994522078656" lon="6.732326303641264">
      <ele>1029.2</ele></trkpt>
      <trkpt lat="46.939909090120175" lon="6.732255540279769">
      <ele>1030.6</ele></trkpt>
      <trkpt lat="46.939820173652606" lon="6.732117713236683">
      <ele>1032.0</ele></trkpt>
      <trkpt lat="46.93976599525292" lon="6.732015915754681">
      <ele>1033.4</ele></trkpt>
      <trkpt lat="46.939684477493316" lon="6.731919678935494">
      <ele>1034.8</ele></trkpt>
      <trkpt lat="46.93958727423705" lon="6.731788909775044">
      <ele>1036.1</ele></trkpt>
      <trkpt lat="46.939532186844716" lon="6.731732292102435">
      <ele>1037.5</ele></trkpt>
      <trkpt lat="46.93949487026948" lon="6.731663292069523">
      <ele>1038.9</ele></trkpt>
      <trkpt lat="46.93948040421387" lon="6.731633944486769">
      <ele>1040.3</ele></trkpt>
      <trkpt lat="46.939478755905334" lon="6.73155924814051">
      <ele>1041.7</ele></trkpt>
      <trkpt lat="46.93946527170407" lon="6.731495135725973">
      <ele>1043.0</ele></trkpt>
      <trkpt lat="46.93943747154175" lon="6.7314260107314565">
      <ele>1044.4</ele></trkpt>
      <trkpt lat="46.93938690636322" lon="6.731331114870008">
      <ele>1045.8</ele></trkpt>
      <trkpt lat="46.93936292366612" lon="6.731301892669607">
      <ele>1047.0</ele></trkpt>
      <trkpt lat="46.939315355078165" lon="6.731307732743912">
      <ele>1048.2</ele></trkpt>
      <trkpt lat="46.939280550461355" lon="6.731259530307455">
      <ele>1049.5</ele></trkpt>
      <trkpt lat="46.93923357241138" lon="6.7311482887265095">
      <ele>1050.7</ele></trkpt>
      <trkpt lat="46.9391960867508" lon="6.731038853030705">
      <ele>1051.9</ele></trkpt>
      <trkpt lat="46.93916781931578" lon="6.730940722430738">
      <ele>1053.1</ele></trkpt>
      <trkpt lat="46.93911708208511" lon="6.730818038885818">
      <ele>1054.3</ele></trkpt>
      <trkpt lat="46.93906157565365" lon="6.730693671606701">
      <ele>1055.6</ele></trkpt>
      <trkpt lat="46.93901821792526" lon="6.73061084391894">
      <ele>1056.8</ele></trkpt>
      <trkpt lat="46.93896773792941" lon="6.7305298438335495">
      <ele>1058.0</ele></trkpt>
      <trkpt lat="46.9389147024141" lon="6.7304210736628445">
      <ele>1059.2</ele></trkpt>
      <trkpt lat="46.938865280776696" lon="6.730319216902724">
      <ele>1060.4</ele></trkpt>
      <trkpt lat="46.93883399475746" lon="6.7302640214512355">
      <ele>1061.7</ele></trkpt>
      <trkpt lat="46.93875476260778" lon="6.730152142966207">
      <ele>1062.9</ele></trkpt>
      <trkpt lat="46.93869226393644" lon="6.7300521927769825">
      <ele>1064.1</ele></trkpt>
      <trkpt lat="46.93861789895523" lon="6.729959346926056">
      <ele>1065.3</ele></trkpt>
      <trkpt lat="46.938541179054695" lon="6.7298682791447755">
      <ele>1066.5</ele></trkpt>
      <trkpt lat="46.938470329288194" lon="6.72976494629459">
      <ele>1067.8</ele></trkpt>
      <trkpt lat="46.93840673980761" lon="6.729680666614872">
      <ele>1069.0</ele></trkpt>
      <trkpt lat="46.93834431770133" lon="6.729594611846155">
      <ele>1070.2</ele></trkpt>
      <trkpt lat="46.93827117019747" lon="6.729505231534717">
      <ele>1072.8</ele></trkpt>
      <trkpt lat="46.93820408475059" lon="6.729433147052698">
      <ele>1075.5</ele></trkpt>
      <trkpt lat="46.93814904091604" lon="6.729385213872332">
      <ele>1078.1</ele></trkpt>
      <trkpt lat="46.93808328253505" lon="6.729335701697433">
      <ele>1080.8</ele></trkpt>
      <trkpt lat="46.9380234249072" lon="6.729277417448717">
      <ele>1083.4</ele></trkpt>
      <trkpt lat="46.93797309453734" lon="6.729220741198318">
      <ele>1086.0</ele></trkpt>
      <trkpt lat="46.93794061183119" lon="6.729165589357421">
      <ele>1088.7</ele></trkpt>
      <trkpt lat="46.93792604646657" lon="6.729118855981536">
      <ele>1091.3</ele></trkpt>
      <trkpt lat="46.93792462433217" lon="6.729082403313415">
      <ele>1094.0</ele></trkpt>
      <trkpt lat="46.9376973237025" lon="6.728842739061777">
      <ele>1096.6</ele></trkpt>
      <trkpt lat="46.93747002256277" lon="6.7286030768375165">
      <ele>1099.2</ele></trkpt>
      <trkpt lat="46.93738250250988" lon="6.728498247477393">
      <ele>1101.9</ele></trkpt>
      <trkpt lat="46.937315287162455" lon="6.728405311554541">
      <ele>1104.5</ele></trkpt>
      <trkpt lat="46.93725645486606" lon="6.728320959284229">
      <ele>1107.2</ele></trkpt>
      <trkpt lat="46.93720387149537" lon="6.728286916780059">
      <ele>1109.8</ele></trkpt>
      <trkpt lat="46.937134593654456" lon="6.728244387658689">
      <ele>1112.4</ele></trkpt>
      <trkpt lat="46.93706415180506" lon="6.728207087906387">
      <ele>1115.1</ele></trkpt>
      <trkpt lat="46.93697562903475" lon="6.728133556432454">
      <ele>1117.7</ele></trkpt>
      <trkpt lat="46.93687996430107" lon="6.7280601196119925">
      <ele>1120.4</ele></trkpt>
      <trkpt lat="46.93682349371797" lon="6.72797224376337">
      <ele>1123.0</ele></trkpt>
      <trkpt lat="46.93676340910001" lon="6.727877481601129">
      <ele>1125.1</ele></trkpt>
      <trkpt lat="46.9366915985155" lon="6.7278124241861414">
      <ele>1127.2</ele></trkpt>
      <trkpt lat="46.936622214465714" lon="6.727754255986304">
      <ele>1129.3</ele></trkpt>
      <trkpt lat="46.93649931820117" lon="6.727703756205014">
      <ele>1131.4</ele></trkpt>
      <trkpt lat="46.936376441743974" lon="6.727655003084107">
      <ele>1133.5</ele></trkpt>
      <trkpt lat="46.93627026676176" lon="6.727612963485997">
      <ele>1135.6</ele></trkpt>
      <trkpt lat="46.93621292299444" lon="6.727598973662847">
      <ele>1137.7</ele></trkpt>
      <trkpt lat="46.93614033718721" lon="6.727604714205621">
      <ele>1139.8</ele></trkpt>
      <trkpt lat="46.93606763668939" lon="6.727668805921378">
      <ele>1141.9</ele></trkpt>
      <trkpt lat="46.93604212613503" lon="6.727731301529377">
      <ele>1144.0</ele></trkpt>
      <trkpt lat="46.93603677158527" lon="6.7278165000390215">
      <ele>1146.0</ele></trkpt>
      <trkpt lat="46.93604870039731" lon="6.728102325179529">
      <ele>1148.1</ele></trkpt>
      <trkpt lat="46.9360439865272" lon="6.7282502775000115">
      <ele>1150.2</ele></trkpt>
      <trkpt lat="46.93601095800423" lon="6.728371248016583">
      <ele>1152.3</ele></trkpt>
      <trkpt lat="46.93599328782013" lon="6.728421583606831">
      <ele>1154.4</ele></trkpt>
      <trkpt lat="46.935928482958516" lon="6.728524535066381">
      <ele>1156.5</ele></trkpt>
      <trkpt lat="46.93588773373872" lon="6.728614666017371">
      <ele>1158.6</ele></trkpt>
      <trkpt lat="46.935788484494616" lon="6.728900566360816">
      <ele>1160.7</ele></trkpt>
      <trkpt lat="46.93577455711605" lon="6.728935066440817">
      <ele>1162.8</ele></trkpt>
      <trkpt lat="46.93576915129101" lon="6.728974365693257">
      <ele>1164.9</ele></trkpt>
      <trkpt lat="46.9357754997137" lon="6.729148279284871">
      <ele>1166.5</ele></trkpt>
      <trkpt lat="46.93578040803171" lon="6.729181164876095">
      <ele>1168.1</ele></trkpt>
      <trkpt lat="46.935819011635786" lon="6.7292529256225455">
      <ele>1169.8</ele></trkpt>
      <trkpt lat="46.93584523309173" lon="6.7293211069876655">
      <ele>1171.4</ele></trkpt>
      <trkpt lat="46.935851298145586" lon="6.729401360836089">
      <ele>1173.0</ele></trkpt>
      <trkpt lat="46.93585756271799" lon="6.729436828914316">
      <ele>1174.6</ele></trkpt>
      <trkpt lat="46.93587295776799" lon="6.729457756626698">
      <ele>1176.2</ele></trkpt>
      <trkpt lat="46.935883442107745" lon="6.729483188055436">
      <ele>1177.9</ele></trkpt>
      <trkpt lat="46.93589609510341" lon="6.729536353834253">
      <ele>1179.5</ele></trkpt>
      <trkpt lat="46.93590923308237" lon="6.729647547536609">
      <ele>1181.1</ele></trkpt>
      <trkpt lat="46.93591597055781" lon="6.729772549583048">
      <ele>1182.7</ele></trkpt>
      <trkpt lat="46.93594655644114" lon="6.729909385162873">
      <ele>1184.3</ele></trkpt>
      <trkpt lat="46.93597580287481" lon="6.730020209109322">
      <ele>1186.0</ele></trkpt>
      <trkpt lat="46.93598612326256" lon="6.730148618086027">
      <ele>1187.6</ele></trkpt>
      <trkpt lat="46.935991699709426" lon="6.730282342793675">
      <ele>1189.2</ele></trkpt>
      <trkpt lat="46.93599936480974" lon="6.730374159115893">
      <ele>1190.8</ele></trkpt>
      <trkpt lat="46.93600099839404" lon="6.730430333372251">
      <ele>1192.4</ele></trkpt>
      <trkpt lat="46.93600466660036" lon="6.730480951866474">
      <ele>1194.1</ele></trkpt>
      <trkpt lat="46.93597411029711" lon="6.7304273781276525">
      <ele>1195.7</ele></trkpt>
      <trkpt lat="46.93597793894896" lon="6.730469024699634">
      <ele>1197.3</ele></trkpt>
      <trkpt lat="46.93599091953338" lon="6.730533060541075">
      <ele>1199.2</ele></trkpt>
      <trkpt lat="46.93600991057563" lon="6.730604608074712">
      <ele>1201.1</ele></trkpt>
      <trkpt lat="46.936077546894225" lon="6.73082130376628">
      <ele>1203.0</ele></trkpt>
      <trkpt lat="46.936103098882874" lon="6.730918151118775">
      <ele>1204.9</ele></trkpt>
      <trkpt lat="46.93613590801417" lon="6.731030662575021">
      <ele>1206.8</ele></trkpt>
      <trkpt lat="46.93618960153456" lon="6.731181983005927">
      <ele>1208.7</ele></trkpt>
      <trkpt lat="46.93620014704393" lon="6.731250897377963">
      <ele>1210.6</ele></trkpt>
      <trkpt lat="46.93619462742061" lon="6.731306863933899">
      <ele>1212.5</ele></trkpt>
      <trkpt lat="46.93617594397291" lon="6.7313506455634">
      <ele>1214.4</ele></trkpt>
      <trkpt lat="46.93612922109486" lon="6.731455614787155">
      <ele>1216.3</ele></trkpt>
      <trkpt lat="46.936047844490496" lon="6.7315572442437315">
      <ele>1218.2</ele></trkpt>
      <trkpt lat="46.93603583546159" lon="6.731564546525133">
      <ele>1220.1</ele></trkpt>
      <trkpt lat="46.93602293448027" lon="6.731590574957135">
      <ele>1222.0</ele></trkpt>
      <trkpt lat="46.93600644559847" lon="6.731613905787016">
      <ele>1223.9</ele></trkpt>
      <trkpt lat="46.93597630704809" lon="6.731643982588135">
      <ele>1225.8</ele></trkpt>
      <trkpt lat="46.935959680660176" lon="6.731639197625795">
      <ele>1227.7</ele></trkpt>
      <trkpt lat="46.93593410277933" lon="6.731603654940902">
      <ele>1229.6</ele></trkpt>
      <trkpt lat="46.93589866676268" lon="6.731552246093154">
      <ele>1231.5</ele></trkpt>
      <trkpt lat="46.93589357460476" lon="6.731509867556991">
      <ele>1233.4</ele></trkpt>
      <trkpt lat="46.935880565088965" lon="6.731465833379152">
      <ele>1235.3</ele></trkpt>
      <trkpt lat="46.93582311534353" lon="6.731412731234863">
      <ele>1236.5</ele></trkpt>
      <trkpt lat="46.93579341392174" lon="6.731421802834674">
      <ele>1237.7</ele></trkpt>
      <trkpt lat="46.93577111012367" lon="6.731470753542769">
      <ele>1238.9</ele></trkpt>
      <trkpt lat="46.93575232531771" lon="6.731512697502277">
      <ele>1240.0</ele></trkpt>
      <trkpt lat="46.93573121941783" lon="6.731563352781858">
      <ele>1241.2</ele></trkpt>
      <trkpt lat="46.93571676991894" lon="6.731644572547687">
      <ele>1242.4</ele></trkpt>
      <trkpt lat="46.93571534038236" lon="6.731647611905404">
      <ele>1243.6</ele></trkpt>
      <trkpt lat="46.93569002717422" lon="6.7317016187723135">
      <ele>1244.8</ele></trkpt>
      <trkpt lat="46.9356755083803" lon="6.73172933614995">
      <ele>1246.0</ele></trkpt>
      <trkpt lat="46.935644989197186" lon="6.731747296099847">
      <ele>1247.2</ele></trkpt>
      <trkpt lat="46.93562359557707" lon="6.731767368608511">
      <ele>1248.3</ele></trkpt>
      <trkpt lat="46.93561507503945" lon="6.731834169150607">
      <ele>1249.5</ele></trkpt>
      <trkpt lat="46.93559907198952" lon="6.731942108119949">
      <ele>1250.7</ele></trkpt>
      <trkpt lat="46.935587737809875" lon="6.7320325846657365">
      <ele>1251.9</ele></trkpt>
      <trkpt lat="46.935582361705436" lon="6.73212647619281">
      <ele>1253.1</ele></trkpt>
      <trkpt lat="46.9355833037466" lon="6.732216528683347">
      <ele>1254.3</ele></trkpt>
      <trkpt lat="46.93554639267394" lon="6.73221180003042">
      <ele>1255.4</ele></trkpt>
      <trkpt lat="46.935506264215526" lon="6.732073342964071">
      <ele>1256.6</ele></trkpt>
      <trkpt lat="46.93547856067321" lon="6.732019836388813">
      <ele>1257.8</ele></trkpt>
      <trkpt lat="46.93542096126729" lon="6.731942427245562">
      <ele>1259.0</ele></trkpt>
      <trkpt lat="46.935352659539866" lon="6.731866879375222">
      <ele>1261.3</ele></trkpt>
      <trkpt lat="46.935278496167314" lon="6.73180356969584">
      <ele>1263.6</ele></trkpt>
      <trkpt lat="46.93525240446957" lon="6.731780969888144">
      <ele>1265.9</ele></trkpt>
      <trkpt lat="46.93519576569174" lon="6.731732440685967">
      <ele>1268.2</ele></trkpt>
      <trkpt lat="46.935168238918656" lon="6.731722191442493">
      <ele>1270.5</ele></trkpt>
      <trkpt lat="46.935064382401954" lon="6.731710135620165">
      <ele>1272.7</ele></trkpt>
      <trkpt lat="46.93502766456327" lon="6.73171340262366">
      <ele>1275.0</ele></trkpt>
      <trkpt lat="46.934984939360255" lon="6.731725691975136">
      <ele>1277.3</ele></trkpt>
      <trkpt lat="46.93490484314434" lon="6.731703907606086">
      <ele>1279.6</ele></trkpt>
      <trkpt lat="46.9348612354287" lon="6.731683967903667">
      <ele>1281.9</ele></trkpt>
      <trkpt lat="46.93477406115762" lon="6.731634724495013">
      <ele>1284.2</ele></trkpt>
      <trkpt lat="46.934692748516966" lon="6.731573256489581">
      <ele>1286.5</ele></trkpt>
      <trkpt lat="46.934642622905045" lon="6.731549581122865">
      <ele>1288.8</ele></trkpt>
      <trkpt lat="46.93453900460272" lon="6.7315353163476255">
      <ele>1291.1</ele></trkpt>
      <trkpt lat="46.934464735596286" lon="6.731456381740986">
      <ele>1293.3</ele></trkpt>
      <trkpt lat="46.93439311992311" lon="6.731422575210149">
      <ele>1295.6</ele></trkpt>
      <trkpt lat="46.93435286300664" lon="6.731454373364529">
      <ele>1297.9</ele></trkpt>
      <trkpt lat="46.934348286997206" lon="6.731483968597984">
      <ele>1300.2</ele></trkpt>
      <trkpt lat="46.93434380912426" lon="6.7315469585261765">
      <ele>1302.5</ele></trkpt>
      <trkpt lat="46.93435317559032" lon="6.731642046085778">
      <ele>1304.8</ele></trkpt>
      <trkpt lat="46.93434130840868" lon="6.731689833799954">
      <ele>1307.0</ele></trkpt>
      <trkpt lat="46.93432088980577" lon="6.731709013144364">
      <ele>1309.3</ele></trkpt>
      <trkpt lat="46.93430842597363" lon="6.731732999423431">
      <ele>1311.5</ele></trkpt>
      <trkpt lat="46.93431000083157" lon="6.731766637332658">
      <ele>1313.8</ele></trkpt>
      <trkpt lat="46.934329340923526" lon="6.731807395854066">
      <ele>1316.0</ele></trkpt>
      <trkpt lat="46.93432833040352" lon="6.731881279525764">
      <ele>1318.3</ele></trkpt>
      <trkpt lat="46.934311380840114" lon="6.732134775928568">
      <ele>1320.5</ele></trkpt>
      <trkpt lat="46.93429720215208" lon="6.7322716585178854">
      <ele>1322.8</ele></trkpt>
      <trkpt lat="46.93429818725269" lon="6.732431468154768">
      <ele>1325.0</ele></trkpt>
      <trkpt lat="46.934306035767776" lon="6.732546024958858">
      <ele>1327.2</ele></trkpt>
      <trkpt lat="46.93430070035829" lon="6.732645127259918">
      <ele>1329.5</ele></trkpt>
      <trkpt lat="46.934278258556944" lon="6.732673223497507">
      <ele>1331.7</ele></trkpt>
      <trkpt lat="46.93422448567921" lon="6.73263571415337">
      <ele>1334.0</ele></trkpt>
      <trkpt lat="46.934164663502365" lon="6.732584377049487">
      <ele>1336.2</ele></trkpt>
      <trkpt lat="46.93408431209971" lon="6.732484667116781">
      <ele>1338.5</ele></trkpt>
      <trkpt lat="46.933985793532116" lon="6.732333073556048">
      <ele>1340.7</ele></trkpt>
      <trkpt lat="46.933917288599176" lon="6.7322245281298985">
      <ele>1343.0</ele></trkpt>
      <trkpt lat="46.93385716463532" lon="6.732122819865164">
      <ele>1345.2</ele></trkpt>
      <trkpt lat="46.93379115019969" lon="6.732031603234605">
      <ele>1347.5</ele></trkpt>
      <trkpt lat="46.93372751932961" lon="6.731940355491901">
      <ele>1349.7</ele></trkpt>
      <trkpt lat="46.93365450222869" lon="6.731871832145974">
      <ele>1351.3</ele></trkpt>
      <trkpt lat="46.93362639642749" lon="6.731845004591236">
      <ele>1353.0</ele></trkpt>
      <trkpt lat="46.93357168980563" lon="6.731780127900877">
      <ele>1354.6</ele></trkpt>
      <trkpt lat="46.93353645480491" lon="6.731739421394746">
      <ele>1356.2</ele></trkpt>
      <trkpt lat="46.93352534356414" lon="6.731733316525303">
      <ele>1357.9</ele></trkpt>
      <trkpt lat="46.93351967678915" lon="6.731740679479329">
      <ele>1359.5</ele></trkpt>
      <trkpt lat="46.93352490946828" lon="6.731778142830346">
      <ele>1361.1</ele></trkpt>
      <trkpt lat="46.93353309084481" lon="6.7318444716502075">
      <ele>1362.8</ele></trkpt>
      <trkpt lat="46.93353816236776" lon="6.731918523781528">
      <ele>1364.4</ele></trkpt>
      <trkpt lat="46.933559216831576" lon="6.732052025975504">
      <ele>1366.1</ele></trkpt>
      <trkpt lat="46.93355637421876" lon="6.732170188591705">
      <ele>1367.7</ele></trkpt>
      <trkpt lat="46.93355483675204" lon="6.732307467839082">
      <ele>1369.3</ele></trkpt>
      <trkpt lat="46.933565455875225" lon="6.732413240515188">
      <ele>1371.0</ele></trkpt>
      <trkpt lat="46.933568865261755" lon="6.732544610913006">
      <ele>1372.6</ele></trkpt>
      <trkpt lat="46.93356963828195" lon="6.732605823664476">
      <ele>1374.2</ele></trkpt>
      <trkpt lat="46.93355916316839" lon="6.732673750298428">
      <ele>1375.9</ele></trkpt>
      <trkpt lat="46.933546988972495" lon="6.732763761515153">
      <ele>1377.5</ele></trkpt>
      <trkpt lat="46.93354336861295" lon="6.73283610247306">
      <ele>1379.1</ele></trkpt>
      <trkpt lat="46.933541287222624" lon="6.732962607163852">
      <ele>1380.8</ele></trkpt>
      <trkpt lat="46.93354139251302" lon="6.733057119079466">
      <ele>1382.4</ele></trkpt>
      <trkpt lat="46.933548171410195" lon="6.7331529223050985">
      <ele>1384.0</ele></trkpt>
      <trkpt lat="46.933565535853376" lon="6.733267365874207">
      <ele>1385.5</ele></trkpt>
      <trkpt lat="46.9335919360845" lon="6.733379589797798">
      <ele>1387.1</ele></trkpt>
      <trkpt lat="46.93361525779582" lon="6.7334564231698355">
      <ele>1388.6</ele></trkpt>
      <trkpt lat="46.93364996438842" lon="6.733526843147503">
      <ele>1390.2</ele></trkpt>
      <trkpt lat="46.933674421168035" lon="6.733555715567152">
      <ele>1391.8</ele></trkpt>
      <trkpt lat="46.93370782792548" lon="6.733569867444536">
      <ele>1393.3</ele></trkpt>
      <trkpt lat="46.93372595934575" lon="6.733576576652192">
      <ele>1394.9</ele></trkpt>
      <trkpt lat="46.93374612127927" lon="6.733604809448134">
      <ele>1396.4</ele></trkpt>
      <trkpt lat="46.93375598667684" lon="6.733651142385339">
      <ele>1398.0</ele></trkpt>
      <trkpt lat="46.93375307482257" lon="6.733674976426331">
      <ele>1399.6</ele></trkpt>
      <trkpt lat="46.93373676239136" lon="6.733672957846768">
      <ele>1401.1</ele></trkpt>
      <trkpt lat="46.933709201017635" lon="6.7336629053293615">
      <ele>1402.7</ele></trkpt>
      <trkpt lat="46.933620084359326" lon="6.733663338619291">
      <ele>1404.2</ele></trkpt>
      <trkpt lat="46.93352025920407" lon="6.73366316379986">
      <ele>1405.8</ele></trkpt>
      <trkpt lat="46.933460036227714" lon="6.733641641804199">
      <ele>1407.4</ele></trkpt>
      <trkpt lat="46.933358874438824" lon="6.733589441356412">
      <ele>1408.9</ele></trkpt>
      <trkpt lat="46.93328611178587" lon="6.733516789387765">
      <ele>1410.5</ele></trkpt>
      <trkpt lat="46.933237687515174" lon="6.7334274686944395">
      <ele>1412.0</ele></trkpt>
      <trkpt lat="46.93316977788203" lon="6.73331609215881">
      <ele>1413.6</ele></trkpt>
      <trkpt lat="46.933125693746476" lon="6.733188040506485">
      <ele>1414.0</ele></trkpt>
      <trkpt lat="46.9331011404344" lon="6.7330879932311">
      <ele>1414.5</ele></trkpt>
      <trkpt lat="46.93309622330937" lon="6.733033046940452">
      <ele>1414.9</ele></trkpt>
      <trkpt lat="46.93308318422549" lon="6.732982659093763">
      <ele>1415.4</ele></trkpt>
      <trkpt lat="46.93304505839848" lon="6.732894622287947">
      <ele>1415.8</ele></trkpt>
      <trkpt lat="46.93302881316431" lon="6.732817355619476">
      <ele>1416.2</ele></trkpt>
      <trkpt lat="46.932996718109045" lon="6.732732864308517">
      <ele>1416.7</ele></trkpt>
      <trkpt lat="46.932960693285004" lon="6.732657354587865">
      <ele>1417.1</ele></trkpt>
      <trkpt lat="46.9329196989858" lon="6.732559322909898">
      <ele>1417.6</ele></trkpt>
      <trkpt lat="46.93287886128468" lon="6.73242395459884">
      <ele>1418.0</ele></trkpt>
      <trkpt lat="46.93285271705069" lon="6.732351953037395">
      <ele>1418.4</ele></trkpt>
      <trkpt lat="46.93283270803146" lon="6.732300422739322">
      <ele>1418.9</ele></trkpt>
      <trkpt lat="46.93280473174384" lon="6.732259568544908">
      <ele>1419.3</ele></trkpt>
      <trkpt lat="46.932761542582554" lon="6.732209748078124">
      <ele>1419.8</ele></trkpt>
      <trkpt lat="46.932727183811096" lon="6.732150645421294">
      <ele>1420.2</ele></trkpt>
      <trkpt lat="46.932663461551186" lon="6.73199497443596">
      <ele>1420.6</ele></trkpt>
      <trkpt lat="46.93262255543346" lon="6.731890915006386">
      <ele>1421.1</ele></trkpt>
      <trkpt lat="46.93257380140205" lon="6.731787720586549">
      <ele>1421.5</ele></trkpt>
      <trkpt lat="46.93253832366143" lon="6.7317164202870945">
      <ele>1422.0</ele></trkpt>
      <trkpt lat="46.93250880555411" lon="6.731679395194002">
      <ele>1422.4</ele></trkpt>
      <trkpt lat="46.932457307470635" lon="6.7316388509169505">
      <ele>1422.9</ele></trkpt>
      <trkpt lat="46.932389610429254" lon="6.7316015664057085">
      <ele>1423.4</ele></trkpt>
      <trkpt lat="46.93231441724412" lon="6.731536133607574">
      <ele>1423.9</ele></trkpt>
      <trkpt lat="46.93225601995411" lon="6.731479633055255">
      <ele>1424.4</ele></trkpt>
      <trkpt lat="46.93222531701229" lon="6.731419721665155">
      <ele>1425.0</ele></trkpt>
      <trkpt lat="46.932190882526065" lon="6.731348421473767">
      <ele>1425.5</ele></trkpt>
      <trkpt lat="46.9321744106715" lon="6.731281244834863">
      <ele>1426.0</ele></trkpt>
      <trkpt lat="46.93214385952536" lon="6.731183288303906">
      <ele>1426.5</ele></trkpt>
      <trkpt lat="46.93211597961823" lon="6.731032834490654">
      <ele>1427.0</ele></trkpt>
      <trkpt lat="46.932075645760705" lon="6.730806037973152">
      <ele>1427.5</ele></trkpt>
      <trkpt lat="46.93204107527562" lon="6.730644366039826">
      <ele>1428.0</ele></trkpt>
      <trkpt lat="46.93201984514668" lon="6.730542387141799">
      <ele>1428.5</ele></trkpt>
      <trkpt lat="46.931988918659" lon="6.730411461938794">
      <ele>1429.0</ele></trkpt>
      <trkpt lat="46.93195938385223" lon="6.7302641298898">
      <ele>1429.5</ele></trkpt>
      <trkpt lat="46.93191067027473" lon="6.730163353940078">
      <ele>1430.0</ele></trkpt>
      <trkpt lat="46.93183631074153" lon="6.73004085460387">
      <ele>1430.6</ele></trkpt>
      <trkpt lat="46.93178253343058" lon="6.729980959765943">
      <ele>1431.1</ele></trkpt>
      <trkpt lat="46.931700014934734" lon="6.72988467470904">
      <ele>1431.6</ele></trkpt>
      <trkpt lat="46.931644334848905" lon="6.72979349891206">
      <ele>1432.1</ele></trkpt>
      <trkpt lat="46.93160109306169" lon="6.7297163548105665">
      <ele>1432.6</ele></trkpt>
      <trkpt lat="46.93158689182543" lon="6.729622413002915">
      <ele>1432.6</ele></trkpt>
      <trkpt lat="46.93158953097205" lon="6.729589535445732">
      <ele>1432.7</ele></trkpt>
      <trkpt lat="46.93158782757672" lon="6.72951343259709">
      <ele>1432.8</ele></trkpt>
      <trkpt lat="46.931576022058024" lon="6.729431514298614">
      <ele>1432.8</ele></trkpt>
      <trkpt lat="46.93158163910883" lon="6.729264928401637">
      <ele>1432.8</ele></trkpt>
      <trkpt lat="46.93157221275858" lon="6.729103938192232">
      <ele>1432.9</ele></trkpt>
      <trkpt lat="46.931587322368976" lon="6.729029281199384">
      <ele>1432.9</ele></trkpt>
      <trkpt lat="46.931598487013034" lon="6.7289248931986405">
      <ele>1433.0</ele></trkpt>
      <trkpt lat="46.93155144488042" lon="6.728919867555327">
      <ele>1433.0</ele></trkpt>
      <trkpt lat="46.931566102123384" lon="6.728677943090905">
      <ele>1433.1</ele></trkpt>
      <trkpt lat="46.93156668526623" lon="6.728618172372148">
      <ele>1433.1</ele></trkpt>
      <trkpt lat="46.931551912564174" lon="6.728450949662156">
      <ele>1433.2</ele></trkpt>
      <trkpt lat="46.93149479847227" lon="6.728224523585616">
      <ele>1433.2</ele></trkpt>
      <trkpt lat="46.93140756036304" lon="6.727973782148605">
      <ele>1433.3</ele></trkpt>
      <trkpt lat="46.931328570399074" lon="6.727717101937425">
      <ele>1433.3</ele></trkpt>
      <trkpt lat="46.931213317856646" lon="6.7273561632719865">
      <ele>1433.4</ele></trkpt>
      <trkpt lat="46.93111635626577" lon="6.727072540045885">
      <ele>1433.4</ele></trkpt>
      <trkpt lat="46.93105502053558" lon="6.726969112305515">
      <ele>1433.5</ele></trkpt>
      <trkpt lat="46.93096240791873" lon="6.726812258946854">
      <ele>1433.5</ele></trkpt>
      <trkpt lat="46.93083347724438" lon="6.7265551147089715">
      <ele>1433.6</ele></trkpt>
      <trkpt lat="46.93073232781809" lon="6.726363629478085">
      <ele>1434.5</ele></trkpt>
      <trkpt lat="46.93070326151693" lon="6.726282362078176">
      <ele>1435.4</ele></trkpt>
      <trkpt lat="46.93067394677169" lon="6.726161151643345">
      <ele>1436.3</ele></trkpt>
      <trkpt lat="46.93065654869736" lon="6.726056815104162">
      <ele>1437.3</ele></trkpt>
      <trkpt lat="46.93065523668392" lon="6.725910966410516">
      <ele>1438.2</ele></trkpt>
      <trkpt lat="46.93064854176883" lon="6.7257992787951695">
      <ele>1439.1</ele></trkpt>
      <trkpt lat="46.93068166548426" lon="6.7255827454526775">
      <ele>1440.0</ele></trkpt>
      <trkpt lat="46.9307114693927" lon="6.725324817580423">
      <ele>1440.9</ele></trkpt>
      <trkpt lat="46.93075703681013" lon="6.725140141464717">
      <ele>1441.8</ele></trkpt>
      <trkpt lat="46.93081455328801" lon="6.724861183774536">
      <ele>1442.8</ele></trkpt>
      <trkpt lat="46.93088433920988" lon="6.724563481177373">
      <ele>1443.7</ele></trkpt>
      <trkpt lat="46.93091218290155" lon="6.724371913931048">
      <ele>1444.6</ele></trkpt>
      <trkpt lat="46.93093584375482" lon="6.724252547608618">
      <ele>1445.5</ele></trkpt>
      <trkpt lat="46.93095106340891" lon="6.724122669817782">
      <ele>1446.4</ele></trkpt>
      <trkpt lat="46.931001907172096" lon="6.723845873531542">
      <ele>1447.3</ele></trkpt>
      <trkpt lat="46.93102925799181" lon="6.723726877914763">
      <ele>1448.2</ele></trkpt>
      <trkpt lat="46.93103700543928" lon="6.723656598966489">
      <ele>1449.2</ele></trkpt>
      <trkpt lat="46.93103799693972" lon="6.723596376835954">
      <ele>1450.1</ele></trkpt>
      <trkpt lat="46.931040244613335" lon="6.723486644531477">
      <ele>1451.0</ele></trkpt>
      <trkpt lat="46.931061581985894" lon="6.723244539912653">
      <ele>1451.9</ele></trkpt>
      <trkpt lat="46.931117137176635" lon="6.7229936409301">
      <ele>1453.1</ele></trkpt>
      <trkpt lat="46.93119395342771" lon="6.722792490300188">
      <ele>1454.3</ele></trkpt>
      <trkpt lat="46.93130094795449" lon="6.722546459760045">
      <ele>1455.6</ele></trkpt>
      <trkpt lat="46.93136086253364" lon="6.72238445565829">
      <ele>1456.8</ele></trkpt>
      <trkpt lat="46.93140954729417" lon="6.722303965570617">
      <ele>1458.0</ele></trkpt>
    </trkseg>
    <trkseg>
      <trkpt lat="46.928679004759786" lon="6.724739920866458">
      <ele>1464.0</ele></trkpt>
      <trkpt lat="46.92867523571423" lon="6.724708180419479">
      <ele>1463.6</ele></trkpt>
      <trkpt lat="46.928669592528806" lon="6.724654299499185">
      <ele>1463.3</ele></trkpt>
      <trkpt lat="46.928646908759205" lon="6.724484500019023">
      <ele>1462.9</ele></trkpt>
      <trkpt lat="46.92864402705484" lon="6.72440463533946">
      <ele>1462.6</ele></trkpt>
      <trkpt lat="46.92865885920672" lon="6.724301936615874">
      <ele>1462.2</ele></trkpt>
      <trkpt lat="46.92868599890413" lon="6.724074013240315">
      <ele>1461.9</ele></trkpt>
      <trkpt lat="46.92870281535187" lon="6.723908757423647">
      <ele>1461.5</ele></trkpt>
      <trkpt lat="46.92872346272921" lon="6.7237851551094945">
      <ele>1461.2</ele></trkpt>
      <trkpt lat="46.9287373780487" lon="6.723725906124058">
      <ele>1460.8</ele></trkpt>
      <trkpt lat="46.928756105782256" lon="6.723675272806258">
      <ele>1460.5</ele></trkpt>
      <trkpt lat="46.92880434103643" lon="6.723586035284002">
      <ele>1460.1</ele></trkpt>
      <trkpt lat="46.92886787577746" lon="6.72347054179824">
      <ele>1459.7</ele></trkpt>
      <trkpt lat="46.92891148276078" lon="6.72340221783075">
      <ele>1459.4</ele></trkpt>
      <trkpt lat="46.92895985880625" lon="6.723335563618132">
      <ele>1459.0</ele></trkpt>
      <trkpt lat="46.9289789135301" lon="6.7232998689288035">
      <ele>1458.7</ele></trkpt>
      <trkpt lat="46.9289923475917" lon="6.7232788377943145">
      <ele>1458.3</ele></trkpt>
      <trkpt lat="46.9290036604672" lon="6.723260973238194">
      <ele>1458.0</ele></trkpt>
      <trkpt lat="46.929026214549005" lon="6.723213768361291">
      <ele>1457.6</ele></trkpt>
      <trkpt lat="46.92906430690982" lon="6.723138216405953">
      <ele>1457.3</ele></trkpt>
      <trkpt lat="46.92913134703683" lon="6.723012248947577">
      <ele>1456.9</ele></trkpt>
      <trkpt lat="46.9291997805935" lon="6.722878961633188">
      <ele>1457.0</ele></trkpt>
      <trkpt lat="46.92924706833192" lon="6.722790785770984">
      <ele>1457.1</ele></trkpt>
      <trkpt lat="46.929314827663774" lon="6.722664807867524">
      <ele>1457.2</ele></trkpt>
      <trkpt lat="46.92938615781598" lon="6.722538782080509">
      <ele>1457.2</ele></trkpt>
      <trkpt lat="46.92946249302758" lon="6.722414777159596">
      <ele>1457.3</ele></trkpt>
      <trkpt lat="46.92951063027687" lon="6.72234742858749">
      <ele>1457.4</ele></trkpt>
      <trkpt lat="46.92956950388091" lon="6.722285136851872">
      <ele>1457.5</ele></trkpt>
      <trkpt lat="46.929638106805626" lon="6.722223660784264">
      <ele>1457.6</ele></trkpt>
      <trkpt lat="46.929676956202535" lon="6.722185836787904">
      <ele>1457.7</ele></trkpt>
      <trkpt lat="46.92978748203593" lon="6.722070251795072">
      <ele>1457.8</ele></trkpt>
      <trkpt lat="46.92993540079066" lon="6.7219256331800405">
      <ele>1457.8</ele></trkpt>
      <trkpt lat="46.93006685076614" lon="6.721790018334577">
      <ele>1457.9</ele></trkpt>
      <trkpt lat="46.930280738866806" lon="6.721615996649927">
      <ele>1458.0</ele></trkpt>
      <trkpt lat="46.93047356491957" lon="6.721440048457005">
      <ele>1458.1</ele></trkpt>
      <trkpt lat="46.930540876632534" lon="6.721386492723799">
      <ele>1458.2</ele></trkpt>
      <trkpt lat="46.9306620517343" lon="6.721526566330052">
      <ele>1458.3</ele></trkpt>
      <trkpt lat="46.930835355443854" lon="6.721752771972112">
      <ele>1458.3</ele></trkpt>
      <trkpt lat="46.93088756452576" lon="6.7218129279936045">
      <ele>1458.4</ele></trkpt>
      <trkpt lat="46.93097372127687" lon="6.721894377616678">
      <ele>1458.5</ele></trkpt>
      <trkpt lat="46.93108964685333" lon="6.722004977056205">
      <ele>1458.6</ele></trkpt>
      <trkpt lat="46.93114916994264" lon="6.722059494514578">
      <ele>1458.0</ele></trkpt>
      <trkpt lat="46.93120510231522" lon="6.7221224117549845">
      <ele>1457.4</ele></trkpt>
      <trkpt lat="46.93127981632373" lon="6.722200968275309">
      <ele>1456.9</ele></trkpt>
      <trkpt lat="46.93133773591645" lon="6.722247943595493">
      <ele>1456.3</ele></trkpt>
      <trkpt lat="46.93138917922274" lon="6.722286377716025">
      <ele>1455.7</ele></trkpt>
      <trkpt lat="46.93140954729417" lon="6.722303965570617">
      <ele>1455.1</ele></trkpt>
      <trkpt lat="46.931435770802324" lon="6.722183328659587">
      <ele>1454.5</ele></trkpt>
      <trkpt lat="46.93151092207205" lon="6.722021107497112">
      <ele>1454.0</ele></trkpt>
      <trkpt lat="46.93162751849849" lon="6.721788852555788">
      <ele>1453.4</ele></trkpt>
      <trkpt lat="46.9317368700069" lon="6.72161505138489">
      <ele>1452.8</ele></trkpt>
      <trkpt lat="46.93185379621094" lon="6.721435606775293">
      <ele>1452.2</ele></trkpt>
      <trkpt lat="46.931953847880386" lon="6.721298067373529">
      <ele>1451.6</ele></trkpt>
      <trkpt lat="46.9320427981884" lon="6.721210708431277">
      <ele>1451.1</ele></trkpt>
      <trkpt lat="46.932203493270926" lon="6.721027893656793">
      <ele>1450.5</ele></trkpt>
      <trkpt lat="46.93229058869034" lon="6.720948897463247">
      <ele>1449.9</ele></trkpt>
      <trkpt lat="46.93234935176786" lon="6.720906418697958">
      <ele>1449.3</ele></trkpt>
      <trkpt lat="46.9324175443512" lon="6.720849920212917">
      <ele>1448.7</ele></trkpt>
      <trkpt lat="46.932512388576264" lon="6.720793052560243">
      <ele>1448.2</ele></trkpt>
      <trkpt lat="46.932588269430525" lon="6.720747573978792">
      <ele>1447.6</ele></trkpt>
      <trkpt lat="46.932677245120985" lon="6.720665767639602">
      <ele>1447.0</ele></trkpt>
      <trkpt lat="46.9327889284362" lon="6.720561438108352">
      <ele>1446.2</ele></trkpt>
      <trkpt lat="46.93291580825378" lon="6.720461895350124">
      <ele>1445.4</ele></trkpt>
      <trkpt lat="46.93298414803763" lon="6.720413128603251">
      <ele>1444.6</ele></trkpt>
      <trkpt lat="46.933059943703604" lon="6.7203698695679135">
      <ele>1443.9</ele></trkpt>
      <trkpt lat="46.933187177327426" lon="6.7203009586691875">
      <ele>1443.1</ele></trkpt>
      <trkpt lat="46.933279853116886" lon="6.72025409873759">
      <ele>1442.3</ele></trkpt>
      <trkpt lat="46.933388260982525" lon="6.7201998712873">
      <ele>1441.5</ele></trkpt>
      <trkpt lat="46.93355559700133" lon="6.720149623037799">
      <ele>1440.7</ele></trkpt>
      <trkpt lat="46.933645046814625" lon="6.720132012021387">
      <ele>1439.9</ele></trkpt>
      <trkpt lat="46.93370526073351" lon="6.720107201209809">
      <ele>1439.2</ele></trkpt>
      <trkpt lat="46.93375508978557" lon="6.7200516417733915">
      <ele>1438.4</ele></trkpt>
      <trkpt lat="46.933779894379505" lon="6.720030718597322">
      <ele>1437.6</ele></trkpt>
      <trkpt lat="46.933842388060285" lon="6.720022305780907">
      <ele>1436.8</ele></trkpt>
      <trkpt lat="46.93387654794089" lon="6.7200157031536625">
      <ele>1436.0</ele></trkpt>
      <trkpt lat="46.93390758496549" lon="6.720021788794111">
      <ele>1435.2</ele></trkpt>
      <trkpt lat="46.933936067222675" lon="6.720026437761147">
      <ele>1434.4</ele></trkpt>
      <trkpt lat="46.933963014409834" lon="6.720044502344662">
      <ele>1433.7</ele></trkpt>
      <trkpt lat="46.933986215334244" lon="6.720051874682072">
      <ele>1432.9</ele></trkpt>
      <trkpt lat="46.93402568060469" lon="6.7200521219397045">
      <ele>1432.1</ele></trkpt>
      <trkpt lat="46.93405531209501" lon="6.720079369674282">
      <ele>1431.3</ele></trkpt>
      <trkpt lat="46.934088071949375" lon="6.720101979257844">
      <ele>1430.6</ele></trkpt>
      <trkpt lat="46.93416011221586" lon="6.720093924770115">
      <ele>1429.8</ele></trkpt>
      <trkpt lat="46.934232853558555" lon="6.720081474631964">
      <ele>1429.1</ele></trkpt>
      <trkpt lat="46.934274764786416" lon="6.720080152712478">
      <ele>1428.4</ele></trkpt>
      <trkpt lat="46.934337807261464" lon="6.720107610621553">
      <ele>1427.7</ele></trkpt>
      <trkpt lat="46.934366158403826" lon="6.720117172993885">
      <ele>1427.0</ele></trkpt>
      <trkpt lat="46.93442537747805" lon="6.720120203014592">
      <ele>1426.2</ele></trkpt>
      <trkpt lat="46.93449984163779" lon="6.720131447248965">
      <ele>1425.5</ele></trkpt>
      <trkpt lat="46.93459676592584" lon="6.720130913421135">
      <ele>1424.8</ele></trkpt>
      <trkpt lat="46.93466944940693" lon="6.72013792653998">
      <ele>1424.0</ele></trkpt>
      <trkpt lat="46.93470539230955" lon="6.720157447104981">
      <ele>1423.3</ele></trkpt>
      <trkpt lat="46.93475402050292" lon="6.7201829442241605">
      <ele>1422.6</ele></trkpt>
      <trkpt lat="46.93482282616095" lon="6.7202343188288305">
      <ele>1421.9</ele></trkpt>
      <trkpt lat="46.93488929003031" lon="6.720272316405328">
      <ele>1421.1</ele></trkpt>
      <trkpt lat="46.934911745961166" lon="6.720300041434763">
      <ele>1420.4</ele></trkpt>
      <trkpt lat="46.93495036771024" lon="6.720326447322524">
      <ele>1419.7</ele></trkpt>
      <trkpt lat="46.93499790971514" lon="6.720346574819679">
      <ele>1419.0</ele></trkpt>
      <trkpt lat="46.93505665634716" lon="6.72035460187105">
      <ele>1418.2</ele></trkpt>
      <trkpt lat="46.93519343713492" lon="6.720432516176247">
      <ele>1417.5</ele></trkpt>
      <trkpt lat="46.935262970211596" lon="6.720492326164695">
      <ele>1416.8</ele></trkpt>
      <trkpt lat="46.93535209695775" lon="6.720602580227822">
      <ele>1416.1</ele></trkpt>
      <trkpt lat="46.935422250315334" lon="6.720691051223656">
      <ele>1415.3</ele></trkpt>
      <trkpt lat="46.93548236178909" lon="6.720714478407299">
      <ele>1414.6</ele></trkpt>
      <trkpt lat="46.93556602895799" lon="6.720737302128913">
      <ele>1413.9</ele></trkpt>
      <trkpt lat="46.93567917290046" lon="6.720759837326283">
      <ele>1413.2</ele></trkpt>
      <trkpt lat="46.935732575595225" lon="6.7207620396377115">
      <ele>1412.4</ele></trkpt>
      <trkpt lat="46.93583735626433" lon="6.720764895365471">
      <ele>1411.7</ele></trkpt>
      <trkpt lat="46.93601954187885" lon="6.7207501698683485">
      <ele>1411.0</ele></trkpt>
      <trkpt lat="46.93614700888516" lon="6.72072996316531">
      <ele>1410.2</ele></trkpt>
      <trkpt lat="46.93621932310827" lon="6.720692408852841">
      <ele>1409.5</ele></trkpt>
      <trkpt lat="46.936289373645074" lon="6.720665417348611">
      <ele>1408.8</ele></trkpt>
      <trkpt lat="46.93638197562049" lon="6.720631164040737">
      <ele>1408.0</ele></trkpt>
      <trkpt lat="46.936441280607276" lon="6.720599102093905">
      <ele>1407.3</ele></trkpt>
      <trkpt lat="46.936474564853896" lon="6.720593443658577">
      <ele>1406.6</ele></trkpt>
      <trkpt lat="46.93650795797267" lon="6.720605158804048">
      <ele>1405.8</ele></trkpt>
      <trkpt lat="46.93663365721531" lon="6.7205339793852374">
      <ele>1405.1</ele></trkpt>
      <trkpt lat="46.936682151367364" lon="6.7204864332167675">
      <ele>1404.4</ele></trkpt>
      <trkpt lat="46.93669848314497" lon="6.720434089708904">
      <ele>1403.7</ele></trkpt>
      <trkpt lat="46.93676381909294" lon="6.72022472837087">
      <ele>1402.9</ele></trkpt>
      <trkpt lat="46.936795142555916" lon="6.720095736350751">
      <ele>1402.2</ele></trkpt>
      <trkpt lat="46.936836317195514" lon="6.719988439754486">
      <ele>1401.4</ele></trkpt>
      <trkpt lat="46.93685281343745" lon="6.719930801084309">
      <ele>1400.5</ele></trkpt>
      <trkpt lat="46.936878659629755" lon="6.719876596438937">
      <ele>1399.7</ele></trkpt>
      <trkpt lat="46.9369199688231" lon="6.719839533871033">
      <ele>1398.9</ele></trkpt>
      <trkpt lat="46.93701078884439" lon="6.719755002458965">
      <ele>1398.1</ele></trkpt>
      <trkpt lat="46.93712052569953" lon="6.719653131427135">
      <ele>1397.2</ele></trkpt>
      <trkpt lat="46.937210143298245" lon="6.719561930650992">
      <ele>1396.4</ele></trkpt>
      <trkpt lat="46.937291047839395" lon="6.719464161316588">
      <ele>1395.6</ele></trkpt>
      <trkpt lat="46.93737970670809" lon="6.719397952257136">
      <ele>1394.8</ele></trkpt>
      <trkpt lat="46.937492724422356" lon="6.719288563035729">
      <ele>1394.0</ele></trkpt>
      <trkpt lat="46.93754323259022" lon="6.719236640893707">
      <ele>1393.1</ele></trkpt>
      <trkpt lat="46.93760894316127" lon="6.719187562108477">
      <ele>1392.3</ele></trkpt>
      <trkpt lat="46.93769462545255" lon="6.719127262652879">
      <ele>1391.5</ele></trkpt>
      <trkpt lat="46.93777147758202" lon="6.7190861508718775">
      <ele>1390.7</ele></trkpt>
      <trkpt lat="46.93787758448312" lon="6.719063835227761">
      <ele>1389.8</ele></trkpt>
      <trkpt lat="46.93795108938874" lon="6.719075590634591">
      <ele>1389.0</ele></trkpt>
      <trkpt lat="46.93801728335607" lon="6.7190934721880335">
      <ele>1388.2</ele></trkpt>
      <trkpt lat="46.93808242273363" lon="6.719121047255006">
      <ele>1387.4</ele></trkpt>
      <trkpt lat="46.93812844543025" lon="6.719092588259461">
      <ele>1386.5</ele></trkpt>
      <trkpt lat="46.93816417173899" lon="6.719066132005838">
      <ele>1385.7</ele></trkpt>
      <trkpt lat="46.938249118173424" lon="6.718988938782065">
      <ele>1385.0</ele></trkpt>
      <trkpt lat="46.93832980049962" lon="6.718941799347871">
      <ele>1384.3</ele></trkpt>
      <trkpt lat="46.93838936313055" lon="6.718906434404204">
      <ele>1383.6</ele></trkpt>
      <trkpt lat="46.93846300253469" lon="6.718862265279901">
      <ele>1382.9</ele></trkpt>
      <trkpt lat="46.938538787747454" lon="6.71880741597962">
      <ele>1382.2</ele></trkpt>
      <trkpt lat="46.93858859992079" lon="6.71877504445175">
      <ele>1381.6</ele></trkpt>
      <trkpt lat="46.938628147376136" lon="6.718761171090607">
      <ele>1380.9</ele></trkpt>
      <trkpt lat="46.938690404861156" lon="6.718718047100037">
      <ele>1380.2</ele></trkpt>
      <trkpt lat="46.93874725972641" lon="6.718679815410288">
      <ele>1379.5</ele></trkpt>
      <trkpt lat="46.93878242776354" lon="6.718647560993621">
      <ele>1378.8</ele></trkpt>
      <trkpt lat="46.93882401513863" lon="6.718580390152173">
      <ele>1378.1</ele></trkpt>
      <trkpt lat="46.93884829079344" lon="6.718524010583984">
      <ele>1377.4</ele></trkpt>
      <trkpt lat="46.93888328713644" lon="6.718420074860994">
      <ele>1376.7</ele></trkpt>
      <trkpt lat="46.93891779002354" lon="6.718330671436903">
      <ele>1376.0</ele></trkpt>
      <trkpt lat="46.938950626539366" lon="6.7182595328892685">
      <ele>1375.4</ele></trkpt>
      <trkpt lat="46.93901858964648" lon="6.71828121196331">
      <ele>1374.7</ele></trkpt>
      <trkpt lat="46.93906394871195" lon="6.718303194018198">
      <ele>1374.0</ele></trkpt>
      <trkpt lat="46.93912715155368" lon="6.7183231902025575">
      <ele>1373.3</ele></trkpt>
      <trkpt lat="46.939198816686655" lon="6.718365676172265">
      <ele>1372.6</ele></trkpt>
      <trkpt lat="46.93923918995611" lon="6.718390168055493">
      <ele>1371.9</ele></trkpt>
      <trkpt lat="46.939283880348725" lon="6.718425989085231">
      <ele>1370.4</ele></trkpt>
      <trkpt lat="46.93940724691571" lon="6.71850342766267">
      <ele>1369.0</ele></trkpt>
      <trkpt lat="46.93949720707619" lon="6.71855419282889">
      <ele>1367.5</ele></trkpt>
      <trkpt lat="46.93957428272155" lon="6.7185830396872595">
      <ele>1366.1</ele></trkpt>
      <trkpt lat="46.93983245503069" lon="6.718638657296398">
      <ele>1364.6</ele></trkpt>
      <trkpt lat="46.93988991065723" lon="6.718691749749798">
      <ele>1363.2</ele></trkpt>
      <trkpt lat="46.93994014795542" lon="6.718732776998828">
      <ele>1361.7</ele></trkpt>
      <trkpt lat="46.939990374348284" lon="6.718772070793427">
      <ele>1360.3</ele></trkpt>
      <trkpt lat="46.9400418514886" lon="6.71882001630428">
      <ele>1358.8</ele></trkpt>
      <trkpt lat="46.94011018551666" lon="6.718900768047413">
      <ele>1357.3</ele></trkpt>
      <trkpt lat="46.940155839078" lon="6.718969661620933">
      <ele>1355.9</ele></trkpt>
      <trkpt lat="46.94019783430855" lon="6.719024695417606">
      <ele>1354.4</ele></trkpt>
      <trkpt lat="46.940223060155304" lon="6.719060856998757">
      <ele>1353.0</ele></trkpt>
      <trkpt lat="46.940256813362964" lon="6.719129897019597">
      <ele>1351.5</ele></trkpt>
      <trkpt lat="46.94028456832686" lon="6.719192069533651">
      <ele>1350.1</ele></trkpt>
      <trkpt lat="46.94031453054207" lon="6.719224687348404">
      <ele>1348.6</ele></trkpt>
      <trkpt lat="46.94031453054207" lon="6.719224687348404">
      <ele>1347.2</ele></trkpt>
      <trkpt lat="46.94042760552212" lon="6.7195188746574805">
      <ele>1345.7</ele></trkpt>
      <trkpt lat="46.94068423005589" lon="6.720006386697254">
      <ele>1344.3</ele></trkpt>
      <trkpt lat="46.940816527209805" lon="6.720299722410213">
      <ele>1342.8</ele></trkpt>
      <trkpt lat="46.940837762966204" lon="6.720463087544867">
      <ele>1342.5</ele></trkpt>
      <trkpt lat="46.940831960282864" lon="6.720709979846082">
      <ele>1342.2</ele></trkpt>
      <trkpt lat="46.94084727430864" lon="6.721101459697998">
      <ele>1342.0</ele></trkpt>
      <trkpt lat="46.94092067488008" lon="6.721379488253341">
      <ele>1341.7</ele></trkpt>
      <trkpt lat="46.94103746456262" lon="6.721544262047059">
      <ele>1341.4</ele></trkpt>
      <trkpt lat="46.941105385770676" lon="6.721827730816498">
      <ele>1341.1</ele></trkpt>
      <trkpt lat="46.941182777828786" lon="6.722156681402398">
      <ele>1340.8</ele></trkpt>
      <trkpt lat="46.94118762630963" lon="6.722344411821777">
      <ele>1340.6</ele></trkpt>
      <trkpt lat="46.941250016927704" lon="6.722625273253659">
      <ele>1340.3</ele></trkpt>
      <trkpt lat="46.94121972166871" lon="6.722775912954178">
      <ele>1340.0</ele></trkpt>
      <trkpt lat="46.941302338087816" lon="6.72305918855619">
      <ele>1339.7</ele></trkpt>
      <trkpt lat="46.94132749567836" lon="6.723262745899627">
      <ele>1339.4</ele></trkpt>
      <trkpt lat="46.94138579096026" lon="6.723476593685962">
      <ele>1339.2</ele></trkpt>
      <trkpt lat="46.94145423915401" lon="6.723550801315346">
      <ele>1338.9</ele></trkpt>
      <trkpt lat="46.941498668719106" lon="6.723603866239863">
      <ele>1338.6</ele></trkpt>
      <trkpt lat="46.9415045655368" lon="6.723665492234185">
      <ele>1338.3</ele></trkpt>
      <trkpt lat="46.94147735776315" lon="6.723722192966851">
      <ele>1338.0</ele></trkpt>
      <trkpt lat="46.94143912626555" lon="6.723779040258211">
      <ele>1337.8</ele></trkpt>
      <trkpt lat="46.94141840069869" lon="6.723991256907351">
      <ele>1337.5</ele></trkpt>
      <trkpt lat="46.94147181825647" lon="6.724307117062092">
      <ele>1337.2</ele></trkpt>
      <trkpt lat="46.9415508900426" lon="6.7246119058164355">
      <ele>1332.5</ele></trkpt>
      <trkpt lat="46.941640366934095" lon="6.725112402283129">
      <ele>1327.7</ele></trkpt>
      <trkpt lat="46.94174500826886" lon="6.725392708530287">
      <ele>1323.0</ele></trkpt>
      <trkpt lat="46.9418345667639" lon="6.725611511126655">
      <ele>1318.2</ele></trkpt>
      <trkpt lat="46.94184622469473" lon="6.725713303564234">
      <ele>1313.5</ele></trkpt>
      <trkpt lat="46.941840007955456" lon="6.726190927597056">
      <ele>1308.7</ele></trkpt>
      <trkpt lat="46.941829851427244" lon="6.72633056872025">
      <ele>1304.0</ele></trkpt>
      <trkpt lat="46.941787690476346" lon="6.726642334011126">
      <ele>1299.2</ele></trkpt>
      <trkpt lat="46.941850337118524" lon="6.726966125123771">
      <ele>1294.5</ele></trkpt>
      <trkpt lat="46.94196881733097" lon="6.727404539452355">
      <ele>1289.7</ele></trkpt>
      <trkpt lat="46.94199991179269" lon="6.727677776167933">
      <ele>1285.0</ele></trkpt>
      <trkpt lat="46.942041247304736" lon="6.727824784896593">
      <ele>1280.2</ele></trkpt>
      <trkpt lat="46.94213874908957" lon="6.728140069625963">
      <ele>1275.5</ele></trkpt>
      <trkpt lat="46.94220388554568" lon="6.728273350343459">
      <ele>1270.7</ele></trkpt>
      <trkpt lat="46.94227427560957" lon="6.728661431634943">
      <ele>1266.0</ele></trkpt>
      <trkpt lat="46.94233936160638" lon="6.728786665453181">
      <ele>1261.2</ele></trkpt>
      <trkpt lat="46.94245396098856" lon="6.729192944744575">
      <ele>1256.5</ele></trkpt>
      <trkpt lat="46.94244600336876" lon="6.72939158046107">
      <ele>1251.7</ele></trkpt>
      <trkpt lat="46.94247024182676" lon="6.729745396567573">
      <ele>1247.0</ele></trkpt>
      <trkpt lat="46.94246845865455" lon="6.73005126475228">
      <ele>1242.2</ele></trkpt>
      <trkpt lat="46.942498886626055" lon="6.730514996538022">
      <ele>1230.7</ele></trkpt>
      <trkpt lat="46.94256661991986" lon="6.730771658002271">
      <ele>1219.3</ele></trkpt>
      <trkpt lat="46.94264818945715" lon="6.730888629402705">
      <ele>1207.8</ele></trkpt>
      <trkpt lat="46.94266894628836" lon="6.7309768903769065">
      <ele>1196.4</ele></trkpt>
      <trkpt lat="46.94265343770133" lon="6.731143431692102">
      <ele>1184.9</ele></trkpt>
      <trkpt lat="46.942592476935125" lon="6.731388373825122">
      <ele>1173.4</ele></trkpt>
      <trkpt lat="46.94257360766633" lon="6.731605933189098">
      <ele>1162.0</ele></trkpt>
      <trkpt lat="46.94259550568657" lon="6.731879296205064">
      <ele>1150.5</ele></trkpt>
      <trkpt lat="46.942683644508556" lon="6.732167885876882">
      <ele>1139.1</ele></trkpt>
      <trkpt lat="46.94280881625909" lon="6.732651838991679">
      <ele>1127.6</ele></trkpt>
      <trkpt lat="46.94293398596298" lon="6.733135794360359">
      <ele>1116.1</ele></trkpt>
      <trkpt lat="46.94295781666922" lon="6.733425231652126">
      <ele>1104.7</ele></trkpt>
      <trkpt lat="46.942955743140935" lon="6.733685497357311">
      <ele>1093.2</ele></trkpt>
      <trkpt lat="46.94302150006947" lon="6.733920727822583">
      <ele>1081.8</ele></trkpt>
      <trkpt lat="46.94310357767807" lon="6.734120867517634">
      <ele>1070.3</ele></trkpt>
      <trkpt lat="46.94310843953163" lon="6.7343139710427575">
      <ele>1058.8</ele></trkpt>
      <trkpt lat="46.943160361612954" lon="6.734391094183878">
      <ele>1047.4</ele></trkpt>
      <trkpt lat="46.94327442161175" lon="6.734413745631786">
      <ele>1035.9</ele></trkpt>
      <trkpt lat="46.94345393141314" lon="6.7343228580159895">
      <ele>1024.5</ele></trkpt>
      <trkpt lat="46.94361741673085" lon="6.734315349832119">
      <ele>1013.0</ele></trkpt>
      <trkpt lat="46.94376201804592" lon="6.734224918826455">
      <ele>1008.0</ele></trkpt>
      <trkpt lat="46.94382391507569" lon="6.7342059979163205">
      <ele>1002.9</ele></trkpt>
      <trkpt lat="46.9437498559957" lon="6.73441355268961">
      <ele>997.9</ele></trkpt>
      <trkpt lat="46.94360801478528" lon="6.734654189593286">
      <ele>992.8</ele></trkpt>
      <trkpt lat="46.94354974901153" lon="6.734740805583979">
      <ele>987.8</ele></trkpt>
      <trkpt lat="46.94333959813127" lon="6.734928677236949">
      <ele>982.7</ele></trkpt>
      <trkpt lat="46.94311281255989" lon="6.735100667885643">
      <ele>977.6</ele></trkpt>
      <trkpt lat="46.94308547328" lon="6.735211694431182">
      <ele>972.6</ele></trkpt>
      <trkpt lat="46.94332576581232" lon="6.735294401984431">
      <ele>967.5</ele></trkpt>
      <trkpt lat="46.94345327929537" lon="6.7354134636006755">
      <ele>962.5</ele></trkpt>
    </trkseg>
  </trk>
</gpx>