<?xml version='1.0' encoding='utf-8'?>
<gpx xmlns="http://www.topografix.com/GPX/1/1" xmlns:xsi="http://www.w3.org/2001/XMLSchema-instance" xsi:schemaLocation="http://www.topografix.com/GPX/1/1 http://www.topografix.com/GPX/1/1/gpx.xsd" version="1.1" creator="gpx.py -- https://github.com/tkrajina/gpxpy">
  <trk>
    <name>cabane-des-diablerets-cas</name>
    <trkseg>
      <trkpt lat="46.339978977491214" lon="7.214785052264484">
      <ele>2524.1</ele></trkpt>
      <trkpt lat="46.3399148589052" lon="7.214813605058966">
      <ele>2522.1</ele></trkpt>
      <trkpt lat="46.33984895275279" lon="7.21482524126394">
      <ele>2520.1</ele></trkpt>
      <trkpt lat="46.33973104471016" lon="7.214801438454973">
      <ele>2518.1</ele></trkpt>
      <trkpt lat="46.33965911113171" lon="7.2148402321186">
      <ele>2516.0</ele></trkpt>
      <trkpt lat="46.339606857425736" lon="7.214895933422339">
      <ele>2514.0</ele></trkpt>
      <trkpt lat="46.33959294894807" lon="7.214950009154928">
      <ele>2512.0</ele></trkpt>
      <trkpt lat="46.33955562269582" lon="7.214993920417849">
      <ele>2510.0</ele></trkpt>
      <trkpt lat="46.339393926551246" lon="7.215044421694289">
      <ele>2508.0</ele></trkpt>
      <trkpt lat="46.339278875251004" lon="7.21504598591922">
      <ele>2506.0</ele></trkpt>
      <trkpt lat="46.33920584130341" lon="7.215010399792728">
      <ele>2503.9</ele></trkpt>
      <trkpt lat="46.33915237689339" lon="7.214949497114883">
      <ele>2501.9</ele></trkpt>
      <trkpt lat="46.33911945345129" lon="7.214863247919341">
      <ele>2499.9</ele></trkpt>
      <trkpt lat="46.33909979687448" lon="7.214858146533988">
      <ele>2497.9</ele></trkpt>
      <trkpt lat="46.339063441886324" lon="7.214915574190126">
      <ele>2495.9</ele></trkpt>
      <trkpt lat="46.33901227515615" lon="7.215038912868077">
      <ele>2493.9</ele></trkpt>
      <trkpt lat="46.33896217511574" lon="7.215219706658185">
      <ele>2491.9</ele></trkpt>
      <trkpt lat="46.33891657237615" lon="7.215322760413334">
      <ele>2489.8</ele></trkpt>
      <trkpt lat="46.338855907516525" lon="7.215378469058532">
      <ele>2487.8</ele></trkpt>
      <trkpt lat="46.33878854457973" lon="7.2153766935820665">
      <ele>2485.8</ele></trkpt>
      <trkpt lat="46.33873422174535" lon="7.215341134380902">
      <ele>2483.8</ele></trkpt>
      <trkpt lat="46.33867384825717" lon="7.215325575830262">
      <ele>2484.1</ele></trkpt>
      <trkpt lat="46.33862748423671" lon="7.215357314391964">
      <ele>2484.4</ele></trkpt>
      <trkpt lat="46.33856686757147" lon="7.215419230811496">
      <ele>2484.8</ele></trkpt>
      <trkpt lat="46.33852226580288" lon="7.215509914889162">
      <ele>2485.1</ele></trkpt>
    </trkseg>
  </trk>
</gpx>