<?xml version='1.0' encoding='utf-8'?>
<gpx xmlns="http://www.topografix.com/GPX/1/1" xmlns:xsi="http://www.w3.org/2001/XMLSchema-instance" xsi:schemaLocation="http://www.topografix.com/GPX/1/1 http://www.topografix.com/GPX/1/1/gpx.xsd" version="1.1" creator="gpx.py -- https://github.com/tkrajina/gpxpy">
  <trk>
    <name>tschuggen-be</name>
    <trkseg>
      <trkpt lat="46.61132489862867" lon="7.942866390717248">
      <ele>2220.1</ele></trkpt>
      <trkpt lat="46.611261374695346" lon="7.943021908711894">
      <ele>2219.3</ele></trkpt>
      <trkpt lat="46.61120475189179" lon="7.943122234091735">
      <ele>2218.4</ele></trkpt>
      <trkpt lat="46.6111187527142" lon="7.943193266675179">
      <ele>2217.6</ele></trkpt>
      <trkpt lat="46.61107745914961" lon="7.943228478983325">
      <ele>2216.8</ele></trkpt>
      <trkpt lat="46.61101459319884" lon="7.9432820915122715">
      <ele>2216.0</ele></trkpt>
      <trkpt lat="46.61092676643692" lon="7.943335157686154">
      <ele>2215.2</ele></trkpt>
      <trkpt lat="46.61085410351524" lon="7.9433706252486225">
      <ele>2214.3</ele></trkpt>
      <trkpt lat="46.610837952415125" lon="7.943379585985785">
      <ele>2213.5</ele></trkpt>
      <trkpt lat="46.61069561109083" lon="7.943446919722771">
      <ele>2212.7</ele></trkpt>
      <trkpt lat="46.61054952000492" lon="7.9435200008527005">
      <ele>2211.8</ele></trkpt>
      <trkpt lat="46.61036300928836" lon="7.9436178062138305">
      <ele>2211.0</ele></trkpt>
      <trkpt lat="46.61018329622329" lon="7.943722383900314">
      <ele>2210.2</ele></trkpt>
      <trkpt lat="46.610037154801354" lon="7.943810827089127">
      <ele>2209.4</ele></trkpt>
      <trkpt lat="46.6098940906364" lon="7.943903149320811">
      <ele>2208.5</ele></trkpt>
      <trkpt lat="46.60979084294727" lon="7.94396880945621">
      <ele>2207.7</ele></trkpt>
      <trkpt lat="46.609645803365424" lon="7.944094737950294">
      <ele>2206.9</ele></trkpt>
      <trkpt lat="46.60951566730642" lon="7.944213077499743">
      <ele>2206.1</ele></trkpt>
      <trkpt lat="46.60934384099997" lon="7.944366714458596">
      <ele>2205.2</ele></trkpt>
      <trkpt lat="46.609262419897114" lon="7.944445839333606">
      <ele>2204.4</ele></trkpt>
      <trkpt lat="46.60920778834239" lon="7.944492503001042">
      <ele>2203.6</ele></trkpt>
      <trkpt lat="46.60912861250635" lon="7.9445400334565655">
      <ele>2203.7</ele></trkpt>
      <trkpt lat="46.60901719465588" lon="7.944602012317672">
      <ele>2203.8</ele></trkpt>
      <trkpt lat="46.60889398895165" lon="7.944711316032569">
      <ele>2204.0</ele></trkpt>
      <trkpt lat="46.60879185061352" lon="7.944824797652586">
      <ele>2204.1</ele></trkpt>
      <trkpt lat="46.60871254943468" lon="7.944910611050947">
      <ele>2204.2</ele></trkpt>
      <trkpt lat="46.6086182469177" lon="7.945009767654592">
      <ele>2204.3</ele></trkpt>
      <trkpt lat="46.60856904509386" lon="7.945043049357925">
      <ele>2204.5</ele></trkpt>
      <trkpt lat="46.60856314482154" lon="7.945044860710102">
      <ele>2204.6</ele></trkpt>
      <trkpt lat="46.608519906180284" lon="7.945058135526349">
      <ele>2204.7</ele></trkpt>
      <trkpt lat="46.60839652300953" lon="7.945075763614243">
      <ele>2204.8</ele></trkpt>
      <trkpt lat="46.60828335632877" lon="7.94508388023062">
      <ele>2205.0</ele></trkpt>
      <trkpt lat="46.608170762213064" lon="7.945096753483461">
      <ele>2205.1</ele></trkpt>
      <trkpt lat="46.60811200248131" lon="7.945102703645459">
      <ele>2205.2</ele></trkpt>
      <trkpt lat="46.60801400142405" lon="7.945111092713081">
      <ele>2205.3</ele></trkpt>
      <trkpt lat="46.60792648563479" lon="7.945148648944455">
      <ele>2205.5</ele></trkpt>
      <trkpt lat="46.6078840483664" lon="7.945171864342296">
      <ele>2205.6</ele></trkpt>
      <trkpt lat="46.60784146874102" lon="7.945223037824915">
      <ele>2205.7</ele></trkpt>
      <trkpt lat="46.607799698578546" lon="7.945290417529059">
      <ele>2205.8</ele></trkpt>
      <trkpt lat="46.607763437784506" lon="7.945338700072837">
      <ele>2206.0</ele></trkpt>
      <trkpt lat="46.607714594075496" lon="7.945382452761968">
      <ele>2206.1</ele></trkpt>
      <trkpt lat="46.60765130037254" lon="7.945434919850633">
      <ele>2205.8</ele></trkpt>
      <trkpt lat="46.607626830151894" lon="7.945465639013124">
      <ele>2205.4</ele></trkpt>
      <trkpt lat="46.6076139140354" lon="7.945525874639971">
      <ele>2205.1</ele></trkpt>
      <trkpt lat="46.60761665647427" lon="7.945687821725729">
      <ele>2204.8</ele></trkpt>
      <trkpt lat="46.60761042301148" lon="7.945845259715169">
      <ele>2204.5</ele></trkpt>
      <trkpt lat="46.60759291874731" lon="7.945921676965456">
      <ele>2204.2</ele></trkpt>
      <trkpt lat="46.607553678127104" lon="7.946022899611917">
      <ele>2203.8</ele></trkpt>
      <trkpt lat="46.60749257532999" lon="7.946171090094473">
      <ele>2203.5</ele></trkpt>
      <trkpt lat="46.607434215360136" lon="7.946313379987747">
      <ele>2203.2</ele></trkpt>
      <trkpt lat="46.60740953830518" lon="7.946382367686103">
      <ele>2202.8</ele></trkpt>
      <trkpt lat="46.607365900368386" lon="7.946462964019115">
      <ele>2202.5</ele></trkpt>
      <trkpt lat="46.607330441866765" lon="7.946528913426781">
      <ele>2202.2</ele></trkpt>
      <trkpt lat="46.60730119896334" lon="7.946611093590625">
      <ele>2201.9</ele></trkpt>
      <trkpt lat="46.60727548841051" lon="7.946708043495095">
      <ele>2201.5</ele></trkpt>
      <trkpt lat="46.60724731391688" lon="7.946756387543185">
      <ele>2201.2</ele></trkpt>
      <trkpt lat="46.607190532161376" lon="7.9468351368596295">
      <ele>2200.9</ele></trkpt>
      <trkpt lat="46.6071312107517" lon="7.9469104814696045">
      <ele>2200.6</ele></trkpt>
      <trkpt lat="46.607101262055316" lon="7.946975385652132">
      <ele>2200.2</ele></trkpt>
      <trkpt lat="46.607064124318725" lon="7.947050677462722">
      <ele>2199.9</ele></trkpt>
      <trkpt lat="46.60701621208568" lon="7.9471173574661">
      <ele>2199.6</ele></trkpt>
      <trkpt lat="46.60699187958982" lon="7.947163466014081">
      <ele>2199.3</ele></trkpt>
      <trkpt lat="46.606974055741176" lon="7.947226643468584">
      <ele>2199.1</ele></trkpt>
      <trkpt lat="46.606956107146154" lon="7.9473096860018995">
      <ele>2198.8</ele></trkpt>
      <trkpt lat="46.60692377326039" lon="7.947386915218612">
      <ele>2198.6</ele></trkpt>
      <trkpt lat="46.6068871512239" lon="7.947473567236364">
      <ele>2198.3</ele></trkpt>
      <trkpt lat="46.606872306345736" lon="7.947542437384941">
      <ele>2198.1</ele></trkpt>
      <trkpt lat="46.60687232930339" lon="7.947637944464658">
      <ele>2197.8</ele></trkpt>
      <trkpt lat="46.606867866312946" lon="7.947680454376431">
      <ele>2197.6</ele></trkpt>
      <trkpt lat="46.60685379517367" lon="7.947719088550626">
      <ele>2197.3</ele></trkpt>
      <trkpt lat="46.6068096440149" lon="7.947759332195683">
      <ele>2197.1</ele></trkpt>
      <trkpt lat="46.60672878856936" lon="7.947803955314766">
      <ele>2196.8</ele></trkpt>
      <trkpt lat="46.606648664744995" lon="7.94782779226718">
      <ele>2196.5</ele></trkpt>
      <trkpt lat="46.606539682679355" lon="7.947847572177657">
      <ele>2196.3</ele></trkpt>
      <trkpt lat="46.60648125350545" lon="7.947864055766603">
      <ele>2196.0</ele></trkpt>
      <trkpt lat="46.60641907502649" lon="7.947902236640794">
      <ele>2195.8</ele></trkpt>
      <trkpt lat="46.60637015465736" lon="7.947936757016025">
      <ele>2195.5</ele></trkpt>
      <trkpt lat="46.606345894809486" lon="7.947970569774482">
      <ele>2195.3</ele></trkpt>
      <trkpt lat="46.606317313536245" lon="7.948023255024214">
      <ele>2195.0</ele></trkpt>
      <trkpt lat="46.60627155849501" lon="7.948228937557358">
      <ele>2194.8</ele></trkpt>
      <trkpt lat="46.60625397965882" lon="7.948349795514493">
      <ele>2194.5</ele></trkpt>
      <trkpt lat="46.6062194623242" lon="7.948390128998564">
      <ele>2194.1</ele></trkpt>
      <trkpt lat="46.60613396659688" lon="7.948504681715183">
      <ele>2193.7</ele></trkpt>
      <trkpt lat="46.60605320123437" lon="7.948631574165424">
      <ele>2193.3</ele></trkpt>
      <trkpt lat="46.606002232297136" lon="7.948707672733148">
      <ele>2192.9</ele></trkpt>
      <trkpt lat="46.60595375713486" lon="7.948755209672239">
      <ele>2192.5</ele></trkpt>
      <trkpt lat="46.60580495061055" lon="7.948875403080273">
      <ele>2192.1</ele></trkpt>
      <trkpt lat="46.60574574237463" lon="7.948933215142375">
      <ele>2191.7</ele></trkpt>
      <trkpt lat="46.605702509577505" lon="7.948957123968281">
      <ele>2191.3</ele></trkpt>
      <trkpt lat="46.60566049120959" lon="7.948981031162605">
      <ele>2190.9</ele></trkpt>
      <trkpt lat="46.60559027441525" lon="7.949052378856005">
      <ele>2190.4</ele></trkpt>
      <trkpt lat="46.60546364263908" lon="7.949118273145523">
      <ele>2190.0</ele></trkpt>
      <trkpt lat="46.605416854860806" lon="7.949128495349431">
      <ele>2189.6</ele></trkpt>
      <trkpt lat="46.60533086834435" lon="7.949095509692198">
      <ele>2189.2</ele></trkpt>
      <trkpt lat="46.605234652297" lon="7.949048774852612">
      <ele>2188.8</ele></trkpt>
      <trkpt lat="46.605166089767444" lon="7.949048075623572">
      <ele>2188.4</ele></trkpt>
      <trkpt lat="46.605103889256135" lon="7.949097100473569">
      <ele>2188.0</ele></trkpt>
      <trkpt lat="46.60506217895488" lon="7.949170674204091">
      <ele>2187.6</ele></trkpt>
      <trkpt lat="46.60503591236272" lon="7.949300857841204">
      <ele>2187.2</ele></trkpt>
      <trkpt lat="46.60501117663574" lon="7.94937850729929">
      <ele>2186.8</ele></trkpt>
      <trkpt lat="46.60497254154081" lon="7.949444317521265">
      <ele>2186.4</ele></trkpt>
      <trkpt lat="46.60486807622653" lon="7.949560083339012">
      <ele>2185.9</ele></trkpt>
      <trkpt lat="46.604795962714235" lon="7.949643066966244">
      <ele>2185.3</ele></trkpt>
      <trkpt lat="46.60474858960916" lon="7.949751631575156">
      <ele>2184.8</ele></trkpt>
      <trkpt lat="46.604651805758195" lon="7.949899590396435">
      <ele>2184.3</ele></trkpt>
      <trkpt lat="46.604629507106175" lon="7.9499753172958725">
      <ele>2183.7</ele></trkpt>
      <trkpt lat="46.60457856985992" lon="7.950070194995366">
      <ele>2183.2</ele></trkpt>
      <trkpt lat="46.60448388471968" lon="7.950173403721643">
      <ele>2182.7</ele></trkpt>
      <trkpt lat="46.60443120039631" lon="7.950254651063138">
      <ele>2182.1</ele></trkpt>
      <trkpt lat="46.60439481725992" lon="7.950349705004476">
      <ele>2181.6</ele></trkpt>
      <trkpt lat="46.604382083654315" lon="7.950450816910171">
      <ele>2181.1</ele></trkpt>
      <trkpt lat="46.60438435409842" lon="7.950524086992478">
      <ele>2180.5</ele></trkpt>
      <trkpt lat="46.604383297378206" lon="7.9505710516351185">
      <ele>2180.0</ele></trkpt>
      <trkpt lat="46.60437229204668" lon="7.950665875648969">
      <ele>2179.4</ele></trkpt>
      <trkpt lat="46.60434081916008" lon="7.950753170533414">
      <ele>2178.9</ele></trkpt>
      <trkpt lat="46.60429053693366" lon="7.9508402741421484">
      <ele>2178.4</ele></trkpt>
      <trkpt lat="46.604222122753164" lon="7.950912587501659">
      <ele>2177.8</ele></trkpt>
      <trkpt lat="46.60410161910148" lon="7.95096978894042">
      <ele>2177.3</ele></trkpt>
      <trkpt lat="46.60399277965337" lon="7.9510037244124225">
      <ele>2176.8</ele></trkpt>
      <trkpt lat="46.603915451801385" lon="7.951045776435651">
      <ele>2176.2</ele></trkpt>
      <trkpt lat="46.60384627170931" lon="7.951146326324846">
      <ele>2175.7</ele></trkpt>
      <trkpt lat="46.603775045289076" lon="7.951285777603098">
      <ele>2175.4</ele></trkpt>
      <trkpt lat="46.60373343047906" lon="7.951341819945049">
      <ele>2175.1</ele></trkpt>
      <trkpt lat="46.60363218446624" lon="7.95142744691306">
      <ele>2174.8</ele></trkpt>
      <trkpt lat="46.603563950722524" lon="7.95146959732853">
      <ele>2174.5</ele></trkpt>
      <trkpt lat="46.603527537616316" lon="7.951469212925415">
      <ele>2174.2</ele></trkpt>
      <trkpt lat="46.603482233208105" lon="7.9514356445489325">
      <ele>2174.0</ele></trkpt>
      <trkpt lat="46.60344995994232" lon="7.951416883168308">
      <ele>2173.7</ele></trkpt>
      <trkpt lat="46.603426718541925" lon="7.951420069378254">
      <ele>2173.4</ele></trkpt>
      <trkpt lat="46.60340455319779" lon="7.951436004443811">
      <ele>2173.1</ele></trkpt>
      <trkpt lat="46.60338173580632" lon="7.9514748785490985">
      <ele>2172.8</ele></trkpt>
      <trkpt lat="46.60336681029446" lon="7.95152315955775">
      <ele>2172.5</ele></trkpt>
      <trkpt lat="46.60334674493821" lon="7.951584143492773">
      <ele>2172.2</ele></trkpt>
      <trkpt lat="46.60331877737785" lon="7.951634010541333">
      <ele>2171.9</ele></trkpt>
      <trkpt lat="46.60327373214707" lon="7.9517066607408635">
      <ele>2171.6</ele></trkpt>
      <trkpt lat="46.6032287646224" lon="7.951758063128365">
      <ele>2171.3</ele></trkpt>
      <trkpt lat="46.603184922845756" lon="7.951811172851754">
      <ele>2171.1</ele></trkpt>
      <trkpt lat="46.603139394863035" lon="7.951859176272303">
      <ele>2170.8</ele></trkpt>
      <trkpt lat="46.6031007630725" lon="7.951886009726339">
      <ele>2170.5</ele></trkpt>
      <trkpt lat="46.603064400645025" lon="7.9519103065203325">
      <ele>2170.2</ele></trkpt>
      <trkpt lat="46.60304334564714" lon="7.951931355075765">
      <ele>2169.9</ele></trkpt>
      <trkpt lat="46.60302451422657" lon="7.951966011652691">
      <ele>2170.1</ele></trkpt>
      <trkpt lat="46.60299507485464" lon="7.951995111870033">
      <ele>2170.3</ele></trkpt>
      <trkpt lat="46.60295003469181" lon="7.952034662036185">
      <ele>2170.5</ele></trkpt>
      <trkpt lat="46.602924523827426" lon="7.952044391459107">
      <ele>2170.6</ele></trkpt>
      <trkpt lat="46.60288687689162" lon="7.952042324334602">
      <ele>2170.8</ele></trkpt>
      <trkpt lat="46.6028353951261" lon="7.9520401128433935">
      <ele>2171.0</ele></trkpt>
      <trkpt lat="46.602802137778745" lon="7.952048098088487">
      <ele>2171.2</ele></trkpt>
      <trkpt lat="46.60276496958848" lon="7.952063550957143">
      <ele>2171.4</ele></trkpt>
      <trkpt lat="46.60273046523136" lon="7.952100708032036">
      <ele>2171.6</ele></trkpt>
      <trkpt lat="46.6026870064858" lon="7.95215861061127">
      <ele>2171.8</ele></trkpt>
      <trkpt lat="46.602642907236344" lon="7.95223485773376">
      <ele>2171.9</ele></trkpt>
      <trkpt lat="46.60259602228849" lon="7.9523144195144555">
      <ele>2172.1</ele></trkpt>
      <trkpt lat="46.60255961902197" lon="7.9524015854433525">
      <ele>2172.3</ele></trkpt>
      <trkpt lat="46.60253450256229" lon="7.952445513806627">
      <ele>2172.5</ele></trkpt>
      <trkpt lat="46.60251055501648" lon="7.952473608485066">
      <ele>2172.7</ele></trkpt>
      <trkpt lat="46.602493782605656" lon="7.952508453766707">
      <ele>2172.9</ele></trkpt>
      <trkpt lat="46.602478605137634" lon="7.952556652997651">
      <ele>2173.0</ele></trkpt>
      <trkpt lat="46.602442248324444" lon="7.952635478999399">
      <ele>2173.2</ele></trkpt>
      <trkpt lat="46.602390845652295" lon="7.952733321732342">
      <ele>2173.4</ele></trkpt>
      <trkpt lat="46.60235295633578" lon="7.952782949430875">
      <ele>2173.6</ele></trkpt>
      <trkpt lat="46.60230516940349" lon="7.9528191311432455">
      <ele>2173.3</ele></trkpt>
      <trkpt lat="46.60226299509802" lon="7.9528395345245695">
      <ele>2173.0</ele></trkpt>
      <trkpt lat="46.602235228418564" lon="7.952856746682102">
      <ele>2172.7</ele></trkpt>
      <trkpt lat="46.60221131233947" lon="7.952879842554174">
      <ele>2172.4</ele></trkpt>
      <trkpt lat="46.602185649298455" lon="7.95292125930821">
      <ele>2172.1</ele></trkpt>
      <trkpt lat="46.60216279442608" lon="7.952954375801712">
      <ele>2171.8</ele></trkpt>
      <trkpt lat="46.602139434590434" lon="7.952975806284524">
      <ele>2171.5</ele></trkpt>
      <trkpt lat="46.602105627008285" lon="7.952982115016329">
      <ele>2171.2</ele></trkpt>
      <trkpt lat="46.60205463895216" lon="7.952994081371219">
      <ele>2170.9</ele></trkpt>
      <trkpt lat="46.602016347718255" lon="7.953011180247074">
      <ele>2170.6</ele></trkpt>
      <trkpt lat="46.60197302172739" lon="7.953041582962985">
      <ele>2170.4</ele></trkpt>
      <trkpt lat="46.601932404657035" lon="7.953083666427387">
      <ele>2170.1</ele></trkpt>
      <trkpt lat="46.601906698581466" lon="7.953132600151144">
      <ele>2169.8</ele></trkpt>
      <trkpt lat="46.60189093067295" lon="7.953189968301517">
      <ele>2169.5</ele></trkpt>
      <trkpt lat="46.60187291079777" lon="7.95325397127624">
      <ele>2169.2</ele></trkpt>
      <trkpt lat="46.60184775487097" lon="7.953304567644748">
      <ele>2168.9</ele></trkpt>
      <trkpt lat="46.601820370957206" lon="7.953358483954641">
      <ele>2168.6</ele></trkpt>
      <trkpt lat="46.6017985305016" lon="7.9534099470761435">
      <ele>2168.3</ele></trkpt>
      <trkpt lat="46.60176704568968" lon="7.9535113447978985">
      <ele>2168.0</ele></trkpt>
      <trkpt lat="46.60174295087294" lon="7.953571948502137">
      <ele>2167.7</ele></trkpt>
      <trkpt lat="46.60171726869241" lon="7.953617540868546">
      <ele>2167.4</ele></trkpt>
      <trkpt lat="46.60167945586549" lon="7.953652158849794">
      <ele>2167.1</ele></trkpt>
      <trkpt lat="46.60162836675256" lon="7.953682473892775">
      <ele>2166.8</ele></trkpt>
      <trkpt lat="46.60155903980581" lon="7.953707577344897">
      <ele>2166.5</ele></trkpt>
      <trkpt lat="46.60148421086418" lon="7.953725959051291">
      <ele>2166.2</ele></trkpt>
      <trkpt lat="46.60143590364193" lon="7.953753794533627">
      <ele>2165.9</ele></trkpt>
      <trkpt lat="46.601319273962254" lon="7.95382926946625">
      <ele>2165.6</ele></trkpt>
      <trkpt lat="46.60126040210843" lon="7.953867836793831">
      <ele>2165.3</ele></trkpt>
      <trkpt lat="46.60123698930526" lon="7.953900933957216">
      <ele>2165.0</ele></trkpt>
      <trkpt lat="46.60122738251857" lon="7.953942528550275">
      <ele>2164.8</ele></trkpt>
      <trkpt lat="46.601227643049974" lon="7.954004224904823">
      <ele>2164.5</ele></trkpt>
      <trkpt lat="46.601222950237364" lon="7.9540592178566545">
      <ele>2164.2</ele></trkpt>
      <trkpt lat="46.60121335473568" lon="7.954098306654641">
      <ele>2163.9</ele></trkpt>
      <trkpt lat="46.601195513206996" lon="7.954124787534261">
      <ele>2163.6</ele></trkpt>
      <trkpt lat="46.601169944068666" lon="7.954145360787322">
      <ele>2163.3</ele></trkpt>
      <trkpt lat="46.60114543225748" lon="7.954176789778523">
      <ele>2163.0</ele></trkpt>
      <trkpt lat="46.60113362763492" lon="7.954215022156333">
      <ele>2162.7</ele></trkpt>
      <trkpt lat="46.60113010303827" lon="7.954258345167391">
      <ele>2162.4</ele></trkpt>
      <trkpt lat="46.6011252274593" lon="7.954351681139274">
      <ele>2162.1</ele></trkpt>
      <trkpt lat="46.60111990270608" lon="7.954425005085454">
      <ele>2161.8</ele></trkpt>
      <trkpt lat="46.601107512432414" lon="7.954467395187954">
      <ele>2161.7</ele></trkpt>
      <trkpt lat="46.60108410466619" lon="7.954501327334102">
      <ele>2161.6</ele></trkpt>
      <trkpt lat="46.601037892982525" lon="7.9545550366000555">
      <ele>2161.4</ele></trkpt>
      <trkpt lat="46.601005008955525" lon="7.954599710875481">
      <ele>2161.3</ele></trkpt>
      <trkpt lat="46.60097989921538" lon="7.9546419664585">
      <ele>2161.2</ele></trkpt>
      <trkpt lat="46.60096804764774" lon="7.954688537963548">
      <ele>2161.1</ele></trkpt>
      <trkpt lat="46.60096284742884" lon="7.9547343376267605">
      <ele>2160.9</ele></trkpt>
      <trkpt lat="46.6009542357286" lon="7.954798454876989">
      <ele>2160.8</ele></trkpt>
      <trkpt lat="46.60093953181821" lon="7.954865006765508">
      <ele>2160.7</ele></trkpt>
      <trkpt lat="46.600924781120916" lon="7.9549398849060635">
      <ele>2160.6</ele></trkpt>
      <trkpt lat="46.60090906378718" lon="7.954983913546656">
      <ele>2160.4</ele></trkpt>
      <trkpt lat="46.60089013822846" lon="7.955005398042128">
      <ele>2160.3</ele></trkpt>
      <trkpt lat="46.6008540155778" lon="7.955034196736768">
      <ele>2160.2</ele></trkpt>
      <trkpt lat="46.60081447768233" lon="7.955082135118707">
      <ele>2160.1</ele></trkpt>
      <trkpt lat="46.60078376469565" lon="7.955136004667021">
      <ele>2159.9</ele></trkpt>
      <trkpt lat="46.6007472964948" lon="7.955213207061149">
      <ele>2159.8</ele></trkpt>
      <trkpt lat="46.60065981311076" lon="7.955330093808186">
      <ele>2159.7</ele></trkpt>
      <trkpt lat="46.60059733043597" lon="7.95542680692277">
      <ele>2159.6</ele></trkpt>
      <trkpt lat="46.60059155064515" lon="7.955477351313141">
      <ele>2159.4</ele></trkpt>
      <trkpt lat="46.600602829653674" lon="7.955519340483278">
      <ele>2159.3</ele></trkpt>
      <trkpt lat="46.6006363260103" lon="7.955601439629335">
      <ele>2159.2</ele></trkpt>
      <trkpt lat="46.60066325408412" lon="7.955664016685677">
      <ele>2159.1</ele></trkpt>
      <trkpt lat="46.60067063692893" lon="7.955747811005683">
      <ele>2158.9</ele></trkpt>
      <trkpt lat="46.6006623929039" lon="7.95580809420279">
      <ele>2158.8</ele></trkpt>
      <trkpt lat="46.600639022378175" lon="7.955857504619743">
      <ele>2158.7</ele></trkpt>
      <trkpt lat="46.60059873528636" lon="7.955896025111149">
      <ele>2158.6</ele></trkpt>
      <trkpt lat="46.60058575092729" lon="7.955926493021533">
      <ele>2158.4</ele></trkpt>
      <trkpt lat="46.600575041457866" lon="7.955955207707539">
      <ele>2158.3</ele></trkpt>
      <trkpt lat="46.60057083924637" lon="7.956010909293998">
      <ele>2158.2</ele></trkpt>
      <trkpt lat="46.60057127935792" lon="7.956044716172916">
      <ele>2158.1</ele></trkpt>
      <trkpt lat="46.60058253755701" lon="7.9560872795025155">
      <ele>2157.9</ele></trkpt>
      <trkpt lat="46.600585744068084" lon="7.956110149824503">
      <ele>2157.8</ele></trkpt>
      <trkpt lat="46.60058408061674" lon="7.956141652623673">
      <ele>2157.7</ele></trkpt>
      <trkpt lat="46.60057940289639" lon="7.956171325511783">
      <ele>2157.6</ele></trkpt>
      <trkpt lat="46.600568126028605" lon="7.956192256188468">
      <ele>2157.4</ele></trkpt>
      <trkpt lat="46.600503307078505" lon="7.9562941662750735">
      <ele>2157.3</ele></trkpt>
      <trkpt lat="46.6004883336987" lon="7.956328778335014">
      <ele>2157.2</ele></trkpt>
      <trkpt lat="46.600479384491116" lon="7.956368002904798">
      <ele>2157.1</ele></trkpt>
      <trkpt lat="46.600476423454495" lon="7.956417777947154">
      <ele>2156.9</ele></trkpt>
      <trkpt lat="46.60047530577867" lon="7.956459805166629">
      <ele>2156.8</ele></trkpt>
      <trkpt lat="46.6004715220264" lon="7.956492671019752">
      <ele>2156.4</ele></trkpt>
      <trkpt lat="46.60045321463233" lon="7.956530474729244">
      <ele>2156.0</ele></trkpt>
      <trkpt lat="46.600431974860385" lon="7.956550422408968">
      <ele>2155.6</ele></trkpt>
      <trkpt lat="46.6003926077077" lon="7.956564636697418">
      <ele>2155.2</ele></trkpt>
      <trkpt lat="46.600376988142735" lon="7.956589010301694">
      <ele>2154.8</ele></trkpt>
      <trkpt lat="46.60036445860889" lon="7.956649969821454">
      <ele>2154.4</ele></trkpt>
      <trkpt lat="46.600368427182254" lon="7.95669710951906">
      <ele>2154.0</ele></trkpt>
      <trkpt lat="46.60037553268249" lon="7.956798193683685">
      <ele>2153.6</ele></trkpt>
      <trkpt lat="46.60041481745163" lon="7.9569720724850646">
      <ele>2153.2</ele></trkpt>
      <trkpt lat="46.600416610021234" lon="7.957018969527665">
      <ele>2152.8</ele></trkpt>
      <trkpt lat="46.60036422879633" lon="7.957060218243358">
      <ele>2152.3</ele></trkpt>
      <trkpt lat="46.60024104985974" lon="7.95711156853285">
      <ele>2151.9</ele></trkpt>
      <trkpt lat="46.60016251016943" lon="7.957196000421583">
      <ele>2151.5</ele></trkpt>
      <trkpt lat="46.60009375771684" lon="7.957296252495343">
      <ele>2151.1</ele></trkpt>
      <trkpt lat="46.60005992763618" lon="7.957374587105033">
      <ele>2150.7</ele></trkpt>
      <trkpt lat="46.60004999594215" lon="7.957445750863138">
      <ele>2150.3</ele></trkpt>
      <trkpt lat="46.600034567420195" lon="7.957515021662214">
      <ele>2149.9</ele></trkpt>
      <trkpt lat="46.599987845023875" lon="7.957617311613024">
      <ele>2149.5</ele></trkpt>
      <trkpt lat="46.59989920086381" lon="7.957767266159934">
      <ele>2149.1</ele></trkpt>
      <trkpt lat="46.59982295855717" lon="7.9578764764521805">
      <ele>2148.7</ele></trkpt>
      <trkpt lat="46.599766301818306" lon="7.957941879455343">
      <ele>2149.1</ele></trkpt>
      <trkpt lat="46.599718262298495" lon="7.957971931541737">
      <ele>2149.4</ele></trkpt>
      <trkpt lat="46.5996877824819" lon="7.958009878373762">
      <ele>2149.8</ele></trkpt>
      <trkpt lat="46.59965401947747" lon="7.958114810545341">
      <ele>2150.2</ele></trkpt>
      <trkpt lat="46.599618851570746" lon="7.958275261081138">
      <ele>2150.5</ele></trkpt>
      <trkpt lat="46.599594911493625" lon="7.958348703941692">
      <ele>2150.9</ele></trkpt>
      <trkpt lat="46.59956987881662" lon="7.958391505577712">
      <ele>2151.3</ele></trkpt>
      <trkpt lat="46.59952360828594" lon="7.958434050886033">
      <ele>2151.7</ele></trkpt>
      <trkpt lat="46.599469401369014" lon="7.958490849805797">
      <ele>2152.0</ele></trkpt>
      <trkpt lat="46.59944312405061" lon="7.958542226842422">
      <ele>2152.4</ele></trkpt>
      <trkpt lat="46.59941559746846" lon="7.958603197318458">
      <ele>2152.8</ele></trkpt>
      <trkpt lat="46.59940562217049" lon="7.958675860449994">
      <ele>2153.1</ele></trkpt>
      <trkpt lat="46.59940582472206" lon="7.958781196577565">
      <ele>2153.5</ele></trkpt>
      <trkpt lat="46.59941448827099" lon="7.958895266861273">
      <ele>2153.9</ele></trkpt>
      <trkpt lat="46.59941234477589" lon="7.958980468930371">
      <ele>2154.2</ele></trkpt>
      <trkpt lat="46.59939004737715" lon="7.959101823963767">
      <ele>2154.6</ele></trkpt>
      <trkpt lat="46.599366959924254" lon="7.959271994848517">
      <ele>2155.0</ele></trkpt>
      <trkpt lat="46.59935046781227" lon="7.9594594954749205">
      <ele>2155.4</ele></trkpt>
      <trkpt lat="46.599343698894124" lon="7.9596432657193485">
      <ele>2155.7</ele></trkpt>
      <trkpt lat="46.59933005345244" lon="7.959733446712292">
      <ele>2156.1</ele></trkpt>
      <trkpt lat="46.59930308534752" lon="7.959835388684821">
      <ele>2155.8</ele></trkpt>
      <trkpt lat="46.59926428378944" lon="7.9599401529704625">
      <ele>2155.6</ele></trkpt>
      <trkpt lat="46.599225754955675" lon="7.960046237876848">
      <ele>2155.3</ele></trkpt>
      <trkpt lat="46.599189042334125" lon="7.96018196567423">
      <ele>2155.1</ele></trkpt>
      <trkpt lat="46.599159231055694" lon="7.9602800036292">
      <ele>2154.8</ele></trkpt>
      <trkpt lat="46.59913109389515" lon="7.960354265868438">
      <ele>2154.6</ele></trkpt>
      <trkpt lat="46.59910937920679" lon="7.96043844339491">
      <ele>2154.3</ele></trkpt>
      <trkpt lat="46.59909710682669" lon="7.960482097637443">
      <ele>2154.1</ele></trkpt>
      <trkpt lat="46.59907273927679" lon="7.960532695684574">
      <ele>2153.8</ele></trkpt>
      <trkpt lat="46.599048352337974" lon="7.9605678934831055">
      <ele>2153.6</ele></trkpt>
      <trkpt lat="46.599021055474715" lon="7.960584400448727">
      <ele>2153.3</ele></trkpt>
      <trkpt lat="46.59899396342463" lon="7.960597437848473">
      <ele>2153.1</ele></trkpt>
      <trkpt lat="46.59892933011697" lon="7.960591267575378">
      <ele>2152.8</ele></trkpt>
      <trkpt lat="46.598865212117204" lon="7.9605845411041845">
      <ele>2152.6</ele></trkpt>
      <trkpt lat="46.5987961002637" lon="7.960589851504516">
      <ele>2152.3</ele></trkpt>
      <trkpt lat="46.59874242128146" lon="7.96059993078597">
      <ele>2152.1</ele></trkpt>
      <trkpt lat="46.59867214683116" lon="7.960629256404494">
      <ele>2151.8</ele></trkpt>
      <trkpt lat="46.5986453903002" lon="7.960647595545731">
      <ele>2151.6</ele></trkpt>
      <trkpt lat="46.5986067134953" lon="7.960652390405029">
      <ele>2151.3</ele></trkpt>
      <trkpt lat="46.59856919813408" lon="7.960664818101218">
      <ele>2151.1</ele></trkpt>
      <trkpt lat="46.59850619047049" lon="7.960692569281905">
      <ele>2155.8</ele></trkpt>
      <trkpt lat="46.59845876717111" lon="7.960703818093555">
      <ele>2160.6</ele></trkpt>
      <trkpt lat="46.59842251103461" lon="7.960698626363958">
      <ele>2165.3</ele></trkpt>
      <trkpt lat="46.598384170858814" lon="7.960677088101296">
      <ele>2170.1</ele></trkpt>
      <trkpt lat="46.59834596138551" lon="7.960664321195305">
      <ele>2174.8</ele></trkpt>
      <trkpt lat="46.598281813519165" lon="7.9606405632893695">
      <ele>2179.6</ele></trkpt>
      <trkpt lat="46.598253774217824" lon="7.960628677613586">
      <ele>2184.3</ele></trkpt>
      <trkpt lat="46.59822809827206" lon="7.9606036074843285">
      <ele>2189.1</ele></trkpt>
      <trkpt lat="46.59817871385431" lon="7.960514778048665">
      <ele>2193.8</ele></trkpt>
      <trkpt lat="46.5981256091201" lon="7.960421149406546">
      <ele>2198.6</ele></trkpt>
      <trkpt lat="46.59808822304153" lon="7.960379848958725">
      <ele>2203.3</ele></trkpt>
      <trkpt lat="46.598041669984575" lon="7.960350388422934">
      <ele>2208.0</ele></trkpt>
      <trkpt lat="46.598041669984575" lon="7.960350388422934">
      <ele>2212.8</ele></trkpt>
      <trkpt lat="46.59785966027409" lon="7.959977834236296">
      <ele>2217.5</ele></trkpt>
      <trkpt lat="46.597677649342614" lon="7.959605282556816">
      <ele>2222.3</ele></trkpt>
      <trkpt lat="46.597657847238516" lon="7.959098402630766">
      <ele>2227.0</ele></trkpt>
      <trkpt lat="46.59763804287787" lon="7.958591523075573">
      <ele>2231.8</ele></trkpt>
      <trkpt lat="46.59769321148883" lon="7.958065747164552">
      <ele>2236.5</ele></trkpt>
      <trkpt lat="46.597748377671714" lon="7.957539970180723">
      <ele>2241.3</ele></trkpt>
      <trkpt lat="46.59780354142653" lon="7.957014192124122">
      <ele>2246.0</ele></trkpt>
      <trkpt lat="46.59785985093523" lon="7.956598470090506">
      <ele>2259.7</ele></trkpt>
      <trkpt lat="46.59791615892587" lon="7.9561827471911375">
      <ele>2273.5</ele></trkpt>
      <trkpt lat="46.59795592165155" lon="7.955778826790444">
      <ele>2287.2</ele></trkpt>
      <trkpt lat="46.597995682944244" lon="7.955374905795704">
      <ele>2300.9</ele></trkpt>
      <trkpt lat="46.59810915158394" lon="7.955080538494853">
      <ele>2314.7</ele></trkpt>
      <trkpt lat="46.598222619461815" lon="7.954786169958881">
      <ele>2328.4</ele></trkpt>
      <trkpt lat="46.598532555565825" lon="7.9544398454041305">
      <ele>2342.1</ele></trkpt>
      <trkpt lat="46.59866729078587" lon="7.954182757696876">
      <ele>2355.9</ele></trkpt>
      <trkpt lat="46.598761136543615" lon="7.9538511155091145">
      <ele>2369.6</ele></trkpt>
      <trkpt lat="46.59885498133487" lon="7.953519472170438">
      <ele>2383.3</ele></trkpt>
      <trkpt lat="46.59896269828667" lon="7.953037240804014">
      <ele>2397.1</ele></trkpt>
      <trkpt lat="46.599083032595395" lon="7.952681923701145">
      <ele>2410.8</ele></trkpt>
      <trkpt lat="46.59920336579447" lon="7.952326605017173">
      <ele>2424.6</ele></trkpt>
      <trkpt lat="46.599456227960935" lon="7.95183617634072">
      <ele>2438.3</ele></trkpt>
      <trkpt lat="46.59955093994304" lon="7.95131075007158">
      <ele>2452.0</ele></trkpt>
      <trkpt lat="46.59973986761303" lon="7.951102010804034">
      <ele>2465.8</ele></trkpt>
      <trkpt lat="46.59988249517071" lon="7.9509215400143445">
      <ele>2479.5</ele></trkpt>
      <trkpt lat="46.60003255780391" lon="7.9505545302957">
      <ele>2493.2</ele></trkpt>
      <trkpt lat="46.60012590406592" lon="7.950037229177395">
      <ele>2507.0</ele></trkpt>
      <trkpt lat="46.600219247977265" lon="7.949519926273286">
      <ele>2520.7</ele></trkpt>
      <trkpt lat="46.600219247977265" lon="7.949519926273286">
      <ele>2508.0</ele></trkpt>
      <trkpt lat="46.60012590406592" lon="7.950037229177395">
      <ele>2495.4</ele></trkpt>
      <trkpt lat="46.60003255780391" lon="7.9505545302957">
      <ele>2482.7</ele></trkpt>
      <trkpt lat="46.59988249517071" lon="7.9509215400143445">
      <ele>2470.1</ele></trkpt>
      <trkpt lat="46.59973986761303" lon="7.951102010804034">
      <ele>2457.4</ele></trkpt>
      <trkpt lat="46.59955093994304" lon="7.95131075007158">
      <ele>2444.7</ele></trkpt>
      <trkpt lat="46.599456227960935" lon="7.95183617634072">
      <ele>2432.1</ele></trkpt>
      <trkpt lat="46.59920336579447" lon="7.952326605017173">
      <ele>2419.4</ele></trkpt>
      <trkpt lat="46.599083032595395" lon="7.952681923701145">
      <ele>2406.8</ele></trkpt>
      <trkpt lat="46.59896269828667" lon="7.953037240804014">
      <ele>2394.1</ele></trkpt>
      <trkpt lat="46.59885498133487" lon="7.953519472170438">
      <ele>2381.4</ele></trkpt>
      <trkpt lat="46.598761136543615" lon="7.9538511155091145">
      <ele>2368.8</ele></trkpt>
      <trkpt lat="46.59866729078587" lon="7.954182757696876">
      <ele>2356.1</ele></trkpt>
      <trkpt lat="46.598532555565825" lon="7.9544398454041305">
      <ele>2343.5</ele></trkpt>
      <trkpt lat="46.598222619461815" lon="7.954786169958881">
      <ele>2330.8</ele></trkpt>
      <trkpt lat="46.59810915158394" lon="7.955080538494853">
      <ele>2318.1</ele></trkpt>
      <trkpt lat="46.597995682944244" lon="7.955374905795704">
      <ele>2305.5</ele></trkpt>
      <trkpt lat="46.59776082849896" lon="7.955769784760587">
      <ele>2292.8</ele></trkpt>
      <trkpt lat="46.59752597268094" lon="7.95616466029634">
      <ele>2280.2</ele></trkpt>
      <trkpt lat="46.59729111549019" lon="7.956559532402975">
      <ele>2267.5</ele></trkpt>
      <trkpt lat="46.597067725295204" lon="7.957091667843924">
      <ele>2260.8</ele></trkpt>
      <trkpt lat="46.59684433261031" lon="7.9576237988892835">
      <ele>2254.2</ele></trkpt>
      <trkpt lat="46.59662093743551" lon="7.958155925539056">
      <ele>2247.5</ele></trkpt>
      <trkpt lat="46.5963958650884" lon="7.958573204121147">
      <ele>2240.8</ele></trkpt>
      <trkpt lat="46.59617079120902" lon="7.95899047923056">
      <ele>2234.1</ele></trkpt>
      <trkpt lat="46.59594571579738" lon="7.9594077508673315">
      <ele>2227.4</ele></trkpt>
      <trkpt lat="46.595723741097764" lon="7.959765818186022">
      <ele>2220.8</ele></trkpt>
      <trkpt lat="46.59550176526918" lon="7.960123882565897">
      <ele>2214.1</ele></trkpt>
      <trkpt lat="46.59527978831163" lon="7.96048194400697">
      <ele>2207.4</ele></trkpt>
      <trkpt lat="46.59527978831163" lon="7.96048194400697">
      <ele>2200.8</ele></trkpt>
      <trkpt lat="46.59525004501769" lon="7.960421810040965">
      <ele>2194.1</ele></trkpt>
      <trkpt lat="46.59522356314102" lon="7.960354699778766">
      <ele>2187.4</ele></trkpt>
      <trkpt lat="46.59520646717219" lon="7.960304527555173">
      <ele>2180.7</ele></trkpt>
      <trkpt lat="46.595192486484144" lon="7.960277314129958">
      <ele>2174.1</ele></trkpt>
      <trkpt lat="46.595163135357524" lon="7.9602474077781915">
      <ele>2167.4</ele></trkpt>
      <trkpt lat="46.59509441419897" lon="7.9602027800201505">
      <ele>2160.7</ele></trkpt>
      <trkpt lat="46.5950368992554" lon="7.960164589607498">
      <ele>2154.0</ele></trkpt>
      <trkpt lat="46.5949950631767" lon="7.960130491483901">
      <ele>2147.3</ele></trkpt>
      <trkpt lat="46.594971813414254" lon="7.960098125508897">
      <ele>2140.7</ele></trkpt>
      <trkpt lat="46.594951737359416" lon="7.960056328995167">
      <ele>2134.0</ele></trkpt>
      <trkpt lat="46.594935899819916" lon="7.959994554864791">
      <ele>2134.0</ele></trkpt>
      <trkpt lat="46.594915823110455" lon="7.959882158650412">
      <ele>2133.9</ele></trkpt>
      <trkpt lat="46.59489786853209" lon="7.95979547813588">
      <ele>2133.9</ele></trkpt>
      <trkpt lat="46.59487883146867" lon="7.9596819176029765">
      <ele>2133.8</ele></trkpt>
      <trkpt lat="46.59486925284795" lon="7.959579279608992">
      <ele>2133.8</ele></trkpt>
      <trkpt lat="46.594865684153966" lon="7.959498088220627">
      <ele>2133.7</ele></trkpt>
      <trkpt lat="46.59485691680806" lon="7.959448153384121">
      <ele>2133.7</ele></trkpt>
      <trkpt lat="46.59484621297729" lon="7.959379068848307">
      <ele>2133.6</ele></trkpt>
      <trkpt lat="46.59484225092143" lon="7.959311080166294">
      <ele>2133.6</ele></trkpt>
      <trkpt lat="46.59484397359114" lon="7.959253051034513">
      <ele>2133.6</ele></trkpt>
      <trkpt lat="46.59484404448295" lon="7.959194262163655">
      <ele>2133.5</ele></trkpt>
      <trkpt lat="46.59484340819661" lon="7.959120928961369">
      <ele>2133.5</ele></trkpt>
      <trkpt lat="46.59484939678408" lon="7.959062458018102">
      <ele>2133.4</ele></trkpt>
      <trkpt lat="46.59485642209452" lon="7.959011370198681">
      <ele>2133.4</ele></trkpt>
      <trkpt lat="46.59487237338667" lon="7.9589538954929">
      <ele>2133.3</ele></trkpt>
      <trkpt lat="46.59488640843771" lon="7.958886601883467">
      <ele>2133.3</ele></trkpt>
      <trkpt lat="46.59489073407327" lon="7.958843578957653">
      <ele>2133.2</ele></trkpt>
      <trkpt lat="46.5948909037829" lon="7.958796588057524">
      <ele>2133.2</ele></trkpt>
      <trkpt lat="46.59488404019121" lon="7.9587394419984765">
      <ele>2133.1</ele></trkpt>
      <trkpt lat="46.59487136741979" lon="7.958675923981305">
      <ele>2133.1</ele></trkpt>
      <trkpt lat="46.594868269537535" lon="7.958627414006306">
      <ele>2132.9</ele></trkpt>
      <trkpt lat="46.59486934820931" lon="7.958548799024127">
      <ele>2132.7</ele></trkpt>
      <trkpt lat="46.594876277817036" lon="7.958459513284071">
      <ele>2132.5</ele></trkpt>
      <trkpt lat="46.5948856185919" lon="7.958370146288116">
      <ele>2132.3</ele></trkpt>
      <trkpt lat="46.59488514694295" lon="7.958337491021371">
      <ele>2132.2</ele></trkpt>
      <trkpt lat="46.594877077983284" lon="7.9582842223062595">
      <ele>2132.0</ele></trkpt>
      <trkpt lat="46.594873758923704" lon="7.958236832513082">
      <ele>2131.8</ele></trkpt>
      <trkpt lat="46.59487937110937" lon="7.958183864866312">
      <ele>2131.6</ele></trkpt>
      <trkpt lat="46.59489071460386" lon="7.958142501368702">
      <ele>2131.4</ele></trkpt>
      <trkpt lat="46.59491117650925" lon="7.958091999161915">
      <ele>2131.2</ele></trkpt>
      <trkpt lat="46.594929401692156" lon="7.958038813269196">
      <ele>2131.0</ele></trkpt>
      <trkpt lat="46.59493974343374" lon="7.957982367489546">
      <ele>2130.8</ele></trkpt>
      <trkpt lat="46.5949439056038" lon="7.9579080492995775">
      <ele>2130.6</ele></trkpt>
      <trkpt lat="46.59494901454751" lon="7.957785886315411">
      <ele>2130.4</ele></trkpt>
      <trkpt lat="46.5949557079067" lon="7.957671333535547">
      <ele>2130.2</ele></trkpt>
      <trkpt lat="46.5949538711214" lon="7.957584860523225">
      <ele>2130.1</ele></trkpt>
      <trkpt lat="46.59495245324936" lon="7.957477511743992">
      <ele>2129.9</ele></trkpt>
      <trkpt lat="46.594959795352494" lon="7.957384379981049">
      <ele>2129.7</ele></trkpt>
      <trkpt lat="46.59496949325695" lon="7.957289495996962">
      <ele>2129.5</ele></trkpt>
      <trkpt lat="46.59497010830278" lon="7.957221616451308">
      <ele>2129.3</ele></trkpt>
      <trkpt lat="46.594972472949394" lon="7.957176460455205">
      <ele>2129.1</ele></trkpt>
      <trkpt lat="46.59498728165243" lon="7.957116833962971">
      <ele>2128.9</ele></trkpt>
      <trkpt lat="46.59499965302734" lon="7.957064987909508">
      <ele>2128.7</ele></trkpt>
      <trkpt lat="46.594996909545046" lon="7.9570194958365015">
      <ele>2128.4</ele></trkpt>
      <trkpt lat="46.594989795004" lon="7.956997516916194">
      <ele>2128.2</ele></trkpt>
      <trkpt lat="46.59497117438105" lon="7.956967741378727">
      <ele>2128.0</ele></trkpt>
      <trkpt lat="46.59493448664644" lon="7.956934804342367">
      <ele>2127.8</ele></trkpt>
      <trkpt lat="46.59490076298099" lon="7.956902861436778">
      <ele>2127.6</ele></trkpt>
      <trkpt lat="46.594879809765715" lon="7.956875647506016">
      <ele>2127.4</ele></trkpt>
      <trkpt lat="46.594870683088615" lon="7.95684906888037">
      <ele>2127.2</ele></trkpt>
      <trkpt lat="46.59486806199914" lon="7.956816197303417">
      <ele>2126.9</ele></trkpt>
      <trkpt lat="46.59487486162393" lon="7.956767038400447">
      <ele>2126.7</ele></trkpt>
      <trkpt lat="46.59489374742292" lon="7.9567088994846955">
      <ele>2126.5</ele></trkpt>
      <trkpt lat="46.59490473801439" lon="7.956656009268607">
      <ele>2126.3</ele></trkpt>
      <trkpt lat="46.59490440293894" lon="7.956618931416076">
      <ele>2126.1</ele></trkpt>
      <trkpt lat="46.59489755074227" lon="7.956578815799714">
      <ele>2125.9</ele></trkpt>
      <trkpt lat="46.594886256881715" lon="7.956552046819752">
      <ele>2125.6</ele></trkpt>
      <trkpt lat="46.594863669807154" lon="7.956524073550231">
      <ele>2125.4</ele></trkpt>
      <trkpt lat="46.59482869693627" lon="7.9565037072420575">
      <ele>2125.2</ele></trkpt>
      <trkpt lat="46.59478383995616" lon="7.956484825373398">
      <ele>2125.0</ele></trkpt>
      <trkpt lat="46.59474827022001" lon="7.956471082715627">
      <ele>2124.9</ele></trkpt>
      <trkpt lat="46.594708611688766" lon="7.956446508745232">
      <ele>2124.9</ele></trkpt>
      <trkpt lat="46.59468614988021" lon="7.956422634449358">
      <ele>2124.8</ele></trkpt>
      <trkpt lat="46.59465936305179" lon="7.956380527360872">
      <ele>2124.7</ele></trkpt>
      <trkpt lat="46.594628656581556" lon="7.95632401498484">
      <ele>2124.7</ele></trkpt>
      <trkpt lat="46.59460119412839" lon="7.956286064406285">
      <ele>2124.6</ele></trkpt>
      <trkpt lat="46.59457305613495" lon="7.956252257231727">
      <ele>2124.5</ele></trkpt>
      <trkpt lat="46.59453770749526" lon="7.956219555582998">
      <ele>2124.5</ele></trkpt>
      <trkpt lat="46.59452317554556" lon="7.956200598786312">
      <ele>2124.4</ele></trkpt>
      <trkpt lat="46.59450538772492" lon="7.9561716147347745">
      <ele>2124.3</ele></trkpt>
      <trkpt lat="46.59448693754125" lon="7.956126064225943">
      <ele>2124.3</ele></trkpt>
      <trkpt lat="46.59447334410715" lon="7.956070825088075">
      <ele>2124.2</ele></trkpt>
      <trkpt lat="46.594457602683605" lon="7.955977525418054">
      <ele>2124.2</ele></trkpt>
      <trkpt lat="46.59445149054677" lon="7.955893269998987">
      <ele>2124.1</ele></trkpt>
      <trkpt lat="46.59444751400296" lon="7.955814150516234">
      <ele>2124.0</ele></trkpt>
      <trkpt lat="46.594442193317406" lon="7.955777442917177">
      <ele>2124.0</ele></trkpt>
      <trkpt lat="46.59442756289619" lon="7.9557286536240435">
      <ele>2123.9</ele></trkpt>
      <trkpt lat="46.594407145095595" lon="7.955682523389048">
      <ele>2123.8</ele></trkpt>
      <trkpt lat="46.5943902694092" lon="7.955652726155602">
      <ele>2123.8</ele></trkpt>
      <trkpt lat="46.59435618087601" lon="7.95560200233485">
      <ele>2123.7</ele></trkpt>
      <trkpt lat="46.59432401684737" lon="7.955553384921861">
      <ele>2123.3</ele></trkpt>
      <trkpt lat="46.594299216102826" lon="7.955505699199226">
      <ele>2122.9</ele></trkpt>
      <trkpt lat="46.594287991007626" lon="7.955475616773147">
      <ele>2122.5</ele></trkpt>
      <trkpt lat="46.59427686378744" lon="7.955445770189393">
      <ele>2122.2</ele></trkpt>
      <trkpt lat="46.59425188397159" lon="7.955399870656161">
      <ele>2121.8</ele></trkpt>
      <trkpt lat="46.59422550294948" lon="7.955347550383128">
      <ele>2121.4</ele></trkpt>
      <trkpt lat="46.59419664145081" lon="7.955308582398605">
      <ele>2121.0</ele></trkpt>
      <trkpt lat="46.594149541545455" lon="7.955280402004977">
      <ele>2120.6</ele></trkpt>
      <trkpt lat="46.59408996965703" lon="7.9552530682321425">
      <ele>2120.2</ele></trkpt>
      <trkpt lat="46.594042791307885" lon="7.955202520097381">
      <ele>2119.8</ele></trkpt>
      <trkpt lat="46.593986745322496" lon="7.95515544993485">
      <ele>2119.5</ele></trkpt>
      <trkpt lat="46.593937390980905" lon="7.955118557212101">
      <ele>2119.1</ele></trkpt>
      <trkpt lat="46.593892170751516" lon="7.955106328639325">
      <ele>2118.7</ele></trkpt>
      <trkpt lat="46.5938600191519" lon="7.955090623158605">
      <ele>2118.3</ele></trkpt>
      <trkpt lat="46.59383289928401" lon="7.955070267876295">
      <ele>2117.9</ele></trkpt>
      <trkpt lat="46.593817512347464" lon="7.955045405059424">
      <ele>2117.5</ele></trkpt>
      <trkpt lat="46.593803234975944" lon="7.955005976456267">
      <ele>2117.2</ele></trkpt>
      <trkpt lat="46.59378300321299" lon="7.954908837978214">
      <ele>2116.8</ele></trkpt>
      <trkpt lat="46.593772869671774" lon="7.954842331947578">
      <ele>2116.4</ele></trkpt>
      <trkpt lat="46.593752041358954" lon="7.954777537796876">
      <ele>2116.0</ele></trkpt>
      <trkpt lat="46.59373107617293" lon="7.954685377438363">
      <ele>2115.9</ele></trkpt>
      <trkpt lat="46.593727517207384" lon="7.954593330963951">
      <ele>2115.7</ele></trkpt>
      <trkpt lat="46.59373350431742" lon="7.954510849520427">
      <ele>2115.6</ele></trkpt>
      <trkpt lat="46.593741972070575" lon="7.954450680383349">
      <ele>2115.4</ele></trkpt>
      <trkpt lat="46.59373558175662" lon="7.954417656232528">
      <ele>2115.3</ele></trkpt>
      <trkpt lat="46.59372211189636" lon="7.954396518001872">
      <ele>2115.1</ele></trkpt>
      <trkpt lat="46.59370280789463" lon="7.9543784430087605">
      <ele>2115.0</ele></trkpt>
      <trkpt lat="46.59368945906876" lon="7.954382217567603">
      <ele>2114.8</ele></trkpt>
      <trkpt lat="46.593668581430514" lon="7.954401736410607">
      <ele>2114.7</ele></trkpt>
      <trkpt lat="46.59364014996575" lon="7.954418690754802">
      <ele>2114.6</ele></trkpt>
      <trkpt lat="46.59361128358719" lon="7.954424418327745">
      <ele>2114.4</ele></trkpt>
      <trkpt lat="46.593569025522115" lon="7.95443146671154">
      <ele>2114.3</ele></trkpt>
      <trkpt lat="46.59352359795943" lon="7.954441160016589">
      <ele>2114.1</ele></trkpt>
      <trkpt lat="46.593497267723244" lon="7.9544549763469625">
      <ele>2114.0</ele></trkpt>
      <trkpt lat="46.59347615271329" lon="7.954477246275916">
      <ele>2113.8</ele></trkpt>
      <trkpt lat="46.59345790218299" lon="7.954510583384062">
      <ele>2113.7</ele></trkpt>
      <trkpt lat="46.59342766870686" lon="7.954567869470496">
      <ele>2113.5</ele></trkpt>
      <trkpt lat="46.59338881465659" lon="7.9546396234512065">
      <ele>2113.4</ele></trkpt>
      <trkpt lat="46.593355477742335" lon="7.954686949133221">
      <ele>2113.2</ele></trkpt>
      <trkpt lat="46.593324498889864" lon="7.95473004312441">
      <ele>2113.1</ele></trkpt>
      <trkpt lat="46.59329291903827" lon="7.9547687858601295">
      <ele>2113.0</ele></trkpt>
      <trkpt lat="46.59325734558331" lon="7.954809395667506">
      <ele>2112.9</ele></trkpt>
      <trkpt lat="46.593235363532344" lon="7.954844315055839">
      <ele>2112.8</ele></trkpt>
      <trkpt lat="46.59320454844092" lon="7.954898893936189">
      <ele>2112.7</ele></trkpt>
      <trkpt lat="46.59316957740149" lon="7.9549613801973305">
      <ele>2112.6</ele></trkpt>
      <trkpt lat="46.59314549186225" lon="7.955017771803276">
      <ele>2112.5</ele></trkpt>
      <trkpt lat="46.593110065583545" lon="7.955103259706039">
      <ele>2112.4</ele></trkpt>
      <trkpt lat="46.59308786856184" lon="7.955177612167244">
      <ele>2112.3</ele></trkpt>
      <trkpt lat="46.5930566797226" lon="7.955276855271325">
      <ele>2112.2</ele></trkpt>
      <trkpt lat="46.59303851759941" lon="7.955334268850909">
      <ele>2112.1</ele></trkpt>
      <trkpt lat="46.593018605817626" lon="7.955382752938685">
      <ele>2111.9</ele></trkpt>
      <trkpt lat="46.59298416558224" lon="7.955463003968813">
      <ele>2111.8</ele></trkpt>
      <trkpt lat="46.592949511218485" lon="7.955546815333213">
      <ele>2111.7</ele></trkpt>
      <trkpt lat="46.59292339020912" lon="7.955609620344363">
      <ele>2111.6</ele></trkpt>
      <trkpt lat="46.59289641130923" lon="7.955669180852031">
      <ele>2111.5</ele></trkpt>
      <trkpt lat="46.592865641380826" lon="7.955761263228826">
      <ele>2111.4</ele></trkpt>
      <trkpt lat="46.59284504796358" lon="7.955817178624803">
      <ele>2111.3</ele></trkpt>
      <trkpt lat="46.59282434408618" lon="7.955865720037086">
      <ele>2111.2</ele></trkpt>
      <trkpt lat="46.592789874998864" lon="7.955944325981223">
      <ele>2111.1</ele></trkpt>
      <trkpt lat="46.59277115430921" lon="7.95599986765914">
      <ele>2111.0</ele></trkpt>
      <trkpt lat="46.592747843787" lon="7.956077614518741">
      <ele>2110.8</ele></trkpt>
      <trkpt lat="46.59271669170444" lon="7.9561804715031705">
      <ele>2110.7</ele></trkpt>
      <trkpt lat="46.592684888992295" lon="7.956270103182119">
      <ele>2110.5</ele></trkpt>
      <trkpt lat="46.59266382184607" lon="7.956329249897111">
      <ele>2110.3</ele></trkpt>
      <trkpt lat="46.592639164476736" lon="7.95640045891714">
      <ele>2110.2</ele></trkpt>
      <trkpt lat="46.5926182178059" lon="7.956450902798461">
      <ele>2110.0</ele></trkpt>
      <trkpt lat="46.592599715037636" lon="7.956486167599591">
      <ele>2109.8</ele></trkpt>
      <trkpt lat="46.59256724937743" lon="7.95653757118062">
      <ele>2109.6</ele></trkpt>
      <trkpt lat="46.59253330673774" lon="7.956597246855433">
      <ele>2109.5</ele></trkpt>
      <trkpt lat="46.59250410145236" lon="7.956651735056943">
      <ele>2109.3</ele></trkpt>
      <trkpt lat="46.59247743996277" lon="7.956696773788595">
      <ele>2109.1</ele></trkpt>
      <trkpt lat="46.592443906013756" lon="7.95674767102492">
      <ele>2109.0</ele></trkpt>
      <trkpt lat="46.59241720173784" lon="7.956790242940177">
      <ele>2108.8</ele></trkpt>
      <trkpt lat="46.592382442576" lon="7.956831641522339">
      <ele>2108.6</ele></trkpt>
      <trkpt lat="46.592353568213674" lon="7.956854905780503">
      <ele>2108.4</ele></trkpt>
      <trkpt lat="46.592294040014025" lon="7.956889203098281">
      <ele>2108.3</ele></trkpt>
      <trkpt lat="46.59225737306217" lon="7.956910983318983">
      <ele>2108.1</ele></trkpt>
      <trkpt lat="46.59221871510688" lon="7.9569432881969355">
      <ele>2107.9</ele></trkpt>
      <trkpt lat="46.59217279913968" lon="7.956991052034754">
      <ele>2107.8</ele></trkpt>
      <trkpt lat="46.59213257973386" lon="7.957044246643786">
      <ele>2107.6</ele></trkpt>
      <trkpt lat="46.59210059922842" lon="7.957091778491035">
      <ele>2107.5</ele></trkpt>
      <trkpt lat="46.59206134793878" lon="7.957155591210001">
      <ele>2107.4</ele></trkpt>
      <trkpt lat="46.5920293816332" lon="7.957203945162691">
      <ele>2107.3</ele></trkpt>
      <trkpt lat="46.59200416849512" lon="7.957239053654845">
      <ele>2107.2</ele></trkpt>
      <trkpt lat="46.59193246808463" lon="7.957336717709223">
      <ele>2107.1</ele></trkpt>
      <trkpt lat="46.59188151211779" lon="7.957406681399373">
      <ele>2107.0</ele></trkpt>
      <trkpt lat="46.59182446502057" lon="7.957480801406092">
      <ele>2106.9</ele></trkpt>
      <trkpt lat="46.591801144172" lon="7.957517167451472">
      <ele>2106.8</ele></trkpt>
      <trkpt lat="46.59177125162826" lon="7.957578263725647">
      <ele>2106.7</ele></trkpt>
      <trkpt lat="46.591739125303604" lon="7.957651813437549">
      <ele>2106.6</ele></trkpt>
      <trkpt lat="46.59172011836686" lon="7.957706815694572">
      <ele>2106.4</ele></trkpt>
      <trkpt lat="46.59170693408297" lon="7.95773958594461">
      <ele>2106.3</ele></trkpt>
      <trkpt lat="46.5916889305876" lon="7.957771801020351">
      <ele>2106.2</ele></trkpt>
      <trkpt lat="46.59167235720119" lon="7.957809980178482">
      <ele>2106.1</ele></trkpt>
      <trkpt lat="46.59165433673494" lon="7.957859719954342">
      <ele>2106.0</ele></trkpt>
      <trkpt lat="46.59163362510603" lon="7.957943296201758">
      <ele>2105.9</ele></trkpt>
      <trkpt lat="46.59161284221311" lon="7.958022761246302">
      <ele>2105.8</ele></trkpt>
      <trkpt lat="46.5915887609698" lon="7.958113364554271">
      <ele>2105.7</ele></trkpt>
      <trkpt lat="46.59156882150282" lon="7.958195251643578">
      <ele>2105.6</ele></trkpt>
      <trkpt lat="46.5915540426262" lon="7.958263982601981">
      <ele>2105.5</ele></trkpt>
      <trkpt lat="46.591538433437336" lon="7.958313588693342">
      <ele>2105.6</ele></trkpt>
      <trkpt lat="46.59151668497157" lon="7.958364101407217">
      <ele>2105.7</ele></trkpt>
      <trkpt lat="46.591484462228955" lon="7.958431072671609">
      <ele>2105.7</ele></trkpt>
      <trkpt lat="46.5914521201889" lon="7.9584906700103994">
      <ele>2105.8</ele></trkpt>
      <trkpt lat="46.59141870087701" lon="7.958549774111835">
      <ele>2105.9</ele></trkpt>
      <trkpt lat="46.59139062273479" lon="7.958589682183665">
      <ele>2106.0</ele></trkpt>
      <trkpt lat="46.591363283160426" lon="7.958625447729438">
      <ele>2106.1</ele></trkpt>
      <trkpt lat="46.59133689736095" lon="7.958671009156022">
      <ele>2106.1</ele></trkpt>
      <trkpt lat="46.591307933782815" lon="7.958723566115176">
      <ele>2106.2</ele></trkpt>
      <trkpt lat="46.59129102148349" lon="7.958757096017938">
      <ele>2106.3</ele></trkpt>
      <trkpt lat="46.59126814906109" lon="7.958805483582491">
      <ele>2106.4</ele></trkpt>
      <trkpt lat="46.59125220474307" lon="7.958849631562217">
      <ele>2106.5</ele></trkpt>
      <trkpt lat="46.59122755103398" lon="7.958921659710787">
      <ele>2106.5</ele></trkpt>
      <trkpt lat="46.59121597181115" lon="7.958953518329663">
      <ele>2106.6</ele></trkpt>
      <trkpt lat="46.591187397578565" lon="7.958995652644855">
      <ele>2106.7</ele></trkpt>
      <trkpt lat="46.59113158393278" lon="7.959063414012814">
      <ele>2106.8</ele></trkpt>
      <trkpt lat="46.591095828401514" lon="7.959110059296289">
      <ele>2106.9</ele></trkpt>
      <trkpt lat="46.59104994612052" lon="7.959177798548176">
      <ele>2106.9</ele></trkpt>
      <trkpt lat="46.5910197520998" lon="7.9592200344703485">
      <ele>2107.0</ele></trkpt>
      <trkpt lat="46.59099362741704" lon="7.959247786061675">
      <ele>2107.1</ele></trkpt>
      <trkpt lat="46.59096572869831" lon="7.959264141904514">
      <ele>2107.6</ele></trkpt>
      <trkpt lat="46.59091333370104" lon="7.95927476840356">
      <ele>2108.1</ele></trkpt>
      <trkpt lat="46.59086759555036" lon="7.95928146598592">
      <ele>2108.6</ele></trkpt>
      <trkpt lat="46.59082490344477" lon="7.9592948347489845">
      <ele>2109.1</ele></trkpt>
      <trkpt lat="46.59075291539457" lon="7.959303550178102">
      <ele>2109.6</ele></trkpt>
      <trkpt lat="46.59068479650699" lon="7.959302216066315">
      <ele>2110.0</ele></trkpt>
      <trkpt lat="46.5906351066268" lon="7.959295709296132">
      <ele>2110.5</ele></trkpt>
      <trkpt lat="46.59057010947848" lon="7.9592884288830215">
      <ele>2111.0</ele></trkpt>
      <trkpt lat="46.590534007480095" lon="7.959277055209855">
      <ele>2111.5</ele></trkpt>
      <trkpt lat="46.59048191941059" lon="7.959254005630451">
      <ele>2112.0</ele></trkpt>
      <trkpt lat="46.5904442494539" lon="7.959245187521246">
      <ele>2112.5</ele></trkpt>
      <trkpt lat="46.59041851861755" lon="7.959245827235143">
      <ele>2113.0</ele></trkpt>
      <trkpt lat="46.590388236884195" lon="7.959263960703445">
      <ele>2113.5</ele></trkpt>
      <trkpt lat="46.590334952010686" lon="7.95930393823047">
      <ele>2114.0</ele></trkpt>
      <trkpt lat="46.59030591993368" lon="7.959334036320884">
      <ele>2114.4</ele></trkpt>
      <trkpt lat="46.59027872402633" lon="7.959379640911582">
      <ele>2114.9</ele></trkpt>
      <trkpt lat="46.590251805306245" lon="7.959443307577877">
      <ele>2115.4</ele></trkpt>
      <trkpt lat="46.59022998597417" lon="7.959507232055821">
      <ele>2115.9</ele></trkpt>
      <trkpt lat="46.590198439795984" lon="7.9595834721622545">
      <ele>2116.4</ele></trkpt>
      <trkpt lat="46.59016155054375" lon="7.959643884826239">
      <ele>2116.9</ele></trkpt>
      <trkpt lat="46.59013806130842" lon="7.959685440593083">
      <ele>2116.5</ele></trkpt>
      <trkpt lat="46.590104860869296" lon="7.959741791358646">
      <ele>2116.1</ele></trkpt>
      <trkpt lat="46.590085804203596" lon="7.959775991125593">
      <ele>2115.7</ele></trkpt>
      <trkpt lat="46.590047555238485" lon="7.9598170261801">
      <ele>2115.2</ele></trkpt>
      <trkpt lat="46.59000352135423" lon="7.9598660564789645">
      <ele>2114.8</ele></trkpt>
      <trkpt lat="46.58998592062981" lon="7.959878935583981">
      <ele>2114.4</ele></trkpt>
      <trkpt lat="46.58997594686544" lon="7.95988623808915">
      <ele>2114.0</ele></trkpt>
      <trkpt lat="46.589944286157746" lon="7.9599147445019725">
      <ele>2113.6</ele></trkpt>
      <trkpt lat="46.589920229851444" lon="7.959979925641288">
      <ele>2113.2</ele></trkpt>
      <trkpt lat="46.58990335860918" lon="7.96005351405933">
      <ele>2112.8</ele></trkpt>
      <trkpt lat="46.589894978583246" lon="7.960084058482623">
      <ele>2112.3</ele></trkpt>
      <trkpt lat="46.58985208469366" lon="7.9601198550437475">
      <ele>2111.9</ele></trkpt>
      <trkpt lat="46.589805487743696" lon="7.960166733286016">
      <ele>2111.5</ele></trkpt>
      <trkpt lat="46.589748799624125" lon="7.9602288593367705">
      <ele>2111.1</ele></trkpt>
      <trkpt lat="46.589719609187036" lon="7.96025223504601">
      <ele>2110.7</ele></trkpt>
      <trkpt lat="46.58966407902139" lon="7.960279558417907">
      <ele>2110.3</ele></trkpt>
      <trkpt lat="46.58963769606083" lon="7.960300795067563">
      <ele>2109.8</ele></trkpt>
      <trkpt lat="46.589583995462895" lon="7.960380369446742">
      <ele>2109.4</ele></trkpt>
      <trkpt lat="46.58952343605472" lon="7.960439221639019">
      <ele>2109.0</ele></trkpt>
      <trkpt lat="46.58946924916726" lon="7.96045805002185">
      <ele>2108.6</ele></trkpt>
      <trkpt lat="46.58939766022266" lon="7.96044639877545">
      <ele>2107.8</ele></trkpt>
      <trkpt lat="46.58935177395898" lon="7.960426513913106">
      <ele>2107.0</ele></trkpt>
      <trkpt lat="46.58930332135535" lon="7.960428773753072">
      <ele>2106.1</ele></trkpt>
      <trkpt lat="46.58926889250309" lon="7.960446879237567">
      <ele>2105.3</ele></trkpt>
      <trkpt lat="46.58923928138015" lon="7.9604835208837414">
      <ele>2104.5</ele></trkpt>
      <trkpt lat="46.58920529469342" lon="7.960538609987882">
      <ele>2103.7</ele></trkpt>
      <trkpt lat="46.589160797307976" lon="7.960610182233877">
      <ele>2102.9</ele></trkpt>
      <trkpt lat="46.58911888632347" lon="7.9606513111512855">
      <ele>2102.0</ele></trkpt>
      <trkpt lat="46.589083229756405" lon="7.960670344075619">
      <ele>2101.2</ele></trkpt>
      <trkpt lat="46.58899979572987" lon="7.960699380804736">
      <ele>2100.4</ele></trkpt>
      <trkpt lat="46.58890233925962" lon="7.960720139918267">
      <ele>2099.6</ele></trkpt>
      <trkpt lat="46.5888040822563" lon="7.960740878183407">
      <ele>2098.8</ele></trkpt>
      <trkpt lat="46.58874117817659" lon="7.960763679933578">
      <ele>2097.9</ele></trkpt>
      <trkpt lat="46.58867609064675" lon="7.9607898531317245">
      <ele>2097.1</ele></trkpt>
      <trkpt lat="46.58863535849453" lon="7.960801464505333">
      <ele>2096.3</ele></trkpt>
      <trkpt lat="46.588599565451894" lon="7.96079925314496">
      <ele>2095.5</ele></trkpt>
      <trkpt lat="46.58856201034008" lon="7.960785033364703">
      <ele>2094.7</ele></trkpt>
      <trkpt lat="46.588508754130515" lon="7.960755878332916">
      <ele>2093.8</ele></trkpt>
      <trkpt lat="46.588460889812595" lon="7.960739706261974">
      <ele>2093.0</ele></trkpt>
      <trkpt lat="46.58842326584032" lon="7.960736576948479">
      <ele>2092.2</ele></trkpt>
      <trkpt lat="46.58837715509839" lon="7.960734266074239">
      <ele>2091.5</ele></trkpt>
      <trkpt lat="46.58834019423129" lon="7.960721891939134">
      <ele>2090.8</ele></trkpt>
      <trkpt lat="46.58829238976242" lon="7.960694629499697">
      <ele>2090.2</ele></trkpt>
      <trkpt lat="46.588245808098904" lon="7.960665539102989">
      <ele>2089.5</ele></trkpt>
      <trkpt lat="46.58820559286823" lon="7.960646818294563">
      <ele>2088.8</ele></trkpt>
      <trkpt lat="46.588178917959546" lon="7.96063950182923">
      <ele>2088.1</ele></trkpt>
      <trkpt lat="46.588111770564495" lon="7.960620521226655">
      <ele>2087.4</ele></trkpt>
      <trkpt lat="46.58805252360404" lon="7.960604996376298">
      <ele>2086.8</ele></trkpt>
      <trkpt lat="46.588039091068694" lon="7.9606014742522495">
      <ele>2086.1</ele></trkpt>
      <trkpt lat="46.587984082496575" lon="7.96055032962331">
      <ele>2085.4</ele></trkpt>
      <trkpt lat="46.58793377999093" lon="7.960475352322035">
      <ele>2084.7</ele></trkpt>
      <trkpt lat="46.58786354680099" lon="7.960332763098255">
      <ele>2084.0</ele></trkpt>
      <trkpt lat="46.58781316045356" lon="7.960276052770068">
      <ele>2083.4</ele></trkpt>
      <trkpt lat="46.58777322106863" lon="7.960244234727593">
      <ele>2082.7</ele></trkpt>
      <trkpt lat="46.58769025918435" lon="7.9602370021862505">
      <ele>2082.0</ele></trkpt>
      <trkpt lat="46.58758416089526" lon="7.960255133935239">
      <ele>2081.3</ele></trkpt>
      <trkpt lat="46.587480385993985" lon="7.960260944539215">
      <ele>2080.6</ele></trkpt>
      <trkpt lat="46.587408774267764" lon="7.960260149742908">
      <ele>2080.0</ele></trkpt>
      <trkpt lat="46.587320719511695" lon="7.960245339411851">
      <ele>2079.3</ele></trkpt>
      <trkpt lat="46.58721604247293" lon="7.960249745172381">
      <ele>2078.6</ele></trkpt>
      <trkpt lat="46.58705444677699" lon="7.960250744666441">
      <ele>2077.8</ele></trkpt>
      <trkpt lat="46.586898028312326" lon="7.960262506417505">
      <ele>2077.0</ele></trkpt>
      <trkpt lat="46.58676448703322" lon="7.960319216856484">
      <ele>2076.2</ele></trkpt>
      <trkpt lat="46.58663660182802" lon="7.960384266952927">
      <ele>2075.4</ele></trkpt>
      <trkpt lat="46.586568910438814" lon="7.960423123084613">
      <ele>2074.7</ele></trkpt>
      <trkpt lat="46.58654568319937" lon="7.960448668577578">
      <ele>2073.9</ele></trkpt>
      <trkpt lat="46.58650292933851" lon="7.960422486770879">
      <ele>2073.1</ele></trkpt>
      <trkpt lat="46.58646832259339" lon="7.960396970723524">
      <ele>2072.3</ele></trkpt>
      <trkpt lat="46.586403453913334" lon="7.96034596757364">
      <ele>2071.5</ele></trkpt>
      <trkpt lat="46.58633589246069" lon="7.960311326613532">
      <ele>2070.7</ele></trkpt>
      <trkpt lat="46.58627352204332" lon="7.960280506595707">
      <ele>2069.9</ele></trkpt>
      <trkpt lat="46.586200677278136" lon="7.960262176759737">
      <ele>2069.1</ele></trkpt>
      <trkpt lat="46.58609732656667" lon="7.960257866247927">
      <ele>2068.3</ele></trkpt>
      <trkpt lat="46.58603997258038" lon="7.960274862500269">
      <ele>2067.5</ele></trkpt>
      <trkpt lat="46.58596026414606" lon="7.960333069648481">
      <ele>2066.8</ele></trkpt>
      <trkpt lat="46.585886233376215" lon="7.960418457515199">
      <ele>2066.0</ele></trkpt>
      <trkpt lat="46.58581520289561" lon="7.960542051566536">
      <ele>2065.2</ele></trkpt>
      <trkpt lat="46.585778749847755" lon="7.960621003620904">
      <ele>2064.4</ele></trkpt>
      <trkpt lat="46.58576928674025" lon="7.96066798827636">
      <ele>2063.6</ele></trkpt>
      <trkpt lat="46.585717515345" lon="7.960668141154618">
      <ele>2062.8</ele></trkpt>
      <trkpt lat="46.58564109450911" lon="7.9607254005295625">
      <ele>2062.7</ele></trkpt>
      <trkpt lat="46.58555887288894" lon="7.960801940317548">
      <ele>2062.5</ele></trkpt>
      <trkpt lat="46.58549566011938" lon="7.960884182480446">
      <ele>2062.3</ele></trkpt>
      <trkpt lat="46.58544379539159" lon="7.960983104429072">
      <ele>2062.2</ele></trkpt>
      <trkpt lat="46.58539690363944" lon="7.9610902158900005">
      <ele>2062.1</ele></trkpt>
      <trkpt lat="46.58534935415816" lon="7.961138737281875">
      <ele>2061.9</ele></trkpt>
      <trkpt lat="46.58533330265865" lon="7.961153117248669">
      <ele>2061.8</ele></trkpt>
      <trkpt lat="46.5852028514891" lon="7.961261639313607">
      <ele>2061.6</ele></trkpt>
    </trkseg>
  </trk>
</gpx>