<?xml version="1.0" encoding="UTF-8"?>
<gpx version="1.1" creator="hike-planner" xmlns="http://www.topografix.com/GPX/1/1">
  <metadata><name>Vitznau -> Rigi</name>
    <desc>Routed from OSM (ODbL); elevations from SwissTopo / Open-Elevation</desc>
  </metadata>
  <wpt lat="47.427300" lon="8.468404">
    <ele>461.7</ele>
    <name>Vitznau</name>
  </wpt>
  <wpt lat="47.418402" lon="8.459727">
    <ele>531.1</ele>
    <name>Rigi</name>
  </wpt>
  <trk>
    <name>Vitznau -> Rigi</name>
    <trkseg>
      <trkpt lat="47.427300" lon="8.468404">
        <ele>461.7</ele>
      </trkpt>
      <trkpt lat="47.427287" lon="8.467937">
        <ele>463.9</ele>
      </trkpt>
      <trkpt lat="47.427297" lon="8.467676">
        <ele>465.4</ele>
      </trkpt>
      <trkpt lat="47.427320" lon="8.467156">
        <ele>468.3</ele>
      </trkpt>
      <trkpt lat="47.427329" lon="8.466906">
        <ele>469.5</ele>
      </trkpt>
      <trkpt lat="47.427317" lon="8.466628">
        <ele>471.0</ele>
      </trkpt>
      <trkpt lat="47.427297" lon="8.466394">
        <ele>472.1</ele>
      </trkpt>
      <trkpt lat="47.427287" lon="8.466306">
        <ele>472.5</ele>
      </trkpt>
      <trkpt lat="47.427249" lon="8.466315">
        <ele>472.1</ele>
      </trkpt>
      <trkpt lat="47.427212" lon="8.466321">
        <ele>472.3</ele>
      </trkpt>
      <trkpt lat="47.427199" lon="8.466247">
        <ele>472.6</ele>
      </trkpt>
      <trkpt lat="47.427173" lon="8.466067">
        <ele>473.6</ele>
      </trkpt>
      <trkpt lat="47.427112" lon="8.465823">
        <ele>474.9</ele>
      </trkpt>
      <trkpt lat="47.427075" lon="8.465704">
        <ele>475.7</ele>
      </trkpt>
      <trkpt lat="47.427067" lon="8.465678">
        <ele>475.8</ele>
      </trkpt>
      <trkpt lat="47.427030" lon="8.465679">
        <ele>476.4</ele>
      </trkpt>
      <trkpt lat="47.427003" lon="8.465680">
        <ele>477.2</ele>
      </trkpt>
      <trkpt lat="47.426552" lon="8.465688">
        <ele>487.0</ele>
      </trkpt>
      <trkpt lat="47.426490" lon="8.465712">
        <ele>488.3</ele>
      </trkpt>
      <trkpt lat="47.426467" lon="8.465721">
        <ele>488.8</ele>
      </trkpt>
      <trkpt lat="47.426283" lon="8.465712">
        <ele>493.4</ele>
      </trkpt>
      <trkpt lat="47.426093" lon="8.465736">
        <ele>496.8</ele>
      </trkpt>
      <trkpt lat="47.425950" lon="8.465761">
        <ele>500.0</ele>
      </trkpt>
      <trkpt lat="47.425850" lon="8.465788">
        <ele>502.4</ele>
      </trkpt>
      <trkpt lat="47.425661" lon="8.465845">
        <ele>506.3</ele>
      </trkpt>
      <trkpt lat="47.425580" lon="8.465848">
        <ele>508.0</ele>
      </trkpt>
      <trkpt lat="47.425478" lon="8.465817">
        <ele>509.7</ele>
      </trkpt>
      <trkpt lat="47.425422" lon="8.465792">
        <ele>510.6</ele>
      </trkpt>
      <trkpt lat="47.425269" lon="8.465804">
        <ele>513.3</ele>
      </trkpt>
      <trkpt lat="47.425090" lon="8.465805">
        <ele>516.2</ele>
      </trkpt>
      <trkpt lat="47.424851" lon="8.465808">
        <ele>520.2</ele>
      </trkpt>
      <trkpt lat="47.424754" lon="8.465818">
        <ele>521.8</ele>
      </trkpt>
      <trkpt lat="47.424616" lon="8.465846">
        <ele>524.2</ele>
      </trkpt>
      <trkpt lat="47.424397" lon="8.465915">
        <ele>528.0</ele>
      </trkpt>
      <trkpt lat="47.424274" lon="8.465952">
        <ele>530.0</ele>
      </trkpt>
      <trkpt lat="47.424197" lon="8.465968">
        <ele>531.3</ele>
      </trkpt>
      <trkpt lat="47.424113" lon="8.465979">
        <ele>532.9</ele>
      </trkpt>
      <trkpt lat="47.424059" lon="8.465996">
        <ele>534.0</ele>
      </trkpt>
      <trkpt lat="47.423953" lon="8.466062">
        <ele>536.1</ele>
      </trkpt>
      <trkpt lat="47.423860" lon="8.466136">
        <ele>538.1</ele>
      </trkpt>
      <trkpt lat="47.423693" lon="8.466252">
        <ele>541.9</ele>
      </trkpt>
      <trkpt lat="47.423614" lon="8.466278">
        <ele>543.6</ele>
      </trkpt>
      <trkpt lat="47.423541" lon="8.466293">
        <ele>545.3</ele>
      </trkpt>
      <trkpt lat="47.423443" lon="8.466308">
        <ele>547.1</ele>
      </trkpt>
      <trkpt lat="47.423344" lon="8.466277">
        <ele>548.1</ele>
      </trkpt>
      <trkpt lat="47.423145" lon="8.466230">
        <ele>551.3</ele>
      </trkpt>
      <trkpt lat="47.422850" lon="8.466155">
        <ele>557.7</ele>
      </trkpt>
      <trkpt lat="47.422751" lon="8.466124">
        <ele>559.3</ele>
      </trkpt>
      <trkpt lat="47.422455" lon="8.465976">
        <ele>566.2</ele>
      </trkpt>
      <trkpt lat="47.422195" lon="8.465833">
        <ele>573.5</ele>
      </trkpt>
      <trkpt lat="47.422058" lon="8.465753">
        <ele>576.6</ele>
      </trkpt>
      <trkpt lat="47.422007" lon="8.465720">
        <ele>577.7</ele>
      </trkpt>
      <trkpt lat="47.421974" lon="8.465706">
        <ele>578.3</ele>
      </trkpt>
      <trkpt lat="47.421883" lon="8.465713">
        <ele>580.0</ele>
      </trkpt>
      <trkpt lat="47.421791" lon="8.465726">
        <ele>581.5</ele>
      </trkpt>
      <trkpt lat="47.421638" lon="8.465697">
        <ele>583.2</ele>
      </trkpt>
      <trkpt lat="47.421503" lon="8.465662">
        <ele>584.2</ele>
      </trkpt>
      <trkpt lat="47.421416" lon="8.465595">
        <ele>584.6</ele>
      </trkpt>
      <trkpt lat="47.421292" lon="8.465653">
        <ele>584.4</ele>
      </trkpt>
      <trkpt lat="47.421133" lon="8.465729">
        <ele>584.0</ele>
      </trkpt>
      <trkpt lat="47.421038" lon="8.465790">
        <ele>583.6</ele>
      </trkpt>
      <trkpt lat="47.420930" lon="8.465831">
        <ele>583.0</ele>
      </trkpt>
      <trkpt lat="47.420817" lon="8.465848">
        <ele>582.3</ele>
      </trkpt>
      <trkpt lat="47.420720" lon="8.465868">
        <ele>581.7</ele>
      </trkpt>
      <trkpt lat="47.420634" lon="8.465851">
        <ele>581.5</ele>
      </trkpt>
      <trkpt lat="47.420480" lon="8.465806">
        <ele>580.6</ele>
      </trkpt>
      <trkpt lat="47.420368" lon="8.465788">
        <ele>579.9</ele>
      </trkpt>
      <trkpt lat="47.420274" lon="8.465771">
        <ele>579.2</ele>
      </trkpt>
      <trkpt lat="47.420156" lon="8.465738">
        <ele>578.2</ele>
      </trkpt>
      <trkpt lat="47.420131" lon="8.465733">
        <ele>577.7</ele>
      </trkpt>
      <trkpt lat="47.420041" lon="8.465716">
        <ele>576.6</ele>
      </trkpt>
      <trkpt lat="47.419930" lon="8.465653">
        <ele>575.3</ele>
      </trkpt>
      <trkpt lat="47.419862" lon="8.465576">
        <ele>574.7</ele>
      </trkpt>
      <trkpt lat="47.419795" lon="8.465502">
        <ele>574.3</ele>
      </trkpt>
      <trkpt lat="47.419682" lon="8.465329">
        <ele>573.1</ele>
      </trkpt>
      <trkpt lat="47.419575" lon="8.465129">
        <ele>572.0</ele>
      </trkpt>
      <trkpt lat="47.419483" lon="8.464905">
        <ele>570.7</ele>
      </trkpt>
      <trkpt lat="47.419411" lon="8.464664">
        <ele>569.9</ele>
      </trkpt>
      <trkpt lat="47.419323" lon="8.464340">
        <ele>568.4</ele>
      </trkpt>
      <trkpt lat="47.419271" lon="8.464104">
        <ele>567.6</ele>
      </trkpt>
      <trkpt lat="47.419233" lon="8.463647">
        <ele>566.7</ele>
      </trkpt>
      <trkpt lat="47.419193" lon="8.463284">
        <ele>566.8</ele>
      </trkpt>
      <trkpt lat="47.419144" lon="8.462993">
        <ele>565.9</ele>
      </trkpt>
      <trkpt lat="47.418978" lon="8.462493">
        <ele>561.2</ele>
      </trkpt>
      <trkpt lat="47.418926" lon="8.462293">
        <ele>560.1</ele>
      </trkpt>
      <trkpt lat="47.418915" lon="8.462187">
        <ele>559.8</ele>
      </trkpt>
      <trkpt lat="47.418886" lon="8.462077">
        <ele>559.4</ele>
      </trkpt>
      <trkpt lat="47.418859" lon="8.462004">
        <ele>558.6</ele>
      </trkpt>
      <trkpt lat="47.418805" lon="8.461887">
        <ele>556.1</ele>
      </trkpt>
      <trkpt lat="47.418769" lon="8.461802">
        <ele>554.1</ele>
      </trkpt>
      <trkpt lat="47.418513" lon="8.461379">
        <ele>544.2</ele>
      </trkpt>
      <trkpt lat="47.418294" lon="8.461034">
        <ele>534.7</ele>
      </trkpt>
      <trkpt lat="47.418258" lon="8.460972">
        <ele>533.3</ele>
      </trkpt>
      <trkpt lat="47.418188" lon="8.460852">
        <ele>531.0</ele>
      </trkpt>
      <trkpt lat="47.418085" lon="8.460636">
        <ele>527.1</ele>
      </trkpt>
      <trkpt lat="47.417968" lon="8.460348">
        <ele>522.9</ele>
      </trkpt>
      <trkpt lat="47.418210" lon="8.459991">
        <ele>527.5</ele>
      </trkpt>
      <trkpt lat="47.418402" lon="8.459727">
        <ele>531.1</ele>
      </trkpt>
    </trkseg>
  </trk>
</gpx>
