<?xml version='1.0' encoding='utf-8'?>
<gpx xmlns="http://www.topografix.com/GPX/1/1" xmlns:xsi="http://www.w3.org/2001/XMLSchema-instance" xsi:schemaLocation="http://www.topografix.com/GPX/1/1 http://www.topografix.com/GPX/1/1/gpx.xsd" version="1.1" creator="gpx.py -- https://github.com/tkrajina/gpxpy">
  <trk>
    <name>bunderspitz</name>
    <trkseg>
      <trkpt lat="46.492349223284684" lon="7.64978726658298">
      <ele>1723.3</ele></trkpt>
    <trkpt lat="46.49233685402434" lon="7.649768032677828">
      <ele>1724.1</ele></trkpt>
      <trkpt lat="46.49232222077215" lon="7.649727858907754">
      <ele>1724.8</ele></trkpt>
      <trkpt lat="46.492308694266825" lon="7.649619699372419">
      <ele>1725.6</ele></trkpt>
      <trkpt lat="46.49231202613468" lon="7.649549976901164">
      <ele>1726.4</ele></trkpt>
      <trkpt lat="46.49233446418264" lon="7.649461143020655">
      <ele>1727.1</ele></trkpt>
      <trkpt lat="46.49234405345547" lon="7.649422392072882">
      <ele>1727.9</ele></trkpt>
      <trkpt lat="46.492356887406345" lon="7.649370563668045">
      <ele>1728.6</ele></trkpt>
      <trkpt lat="46.49236137395758" lon="7.6493426816995544">
      <ele>1729.4</ele></trkpt>
      <trkpt lat="46.492365852193046" lon="7.649309576694766">
      <ele>1730.2</ele></trkpt>
      <trkpt lat="46.49235572162067" lon="7.649276401889136">
      <ele>1730.9</ele></trkpt>
      <trkpt lat="46.49232424705323" lon="7.649246634845651">
      <ele>1731.7</ele></trkpt>
      <trkpt lat="46.49231075211541" lon="7.649213447007193">
      <ele>1732.5</ele></trkpt>
      <trkpt lat="46.492302867857155" lon="7.649176803324697">
      <ele>1733.2</ele></trkpt>
      <trkpt lat="46.4923095905581" lon="7.649131502706118">
      <ele>1734.0</ele></trkpt>
      <trkpt lat="46.49230845483708" lon="7.649103585887062">
      <ele>1734.7</ele></trkpt>
      <trkpt lat="46.49229831588441" lon="7.649065188129863">
      <ele>1735.5</ele></trkpt>
      <trkpt lat="46.49230055416368" lon="7.649032061421557">
      <ele>1736.3</ele></trkpt>
      <trkpt lat="46.49231513894415" lon="7.648986791297509">
      <ele>1737.0</ele></trkpt>
      <trkpt lat="46.492344344060726" lon="7.648945068555514">
      <ele>1737.8</ele></trkpt>
      <trkpt lat="46.49238474465004" lon="7.648842341301032">
      <ele>1739.1</ele></trkpt>
      <trkpt lat="46.49240381373099" lon="7.6487848840688475">
      <ele>1740.4</ele></trkpt>
      <trkpt lat="46.49241388039628" lon="7.648687275065296">
      <ele>1741.7</ele></trkpt>
      <trkpt lat="46.49243406445885" lon="7.648586214527143">
      <ele>1743.0</ele></trkpt>
      <trkpt lat="46.492460999421574" lon="7.648521819258743">
      <ele>1744.2</ele></trkpt>
      <trkpt lat="46.49247107343157" lon="7.64845909097868">
      <ele>1745.5</ele></trkpt>
      <trkpt lat="46.49247554060748" lon="7.648392850288112">
      <ele>1746.8</ele></trkpt>
      <trkpt lat="46.492489005238475" lon="7.648335358095583">
      <ele>1748.1</ele></trkpt>
      <trkpt lat="46.49249568022077" lon="7.648213326953243">
      <ele>1749.4</ele></trkpt>
      <trkpt lat="46.49251017927857" lon="7.647984977131803">
      <ele>1750.7</ele></trkpt>
      <trkpt lat="46.49251798735179" lon="7.6478629372487585">
      <ele>1752.0</ele></trkpt>
      <trkpt lat="46.492517898865025" lon="7.647676380231484">
      <ele>1753.3</ele></trkpt>
      <trkpt lat="46.49252233905113" lon="7.647556072653507">
      <ele>1754.6</ele></trkpt>
      <trkpt lat="46.492531293746" lon="7.64747067635516">
      <ele>1755.9</ele></trkpt>
      <trkpt lat="46.49254136323047" lon="7.647390507338104">
      <ele>1757.1</ele></trkpt>
      <trkpt lat="46.49254620222955" lon="7.647366377663707">
      <ele>1758.4</ele></trkpt>
      <trkpt lat="46.492558440109455" lon="7.64721241740644">
      <ele>1759.7</ele></trkpt>
      <trkpt lat="46.49255851019592" lon="7.647081060736533">
      <ele>1761.0</ele></trkpt>
      <trkpt lat="46.4925576051295" lon="7.646917242065815">
      <ele>1762.3</ele></trkpt>
      <trkpt lat="46.49255566088979" lon="7.646878615526869">
      <ele>1763.6</ele></trkpt>
      <trkpt lat="46.49255074296427" lon="7.646847688356459">
      <ele>1764.8</ele></trkpt>
      <trkpt lat="46.492528100100145" lon="7.646784300005176">
      <ele>1766.0</ele></trkpt>
      <trkpt lat="46.492502478293396" lon="7.646736386958078">
      <ele>1767.3</ele></trkpt>
      <trkpt lat="46.49248769544909" lon="7.646708547954887">
      <ele>1768.5</ele></trkpt>
      <trkpt lat="46.49248377312554" lon="7.646679187655646">
      <ele>1769.7</ele></trkpt>
      <trkpt lat="46.4924847976604" lon="7.646615825139637">
      <ele>1770.9</ele></trkpt>
      <trkpt lat="46.49247892690124" lon="7.646510717218387">
      <ele>1772.1</ele></trkpt>
      <trkpt lat="46.49247308761376" lon="7.646393261778105">
      <ele>1773.4</ele></trkpt>
      <trkpt lat="46.49247116570889" lon="7.646288169032175">
      <ele>1774.6</ele></trkpt>
      <trkpt lat="46.49246330515131" lon="7.64622326160143">
      <ele>1775.8</ele></trkpt>
      <trkpt lat="46.49245250548674" lon="7.646127421692372">
      <ele>1777.0</ele></trkpt>
      <trkpt lat="46.492446648720694" lon="7.6460439744408335">
      <ele>1778.2</ele></trkpt>
      <trkpt lat="46.49245064107629" lon="7.645951239011252">
      <ele>1779.5</ele></trkpt>
      <trkpt lat="46.49246451236601" lon="7.645822983198733">
      <ele>1780.7</ele></trkpt>
      <trkpt lat="46.49248430039801" lon="7.645700897705487">
      <ele>1781.9</ele></trkpt>
      <trkpt lat="46.49249914119223" lon="7.645608177560711">
      <ele>1783.1</ele></trkpt>
      <trkpt lat="46.49251099580062" lon="7.645569564716471">
      <ele>1784.3</ele></trkpt>
      <trkpt lat="46.49256925281514" lon="7.6454552323925515">
      <ele>1785.6</ele></trkpt>
      <trkpt lat="46.49263242919719" lon="7.645331631759031">
      <ele>1786.8</ele></trkpt>
      <trkpt lat="46.49267686472902" lon="7.645234309010107">
      <ele>1788.0</ele></trkpt>
      <trkpt lat="46.49269069490053" lon="7.645192590508405">
      <ele>1789.7</ele></trkpt>
      <trkpt lat="46.49270651361647" lon="7.6451307819615675">
      <ele>1791.5</ele></trkpt>
      <trkpt lat="46.492735183445284" lon="7.644991718809062">
      <ele>1793.2</ele></trkpt>
      <trkpt lat="46.49275497899848" lon="7.644864995524736">
      <ele>1794.9</ele></trkpt>
      <trkpt lat="46.492780750746846" lon="7.644622372069604">
      <ele>1796.7</ele></trkpt>
      <trkpt lat="46.49279561787664" lon="7.644484832071827">
      <ele>1798.4</ele></trkpt>
      <trkpt lat="46.492792697693595" lon="7.644418380269517">
      <ele>1800.1</ele></trkpt>
      <trkpt lat="46.492784838873845" lon="7.644351922756385">
      <ele>1801.8</ele></trkpt>
      <trkpt lat="46.49276614065168" lon="7.644265365591382">
      <ele>1803.6</ele></trkpt>
      <trkpt lat="46.49273758659499" lon="7.644181871068344">
      <ele>1805.3</ele></trkpt>
      <trkpt lat="46.49269425729768" lon="7.64406594044535">
      <ele>1807.0</ele></trkpt>
      <trkpt lat="46.49266176174749" lon="7.643973183453152">
      <ele>1808.8</ele></trkpt>
      <trkpt lat="46.49263222440119" lon="7.643871177000212">
      <ele>1810.5</ele></trkpt>
      <trkpt lat="46.492597771616055" lon="7.643741330678732">
      <ele>1812.2</ele></trkpt>
      <trkpt lat="46.49256923198678" lon="7.643634665302896">
      <ele>1813.9</ele></trkpt>
      <trkpt lat="46.492542632913924" lon="7.6435542787522515">
      <ele>1815.7</ele></trkpt>
      <trkpt lat="46.49249535881532" lon="7.6434306233662666">
      <ele>1817.4</ele></trkpt>
      <trkpt lat="46.49244609703561" lon="7.64333166902696">
      <ele>1819.1</ele></trkpt>
      <trkpt lat="46.4924234430079" lon="7.64328837972601">
      <ele>1820.9</ele></trkpt>
      <trkpt lat="46.49240965244948" lon="7.64324354790064">
      <ele>1822.6</ele></trkpt>
      <trkpt lat="46.49238800706119" lon="7.643144632958065">
      <ele>1823.6</ele></trkpt>
      <trkpt lat="46.492344714730145" lon="7.6429375165310125">
      <ele>1824.7</ele></trkpt>
      <trkpt lat="46.49231423162078" lon="7.642770578448124">
      <ele>1825.7</ele></trkpt>
      <trkpt lat="46.49228866189732" lon="7.642617556626718">
      <ele>1826.7</ele></trkpt>
      <trkpt lat="46.4922694423835" lon="7.642540038184003">
      <ele>1827.8</ele></trkpt>
      <trkpt lat="46.49225030880808" lon="7.64249482188548">
      <ele>1828.8</ele></trkpt>
      <trkpt lat="46.49223592860746" lon="7.642477640056437">
      <ele>1829.8</ele></trkpt>
      <trkpt lat="46.4922077112596" lon="7.642461487271264">
      <ele>1830.9</ele></trkpt>
      <trkpt lat="46.492193721914255" lon="7.642462111961527">
      <ele>1831.9</ele></trkpt>
      <trkpt lat="46.492182768099966" lon="7.642465522367465">
      <ele>1832.9</ele></trkpt>
      <trkpt lat="46.49217132887603" lon="7.642473750154683">
      <ele>1834.0</ele></trkpt>
      <trkpt lat="46.4921433266137" lon="7.642508199857872">
      <ele>1835.0</ele></trkpt>
      <trkpt lat="46.492106381540104" lon="7.642543280152929">
      <ele>1836.1</ele></trkpt>
      <trkpt lat="46.492086309232064" lon="7.642565021295791">
      <ele>1837.1</ele></trkpt>
      <trkpt lat="46.49206203603315" lon="7.642581705995308">
      <ele>1838.1</ele></trkpt>
      <trkpt lat="46.49203354405521" lon="7.64258325295047">
      <ele>1839.2</ele></trkpt>
      <trkpt lat="46.491953348481296" lon="7.642587939723847">
      <ele>1840.2</ele></trkpt>
      <trkpt lat="46.49188475112224" lon="7.642606085686227">
      <ele>1841.2</ele></trkpt>
      <trkpt lat="46.491820363564926" lon="7.642634341667163">
      <ele>1842.3</ele></trkpt>
      <trkpt lat="46.49178236618947" lon="7.642644240781174">
      <ele>1843.3</ele></trkpt>
      <trkpt lat="46.49171484242501" lon="7.64264561474336">
      <ele>1844.9</ele></trkpt>
      <trkpt lat="46.491665252947136" lon="7.642633640693085">
      <ele>1846.5</ele></trkpt>
      <trkpt lat="46.49161988546841" lon="7.642609947249544">
      <ele>1848.1</ele></trkpt>
      <trkpt lat="46.49158190634981" lon="7.642584614477453">
      <ele>1849.7</ele></trkpt>
      <trkpt lat="46.491544988753326" lon="7.642554245161559">
      <ele>1851.3</ele></trkpt>
      <trkpt lat="46.49151440702893" lon="7.642527247074087">
      <ele>1852.9</ele></trkpt>
      <trkpt lat="46.49149121069439" lon="7.642495249250164">
      <ele>1854.5</ele></trkpt>
      <trkpt lat="46.4914775046221" lon="7.642468340730968">
      <ele>1856.1</ele></trkpt>
      <trkpt lat="46.49147012250197" lon="7.642431387895692">
      <ele>1857.7</ele></trkpt>
      <trkpt lat="46.491473331342235" lon="7.642367617911802">
      <ele>1859.3</ele></trkpt>
      <trkpt lat="46.49148813247021" lon="7.642295516580172">
      <ele>1861.0</ele></trkpt>
      <trkpt lat="46.491535701814435" lon="7.642139632947533">
      <ele>1862.6</ele></trkpt>
      <trkpt lat="46.49157058102824" lon="7.642037402447173">
      <ele>1864.2</ele></trkpt>
      <trkpt lat="46.491583273974484" lon="7.6419720007324905">
      <ele>1865.8</ele></trkpt>
      <trkpt lat="46.49159705848395" lon="7.641824364819708">
      <ele>1867.4</ele></trkpt>
      <trkpt lat="46.49161407513869" lon="7.641574379410863">
      <ele>1869.0</ele></trkpt>
      <trkpt lat="46.49161947502454" lon="7.641331032107195">
      <ele>1870.6</ele></trkpt>
      <trkpt lat="46.49161853248706" lon="7.6410826204890805">
      <ele>1872.2</ele></trkpt>
      <trkpt lat="46.491621808492326" lon="7.640859414491739">
      <ele>1873.8</ele></trkpt>
      <trkpt lat="46.4916197330544" lon="7.640797304724891">
      <ele>1875.4</ele></trkpt>
      <trkpt lat="46.49161342979912" lon="7.640750274887264">
      <ele>1876.8</ele></trkpt>
      <trkpt lat="46.49160500952861" lon="7.640704943410973">
      <ele>1878.2</ele></trkpt>
      <trkpt lat="46.491580786698584" lon="7.640617548253307">
      <ele>1879.6</ele></trkpt>
      <trkpt lat="46.491546011853835" lon="7.64052005877591">
      <ele>1881.0</ele></trkpt>
      <trkpt lat="46.491523884942374" lon="7.640442752740457">
      <ele>1882.4</ele></trkpt>
      <trkpt lat="46.49151547053812" lon="7.64039404800452">
      <ele>1883.7</ele></trkpt>
      <trkpt lat="46.49151232141257" lon="7.640333601548185">
      <ele>1885.1</ele></trkpt>
      <trkpt lat="46.491518692569045" lon="7.64027657694282">
      <ele>1886.5</ele></trkpt>
      <trkpt lat="46.49153560659804" lon="7.640224619078808">
      <ele>1887.9</ele></trkpt>
      <trkpt lat="46.491553549327875" lon="7.640191134084578">
      <ele>1889.3</ele></trkpt>
      <trkpt lat="46.49158839461041" lon="7.640147643779411">
      <ele>1890.7</ele></trkpt>
      <trkpt lat="46.49169607640522" lon="7.640059150029812">
      <ele>1892.1</ele></trkpt>
      <trkpt lat="46.49187236063969" lon="7.639923969312012">
      <ele>1893.5</ele></trkpt>
      <trkpt lat="46.49190508323077" lon="7.639905660703657">
      <ele>1894.9</ele></trkpt>
      <trkpt lat="46.491935686090045" lon="7.6399007597769035">
      <ele>1896.2</ele></trkpt>
      <trkpt lat="46.4919757793583" lon="7.6399009346945475">
      <ele>1897.6</ele></trkpt>
      <trkpt lat="46.492038040856315" lon="7.639909592954707">
      <ele>1899.0</ele></trkpt>
      <trkpt lat="46.492215307837746" lon="7.639925477289657">
      <ele>1900.4</ele></trkpt>
      <trkpt lat="46.49248543637406" lon="7.639956854629848">
      <ele>1901.8</ele></trkpt>
      <trkpt lat="46.49260677785325" lon="7.639972505470204">
      <ele>1903.2</ele></trkpt>
      <trkpt lat="46.49263315301037" lon="7.639982697810701">
      <ele>1904.3</ele></trkpt>
      <trkpt lat="46.49266473683529" lon="7.639997859011793">
      <ele>1905.5</ele></trkpt>
      <trkpt lat="46.492699615741785" lon="7.640011508545813">
      <ele>1906.6</ele></trkpt>
      <trkpt lat="46.49272283329534" lon="7.640011620852249">
      <ele>1907.7</ele></trkpt>
      <trkpt lat="46.49273760693271" lon="7.640004967852217">
      <ele>1908.8</ele></trkpt>
      <trkpt lat="46.49275132786904" lon="7.639983201908971">
      <ele>1910.0</ele></trkpt>
      <trkpt lat="46.49275767235691" lon="7.639956367871798">
      <ele>1911.1</ele></trkpt>
      <trkpt lat="46.49276086218306" lon="7.639917786563631">
      <ele>1912.2</ele></trkpt>
      <trkpt lat="46.492751945602485" lon="7.6398833022614845">
      <ele>1913.3</ele></trkpt>
      <trkpt lat="46.49276052637711" lon="7.639792445481037">
      <ele>1914.5</ele></trkpt>
      <trkpt lat="46.492756268470664" lon="7.6397178744306204">
      <ele>1915.6</ele></trkpt>
      <trkpt lat="46.49276626330397" lon="7.639666644996904">
      <ele>1916.7</ele></trkpt>
      <trkpt lat="46.49280765351763" lon="7.639620155841881">
      <ele>1917.8</ele></trkpt>
      <trkpt lat="46.492831919423814" lon="7.639566647761407">
      <ele>1919.0</ele></trkpt>
      <trkpt lat="46.492866157773555" lon="7.639545765271488">
      <ele>1920.1</ele></trkpt>
      <trkpt lat="46.492884731615064" lon="7.639450282299927">
      <ele>1921.2</ele></trkpt>
      <trkpt lat="46.4928933143224" lon="7.639373414149854">
      <ele>1922.3</ele></trkpt>
      <trkpt lat="46.4929118671554" lon="7.639315221750162">
      <ele>1923.5</ele></trkpt>
      <trkpt lat="46.49290332341457" lon="7.639273262446753">
      <ele>1924.6</ele></trkpt>
      <trkpt lat="46.4929290110034" lon="7.639250029634569">
      <ele>1925.7</ele></trkpt>
      <trkpt lat="46.49296467212723" lon="7.639238478127059">
      <ele>1926.5</ele></trkpt>
      <trkpt lat="46.49298038972443" lon="7.639170962182981">
      <ele>1927.4</ele></trkpt>
      <trkpt lat="46.49300891039459" lon="7.639199006509967">
      <ele>1928.2</ele></trkpt>
      <trkpt lat="46.49303601283853" lon="7.639245684526238">
      <ele>1929.1</ele></trkpt>
      <trkpt lat="46.49304456634784" lon="7.63929230694818">
      <ele>1930.0</ele></trkpt>
      <trkpt lat="46.49307593861083" lon="7.639320348905018">
      <ele>1930.8</ele></trkpt>
      <trkpt lat="46.493115868406605" lon="7.639392707964003">
      <ele>1931.7</ele></trkpt>
      <trkpt lat="46.49313440465898" lon="7.639425391509964">
      <ele>1932.5</ele></trkpt>
      <trkpt lat="46.49316577398193" lon="7.639490711485305">
      <ele>1933.4</ele></trkpt>
      <trkpt lat="46.4931786074465" lon="7.639553657380743">
      <ele>1934.2</ele></trkpt>
      <trkpt lat="46.49320713104681" lon="7.639600340990018">
      <ele>1935.0</ele></trkpt>
      <trkpt lat="46.49327417078959" lon="7.639684419414004">
      <ele>1935.9</ele></trkpt>
      <trkpt lat="46.493319800936625" lon="7.639768444652047">
      <ele>1936.8</ele></trkpt>
      <trkpt lat="46.493389680144084" lon="7.639889799034999">
      <ele>1937.6</ele></trkpt>
      <trkpt lat="46.493412489814524" lon="7.639983065890716">
      <ele>1938.5</ele></trkpt>
      <trkpt lat="46.49341103608296" lon="7.640062279656511">
      <ele>1939.3</ele></trkpt>
      <trkpt lat="46.4934210146694" lon="7.640106589345013">
      <ele>1940.2</ele></trkpt>
      <trkpt lat="46.49346379096889" lon="7.6402069121008465">
      <ele>1941.0</ele></trkpt>
      <trkpt lat="46.493523676536775" lon="7.64036318985199">
      <ele>1941.9</ele></trkpt>
      <trkpt lat="46.49360354577373" lon="7.640491577211102">
      <ele>1942.7</ele></trkpt>
      <trkpt lat="46.49364489484592" lon="7.640584913763579">
      <ele>1944.2</ele></trkpt>
      <trkpt lat="46.493644875015505" lon="7.640631504972847">
      <ele>1945.7</ele></trkpt>
      <trkpt lat="46.49366484808455" lon="7.640650205505248">
      <ele>1947.3</ele></trkpt>
      <trkpt lat="46.49368481299454" lon="7.640703852765587">
      <ele>1948.8</ele></trkpt>
      <trkpt lat="46.4937404261041" lon="7.640778577619435">
      <ele>1950.3</ele></trkpt>
      <trkpt lat="46.49377036854182" lon="7.640871872068312">
      <ele>1951.8</ele></trkpt>
      <trkpt lat="46.493793184227826" lon="7.640920880131002">
      <ele>1953.3</ele></trkpt>
      <trkpt lat="46.49384594700326" lon="7.641004907797308">
      <ele>1954.9</ele></trkpt>
      <trkpt lat="46.49387875532319" lon="7.641014330350182">
      <ele>1956.4</ele></trkpt>
      <trkpt lat="46.49389728563391" lon="7.641070291102701">
      <ele>1957.9</ele></trkpt>
      <trkpt lat="46.49392582864002" lon="7.641070384678508">
      <ele>1959.4</ele></trkpt>
      <trkpt lat="46.49392011020664" lon="7.641119312422459">
      <ele>1960.9</ele></trkpt>
      <trkpt lat="46.493957197680565" lon="7.641140382650231">
      <ele>1962.5</ele></trkpt>
      <trkpt lat="46.49399146396493" lon="7.641063583110865">
      <ele>1964.0</ele></trkpt>
      <trkpt lat="46.494032832600624" lon="7.641049735374423">
      <ele>1965.5</ele></trkpt>
      <trkpt lat="46.49404281635129" lon="7.641070730422781">
      <ele>1967.0</ele></trkpt>
      <trkpt lat="46.494034247007434" lon="7.641094013765512">
      <ele>1968.5</ele></trkpt>
      <trkpt lat="46.494048501594996" lon="7.64116161640759">
      <ele>1970.1</ele></trkpt>
      <trkpt lat="46.49406418783898" lon="7.6411779697199576">
      <ele>1971.6</ele></trkpt>
      <trkpt lat="46.49410270073624" lon="7.641196726858556">
      <ele>1973.1</ele></trkpt>
      <trkpt lat="46.49415262762476" lon="7.641236497516207">
      <ele>1974.3</ele></trkpt>
      <trkpt lat="46.49418685861685" lon="7.641285509681357">
      <ele>1975.6</ele></trkpt>
      <trkpt lat="46.49424819331165" lon="7.64130433924644">
      <ele>1976.8</ele></trkpt>
      <trkpt lat="46.49423820332032" lon="7.641332267389752">
      <ele>1978.1</ele></trkpt>
      <trkpt lat="46.49426103196234" lon="7.641378944573933">
      <ele>1979.3</ele></trkpt>
      <trkpt lat="46.49427242720022" lon="7.641425579021291">
      <ele>1980.5</ele></trkpt>
      <trkpt lat="46.494253874732486" lon="7.64146280129215">
      <ele>1981.8</ele></trkpt>
      <trkpt lat="46.494252442316906" lon="7.641479103715647">
      <ele>1983.0</ele></trkpt>
      <trkpt lat="46.49422818177573" lon="7.641513986071508">
      <ele>1984.3</ele></trkpt>
      <trkpt lat="46.494225320373275" lon="7.641539622334182">
      <ele>1985.5</ele></trkpt>
      <trkpt lat="46.4942353033637" lon="7.6415559544579565">
      <ele>1986.7</ele></trkpt>
      <trkpt lat="46.494279520089655" lon="7.64157938334546">
      <ele>1988.0</ele></trkpt>
      <trkpt lat="46.49430947878981" lon="7.641602771905941">
      <ele>1989.2</ele></trkpt>
      <trkpt lat="46.49433087502442" lon="7.641635454615648">
      <ele>1990.5</ele></trkpt>
      <trkpt lat="46.49439219621226" lon="7.64171719735468">
      <ele>1991.7</ele></trkpt>
      <trkpt lat="46.49441645185092" lon="7.6417102675294295">
      <ele>1992.9</ele></trkpt>
      <trkpt lat="46.49444068913828" lon="7.641763944962523">
      <ele>1994.2</ele></trkpt>
      <trkpt lat="46.49448349587445" lon="7.641740750767344">
      <ele>1995.4</ele></trkpt>
      <trkpt lat="46.494507740822534" lon="7.641785102088625">
      <ele>1996.7</ele></trkpt>
      <trkpt lat="46.494512005883706" lon="7.641824728463793">
      <ele>1997.9</ele></trkpt>
      <trkpt lat="46.49452770319759" lon="7.641824774283135">
      <ele>1998.1</ele></trkpt>
      <trkpt lat="46.49457760996839" lon="7.641946085164918">
      <ele>1998.4</ele></trkpt>
      <trkpt lat="46.49462323209249" lon="7.642048740733835">
      <ele>1998.6</ele></trkpt>
      <trkpt lat="46.49468313011228" lon="7.642151450078403">
      <ele>1998.9</ele></trkpt>
      <trkpt lat="46.49470594267095" lon="7.642181806985643">
      <ele>1999.1</ele></trkpt>
      <trkpt lat="46.49474875047047" lon="7.642198249624964">
      <ele>1999.3</ele></trkpt>
      <trkpt lat="46.49481865329919" lon="7.642184470640672">
      <ele>1999.6</ele></trkpt>
      <trkpt lat="46.494867158190345" lon="7.64218927685956">
      <ele>1999.8</ele></trkpt>
      <trkpt lat="46.49490710959311" lon="7.642203364227839">
      <ele>2000.1</ele></trkpt>
      <trkpt lat="46.49496986774411" lon="7.642271124428585">
      <ele>2000.3</ele></trkpt>
      <trkpt lat="46.4950211985382" lon="7.642350512751721">
      <ele>2000.5</ele></trkpt>
      <trkpt lat="46.495070945537165" lon="7.642425166983687">
      <ele>2000.8</ele></trkpt>
      <trkpt lat="46.49515139550134" lon="7.642474250344812">
      <ele>2001.0</ele></trkpt>
      <trkpt lat="46.49518539415311" lon="7.642487000022078">
      <ele>2001.3</ele></trkpt>
      <trkpt lat="46.495207711515" lon="7.642507521149276">
      <ele>2001.5</ele></trkpt>
      <trkpt lat="46.49527350714314" lon="7.642627005267152">
      <ele>2001.7</ele></trkpt>
      <trkpt lat="46.49531272765028" lon="7.6426773927760285">
      <ele>2002.0</ele></trkpt>
      <trkpt lat="46.495348460725644" lon="7.642701116745916">
      <ele>2002.2</ele></trkpt>
      <trkpt lat="46.49542813642622" lon="7.6427204341982105">
      <ele>2002.5</ele></trkpt>
      <trkpt lat="46.49552668365723" lon="7.642730470323637">
      <ele>2002.7</ele></trkpt>
      <trkpt lat="46.49558755529942" lon="7.642746538796498">
      <ele>2003.1</ele></trkpt>
      <trkpt lat="46.49566616214995" lon="7.642805007709439">
      <ele>2003.5</ele></trkpt>
      <trkpt lat="46.49568668935685" lon="7.642825509380093">
      <ele>2003.9</ele></trkpt>
      <trkpt lat="46.495710945871565" lon="7.642813122104444">
      <ele>2004.4</ele></trkpt>
      <trkpt lat="46.49577107262444" lon="7.642793158689112">
      <ele>2004.8</ele></trkpt>
      <trkpt lat="46.49578891300942" lon="7.642812061131341">
      <ele>2005.2</ele></trkpt>
      <trkpt lat="46.49579496408043" lon="7.642863796183308">
      <ele>2005.6</ele></trkpt>
      <trkpt lat="46.495822745080694" lon="7.642862428950178">
      <ele>2006.0</ele></trkpt>
      <trkpt lat="46.49584779877281" lon="7.6428719800606">
      <ele>2006.4</ele></trkpt>
      <trkpt lat="46.49584678837473" lon="7.642898613953008">
      <ele>2006.8</ele></trkpt>
      <trkpt lat="46.49582872300851" lon="7.642929820734898">
      <ele>2007.3</ele></trkpt>
      <trkpt lat="46.49582867347358" lon="7.642942364360538">
      <ele>2007.7</ele></trkpt>
      <trkpt lat="46.495843701487985" lon="7.642989457060614">
      <ele>2008.1</ele></trkpt>
      <trkpt lat="46.49585414728611" lon="7.643058454880562">
      <ele>2008.5</ele></trkpt>
      <trkpt lat="46.49588254478148" lon="7.643124433346754">
      <ele>2008.9</ele></trkpt>
      <trkpt lat="46.49593856845967" lon="7.643225060544777">
      <ele>2009.3</ele></trkpt>
      <trkpt lat="46.49601082013827" lon="7.643300739681998">
      <ele>2009.8</ele></trkpt>
      <trkpt lat="46.4962413397811" lon="7.643462023668696">
      <ele>2010.2</ele></trkpt>
      <trkpt lat="46.496270621945065" lon="7.643531145398029">
      <ele>2010.6</ele></trkpt>
      <trkpt lat="46.496377069404566" lon="7.643779365510237">
      <ele>2011.0</ele></trkpt>
      <trkpt lat="46.49642832894028" lon="7.643867744935171">
      <ele>2012.0</ele></trkpt>
      <trkpt lat="46.496507065734505" lon="7.643993391592307">
      <ele>2013.0</ele></trkpt>
      <trkpt lat="46.49656430358188" lon="7.644143484959064">
      <ele>2014.1</ele></trkpt>
      <trkpt lat="46.496605553067155" lon="7.644200708062237">
      <ele>2015.1</ele></trkpt>
      <trkpt lat="46.4966489976743" lon="7.644307529423134">
      <ele>2016.1</ele></trkpt>
      <trkpt lat="46.49669683728476" lon="7.644436303383791">
      <ele>2017.1</ele></trkpt>
      <trkpt lat="46.49672785312702" lon="7.644516400684951">
      <ele>2018.1</ele></trkpt>
      <trkpt lat="46.49674286294958" lon="7.644568209942962">
      <ele>2019.2</ele></trkpt>
      <trkpt lat="46.49675704042784" lon="7.644602769656394">
      <ele>2020.2</ele></trkpt>
      <trkpt lat="46.49677043905407" lon="7.644615390655939">
      <ele>2021.2</ele></trkpt>
      <trkpt lat="46.49682044622221" lon="7.644654880158009">
      <ele>2022.2</ele></trkpt>
      <trkpt lat="46.49683283971521" lon="7.644690996282388">
      <ele>2023.2</ele></trkpt>
      <trkpt lat="46.49684332285321" lon="7.644753717298359">
      <ele>2024.3</ele></trkpt>
      <trkpt lat="46.49685489296831" lon="7.64477260993959">
      <ele>2025.3</ele></trkpt>
      <trkpt lat="46.49687546339829" lon="7.6447790057933025">
      <ele>2026.3</ele></trkpt>
      <trkpt lat="46.49697195327164" lon="7.644846990962885">
      <ele>2027.3</ele></trkpt>
      <trkpt lat="46.49715963877479" lon="7.644965721386372">
      <ele>2028.3</ele></trkpt>
      <trkpt lat="46.49720279325497" lon="7.644934675141562">
      <ele>2029.4</ele></trkpt>
      <trkpt lat="46.497220697710155" lon="7.644937908633667">
      <ele>2030.4</ele></trkpt>
      <trkpt lat="46.49727876805454" lon="7.644980594804917">
      <ele>2031.4</ele></trkpt>
      <trkpt lat="46.49731995054865" lon="7.644990260663787">
      <ele>2032.5</ele></trkpt>
      <trkpt lat="46.49734060336669" lon="7.644980999560581">
      <ele>2033.5</ele></trkpt>
      <trkpt lat="46.49735510663311" lon="7.644945050544026">
      <ele>2034.6</ele></trkpt>
      <trkpt lat="46.49734286570109" lon="7.6448744804788475">
      <ele>2035.6</ele></trkpt>
      <trkpt lat="46.497333170917024" lon="7.644838387265867">
      <ele>2036.7</ele></trkpt>
      <trkpt lat="46.49732446046924" lon="7.644780348787831">
      <ele>2037.7</ele></trkpt>
      <trkpt lat="46.49732469199685" lon="7.644727085839236">
      <ele>2038.8</ele></trkpt>
      <trkpt lat="46.49731791830664" lon="7.644637752973959">
      <ele>2039.8</ele></trkpt>
      <trkpt lat="46.497305861780546" lon="7.64452487488571">
      <ele>2040.9</ele></trkpt>
      <trkpt lat="46.49727963045944" lon="7.644375860692776">
      <ele>2042.0</ele></trkpt>
      <trkpt lat="46.49728168407655" lon="7.64431477600663">
      <ele>2043.0</ele></trkpt>
      <trkpt lat="46.49727640457766" lon="7.644294370102945">
      <ele>2044.1</ele></trkpt>
      <trkpt lat="46.497230944195366" lon="7.644237690368682">
      <ele>2045.1</ele></trkpt>
      <trkpt lat="46.49721424959026" lon="7.644162362237562">
      <ele>2046.2</ele></trkpt>
      <trkpt lat="46.49720275544033" lon="7.6441262754424555">
      <ele>2047.2</ele></trkpt>
      <trkpt lat="46.49720221288763" lon="7.644043232021635">
      <ele>2048.3</ele></trkpt>
      <trkpt lat="46.49718182064441" lon="7.643992965208349">
      <ele>2049.3</ele></trkpt>
      <trkpt lat="46.49714074915948" lon="7.643956662216244">
      <ele>2050.4</ele></trkpt>
      <trkpt lat="46.49713292030777" lon="7.643903342867231">
      <ele>2051.4</ele></trkpt>
      <trkpt lat="46.49715372525689" lon="7.643859601912475">
      <ele>2052.5</ele></trkpt>
      <trkpt lat="46.497174562289274" lon="7.643808045391917">
      <ele>2055.2</ele></trkpt>
      <trkpt lat="46.497183902245894" lon="7.643721939203562">
      <ele>2058.0</ele></trkpt>
      <trkpt lat="46.497198896407575" lon="7.643573198853574">
      <ele>2060.7</ele></trkpt>
      <trkpt lat="46.497205198756404" lon="7.643530288668837">
      <ele>2063.4</ele></trkpt>
      <trkpt lat="46.497236352708406" lon="7.643324463734944">
      <ele>2066.2</ele></trkpt>
      <trkpt lat="46.497228551287655" lon="7.643225761547565">
      <ele>2068.9</ele></trkpt>
      <trkpt lat="46.49726918460253" lon="7.643040774799104">
      <ele>2071.6</ele></trkpt>
      <trkpt lat="46.49729953005723" lon="7.642848858193364">
      <ele>2074.3</ele></trkpt>
      <trkpt lat="46.49732107705281" lon="7.642722299397854">
      <ele>2077.1</ele></trkpt>
      <trkpt lat="46.497329093560865" lon="7.642651376274474">
      <ele>2079.8</ele></trkpt>
      <trkpt lat="46.497335517783455" lon="7.642580460164889">
      <ele>2082.5</ele></trkpt>
      <trkpt lat="46.497346685716565" lon="7.642517872553514">
      <ele>2085.3</ele></trkpt>
      <trkpt lat="46.49745453751146" lon="7.6424509721117015">
      <ele>2088.0</ele></trkpt>
      <trkpt lat="46.497546513019756" lon="7.642403550988275">
      <ele>2090.7</ele></trkpt>
      <trkpt lat="46.49762506877708" lon="7.642320009722708">
      <ele>2093.4</ele></trkpt>
      <trkpt lat="46.49766091660163" lon="7.642164233784943">
      <ele>2096.2</ele></trkpt>
      <trkpt lat="46.49769045404977" lon="7.641980649051466">
      <ele>2098.9</ele></trkpt>
      <trkpt lat="46.49769296735377" lon="7.641868033840582">
      <ele>2101.6</ele></trkpt>
      <trkpt lat="46.497725643133464" lon="7.641715033137034">
      <ele>2104.4</ele></trkpt>
      <trkpt lat="46.497758364626954" lon="7.641516154042857">
      <ele>2107.1</ele></trkpt>
      <trkpt lat="46.49777344911055" lon="7.641496671159164">
      <ele>2109.1</ele></trkpt>
      <trkpt lat="46.49779638991956" lon="7.641525831587454">
      <ele>2111.0</ele></trkpt>
      <trkpt lat="46.49784626931938" lon="7.641561905626606">
      <ele>2113.0</ele></trkpt>
      <trkpt lat="46.49787083648439" lon="7.6415618673460965">
      <ele>2115.0</ele></trkpt>
      <trkpt lat="46.49790331394142" lon="7.641570156412442">
      <ele>2116.9</ele></trkpt>
      <trkpt lat="46.49799040772214" lon="7.641636773277377">
      <ele>2118.9</ele></trkpt>
      <trkpt lat="46.49804425761455" lon="7.641665880326499">
      <ele>2120.9</ele></trkpt>
      <trkpt lat="46.4980506445927" lon="7.641625548777498">
      <ele>2122.9</ele></trkpt>
      <trkpt lat="46.498061822842004" lon="7.641551848748648">
      <ele>2124.8</ele></trkpt>
      <trkpt lat="46.49806907367339" lon="7.641455898090767">
      <ele>2126.8</ele></trkpt>
      <trkpt lat="46.49810001781809" lon="7.641421090349159">
      <ele>2128.8</ele></trkpt>
      <trkpt lat="46.498089804256644" lon="7.641347414413128">
      <ele>2130.7</ele></trkpt>
      <trkpt lat="46.49809466363224" lon="7.641255636184155">
      <ele>2132.7</ele></trkpt>
      <trkpt lat="46.49816199995728" lon="7.6412736037223015">
      <ele>2134.7</ele></trkpt>
      <trkpt lat="46.498231695325316" lon="7.641305479233414">
      <ele>2136.7</ele></trkpt>
      <trkpt lat="46.49832038924983" lon="7.641352614621259">
      <ele>2138.6</ele></trkpt>
      <trkpt lat="46.498385337368376" lon="7.641383104798545">
      <ele>2140.6</ele></trkpt>
      <trkpt lat="46.49839977826569" lon="7.641230137899253">
      <ele>2142.6</ele></trkpt>
      <trkpt lat="46.49841091791288" lon="7.641198147657302">
      <ele>2144.5</ele></trkpt>
      <trkpt lat="46.49846634370921" lon="7.64123142883442">
      <ele>2146.5</ele></trkpt>
      <trkpt lat="46.49853285775776" lon="7.641271642508419">
      <ele>2147.7</ele></trkpt>
      <trkpt lat="46.49855739332719" lon="7.641299415386175">
      <ele>2149.0</ele></trkpt>
      <trkpt lat="46.4985661135224" lon="7.641292452804582">
      <ele>2150.2</ele></trkpt>
      <trkpt lat="46.498572531032586" lon="7.641229871804956">
      <ele>2151.5</ele></trkpt>
      <trkpt lat="46.498597913956985" lon="7.641206193451372">
      <ele>2152.7</ele></trkpt>
      <trkpt lat="46.49862642745017" lon="7.6412228435987055">
      <ele>2154.0</ele></trkpt>
      <trkpt lat="46.49864382295502" lon="7.641249235059799">
      <ele>2155.2</ele></trkpt>
      <trkpt lat="46.498658090086124" lon="7.641249210237283">
      <ele>2156.5</ele></trkpt>
      <trkpt lat="46.49866765826557" lon="7.641200527093967">
      <ele>2157.7</ele></trkpt>
      <trkpt lat="46.4986961993067" lon="7.64118657822194">
      <ele>2158.9</ele></trkpt>
      <trkpt lat="46.49874453208839" lon="7.641192073651208">
      <ele>2160.2</ele></trkpt>
      <trkpt lat="46.49875162913291" lon="7.641222647241487">
      <ele>2161.4</ele></trkpt>
      <trkpt lat="46.498754773933015" lon="7.641244895177782">
      <ele>2162.7</ele></trkpt>
      <trkpt lat="46.49878174010595" lon="7.641221209643084">
      <ele>2163.9</ele></trkpt>
      <trkpt lat="46.498831746529184" lon="7.641155782147783">
      <ele>2165.2</ele></trkpt>
      <trkpt lat="46.49885076831719" lon="7.64115297437159">
      <ele>2166.4</ele></trkpt>
      <trkpt lat="46.49885549637645" lon="7.6411752152346">
      <ele>2167.7</ele></trkpt>
      <trkpt lat="46.49886019965975" lon="7.641211355277629">
      <ele>2168.9</ele></trkpt>
      <trkpt lat="46.49889747145341" lon="7.641194612241467">
      <ele>2170.2</ele></trkpt>
      <trkpt lat="46.49891012311505" lon="7.641212675183002">
      <ele>2171.4</ele></trkpt>
      <trkpt lat="46.4989028848927" lon="7.6413016712557305">
      <ele>2173.1</ele></trkpt>
      <trkpt lat="46.4989195268803" lon="7.64130164230085">
      <ele>2174.9</ele></trkpt>
      <trkpt lat="46.499003620664695" lon="7.641219485810497">
      <ele>2176.6</ele></trkpt>
      <trkpt lat="46.499066347418534" lon="7.641153779913797">
      <ele>2178.3</ele></trkpt>
      <trkpt lat="46.49908787934485" lon="7.641150773079285">
      <ele>2180.1</ele></trkpt>
      <trkpt lat="46.4991012110456" lon="7.641175925059297">
      <ele>2181.8</ele></trkpt>
      <trkpt lat="46.49910356600248" lon="7.64125269933125">
      <ele>2183.5</ele></trkpt>
      <trkpt lat="46.499095101074104" lon="7.641343527871949">
      <ele>2185.2</ele></trkpt>
      <trkpt lat="46.49912010553059" lon="7.6413656232459335">
      <ele>2187.0</ele></trkpt>
      <trkpt lat="46.49909913832797" lon="7.641445384548236">
      <ele>2188.7</ele></trkpt>
      <trkpt lat="46.49912058272352" lon="7.641461187847464">
      <ele>2190.4</ele></trkpt>
      <trkpt lat="46.49916641411484" lon="7.641431723923479">
      <ele>2192.2</ele></trkpt>
      <trkpt lat="46.49917764989723" lon="7.641527367962592">
      <ele>2193.9</ele></trkpt>
      <trkpt lat="46.499171711128405" lon="7.641568600873149">
      <ele>2195.6</ele></trkpt>
      <trkpt lat="46.499189746739845" lon="7.641584078840016">
      <ele>2197.3</ele></trkpt>
      <trkpt lat="46.49917735267434" lon="7.641613224972415">
      <ele>2199.1</ele></trkpt>
      <trkpt lat="46.499164915406865" lon="7.641671589519468">
      <ele>2200.8</ele></trkpt>
      <trkpt lat="46.499160101324236" lon="7.641717698554506">
      <ele>2202.5</ele></trkpt>
      <trkpt lat="46.49914581190369" lon="7.641745300403163">
      <ele>2204.3</ele></trkpt>
      <trkpt lat="46.49913624739434" lon="7.641786767180018">
      <ele>2206.0</ele></trkpt>
      <trkpt lat="46.49915046485964" lon="7.641814527972705">
      <ele>2207.4</ele></trkpt>
      <trkpt lat="46.49916851894386" lon="7.641814621708024">
      <ele>2208.7</ele></trkpt>
      <trkpt lat="46.49918366794825" lon="7.641854683100878">
      <ele>2210.1</ele></trkpt>
      <trkpt lat="46.49920176799855" lon="7.641824034302753">
      <ele>2211.5</ele></trkpt>
      <trkpt lat="46.499210375512206" lon="7.641779476596184">
      <ele>2212.8</ele></trkpt>
      <trkpt lat="46.49923036337682" lon="7.64175959479023">
      <ele>2214.2</ele></trkpt>
      <trkpt lat="46.49924363480546" lon="7.641778129255006">
      <ele>2215.6</ele></trkpt>
      <trkpt lat="46.49925786878156" lon="7.641796654310465">
      <ele>2217.0</ele></trkpt>
      <trkpt lat="46.499273054781185" lon="7.641805960116743">
      <ele>2218.3</ele></trkpt>
      <trkpt lat="46.49929016907169" lon="7.641798364634099">
      <ele>2219.7</ele></trkpt>
      <trkpt lat="46.499311332738756" lon="7.641815183151461">
      <ele>2221.1</ele></trkpt>
      <trkpt lat="46.49933409306246" lon="7.641824491315483">
      <ele>2222.4</ele></trkpt>
      <trkpt lat="46.499407437824296" lon="7.64185786694431">
      <ele>2223.8</ele></trkpt>
      <trkpt lat="46.49946464177877" lon="7.641892706247524">
      <ele>2225.2</ele></trkpt>
      <trkpt lat="46.49946750603969" lon="7.641850419489923">
      <ele>2226.6</ele></trkpt>
      <trkpt lat="46.4994632828149" lon="7.641792422085542">
      <ele>2227.9</ele></trkpt>
      <trkpt lat="46.49945116509443" lon="7.641692071566731">
      <ele>2229.3</ele></trkpt>
      <trkpt lat="46.49946133624608" lon="7.64162319875787">
      <ele>2230.7</ele></trkpt>
      <trkpt lat="46.49952454004214" lon="7.641633036121912">
      <ele>2232.0</ele></trkpt>
      <trkpt lat="46.49957205542475" lon="7.641657990809073">
      <ele>2233.4</ele></trkpt>
      <trkpt lat="46.49960847666763" lon="7.641684349937037">
      <ele>2235.6</ele></trkpt>
      <trkpt lat="46.499618778342565" lon="7.641688452855113">
      <ele>2237.8</ele></trkpt>
      <trkpt lat="46.49962518795527" lon="7.641655597534789">
      <ele>2240.0</ele></trkpt>
      <trkpt lat="46.499619986550954" lon="7.641616380781315">
      <ele>2242.3</ele></trkpt>
      <trkpt lat="46.49962285968137" lon="7.641574106948194">
      <ele>2244.5</ele></trkpt>
      <trkpt lat="46.49963642411567" lon="7.641544430855213">
      <ele>2246.7</ele></trkpt>
      <trkpt lat="46.499664057040235" lon="7.641580644286525">
      <ele>2248.9</ele></trkpt>
      <trkpt lat="46.49974543268597" lon="7.641620341764822">
      <ele>2251.1</ele></trkpt>
      <trkpt lat="46.499759049908214" lon="7.641581260529435">
      <ele>2253.3</ele></trkpt>
      <trkpt lat="46.49983172524978" lon="7.641561354269066">
      <ele>2255.6</ele></trkpt>
      <trkpt lat="46.499853516893225" lon="7.641533806162495">
      <ele>2257.8</ele></trkpt>
      <trkpt lat="46.499927147615544" lon="7.64159348379691">
      <ele>2260.0</ele></trkpt>
      <trkpt lat="46.499988127017716" lon="7.641619817791568">
      <ele>2262.2</ele></trkpt>
      <trkpt lat="46.50006468963582" lon="7.641649636261282">
      <ele>2264.4</ele></trkpt>
      <trkpt lat="46.500121083517676" lon="7.641694842062362">
      <ele>2266.6</ele></trkpt>
      <trkpt lat="46.50015434084122" lon="7.641739909144937">
      <ele>2268.8</ele></trkpt>
      <trkpt lat="46.500194112322056" lon="7.641759064312893">
      <ele>2271.1</ele></trkpt>
      <trkpt lat="46.50026067924878" lon="7.641835012711474">
      <ele>2273.3</ele></trkpt>
      <trkpt lat="46.50032715100956" lon="7.641944023076217">
      <ele>2275.5</ele></trkpt>
      <trkpt lat="46.50036105367035" lon="7.641779060928114">
      <ele>2277.7</ele></trkpt>
      <trkpt lat="46.50040833944946" lon="7.6418619848213645">
      <ele>2279.7</ele></trkpt>
      <trkpt lat="46.50044100790619" lon="7.641682857539266">
      <ele>2281.8</ele></trkpt>
      <trkpt lat="46.50053054241625" lon="7.64181324047804">
      <ele>2283.8</ele></trkpt>
      <trkpt lat="46.50056047332461" lon="7.64168604076911">
      <ele>2285.8</ele></trkpt>
      <trkpt lat="46.50063459371367" lon="7.641813956232809">
      <ele>2287.9</ele></trkpt>
      <trkpt lat="46.50065385793913" lon="7.641816438434606">
      <ele>2289.9</ele></trkpt>
      <trkpt lat="46.500672966340254" lon="7.6418708584220765">
      <ele>2291.9</ele></trkpt>
      <trkpt lat="46.50069852766336" lon="7.6419135002492675">
      <ele>2294.0</ele></trkpt>
      <trkpt lat="46.50074588677824" lon="7.641970462346084">
      <ele>2296.0</ele></trkpt>
      <trkpt lat="46.500770633955945" lon="7.641859708850126">
      <ele>2298.1</ele></trkpt>
      <trkpt lat="46.500773375108196" lon="7.641800733082615">
      <ele>2300.1</ele></trkpt>
      <trkpt lat="46.50083858220178" lon="7.641902653021735">
      <ele>2302.1</ele></trkpt>
      <trkpt lat="46.50087953597844" lon="7.641954836378294">
      <ele>2304.2</ele></trkpt>
      <trkpt lat="46.500882299387676" lon="7.641893502696989">
      <ele>2306.2</ele></trkpt>
      <trkpt lat="46.5008710300039" lon="7.641796696045528">
      <ele>2308.2</ele></trkpt>
      <trkpt lat="46.5009271814317" lon="7.641922121972038">
      <ele>2310.3</ele></trkpt>
      <trkpt lat="46.50093623184993" lon="7.641841180132303">
      <ele>2312.3</ele></trkpt>
      <trkpt lat="46.50097353162832" lon="7.6418893375156545">
      <ele>2314.3</ele></trkpt>
      <trkpt lat="46.5009838350401" lon="7.641806928247117">
      <ele>2316.4</ele></trkpt>
      <trkpt lat="46.50102749085989" lon="7.641852230512352">
      <ele>2318.4</ele></trkpt>
      <trkpt lat="46.50104809782779" lon="7.6416973383556694">
      <ele>2322.3</ele></trkpt>
      <trkpt lat="46.501097301726475" lon="7.641753981868896">
      <ele>2326.3</ele></trkpt>
      <trkpt lat="46.50111712153252" lon="7.641576367376803">
      <ele>2330.2</ele></trkpt>
      <trkpt lat="46.501182994525486" lon="7.641688347070704">
      <ele>2334.2</ele></trkpt>
      <trkpt lat="46.50125437199168" lon="7.6413926785683435">
      <ele>2338.2</ele></trkpt>
      <trkpt lat="46.50130116179192" lon="7.641128325726606">
      <ele>2342.1</ele></trkpt>
      <trkpt lat="46.50130986305729" lon="7.640945067189425">
      <ele>2346.1</ele></trkpt>
      <trkpt lat="46.50133683794288" lon="7.640881061582078">
      <ele>2350.0</ele></trkpt>
      <trkpt lat="46.501366992938955" lon="7.640885212513926">
      <ele>2354.0</ele></trkpt>
      <trkpt lat="46.50140665767923" lon="7.640848155124134">
      <ele>2357.9</ele></trkpt>
      <trkpt lat="46.50144552863948" lon="7.640741490844557">
      <ele>2361.8</ele></trkpt>
      <trkpt lat="46.50150426359912" lon="7.640891847541415">
      <ele>2365.8</ele></trkpt>
      <trkpt lat="46.50155427449751" lon="7.641020924715469">
      <ele>2369.8</ele></trkpt>
      <trkpt lat="46.50162966746078" lon="7.641111562638179">
      <ele>2373.7</ele></trkpt>
      <trkpt lat="46.50167090842123" lon="7.64096228206031">
      <ele>2377.7</ele></trkpt>
      <trkpt lat="46.50172088855194" lon="7.640835701152848">
      <ele>2381.6</ele></trkpt>
      <trkpt lat="46.501770059546885" lon="7.6406480455156975">
      <ele>2385.6</ele></trkpt>
      <trkpt lat="46.50180336897663" lon="7.6404817471877555">
      <ele>2389.5</ele></trkpt>
      <trkpt lat="46.50182319387162" lon="7.640396453747288">
      <ele>2393.5</ele></trkpt>
      <trkpt lat="46.50183745364158" lon="7.640258626856307">
      <ele>2397.4</ele></trkpt>
      <trkpt lat="46.50185328652938" lon="7.639958877490315">
      <ele>2400.7</ele></trkpt>
      <trkpt lat="46.50188202452359" lon="7.639889497058268">
      <ele>2404.0</ele></trkpt>
      <trkpt lat="46.50197585952616" lon="7.6400156365660585">
      <ele>2407.4</ele></trkpt>
      <trkpt lat="46.501988038359904" lon="7.639924934033036">
      <ele>2410.7</ele></trkpt>
      <trkpt lat="46.50207580623191" lon="7.640022886351384">
      <ele>2414.0</ele></trkpt>
      <trkpt lat="46.502090005060786" lon="7.63993953853554">
      <ele>2417.3</ele></trkpt>
      <trkpt lat="46.50216157794748" lon="7.639993385620752">
      <ele>2420.6</ele></trkpt>
      <trkpt lat="46.502171715398816" lon="7.6399480362110666">
      <ele>2424.0</ele></trkpt>
      <trkpt lat="46.502231806703584" lon="7.639988422604841">
      <ele>2427.3</ele></trkpt>
      <trkpt lat="46.50227840235274" lon="7.63999449709902">
      <ele>2430.6</ele></trkpt>
      <trkpt lat="46.502372462441116" lon="7.6400747823210695">
      <ele>2433.9</ele></trkpt>
      <trkpt lat="46.502416348689735" lon="7.640091972189266">
      <ele>2437.2</ele></trkpt>
      <trkpt lat="46.502465979585004" lon="7.640141621567722">
      <ele>2440.6</ele></trkpt>
      <trkpt lat="46.50248723567241" lon="7.640233282978396">
      <ele>2443.9</ele></trkpt>
      <trkpt lat="46.502524378806946" lon="7.640258563979442">
      <ele>2447.2</ele></trkpt>
      <trkpt lat="46.50256018682006" lon="7.640336666083668">
      <ele>2450.5</ele></trkpt>
      <trkpt lat="46.50260213883006" lon="7.640399549117666">
      <ele>2453.8</ele></trkpt>
      <trkpt lat="46.502639533246764" lon="7.640435279198172">
      <ele>2457.2</ele></trkpt>
      <trkpt lat="46.5026495160765" lon="7.640390984114711">
      <ele>2460.5</ele></trkpt>
      <trkpt lat="46.50268767257623" lon="7.6404281500736495">
      <ele>2463.8</ele></trkpt>
      <trkpt lat="46.502727324435334" lon="7.640499596803393">
      <ele>2465.8</ele></trkpt>
      <trkpt lat="46.50277387428345" lon="7.640556765218374">
      <ele>2467.8</ele></trkpt>
      <trkpt lat="46.50280897868104" lon="7.640595353024263">
      <ele>2469.9</ele></trkpt>
      <trkpt lat="46.50281063118035" lon="7.640475324323977">
      <ele>2471.9</ele></trkpt>
      <trkpt lat="46.50282442447319" lon="7.640438182337015">
      <ele>2473.9</ele></trkpt>
      <trkpt lat="46.50284806963183" lon="7.64047104745376">
      <ele>2475.9</ele></trkpt>
      <trkpt lat="46.50286714614078" lon="7.640498202582854">
      <ele>2477.9</ele></trkpt>
      <trkpt lat="46.502881658649166" lon="7.640496771509059">
      <ele>2480.0</ele></trkpt>
      <trkpt lat="46.502908369900666" lon="7.640525362072172">
      <ele>2482.0</ele></trkpt>
      <trkpt lat="46.50293518568151" lon="7.640459634149956">
      <ele>2484.0</ele></trkpt>
      <trkpt lat="46.502961104639674" lon="7.640513938015587">
      <ele>2486.0</ele></trkpt>
      <trkpt lat="46.502983998972454" lon="7.640533955351202">
      <ele>2488.0</ele></trkpt>
      <trkpt lat="46.50305117073826" lon="7.640593975773005">
      <ele>2490.1</ele></trkpt>
      <trkpt lat="46.5030885614024" lon="7.640636845345309">
      <ele>2492.1</ele></trkpt>
      <trkpt lat="46.503138173188795" lon="7.640676868429852">
      <ele>2494.1</ele></trkpt>
      <trkpt lat="46.50319085110102" lon="7.640712603934601">
      <ele>2496.1</ele></trkpt>
      <trkpt lat="46.50328393530489" lon="7.640835514282189">
      <ele>2498.1</ele></trkpt>
      <trkpt lat="46.50335491343347" lon="7.64089982266081">
      <ele>2500.2</ele></trkpt>
      <trkpt lat="46.50343735212265" lon="7.640974153132465">
      <ele>2502.2</ele></trkpt>
      <trkpt lat="46.503502210778485" lon="7.641049890288392">
      <ele>2504.2</ele></trkpt>
      <trkpt lat="46.50354726518364" lon="7.64107276571114">
      <ele>2505.8</ele></trkpt>
      <trkpt lat="46.50360907152921" lon="7.641139932576585">
      <ele>2507.3</ele></trkpt>
      <trkpt lat="46.50363729930985" lon="7.641185673885441">
      <ele>2508.9</ele></trkpt>
      <trkpt lat="46.50369382670962" lon="7.641191395858996">
      <ele>2510.5</ele></trkpt>
      <trkpt lat="46.50371904265472" lon="7.641185692798776">
      <ele>2512.1</ele></trkpt>
      <trkpt lat="46.503777019659736" lon="7.64127143618191">
      <ele>2513.6</ele></trkpt>
      <trkpt lat="46.50385862617846" lon="7.641398631072889">
      <ele>2515.2</ele></trkpt>
      <trkpt lat="46.50390666299667" lon="7.6414943690323565">
      <ele>2516.8</ele></trkpt>
      <trkpt lat="46.50395395910617" lon="7.641561547629639">
      <ele>2518.4</ele></trkpt>
      <trkpt lat="46.50401045478935" lon="7.641600138877176">
      <ele>2519.9</ele></trkpt>
      <trkpt lat="46.50404862997719" lon="7.641621582209102">
      <ele>2521.5</ele></trkpt>
      <trkpt lat="46.50410500236305" lon="7.641774491670753">
      <ele>2523.1</ele></trkpt>
      <trkpt lat="46.504148447200926" lon="7.641867373126009">
      <ele>2524.7</ele></trkpt>
      <trkpt lat="46.50419193783877" lon="7.641924545769665">
      <ele>2526.2</ele></trkpt>
      <trkpt lat="46.50424379980891" lon="7.6420088607437355">
      <ele>2527.8</ele></trkpt>
      <trkpt lat="46.50429867939195" lon="7.642126043323397">
      <ele>2529.4</ele></trkpt>
      <trkpt lat="46.50434750439942" lon="7.642193215674421">
      <ele>2531.0</ele></trkpt>
      <trkpt lat="46.50439326573589" lon="7.642263242756297">
      <ele>2532.5</ele></trkpt>
      <trkpt lat="46.50444890968067" lon="7.64238042879155">
      <ele>2534.1</ele></trkpt>
      <trkpt lat="46.5044892878653" lon="7.642487604365233">
      <ele>2535.7</ele></trkpt>
      <trkpt lat="46.50454648259385" lon="7.64258765201108">
      <ele>2534.7</ele></trkpt>
      <trkpt lat="46.504590691390874" lon="7.642680537753865">
      <ele>2533.8</ele></trkpt>
      <trkpt lat="46.50463033541085" lon="7.6427605739902695">
      <ele>2532.8</ele></trkpt>
      <trkpt lat="46.50467459152378" lon="7.642812018472461">
      <ele>2531.8</ele></trkpt>
      <trkpt lat="46.50476920398492" lon="7.6429292223069005">
      <ele>2530.8</ele></trkpt>
      <trkpt lat="46.50483249868569" lon="7.643033541049375">
      <ele>2529.9</ele></trkpt>
      <trkpt lat="46.50483249868569" lon="7.643033541049375">
      <ele>2528.9</ele></trkpt>
      <trkpt lat="46.50476920398492" lon="7.6429292223069005">
      <ele>2527.9</ele></trkpt>
      <trkpt lat="46.50463033541085" lon="7.6427605739902695">
      <ele>2527.0</ele></trkpt>
      <trkpt lat="46.5044892878653" lon="7.642487604365233">
      <ele>2526.0</ele></trkpt>
      <trkpt lat="46.50444890968067" lon="7.64238042879155">
      <ele>2525.0</ele></trkpt>
      <trkpt lat="46.50439326573589" lon="7.642263242756297">
      <ele>2524.1</ele></trkpt>
      <trkpt lat="46.50429867939195" lon="7.642126043323397">
      <ele>2523.1</ele></trkpt>
      <trkpt lat="46.50424379980891" lon="7.6420088607437355">
      <ele>2522.1</ele></trkpt>
      <trkpt lat="46.504148447200926" lon="7.641867373126009">
      <ele>2521.2</ele></trkpt>
      <trkpt lat="46.50410500236305" lon="7.641774491670753">
      <ele>2520.2</ele></trkpt>
      <trkpt lat="46.50404862997719" lon="7.641621582209102">
      <ele>2519.2</ele></trkpt>
      <trkpt lat="46.50395395910617" lon="7.641561547629639">
      <ele>2518.2</ele></trkpt>
      <trkpt lat="46.50390666299667" lon="7.6414943690323565">
      <ele>2517.3</ele></trkpt>
      <trkpt lat="46.50385862617846" lon="7.641398631072889">
      <ele>2516.3</ele></trkpt>
      <trkpt lat="46.50371904265472" lon="7.641185692798776">
      <ele>2514.7</ele></trkpt>
      <trkpt lat="46.50353534572161" lon="7.640736848369743">
      <ele>2513.1</ele></trkpt>
      <trkpt lat="46.50335164701512" lon="7.640288006983535">
      <ele>2511.5</ele></trkpt>
      <trkpt lat="46.50316794653526" lon="7.639839168640145">
      <ele>2510.0</ele></trkpt>
      <trkpt lat="46.50298424428207" lon="7.639390333339577">
      <ele>2508.4</ele></trkpt>
      <trkpt lat="46.5028112335542" lon="7.6388772797062785">
      <ele>2506.8</ele></trkpt>
      <trkpt lat="46.502638220509695" lon="7.638364229348685">
      <ele>2505.2</ele></trkpt>
      <trkpt lat="46.50246520514857" lon="7.6378511822667905">
      <ele>2503.6</ele></trkpt>
      <trkpt lat="46.50229049838067" lon="7.637446693238697">
      <ele>2502.0</ele></trkpt>
      <trkpt lat="46.50211579017245" lon="7.6370422068184745">
      <ele>2500.4</ele></trkpt>
      <trkpt lat="46.501990737717" lon="7.6365336864771365">
      <ele>2498.9</ele></trkpt>
      <trkpt lat="46.50171871744263" lon="7.636046345167224">
      <ele>2497.3</ele></trkpt>
      <trkpt lat="46.50144669507656" lon="7.635559008749535">
      <ele>2495.7</ele></trkpt>
      <trkpt lat="46.501174670618866" lon="7.6350716772240235">
      <ele>2494.1</ele></trkpt>
      <trkpt lat="46.50103130366383" lon="7.634745482259719">
      <ele>2492.5</ele></trkpt>
      <trkpt lat="46.50088793577206" lon="7.6344192890211975">
      <ele>2490.9</ele></trkpt>
      <trkpt lat="46.50079863003217" lon="7.6340411846605365">
      <ele>2489.4</ele></trkpt>
      <trkpt lat="46.5005876814397" lon="7.633779885964314">
      <ele>2487.8</ele></trkpt>
      <trkpt lat="46.50037673224525" lon="7.6335185893022475">
      <ele>2486.2</ele></trkpt>
      <trkpt lat="46.50013458775008" lon="7.633087834297576">
      <ele>2484.6</ele></trkpt>
      <trkpt lat="46.50005921550572" lon="7.632449251732453">
      <ele>2483.2</ele></trkpt>
      <trkpt lat="46.49998383967349" lon="7.631810670943265">
      <ele>2481.8</ele></trkpt>
      <trkpt lat="46.49979130796772" lon="7.631295429519394">
      <ele>2480.4</ele></trkpt>
      <trkpt lat="46.499598773925214" lon="7.6307801917561795">
      <ele>2479.0</ele></trkpt>
      <trkpt lat="46.499518253797675" lon="7.630519373340885">
      <ele>2477.6</ele></trkpt>
      <trkpt lat="46.49940221159859" lon="7.629984871102983">
      <ele>2476.2</ele></trkpt>
      <trkpt lat="46.49928616688555" lon="7.629450371153788">
      <ele>2474.8</ele></trkpt>
      <trkpt lat="46.49929149462022" lon="7.628955379401386">
      <ele>2473.4</ele></trkpt>
      <trkpt lat="46.4992968201992" lon="7.6284603875514945">
      <ele>2472.0</ele></trkpt>
      <trkpt lat="46.49924348782792" lon="7.628075916633463">
      <ele>2470.6</ele></trkpt>
      <trkpt lat="46.49919015415604" lon="7.627691446472009">
      <ele>2469.3</ele></trkpt>
      <trkpt lat="46.498988197360475" lon="7.627423698359522">
      <ele>2467.9</ele></trkpt>
      <trkpt lat="46.498786239933004" lon="7.627155952242481">
      <ele>2466.5</ele></trkpt>
      <trkpt lat="46.49860639304026" lon="7.627116247391653">
      <ele>2465.1</ele></trkpt>
      <trkpt lat="46.49827390181522" lon="7.626906669571292">
      <ele>2463.7</ele></trkpt>
      <trkpt lat="46.498067326843305" lon="7.626710557531037">
      <ele>2462.3</ele></trkpt>
      <trkpt lat="46.497860751531775" lon="7.626514446985772">
      <ele>2460.9</ele></trkpt>
      <trkpt lat="46.497627350406475" lon="7.6262205486091155">
      <ele>2459.5</ele></trkpt>
      <trkpt lat="46.49739394851966" lon="7.62592665276377">
      <ele>2458.1</ele></trkpt>
      <trkpt lat="46.49713679686632" lon="7.625487219696187">
      <ele>2456.7</ele></trkpt>
      <trkpt lat="46.4968796435121" lon="7.625047790798411">
      <ele>2457.7</ele></trkpt>
      <trkpt lat="46.49662248845705" lon="7.6246083660704205">
      <ele>2458.7</ele></trkpt>
      <trkpt lat="46.49622704477244" lon="7.624385569710395">
      <ele>2459.7</ele></trkpt>
      <trkpt lat="46.49609225995599" lon="7.624293927042623">
      <ele>2460.7</ele></trkpt>
      <trkpt lat="46.495921705318246" lon="7.624071904561679">
      <ele>2461.7</ele></trkpt>
      <trkpt lat="46.49560728453065" lon="7.623810314752315">
      <ele>2462.7</ele></trkpt>
      <trkpt lat="46.495391878166565" lon="7.623509988817255">
      <ele>2463.7</ele></trkpt>
      <trkpt lat="46.49515820470899" lon="7.623378935823798">
      <ele>2464.7</ele></trkpt>
      <trkpt lat="46.49488914059086" lon="7.622883048526036">
      <ele>2465.7</ele></trkpt>
      <trkpt lat="46.49480839139272" lon="7.622752518913783">
      <ele>2466.8</ele></trkpt>
      <trkpt lat="46.49464647081973" lon="7.62275196889459">
      <ele>2467.8</ele></trkpt>
      <trkpt lat="46.494583332850254" lon="7.622855958092343">
      <ele>2468.8</ele></trkpt>
      <trkpt lat="46.49446645354659" lon="7.622816484558868">
      <ele>2469.8</ele></trkpt>
      <trkpt lat="46.494296296326375" lon="7.622346992349808">
      <ele>2470.8</ele></trkpt>
      <trkpt lat="46.494089271455536" lon="7.622424442711351">
      <ele>2471.8</ele></trkpt>
      <trkpt lat="46.49387350370663" lon="7.622345559372666">
      <ele>2472.8</ele></trkpt>
      <trkpt lat="46.49371194084021" lon="7.622123582562927">
      <ele>2473.8</ele></trkpt>
      <trkpt lat="46.49352292833141" lon="7.622188068739821">
      <ele>2474.8</ele></trkpt>
      <trkpt lat="46.4933521173263" lon="7.622122364503024">
      <ele>2475.8</ele></trkpt>
      <trkpt lat="46.49323513262246" lon="7.622148018762914">
      <ele>2476.8</ele></trkpt>
      <trkpt lat="46.493316408226555" lon="7.6219529166260855">
      <ele>2478.7</ele></trkpt>
      <trkpt lat="46.49354144495626" lon="7.621862501251889">
      <ele>2480.6</ele></trkpt>
      <trkpt lat="46.4933620996328" lon="7.6215102155630206">
      <ele>2482.5</ele></trkpt>
      <trkpt lat="46.492993657537134" lon="7.6212745211412125">
      <ele>2484.3</ele></trkpt>
      <trkpt lat="46.4928050953566" lon="7.621058972786863">
      <ele>2486.2</ele></trkpt>
      <trkpt lat="46.49261653276629" lon="7.62084342593222">
      <ele>2488.1</ele></trkpt>
      <trkpt lat="46.49240138944388" lon="7.6203738051374">
      <ele>2490.0</ele></trkpt>
      <trkpt lat="46.49232112472609" lon="7.620346957385847">
      <ele>2491.9</ele></trkpt>
      <trkpt lat="46.49224518088947" lon="7.620277162881155">
      <ele>2493.8</ele></trkpt>
      <trkpt lat="46.49218484316707" lon="7.6202796568386635">
      <ele>2495.7</ele></trkpt>
      <trkpt lat="46.4920917168797" lon="7.620287446228925">
      <ele>2497.5</ele></trkpt>
      <trkpt lat="46.49205373288058" lon="7.6202845837184885">
      <ele>2499.4</ele></trkpt>
      <trkpt lat="46.49200460887627" lon="7.620261339084376">
      <ele>2501.3</ele></trkpt>
      <trkpt lat="46.49194577278607" lon="7.620252975377159">
      <ele>2503.2</ele></trkpt>
      <trkpt lat="46.49183261257621" lon="7.620210500086227">
      <ele>2505.1</ele></trkpt>
      <trkpt lat="46.49173436669557" lon="7.62016265661495">
      <ele>2507.0</ele></trkpt>
      <trkpt lat="46.49166958819879" lon="7.620140701360161">
      <ele>2508.8</ele></trkpt>
      <trkpt lat="46.4916033449139" lon="7.6201065370711625">
      <ele>2510.7</ele></trkpt>
      <trkpt lat="46.49153116353471" lon="7.620056072084809">
      <ele>2512.6</ele></trkpt>
      <trkpt lat="46.49147161359544" lon="7.620032792992022">
      <ele>2514.5</ele></trkpt>
      <trkpt lat="46.4914045673508" lon="7.6200338971430615">
      <ele>2512.0</ele></trkpt>
      <trkpt lat="46.49135396085646" lon="7.6200038621952935">
      <ele>2509.4</ele></trkpt>
      <trkpt lat="46.491291465498556" lon="7.619954797567669">
      <ele>2506.9</ele></trkpt>
      <trkpt lat="46.49124527135945" lon="7.6199614028437095">
      <ele>2504.3</ele></trkpt>
      <trkpt lat="46.49118799309244" lon="7.61990692453514">
      <ele>2501.8</ele></trkpt>
      <trkpt lat="46.49113295902083" lon="7.6198497447217575">
      <ele>2499.3</ele></trkpt>
      <trkpt lat="46.4911062441584" lon="7.619775024330027">
      <ele>2496.7</ele></trkpt>
      <trkpt lat="46.49108616678497" lon="7.619751890641309">
      <ele>2494.2</ele></trkpt>
      <trkpt lat="46.49106155841076" lon="7.619772152860623">
      <ele>2491.6</ele></trkpt>
      <trkpt lat="46.49103390762502" lon="7.619833093757649">
      <ele>2489.1</ele></trkpt>
      <trkpt lat="46.49101531273365" lon="7.619816737825139">
      <ele>2486.6</ele></trkpt>
      <trkpt lat="46.49099972131168" lon="7.619784124221387">
      <ele>2484.0</ele></trkpt>
      <trkpt lat="46.490922147871764" lon="7.619854380045287">
      <ele>2481.5</ele></trkpt>
      <trkpt lat="46.49085353979273" lon="7.619909752530019">
      <ele>2478.9</ele></trkpt>
      <trkpt lat="46.49081770512912" lon="7.6199692981678595">
      <ele>2476.4</ele></trkpt>
      <trkpt lat="46.4907967840779" lon="7.620012638998099">
      <ele>2473.9</ele></trkpt>
      <trkpt lat="46.490753520170884" lon="7.620054524415833">
      <ele>2471.3</ele></trkpt>
      <trkpt lat="46.49064373686825" lon="7.620257612872708">
      <ele>2468.8</ele></trkpt>
      <trkpt lat="46.4906108470153" lon="7.6203375252186065">
      <ele>2466.2</ele></trkpt>
      <trkpt lat="46.49059278030478" lon="7.62046905116697">
      <ele>2463.7</ele></trkpt>
      <trkpt lat="46.49057544270342" lon="7.620611428879564">
      <ele>2461.2</ele></trkpt>
      <trkpt lat="46.49050600535079" lon="7.62072376633416">
      <ele>2458.7</ele></trkpt>
      <trkpt lat="46.49046863348455" lon="7.620810448881171">
      <ele>2456.1</ele></trkpt>
      <trkpt lat="46.490457350340854" lon="7.62088501510345">
      <ele>2453.6</ele></trkpt>
      <trkpt lat="46.49046102474842" lon="7.620921665283095">
      <ele>2451.1</ele></trkpt>
      <trkpt lat="46.49051687456042" lon="7.620935437628244">
      <ele>2448.6</ele></trkpt>
      <trkpt lat="46.490517582017205" lon="7.620959860908695">
      <ele>2446.1</ele></trkpt>
      <trkpt lat="46.490508581916956" lon="7.6210018866778615">
      <ele>2443.5</ele></trkpt>
      <trkpt lat="46.49050698689686" lon="7.621076485522575">
      <ele>2441.0</ele></trkpt>
      <trkpt lat="46.490545510512646" lon="7.62108501597444">
      <ele>2438.5</ele></trkpt>
      <trkpt lat="46.490597462045216" lon="7.621117556716358">
      <ele>2436.0</ele></trkpt>
      <trkpt lat="46.490645067738406" lon="7.621167483635373">
      <ele>2433.5</ele></trkpt>
      <trkpt lat="46.4906911761795" lon="7.621264658566531">
      <ele>2430.9</ele></trkpt>
      <trkpt lat="46.490734421939976" lon="7.621329497122671">
      <ele>2428.4</ele></trkpt>
      <trkpt lat="46.49075025014618" lon="7.621376816512856">
      <ele>2425.9</ele></trkpt>
      <trkpt lat="46.4907502081277" lon="7.621414131668938">
      <ele>2423.4</ele></trkpt>
      <trkpt lat="46.49073604463744" lon="7.621489535032607">
      <ele>2420.9</ele></trkpt>
      <trkpt lat="46.49072159049548" lon="7.621600168729643">
      <ele>2418.3</ele></trkpt>
      <trkpt lat="46.490682203177094" lon="7.621748124582301">
      <ele>2415.8</ele></trkpt>
      <trkpt lat="46.49065870185881" lon="7.621851511939716">
      <ele>2413.3</ele></trkpt>
      <trkpt lat="46.49066011903519" lon="7.621876393553851">
      <ele>2411.4</ele></trkpt>
      <trkpt lat="46.49065285740696" lon="7.62191119655559">
      <ele>2409.5</ele></trkpt>
      <trkpt lat="46.490665800851176" lon="7.621951030216609">
      <ele>2407.6</ele></trkpt>
      <trkpt lat="46.490714872599575" lon="7.621978573726608">
      <ele>2405.6</ele></trkpt>
      <trkpt lat="46.49064112529525" lon="7.622062853365041">
      <ele>2403.7</ele></trkpt>
      <trkpt lat="46.49059343554952" lon="7.622087542734196">
      <ele>2401.8</ele></trkpt>
      <trkpt lat="46.4906655968071" lon="7.622127628947605">
      <ele>2399.9</ele></trkpt>
      <trkpt lat="46.490607776921635" lon="7.62216967168646">
      <ele>2398.0</ele></trkpt>
      <trkpt lat="46.49062508825284" lon="7.622189644770889">
      <ele>2396.1</ele></trkpt>
      <trkpt lat="46.49069871785793" lon="7.622217297695891">
      <ele>2394.2</ele></trkpt>
      <trkpt lat="46.49061196277665" lon="7.622301519886701">
      <ele>2392.2</ele></trkpt>
      <trkpt lat="46.490590300465875" lon="7.62229645810611">
      <ele>2390.3</ele></trkpt>
      <trkpt lat="46.490581109956544" lon="7.6223224108374446">
      <ele>2388.4</ele></trkpt>
      <trkpt lat="46.49058270609939" lon="7.622347814015067">
      <ele>2386.5</ele></trkpt>
      <trkpt lat="46.49059322093273" lon="7.622376295157717">
      <ele>2384.6</ele></trkpt>
      <trkpt lat="46.490610402666924" lon="7.622398508078131">
      <ele>2382.7</ele></trkpt>
      <trkpt lat="46.490658060302" lon="7.622393720324636">
      <ele>2380.7</ele></trkpt>
      <trkpt lat="46.49069844600049" lon="7.622441136255596">
      <ele>2378.8</ele></trkpt>
      <trkpt lat="46.490741741514825" lon="7.622463685264596">
      <ele>2376.9</ele></trkpt>
      <trkpt lat="46.49070849147296" lon="7.622498387065816">
      <ele>2375.0</ele></trkpt>
      <trkpt lat="46.49068392242968" lon="7.622510716098749">
      <ele>2372.8</ele></trkpt>
      <trkpt lat="46.49065356612001" lon="7.622530501558995">
      <ele>2370.6</ele></trkpt>
      <trkpt lat="46.49063184720365" lon="7.622582656157724">
      <ele>2368.4</ele></trkpt>
      <trkpt lat="46.49061052234463" lon="7.622619208696968">
      <ele>2366.3</ele></trkpt>
      <trkpt lat="46.49057398918365" lon="7.6227148017115764">
      <ele>2364.1</ele></trkpt>
      <trkpt lat="46.49056713932047" lon="7.622767358329424">
      <ele>2361.9</ele></trkpt>
      <trkpt lat="46.49053844341873" lon="7.622795003009525">
      <ele>2359.7</ele></trkpt>
      <trkpt lat="46.49053611836441" lon="7.622853084317238">
      <ele>2357.5</ele></trkpt>
      <trkpt lat="46.490551141295356" lon="7.622902888921445">
      <ele>2355.3</ele></trkpt>
      <trkpt lat="46.49059184212359" lon="7.622927812900247">
      <ele>2353.2</ele></trkpt>
      <trkpt lat="46.490584252250926" lon="7.622970676766125">
      <ele>2351.0</ele></trkpt>
      <trkpt lat="46.490545771265246" lon="7.622985862705519">
      <ele>2348.8</ele></trkpt>
      <trkpt lat="46.49055319075897" lon="7.6230868277359">
      <ele>2346.6</ele></trkpt>
      <trkpt lat="46.49061277553734" lon="7.6230827193773205">
      <ele>2344.4</ele></trkpt>
      <trkpt lat="46.49058548084578" lon="7.623205799177994">
      <ele>2342.2</ele></trkpt>
      <trkpt lat="46.490524099621" lon="7.623313458947436">
      <ele>2340.0</ele></trkpt>
      <trkpt lat="46.49056741922018" lon="7.623321082593672">
      <ele>2337.9</ele></trkpt>
      <trkpt lat="46.49053124495948" lon="7.623378149858352">
      <ele>2335.7</ele></trkpt>
      <trkpt lat="46.490596198505024" lon="7.623408249432395">
      <ele>2333.5</ele></trkpt>
      <trkpt lat="46.49056630686925" lon="7.623479625960599">
      <ele>2331.3</ele></trkpt>
      <trkpt lat="46.49048399454221" lon="7.62357499701004">
      <ele>2329.2</ele></trkpt>
      <trkpt lat="46.49045607884547" lon="7.623581895907372">
      <ele>2327.1</ele></trkpt>
      <trkpt lat="46.490436450368634" lon="7.623598474200102">
      <ele>2324.9</ele></trkpt>
      <trkpt lat="46.490469506831616" lon="7.623704996915756">
      <ele>2322.8</ele></trkpt>
      <trkpt lat="46.49052297438729" lon="7.6237783379832615">
      <ele>2320.7</ele></trkpt>
      <trkpt lat="46.49053271648127" lon="7.623828137816029">
      <ele>2318.6</ele></trkpt>
      <trkpt lat="46.49048747073187" lon="7.62382671986344">
      <ele>2316.4</ele></trkpt>
      <trkpt lat="46.490502477433864" lon="7.623891737229176">
      <ele>2314.3</ele></trkpt>
      <trkpt lat="46.490475718134235" lon="7.62391765564678">
      <ele>2312.2</ele></trkpt>
      <trkpt lat="46.49053636811388" lon="7.623927839709539">
      <ele>2310.1</ele></trkpt>
      <trkpt lat="46.49048286310755" lon="7.623982359603996">
      <ele>2307.9</ele></trkpt>
      <trkpt lat="46.490543496851025" lon="7.624002494393853">
      <ele>2305.8</ele></trkpt>
      <trkpt lat="46.49057668191509" lon="7.624029972341114">
      <ele>2303.7</ele></trkpt>
      <trkpt lat="46.49051159494383" lon="7.624109316284873">
      <ele>2301.6</ele></trkpt>
      <trkpt lat="46.490553454893835" lon="7.624129373959373">
      <ele>2299.4</ele></trkpt>
      <trkpt lat="46.49050574934873" lon="7.624168974446377">
      <ele>2297.3</ele></trkpt>
      <trkpt lat="46.490491267623334" lon="7.624201264652484">
      <ele>2295.2</ele></trkpt>
      <trkpt lat="46.49046379456167" lon="7.624223533617059">
      <ele>2293.1</ele></trkpt>
      <trkpt lat="46.49047821883894" lon="7.624248459744056">
      <ele>2290.9</ele></trkpt>
      <trkpt lat="46.49052293703421" lon="7.624280965683386">
      <ele>2288.8</ele></trkpt>
      <trkpt lat="46.49045931850432" lon="7.624347875912055">
      <ele>2286.8</ele></trkpt>
      <trkpt lat="46.490506934113995" lon="7.624385367201579">
      <ele>2284.9</ele></trkpt>
      <trkpt lat="46.49054301389741" lon="7.624402930625932">
      <ele>2282.9</ele></trkpt>
      <trkpt lat="46.49063538423893" lon="7.624450539179226">
      <ele>2280.9</ele></trkpt>
      <trkpt lat="46.49057896465162" lon="7.624532400107479">
      <ele>2278.9</ele></trkpt>
      <trkpt lat="46.49058616859642" lon="7.624549851591819">
      <ele>2277.0</ele></trkpt>
      <trkpt lat="46.49056736635791" lon="7.6245671748044295">
      <ele>2275.0</ele></trkpt>
      <trkpt lat="46.490571678664566" lon="7.624587091024332">
      <ele>2273.0</ele></trkpt>
      <trkpt lat="46.490529752177395" lon="7.624624236299095">
      <ele>2271.0</ele></trkpt>
      <trkpt lat="46.49055280976224" lon="7.624661630577596">
      <ele>2269.1</ele></trkpt>
      <trkpt lat="46.490583127424955" lon="7.6246766737209">
      <ele>2267.1</ele></trkpt>
      <trkpt lat="46.49064375612252" lon="7.624694321625943">
      <ele>2265.1</ele></trkpt>
      <trkpt lat="46.49060036673221" lon="7.624751350259495">
      <ele>2263.1</ele></trkpt>
      <trkpt lat="46.49053239167363" lon="7.624830683453025">
      <ele>2261.2</ele></trkpt>
      <trkpt lat="46.49058001033676" lon="7.624860725215901">
      <ele>2259.2</ele></trkpt>
      <trkpt lat="46.49064207592716" lon="7.62489080364728">
      <ele>2257.2</ele></trkpt>
      <trkpt lat="46.49059434238665" lon="7.62495280557467">
      <ele>2255.2</ele></trkpt>
      <trkpt lat="46.49055095611001" lon="7.625002370927555">
      <ele>2253.2</ele></trkpt>
      <trkpt lat="46.490572601981" lon="7.625017384444265">
      <ele>2251.3</ele></trkpt>
      <trkpt lat="46.49063180765245" lon="7.625025077108366">
      <ele>2249.3</ele></trkpt>
      <trkpt lat="46.49055661304909" lon="7.6251018844678775">
      <ele>2247.4</ele></trkpt>
      <trkpt lat="46.490516150203696" lon="7.625124095289782">
      <ele>2245.5</ele></trkpt>
      <trkpt lat="46.490481485312074" lon="7.625121475332175">
      <ele>2243.6</ele></trkpt>
      <trkpt lat="46.49051605963101" lon="7.625201199910957">
      <ele>2241.7</ele></trkpt>
      <trkpt lat="46.49052755115599" lon="7.625253493694531">
      <ele>2239.8</ele></trkpt>
      <trkpt lat="46.4905477487256" lon="7.625268489294184">
      <ele>2237.8</ele></trkpt>
      <trkpt lat="46.49053760990958" lon="7.62529084347958">
      <ele>2235.9</ele></trkpt>
      <trkpt lat="46.49057366672127" lon="7.6253332581758935">
      <ele>2234.0</ele></trkpt>
      <trkpt lat="46.490609774988805" lon="7.6253333955643585">
      <ele>2232.1</ele></trkpt>
      <trkpt lat="46.49061696981505" lon="7.625350847134142">
      <ele>2230.2</ele></trkpt>
      <trkpt lat="46.490562001161415" lon="7.625425236040602">
      <ele>2228.3</ele></trkpt>
      <trkpt lat="46.49056486093873" lon="7.625447634999805">
      <ele>2226.4</ele></trkpt>
      <trkpt lat="46.490670281799304" lon="7.625457988118963">
      <ele>2224.5</ele></trkpt>
      <trkpt lat="46.49071794363117" lon="7.625450728403322">
      <ele>2222.6</ele></trkpt>
      <trkpt lat="46.490780025403694" lon="7.62547086991493">
      <ele>2220.7</ele></trkpt>
      <trkpt lat="46.490700420138495" lon="7.625614816116246">
      <ele>2218.7</ele></trkpt>
      <trkpt lat="46.490657017196455" lon="7.625674331709934">
      <ele>2216.8</ele></trkpt>
      <trkpt lat="46.49073062957336" lon="7.625711940071763">
      <ele>2214.9</ele></trkpt>
      <trkpt lat="46.49078548705965" lon="7.625727068550857">
      <ele>2213.0</ele></trkpt>
      <trkpt lat="46.49077244581312" lon="7.625769301208256">
      <ele>2211.1</ele></trkpt>
      <trkpt lat="46.490757902991646" lon="7.625843868593908">
      <ele>2208.9</ele></trkpt>
      <trkpt lat="46.49072604445446" lon="7.625923325436255">
      <ele>2206.7</ele></trkpt>
      <trkpt lat="46.49065947507976" lon="7.626022550642563">
      <ele>2204.4</ele></trkpt>
      <trkpt lat="46.490653652287364" lon="7.626062320407875">
      <ele>2202.2</ele></trkpt>
      <trkpt lat="46.49064059860479" lon="7.626112015884833">
      <ele>2200.0</ele></trkpt>
      <trkpt lat="46.490655008559514" lon="7.626134467889527">
      <ele>2197.8</ele></trkpt>
      <trkpt lat="46.49067943088854" lon="7.626243984395982">
      <ele>2195.6</ele></trkpt>
      <trkpt lat="46.49071252812537" lon="7.626346107060993">
      <ele>2193.3</ele></trkpt>
      <trkpt lat="46.490739912796855" lon="7.626388492560013">
      <ele>2191.1</ele></trkpt>
      <trkpt lat="46.490752835641715" lon="7.626450729495518">
      <ele>2188.9</ele></trkpt>
      <trkpt lat="46.49076867407374" lon="7.626490574352041">
      <ele>2186.7</ele></trkpt>
      <trkpt lat="46.490800410994844" lon="7.626523037322286">
      <ele>2184.5</ele></trkpt>
      <trkpt lat="46.49081332553739" lon="7.626590249710375">
      <ele>2182.2</ele></trkpt>
      <trkpt lat="46.49081324478979" lon="7.6266499409607444">
      <ele>2180.0</ele></trkpt>
      <trkpt lat="46.4908232930205" lon="7.626709680379169">
      <ele>2177.8</ele></trkpt>
      <trkpt lat="46.49084343015037" lon="7.626771942526576">
      <ele>2175.6</ele></trkpt>
      <trkpt lat="46.4908504967641" lon="7.626893837888089">
      <ele>2173.4</ele></trkpt>
      <trkpt lat="46.490877823165356" lon="7.626998402864792">
      <ele>2171.1</ele></trkpt>
      <trkpt lat="46.49094291227654" lon="7.627092653525878">
      <ele>2168.9</ele></trkpt>
      <trkpt lat="46.49096927792551" lon="7.62712554111228">
      <ele>2166.7</ele></trkpt>
      <trkpt lat="46.49099751224127" lon="7.627170730450583">
      <ele>2165.7</ele></trkpt>
      <trkpt lat="46.49100785915801" lon="7.627191254135529">
      <ele>2164.6</ele></trkpt>
      <trkpt lat="46.49102465688161" lon="7.627303350217854">
      <ele>2163.6</ele></trkpt>
      <trkpt lat="46.49103968108453" lon="7.627351215848623">
      <ele>2162.5</ele></trkpt>
      <trkpt lat="46.49106414170697" lon="7.627393657053342">
      <ele>2161.5</ele></trkpt>
      <trkpt lat="46.49107638445022" lon="7.627410097678799">
      <ele>2160.4</ele></trkpt>
      <trkpt lat="46.491094210499035" lon="7.627471648997807">
      <ele>2159.4</ele></trkpt>
      <trkpt lat="46.49110359011885" lon="7.627505832237394">
      <ele>2158.3</ele></trkpt>
      <trkpt lat="46.49112241517032" lon="7.6275345910863495">
      <ele>2157.3</ele></trkpt>
      <trkpt lat="46.49114030477183" lon="7.627557876349089">
      <ele>2156.2</ele></trkpt>
      <trkpt lat="46.491155372105624" lon="7.627574326880147">
      <ele>2155.2</ele></trkpt>
      <trkpt lat="46.49117515304616" lon="7.627596251176097">
      <ele>2154.2</ele></trkpt>
      <trkpt lat="46.491233776240605" lon="7.627624132928282">
      <ele>2153.1</ele></trkpt>
      <trkpt lat="46.49127417900493" lon="7.627649163927542">
      <ele>2152.1</ele></trkpt>
      <trkpt lat="46.491292897019754" lon="7.6276989834341675">
      <ele>2151.0</ele></trkpt>
      <trkpt lat="46.49127261016988" lon="7.627748653870373">
      <ele>2150.0</ele></trkpt>
      <trkpt lat="46.491237890279535" lon="7.627800735562325">
      <ele>2148.9</ele></trkpt>
      <trkpt lat="46.49123632476676" lon="7.62789274929365">
      <ele>2147.9</ele></trkpt>
      <trkpt lat="46.49121898269463" lon="7.62790263957862">
      <ele>2146.8</ele></trkpt>
      <trkpt lat="46.491210235091465" lon="7.627969751104654">
      <ele>2145.8</ele></trkpt>
      <trkpt lat="46.491211666802236" lon="7.627979706938159">
      <ele>2144.4</ele></trkpt>
      <trkpt lat="46.491252037709955" lon="7.6280346036262126">
      <ele>2142.9</ele></trkpt>
      <trkpt lat="46.491286581670046" lon="7.628136707477203">
      <ele>2141.5</ele></trkpt>
      <trkpt lat="46.491282152484686" lon="7.62820882259954">
      <ele>2140.1</ele></trkpt>
      <trkpt lat="46.49128208472697" lon="7.62827100212353">
      <ele>2138.6</ele></trkpt>
      <trkpt lat="46.49129647351772" lon="7.628305880431125">
      <ele>2137.2</ele></trkpt>
      <trkpt lat="46.49130072843079" lon="7.628370562814242">
      <ele>2135.8</ele></trkpt>
      <trkpt lat="46.49132080923808" lon="7.628487542599124">
      <ele>2134.3</ele></trkpt>
      <trkpt lat="46.49133944509327" lon="7.628597067289563">
      <ele>2132.9</ele></trkpt>
      <trkpt lat="46.49134365063854" lon="7.628696551524941">
      <ele>2131.4</ele></trkpt>
      <trkpt lat="46.49135802813809" lon="7.628748856975218">
      <ele>2130.0</ele></trkpt>
      <trkpt lat="46.49136656174136" lon="7.6288583203305445">
      <ele>2128.6</ele></trkpt>
      <trkpt lat="46.49137077951257" lon="7.628950367582352">
      <ele>2127.1</ele></trkpt>
      <trkpt lat="46.49140100625443" lon="7.629030093674601">
      <ele>2125.7</ele></trkpt>
      <trkpt lat="46.491398061677366" lon="7.629074836185101">
      <ele>2124.3</ele></trkpt>
      <trkpt lat="46.491423928742726" lon="7.629179424244004">
      <ele>2122.8</ele></trkpt>
      <trkpt lat="46.49142674323582" lon="7.629239113323436">
      <ele>2121.4</ele></trkpt>
      <trkpt lat="46.491423822922" lon="7.629263980234766">
      <ele>2120.0</ele></trkpt>
      <trkpt lat="46.491402112811684" lon="7.629303681308171">
      <ele>2118.5</ele></trkpt>
      <trkpt lat="46.49138907311777" lon="7.629333475013401">
      <ele>2117.1</ele></trkpt>
      <trkpt lat="46.49138758437246" lon="7.6293682978048105">
      <ele>2115.9</ele></trkpt>
      <trkpt lat="46.49140480453005" lon="7.629457903189735">
      <ele>2114.7</ele></trkpt>
      <trkpt lat="46.49144076558564" lon="7.629572464850053">
      <ele>2113.5</ele></trkpt>
      <trkpt lat="46.49143634387338" lon="7.629639591627695">
      <ele>2112.3</ele></trkpt>
      <trkpt lat="46.491440663653925" lon="7.629654533162172">
      <ele>2111.1</ele></trkpt>
      <trkpt lat="46.491463703462095" lon="7.6297068694957915">
      <ele>2109.8</ele></trkpt>
      <trkpt lat="46.49147086605835" lon="7.6297591368677375">
      <ele>2108.6</ele></trkpt>
      <trkpt lat="46.491511194922474" lon="7.6298438616135735">
      <ele>2107.4</ele></trkpt>
      <trkpt lat="46.49154722197009" lon="7.629913644962034">
      <ele>2106.2</ele></trkpt>
      <trkpt lat="46.491558731049075" lon="7.629943538265859">
      <ele>2105.0</ele></trkpt>
      <trkpt lat="46.49155146759087" lon="7.629983303188778">
      <ele>2103.8</ele></trkpt>
      <trkpt lat="46.49153799013114" lon="7.6300539277941">
      <ele>2102.6</ele></trkpt>
      <trkpt lat="46.49154799889055" lon="7.6301360319733975">
      <ele>2101.4</ele></trkpt>
      <trkpt lat="46.49157089019404" lon="7.630174939587146">
      <ele>2100.2</ele></trkpt>
      <trkpt lat="46.49160071762381" lon="7.6302348936858335">
      <ele>2098.9</ele></trkpt>
      <trkpt lat="46.49162956944022" lon="7.630270579289064">
      <ele>2097.7</ele></trkpt>
      <trkpt lat="46.491651455135994" lon="7.630302997133593">
      <ele>2096.5</ele></trkpt>
      <trkpt lat="46.49166337219846" lon="7.630362940141091">
      <ele>2095.3</ele></trkpt>
      <trkpt lat="46.49168523142539" lon="7.6304536698219705">
      <ele>2094.1</ele></trkpt>
      <trkpt lat="46.49170809647973" lon="7.6305346996833485">
      <ele>2092.9</ele></trkpt>
      <trkpt lat="46.49174090206708" lon="7.630636786812159">
      <ele>2091.3</ele></trkpt>
      <trkpt lat="46.49175083130169" lon="7.630680533146763">
      <ele>2089.8</ele></trkpt>
      <trkpt lat="46.491753784217934" lon="7.630769620089203">
      <ele>2088.2</ele></trkpt>
      <trkpt lat="46.491761732031" lon="7.630798784701225">
      <ele>2086.7</ele></trkpt>
      <trkpt lat="46.49176470679224" lon="7.630837674227681">
      <ele>2085.1</ele></trkpt>
      <trkpt lat="46.49176567274232" lon="7.630915422590771">
      <ele>2083.5</ele></trkpt>
      <trkpt lat="46.49177559550896" lon="7.630994817815329">
      <ele>2082.0</ele></trkpt>
      <trkpt lat="46.49179048186167" lon="7.6310806779620926">
      <ele>2080.4</ele></trkpt>
      <trkpt lat="46.49179444210346" lon="7.631132517667134">
      <ele>2078.9</ele></trkpt>
      <trkpt lat="46.49179841801875" lon="7.631169782692802">
      <ele>2077.3</ele></trkpt>
      <trkpt lat="46.49179536857308" lon="7.631323659774888">
      <ele>2075.7</ele></trkpt>
      <trkpt lat="46.49179931597884" lon="7.631409520215507">
      <ele>2074.2</ele></trkpt>
      <trkpt lat="46.49181918280976" lon="7.63149702633484">
      <ele>2072.6</ele></trkpt>
      <trkpt lat="46.49182215187134" lon="7.631539133046559">
      <ele>2071.1</ele></trkpt>
      <trkpt lat="46.49182211003062" lon="7.6316379520418325">
      <ele>2069.5</ele></trkpt>
      <trkpt lat="46.4918260795501" lon="7.631673589001502">
      <ele>2067.9</ele></trkpt>
      <trkpt lat="46.49184691426378" lon="7.631837215666148">
      <ele>2066.4</ele></trkpt>
      <trkpt lat="46.491868778540066" lon="7.63192957437207">
      <ele>2064.8</ele></trkpt>
      <trkpt lat="46.4918776755443" lon="7.632072136613481">
      <ele>2063.3</ele></trkpt>
      <trkpt lat="46.491862677844125" lon="7.632200090907531">
      <ele>2061.7</ele></trkpt>
      <trkpt lat="46.491822739991434" lon="7.632525633382185">
      <ele>2060.6</ele></trkpt>
      <trkpt lat="46.491816695258066" lon="7.632694087513936">
      <ele>2059.5</ele></trkpt>
      <trkpt lat="46.49183757341066" lon="7.6327313871445375">
      <ele>2058.5</ele></trkpt>
      <trkpt lat="46.49183256358174" lon="7.632820471870651">
      <ele>2057.4</ele></trkpt>
      <trkpt lat="46.491828550833596" lon="7.632899830628223">
      <ele>2056.3</ele></trkpt>
      <trkpt lat="46.49181160577119" lon="7.6329613771855485">
      <ele>2055.2</ele></trkpt>
      <trkpt lat="46.49179565713075" lon="7.633029387574862">
      <ele>2054.1</ele></trkpt>
      <trkpt lat="46.49179763403597" lon="7.6330569290768056">
      <ele>2053.1</ele></trkpt>
      <trkpt lat="46.49181750030111" lon="7.633149281024397">
      <ele>2052.0</ele></trkpt>
      <trkpt lat="46.49182344762358" lon="7.633201128042182">
      <ele>2050.9</ele></trkpt>
      <trkpt lat="46.49183138499586" lon="7.6332675439440845">
      <ele>2049.8</ele></trkpt>
      <trkpt lat="46.49183631755245" lon="7.633376097333062">
      <ele>2048.7</ele></trkpt>
      <trkpt lat="46.49184723581968" lon="7.633445754141334">
      <ele>2047.7</ele></trkpt>
      <trkpt lat="46.491862132862316" lon="7.633513810206214">
      <ele>2046.6</ele></trkpt>
      <trkpt lat="46.491888968907105" lon="7.633617506066404">
      <ele>2045.5</ele></trkpt>
      <trkpt lat="46.491912821407226" lon="7.633677466968073">
      <ele>2044.4</ele></trkpt>
      <trkpt lat="46.49191778111357" lon="7.633722824219784">
      <ele>2043.3</ele></trkpt>
      <trkpt lat="46.491912798673035" lon="7.63375359696424">
      <ele>2042.3</ele></trkpt>
      <trkpt lat="46.491872931097845" lon="7.633873424993057">
      <ele>2041.2</ele></trkpt>
      <trkpt lat="46.49183903732947" lon="7.633977071520672">
      <ele>2040.1</ele></trkpt>
      <trkpt lat="46.49184202581999" lon="7.63399164402129">
      <ele>2039.0</ele></trkpt>
      <trkpt lat="46.4918599056512" lon="7.634056467807268">
      <ele>2037.9</ele></trkpt>
      <trkpt lat="46.491849927306504" lon="7.634130959772708">
      <ele>2036.8</ele></trkpt>
      <trkpt lat="46.49181902822135" lon="7.6342297456277635">
      <ele>2035.7</ele></trkpt>
      <trkpt lat="46.49182994533407" lon="7.634294544332608">
      <ele>2034.6</ele></trkpt>
      <trkpt lat="46.49182994136046" lon="7.634333423349883">
      <ele>2033.6</ele></trkpt>
      <trkpt lat="46.4918249444624" lon="7.634346378010289">
      <ele>2032.5</ele></trkpt>
      <trkpt lat="46.491778136918214" lon="7.6344370308612435">
      <ele>2031.4</ele></trkpt>
      <trkpt lat="46.49174624899474" lon="7.6345196100104875">
      <ele>2030.3</ele></trkpt>
      <trkpt lat="46.491734271115234" lon="7.6346005938712835">
      <ele>2029.2</ele></trkpt>
      <trkpt lat="46.49172127318397" lon="7.634725311202554">
      <ele>2028.1</ele></trkpt>
      <trkpt lat="46.4917102743388" lon="7.6348435493740885">
      <ele>2027.0</ele></trkpt>
      <trkpt lat="46.49171122255497" lon="7.634945601902118">
      <ele>2025.9</ele></trkpt>
      <trkpt lat="46.491716181755166" lon="7.6349909591011205">
      <ele>2024.8</ele></trkpt>
      <trkpt lat="46.49173006954339" lon="7.635101120877819">
      <ele>2023.8</ele></trkpt>
      <trkpt lat="46.49174892337961" lon="7.635216158964476">
      <ele>2022.7</ele></trkpt>
      <trkpt lat="46.49176184197196" lon="7.635272863630748">
      <ele>2021.6</ele></trkpt>
      <trkpt lat="46.49178072801351" lon="7.635332820126048">
      <ele>2020.5</ele></trkpt>
      <trkpt lat="46.491793649236264" lon="7.635361990450881">
      <ele>2019.4</ele></trkpt>
      <trkpt lat="46.491824484231344" lon="7.635420336242441">
      <ele>2018.3</ele></trkpt>
      <trkpt lat="46.491832439241755" lon="7.635444656378318">
      <ele>2017.3</ele></trkpt>
      <trkpt lat="46.49183637058285" lon="7.635522415702689">
      <ele>2016.4</ele></trkpt>
      <trkpt lat="46.491841348055544" lon="7.635546712017606">
      <ele>2015.4</ele></trkpt>
      <trkpt lat="46.49196183810179" lon="7.6356387403518555">
      <ele>2014.4</ele></trkpt>
      <trkpt lat="46.49205948074008" lon="7.63571428772487">
      <ele>2013.5</ele></trkpt>
      <trkpt lat="46.49211871560082" lon="7.635761796399014">
      <ele>2012.5</ele></trkpt>
      <trkpt lat="46.492149124513524" lon="7.635790809192287">
      <ele>2011.5</ele></trkpt>
      <trkpt lat="46.49218592424201" lon="7.635843485436983">
      <ele>2010.5</ele></trkpt>
      <trkpt lat="46.49219069950259" lon="7.6359065041960985">
      <ele>2009.6</ele></trkpt>
      <trkpt lat="46.492225907335204" lon="7.6359434146395175">
      <ele>2008.6</ele></trkpt>
      <trkpt lat="46.49226590908264" lon="7.63601183680851">
      <ele>2007.6</ele></trkpt>
      <trkpt lat="46.49227546950626" lon="7.636090633245557">
      <ele>2006.7</ele></trkpt>
      <trkpt lat="46.49230102335855" lon="7.636195746223164">
      <ele>2005.7</ele></trkpt>
      <trkpt lat="46.49231695587719" lon="7.636319189350376">
      <ele>2004.7</ele></trkpt>
      <trkpt lat="46.492328099010294" lon="7.636408502802867">
      <ele>2003.8</ele></trkpt>
      <trkpt lat="46.4923088236338" lon="7.636495048173013">
      <ele>2002.8</ele></trkpt>
      <trkpt lat="46.49230877721394" lon="7.636547538419723">
      <ele>2001.8</ele></trkpt>
      <trkpt lat="46.49232637165428" lon="7.636579122970338">
      <ele>2000.8</ele></trkpt>
      <trkpt lat="46.49233915731027" lon="7.636634291141277">
      <ele>1999.9</ele></trkpt>
      <trkpt lat="46.49232789270078" lon="7.636707749627653">
      <ele>1998.9</ele></trkpt>
      <trkpt lat="46.492356681548166" lon="7.636757753328756">
      <ele>1997.6</ele></trkpt>
      <trkpt lat="46.49234060833359" lon="7.636844310330598">
      <ele>1996.4</ele></trkpt>
      <trkpt lat="46.492340561568064" lon="7.636902062676786">
      <ele>1995.1</ele></trkpt>
      <trkpt lat="46.49232450741193" lon="7.636951863352774">
      <ele>1993.8</ele></trkpt>
      <trkpt lat="46.492318636446605" lon="7.637053110623722">
      <ele>1992.5</ele></trkpt>
      <trkpt lat="46.49233237646929" lon="7.637154025923737">
      <ele>1991.2</ele></trkpt>
      <trkpt lat="46.49230184508335" lon="7.637298269247513">
      <ele>1990.0</ele></trkpt>
      <trkpt lat="46.49230018256638" lon="7.637379629800934">
      <ele>1988.7</ele></trkpt>
      <trkpt lat="46.492269698747776" lon="7.637445111467882">
      <ele>1987.4</ele></trkpt>
      <trkpt lat="46.49224882671066" lon="7.63750803637082">
      <ele>1986.2</ele></trkpt>
      <trkpt lat="46.492232739174504" lon="7.637602446941719">
      <ele>1984.9</ele></trkpt>
      <trkpt lat="46.492191045916655" lon="7.637688896389303">
      <ele>1983.6</ele></trkpt>
      <trkpt lat="46.49218778689644" lon="7.6377571348374955">
      <ele>1982.3</ele></trkpt>
      <trkpt lat="46.49216214453801" lon="7.637770130646958">
      <ele>1981.1</ele></trkpt>
      <trkpt lat="46.492133318727866" lon="7.637756882648925">
      <ele>1979.8</ele></trkpt>
      <trkpt lat="46.49208530660386" lon="7.6377120309932">
      <ele>1978.5</ele></trkpt>
      <trkpt lat="46.492059678430266" lon="7.637706661802038">
      <ele>1977.2</ele></trkpt>
      <trkpt lat="46.49203723845969" lon="7.6377196954161555">
      <ele>1976.0</ele></trkpt>
      <trkpt lat="46.49202759837807" lon="7.6377537851171935">
      <ele>1974.7</ele></trkpt>
      <trkpt lat="46.49202916156352" lon="7.637806294031798">
      <ele>1973.4</ele></trkpt>
      <trkpt lat="46.492045148822676" lon="7.637866736000215">
      <ele>1972.2</ele></trkpt>
      <trkpt lat="46.49205311702022" lon="7.637914019466057">
      <ele>1971.1</ele></trkpt>
      <trkpt lat="46.49205149674667" lon="7.637940271618799">
      <ele>1969.9</ele></trkpt>
      <trkpt lat="46.492040269440125" lon="7.637961213375941">
      <ele>1968.7</ele></trkpt>
      <trkpt lat="46.49202423408453" lon="7.637979519447364">
      <ele>1967.6</ele></trkpt>
      <trkpt lat="46.491992191672075" lon="7.637984611544916">
      <ele>1966.4</ele></trkpt>
      <trkpt lat="46.491940944534086" lon="7.637968636980805">
      <ele>1965.2</ele></trkpt>
      <trkpt lat="46.49186568426492" lon="7.637939419088925">
      <ele>1964.0</ele></trkpt>
      <trkpt lat="46.49183153232741" lon="7.637936844854567">
      <ele>1962.9</ele></trkpt>
      <trkpt lat="46.49180208437715" lon="7.637996233848535">
      <ele>1961.7</ele></trkpt>
      <trkpt lat="46.49178276061571" lon="7.638022511930757">
      <ele>1960.5</ele></trkpt>
      <trkpt lat="46.49174634816736" lon="7.63803167768698">
      <ele>1959.4</ele></trkpt>
      <trkpt lat="46.49169709734594" lon="7.638031496515909">
      <ele>1958.2</ele></trkpt>
      <trkpt lat="46.49164999646902" lon="7.638031323253807">
      <ele>1957.0</ele></trkpt>
      <trkpt lat="46.49161575404498" lon="7.638018797728965">
      <ele>1955.8</ele></trkpt>
      <trkpt lat="46.491571929847645" lon="7.637981437871247">
      <ele>1954.7</ele></trkpt>
      <trkpt lat="46.49149174945776" lon="7.637916032417682">
      <ele>1953.5</ele></trkpt>
      <trkpt lat="46.491416948548334" lon="7.637835160555936">
      <ele>1952.3</ele></trkpt>
      <trkpt lat="46.491363552510975" lon="7.637762104212424">
      <ele>1951.2</ele></trkpt>
      <trkpt lat="46.49131968121772" lon="7.637746443680279">
      <ele>1950.0</ele></trkpt>
      <trkpt lat="46.491287604998455" lon="7.637724626752389">
      <ele>1948.8</ele></trkpt>
      <trkpt lat="46.491252319238384" lon="7.637696585298834">
      <ele>1947.7</ele></trkpt>
      <trkpt lat="46.49122342457144" lon="7.637691829385752">
      <ele>1946.5</ele></trkpt>
      <trkpt lat="46.49118820597861" lon="7.637738419468546">
      <ele>1945.4</ele></trkpt>
      <trkpt lat="46.49113965444271" lon="7.637826860762808">
      <ele>1944.2</ele></trkpt>
      <trkpt lat="46.49111277855982" lon="7.63787128018789">
      <ele>1943.1</ele></trkpt>
      <trkpt lat="46.49120888855028" lon="7.637988946498101">
      <ele>1942.0</ele></trkpt>
      <trkpt lat="46.49131455583008" lon="7.638078684410248">
      <ele>1940.8</ele></trkpt>
      <trkpt lat="46.49135456616363" lon="7.638126111242859">
      <ele>1939.7</ele></trkpt>
      <trkpt lat="46.49148735853788" lon="7.638341963707286">
      <ele>1938.5</ele></trkpt>
      <trkpt lat="46.491549732152606" lon="7.638481362806734">
      <ele>1937.3</ele></trkpt>
      <trkpt lat="46.4916120630231" lon="7.638665397890211">
      <ele>1936.2</ele></trkpt>
      <trkpt lat="46.49165521167818" lon="7.638825722604835">
      <ele>1935.0</ele></trkpt>
      <trkpt lat="46.491696755588464" lon="7.638962401684618">
      <ele>1933.9</ele></trkpt>
      <trkpt lat="46.49171754199083" lon="7.639009758442381">
      <ele>1932.8</ele></trkpt>
      <trkpt lat="46.49174475664246" lon="7.639038761036423">
      <ele>1931.6</ele></trkpt>
      <trkpt lat="46.49177677521291" lon="7.639062519407564">
      <ele>1930.5</ele></trkpt>
      <trkpt lat="46.491820011487576" lon="7.639081096344749">
      <ele>1929.3</ele></trkpt>
      <trkpt lat="46.49184564449942" lon="7.63907858617195">
      <ele>1928.2</ele></trkpt>
      <trkpt lat="46.49188889572004" lon="7.639068287180911">
      <ele>1927.0</ele></trkpt>
      <trkpt lat="46.49194818249191" lon="7.6390396694273965">
      <ele>1925.9</ele></trkpt>
      <trkpt lat="46.49206356330822" lon="7.638966700926968">
      <ele>1924.7</ele></trkpt>
      <trkpt lat="46.49211003519384" lon="7.638951164684897">
      <ele>1923.6</ele></trkpt>
      <trkpt lat="46.49217091310885" lon="7.638943561705499">
      <ele>1922.4</ele></trkpt>
      <trkpt lat="46.49223360233894" lon="7.63894945919878">
      <ele>1921.3</ele></trkpt>
      <trkpt lat="46.49228978192603" lon="7.638963746742734">
      <ele>1920.2</ele></trkpt>
      <trkpt lat="46.492327861359" lon="7.638983659308606">
      <ele>1919.0</ele></trkpt>
      <trkpt lat="46.492337594838716" lon="7.6389988562978015">
      <ele>1917.9</ele></trkpt>
      <trkpt lat="46.49235507088164" lon="7.639025778301">
      <ele>1916.7</ele></trkpt>
      <trkpt lat="46.49238544033129" lon="7.639107296428536">
      <ele>1915.6</ele></trkpt>
      <trkpt lat="46.492492587729004" lon="7.639346661692408">
      <ele>1914.5</ele></trkpt>
      <trkpt lat="46.49258695478994" lon="7.639533463783664">
      <ele>1913.3</ele></trkpt>
      <trkpt lat="46.492751945602485" lon="7.6398833022614845">
      <ele>1912.2</ele></trkpt>
      <trkpt lat="46.49276086218306" lon="7.639917786563631">
      <ele>1911.0</ele></trkpt>
      <trkpt lat="46.49275767235691" lon="7.639956367871798">
      <ele>1909.9</ele></trkpt>
      <trkpt lat="46.49275132786904" lon="7.639983201908971">
      <ele>1908.8</ele></trkpt>
      <trkpt lat="46.49273760693271" lon="7.640004967852217">
      <ele>1907.6</ele></trkpt>
      <trkpt lat="46.49272283329534" lon="7.640011620852249">
      <ele>1906.5</ele></trkpt>
      <trkpt lat="46.492699615741785" lon="7.640011508545813">
      <ele>1905.3</ele></trkpt>
      <trkpt lat="46.49266473683529" lon="7.639997859011793">
      <ele>1904.2</ele></trkpt>
      </trkseg>
  </trk>
</gpx>