<?xml version='1.0' encoding='utf-8'?>
<gpx xmlns="http://www.topografix.com/GPX/1/1" xmlns:xsi="http://www.w3.org/2001/XMLSchema-instance" xsi:schemaLocation="http://www.topografix.com/GPX/1/1 http://www.topografix.com/GPX/1/1/gpx.xsd" version="1.1" creator="gpx.py -- https://github.com/tkrajina/gpxpy">
  <trk>
    <name>geltenhuette-sac</name>
    <trkseg>
      <trkpt lat="46.424472655762855" lon="7.3218887943764015">
      <ele>1241.2</ele></trkpt>
      <trkpt lat="46.42444072139139" lon="7.322063958870476">
      <ele>1241.2</ele></trkpt>
      <trkpt lat="46.42440412436321" lon="7.322245312239874">
      <ele>1241.2</ele></trkpt>
      <trkpt lat="46.42438845658486" lon="7.3223970910501714">
      <ele>1241.3</ele></trkpt>
      <trkpt lat="46.424358403138115" lon="7.322441956977585">
      <ele>1241.3</ele></trkpt>
      <trkpt lat="46.424308765645485" lon="7.322547848949764">
      <ele>1241.3</ele></trkpt>
      <trkpt lat="46.42428538455841" lon="7.3226080245521565">
      <ele>1241.3</ele></trkpt>
      <trkpt lat="46.42425419931761" lon="7.322689810984871">
      <ele>1241.3</ele></trkpt>
      <trkpt lat="46.42420358567803" lon="7.322764965415213">
      <ele>1241.4</ele></trkpt>
      <trkpt lat="46.42418809742586" lon="7.32278477146626">
      <ele>1241.4</ele></trkpt>
      <trkpt lat="46.42412793940506" lon="7.322859972093322">
      <ele>1241.4</ele></trkpt>
      <trkpt lat="46.42406203096776" lon="7.322924231644813">
      <ele>1241.4</ele></trkpt>
      <trkpt lat="46.423732234200735" lon="7.3231726413503235">
      <ele>1241.4</ele></trkpt>
      <trkpt lat="46.42360587539965" lon="7.3232727496579395">
      <ele>1241.5</ele></trkpt>
      <trkpt lat="46.423526448261626" lon="7.3233300903313205">
      <ele>1241.5</ele></trkpt>
      <trkpt lat="46.42345510662958" lon="7.323359341612287">
      <ele>1241.5</ele></trkpt>
      <trkpt lat="46.423383089642215" lon="7.323352496080535">
      <ele>1241.5</ele></trkpt>
      <trkpt lat="46.42332179417105" lon="7.323317828980878">
      <ele>1241.5</ele></trkpt>
      <trkpt lat="46.42325204077378" lon="7.323263472333647">
      <ele>1241.6</ele></trkpt>
      <trkpt lat="46.423194845501854" lon="7.323191670998968">
      <ele>1241.6</ele></trkpt>
      <trkpt lat="46.42310019315538" lon="7.32305878459642">
      <ele>1241.6</ele></trkpt>
      <trkpt lat="46.42299945362226" lon="7.322875920900338">
      <ele>1241.4</ele></trkpt>
      <trkpt lat="46.42294647649772" lon="7.3227771322054025">
      <ele>1241.2</ele></trkpt>
      <trkpt lat="46.422859322421495" lon="7.322649525455511">
      <ele>1240.9</ele></trkpt>
      <trkpt lat="46.422815166262076" lon="7.322600045515508">
      <ele>1240.7</ele></trkpt>
      <trkpt lat="46.422785239056736" lon="7.322574886585116">
      <ele>1240.5</ele></trkpt>
      <trkpt lat="46.422802831157796" lon="7.322527629162078">
      <ele>1240.3</ele></trkpt>
      <trkpt lat="46.42275586818737" lon="7.322495612383201">
      <ele>1240.1</ele></trkpt>
      <trkpt lat="46.422714191384166" lon="7.322469203882894">
      <ele>1239.8</ele></trkpt>
      <trkpt lat="46.42261582813583" lon="7.322411593114365">
      <ele>1239.6</ele></trkpt>
      <trkpt lat="46.42251915531281" lon="7.322370837485863">
      <ele>1239.4</ele></trkpt>
      <trkpt lat="46.42242915157108" lon="7.3223421132316275">
      <ele>1239.2</ele></trkpt>
      <trkpt lat="46.42239080558834" lon="7.322318117378474">
      <ele>1239.0</ele></trkpt>
      <trkpt lat="46.42229081175618" lon="7.32228458869386">
      <ele>1238.7</ele></trkpt>
      <trkpt lat="46.422139152781355" lon="7.322239151479492">
      <ele>1238.5</ele></trkpt>
      <trkpt lat="46.42202249659606" lon="7.322203265362592">
      <ele>1238.3</ele></trkpt>
      <trkpt lat="46.421947515683776" lon="7.322201006721837">
      <ele>1238.1</ele></trkpt>
      <trkpt lat="46.4218992076684" lon="7.322208342798305">
      <ele>1237.9</ele></trkpt>
      <trkpt lat="46.42181426883163" lon="7.322232628775175">
      <ele>1237.6</ele></trkpt>
      <trkpt lat="46.421701025884204" lon="7.322288259477048">
      <ele>1237.4</ele></trkpt>
      <trkpt lat="46.42142793631592" lon="7.322428588539635">
      <ele>1237.2</ele></trkpt>
      <trkpt lat="46.42128639643248" lon="7.322496350273634">
      <ele>1237.3</ele></trkpt>
      <trkpt lat="46.42119145772632" lon="7.322532689155862">
      <ele>1237.4</ele></trkpt>
      <trkpt lat="46.4211334432504" lon="7.3225398764950045">
      <ele>1237.5</ele></trkpt>
      <trkpt lat="46.42112109383103" lon="7.322541424823314">
      <ele>1237.6</ele></trkpt>
      <trkpt lat="46.42108629880156" lon="7.322541499247241">
      <ele>1237.7</ele></trkpt>
      <trkpt lat="46.42095985746888" lon="7.32254274527751">
      <ele>1237.8</ele></trkpt>
      <trkpt lat="46.42082873741967" lon="7.322543025728799">
      <ele>1237.9</ele></trkpt>
      <trkpt lat="46.420694938647046" lon="7.32254523704859">
      <ele>1238.0</ele></trkpt>
      <trkpt lat="46.4204902374536" lon="7.322548575576944">
      <ele>1238.1</ele></trkpt>
      <trkpt lat="46.42041196356642" lon="7.3225545443928155">
      <ele>1238.2</ele></trkpt>
      <trkpt lat="46.42036113026174" lon="7.322564330780924">
      <ele>1238.3</ele></trkpt>
      <trkpt lat="46.42033237514251" lon="7.322576957632459">
      <ele>1238.4</ele></trkpt>
      <trkpt lat="46.42029627250301" lon="7.322600253412109">
      <ele>1238.5</ele></trkpt>
      <trkpt lat="46.42025617363686" lon="7.32263903674649">
      <ele>1238.6</ele></trkpt>
      <trkpt lat="46.42020284944155" lon="7.322693730542107">
      <ele>1238.7</ele></trkpt>
      <trkpt lat="46.420097836494854" lon="7.322792656240647">
      <ele>1238.8</ele></trkpt>
      <trkpt lat="46.42000760240583" lon="7.322881898446123">
      <ele>1238.9</ele></trkpt>
      <trkpt lat="46.419956625656596" lon="7.322936300583042">
      <ele>1239.0</ele></trkpt>
      <trkpt lat="46.41990096438388" lon="7.323001716956246">
      <ele>1239.1</ele></trkpt>
      <trkpt lat="46.419857617578856" lon="7.323057793602034">
      <ele>1239.2</ele></trkpt>
      <trkpt lat="46.419818956586454" lon="7.323113001690611">
      <ele>1239.1</ele></trkpt>
      <trkpt lat="46.419842676851" lon="7.323147160933498">
      <ele>1239.0</ele></trkpt>
      <trkpt lat="46.41977731671635" lon="7.323228843926821">
      <ele>1238.9</ele></trkpt>
      <trkpt lat="46.41969456513197" lon="7.323325444215395">
      <ele>1238.7</ele></trkpt>
      <trkpt lat="46.4195824567857" lon="7.323435894408028">
      <ele>1238.6</ele></trkpt>
      <trkpt lat="46.419493175720476" lon="7.323507390557591">
      <ele>1238.5</ele></trkpt>
      <trkpt lat="46.41937221816712" lon="7.3235849760385445">
      <ele>1238.4</ele></trkpt>
      <trkpt lat="46.41923379247274" lon="7.323655092930604">
      <ele>1238.3</ele></trkpt>
      <trkpt lat="46.419158505110396" lon="7.323705499756699">
      <ele>1238.2</ele></trkpt>
      <trkpt lat="46.41910093631112" lon="7.323770905407678">
      <ele>1238.1</ele></trkpt>
      <trkpt lat="46.419041407096685" lon="7.3238636564292925">
      <ele>1237.9</ele></trkpt>
      <trkpt lat="46.41897845981379" lon="7.323992366628819">
      <ele>1237.8</ele></trkpt>
      <trkpt lat="46.418902354124846" lon="7.324159072527412">
      <ele>1237.7</ele></trkpt>
      <trkpt lat="46.41885056564129" lon="7.324149530361769">
      <ele>1237.6</ele></trkpt>
      <trkpt lat="46.41871172940186" lon="7.32410727654669">
      <ele>1237.5</ele></trkpt>
      <trkpt lat="46.41866370022684" lon="7.324096881062029">
      <ele>1237.4</ele></trkpt>
      <trkpt lat="46.41865156401006" lon="7.324265259060023">
      <ele>1237.2</ele></trkpt>
      <trkpt lat="46.41860448604216" lon="7.324610114199107">
      <ele>1237.1</ele></trkpt>
      <trkpt lat="46.418584827561716" lon="7.324669793504561">
      <ele>1237.0</ele></trkpt>
      <trkpt lat="46.418545426604254" lon="7.324723465853258">
      <ele>1236.9</ele></trkpt>
      <trkpt lat="46.418489815526684" lon="7.32477717212682">
      <ele>1237.0</ele></trkpt>
      <trkpt lat="46.41809018938919" lon="7.324979412025442">
      <ele>1237.1</ele></trkpt>
      <trkpt lat="46.417880266479884" lon="7.3250324780235365">
      <ele>1237.1</ele></trkpt>
      <trkpt lat="46.41765786884539" lon="7.3250787930721355">
      <ele>1237.2</ele></trkpt>
      <trkpt lat="46.417519299924145" lon="7.325114552898886">
      <ele>1237.3</ele></trkpt>
      <trkpt lat="46.4174109253937" lon="7.325155374140888">
      <ele>1237.4</ele></trkpt>
      <trkpt lat="46.41727120711744" lon="7.325220245418681">
      <ele>1237.5</ele></trkpt>
      <trkpt lat="46.417191880696144" lon="7.325262319284704">
      <ele>1237.5</ele></trkpt>
      <trkpt lat="46.41704029706695" lon="7.325327136752522">
      <ele>1237.6</ele></trkpt>
      <trkpt lat="46.416932301534885" lon="7.325369218078698">
      <ele>1237.7</ele></trkpt>
      <trkpt lat="46.41685956772679" lon="7.325410159129161">
      <ele>1237.8</ele></trkpt>
      <trkpt lat="46.4167950611672" lon="7.325465390362098">
      <ele>1237.9</ele></trkpt>
      <trkpt lat="46.416630926607624" lon="7.325636654012687">
      <ele>1237.9</ele></trkpt>
      <trkpt lat="46.4165765727604" lon="7.325679585277182">
      <ele>1238.0</ele></trkpt>
      <trkpt lat="46.41650671713889" lon="7.325720220502006">
      <ele>1238.1</ele></trkpt>
      <trkpt lat="46.41639629117063" lon="7.325760822925054">
      <ele>1238.2</ele></trkpt>
      <trkpt lat="46.41624266667995" lon="7.325808980788537">
      <ele>1238.3</ele></trkpt>
      <trkpt lat="46.41615541562257" lon="7.325824640016366">
      <ele>1238.3</ele></trkpt>
      <trkpt lat="46.41598229517726" lon="7.3258341824432405">
      <ele>1238.4</ele></trkpt>
      <trkpt lat="46.415850554177254" lon="7.325843261638067">
      <ele>1238.5</ele></trkpt>
      <trkpt lat="46.41576103771919" lon="7.325851381621277">
      <ele>1238.5</ele></trkpt>
      <trkpt lat="46.415681820977" lon="7.325841114996446">
      <ele>1238.5</ele></trkpt>
      <trkpt lat="46.415619408026515" lon="7.325830800475076">
      <ele>1238.5</ele></trkpt>
      <trkpt lat="46.415566984666754" lon="7.3257978079351505">
      <ele>1238.5</ele></trkpt>
      <trkpt lat="46.41551609883446" lon="7.325736965423145">
      <ele>1238.5</ele></trkpt>
      <trkpt lat="46.41547737777253" lon="7.325696921044393">
      <ele>1238.5</ele></trkpt>
      <trkpt lat="46.415419346519954" lon="7.325633232184874">
      <ele>1238.5</ele></trkpt>
      <trkpt lat="46.41537156400155" lon="7.325590358413679">
      <ele>1238.5</ele></trkpt>
      <trkpt lat="46.415311541015306" lon="7.325559124947022">
      <ele>1238.5</ele></trkpt>
      <trkpt lat="46.41523180663623" lon="7.325534956075095">
      <ele>1238.5</ele></trkpt>
      <trkpt lat="46.41513956363484" lon="7.325533158291571">
      <ele>1238.5</ele></trkpt>
      <trkpt lat="46.41505192664642" lon="7.3255496638614215">
      <ele>1238.5</ele></trkpt>
      <trkpt lat="46.41496844460273" lon="7.325574159617926">
      <ele>1238.5</ele></trkpt>
      <trkpt lat="46.41488254313024" lon="7.325608089913298">
      <ele>1238.5</ele></trkpt>
      <trkpt lat="46.41480340240369" lon="7.325647078482667">
      <ele>1238.5</ele></trkpt>
      <trkpt lat="46.41468026117664" lon="7.325737442188459">
      <ele>1238.5</ele></trkpt>
      <trkpt lat="46.414612138667515" lon="7.325784081202024">
      <ele>1238.5</ele></trkpt>
      <trkpt lat="46.414548508528675" lon="7.325825261151915">
      <ele>1238.5</ele></trkpt>
      <trkpt lat="46.41448567038846" lon="7.325848737898884">
      <ele>1238.5</ele></trkpt>
      <trkpt lat="46.41441648725942" lon="7.325851027665631">
      <ele>1238.5</ele></trkpt>
      <trkpt lat="46.414353577859124" lon="7.32584806289933">
      <ele>1238.5</ele></trkpt>
      <trkpt lat="46.41426535826334" lon="7.325830531800808">
      <ele>1238.6</ele></trkpt>
      <trkpt lat="46.4141900948177" lon="7.325815458005366">
      <ele>1238.6</ele></trkpt>
      <trkpt lat="46.41413273993396" lon="7.325807682485417">
      <ele>1238.7</ele></trkpt>
      <trkpt lat="46.41408041224868" lon="7.325816635408349">
      <ele>1238.7</ele></trkpt>
      <trkpt lat="46.41403274183892" lon="7.325841211977727">
      <ele>1238.7</ele></trkpt>
      <trkpt lat="46.41398274471134" lon="7.325887071310894">
      <ele>1238.8</ele></trkpt>
      <trkpt lat="46.41393191959482" lon="7.32595067257728">
      <ele>1238.8</ele></trkpt>
      <trkpt lat="46.413861926751615" lon="7.326043486099885">
      <ele>1238.9</ele></trkpt>
      <trkpt lat="46.41381533829395" lon="7.326097817983763">
      <ele>1238.9</ele></trkpt>
      <trkpt lat="46.413771211575266" lon="7.32614001003292">
      <ele>1238.9</ele></trkpt>
      <trkpt lat="46.41372995884771" lon="7.326168487698165">
      <ele>1239.0</ele></trkpt>
      <trkpt lat="46.41366779751111" lon="7.326194186321307">
      <ele>1239.0</ele></trkpt>
      <trkpt lat="46.413528434863494" lon="7.326210004136042">
      <ele>1239.1</ele></trkpt>
      <trkpt lat="46.41343552042053" lon="7.326220536307201">
      <ele>1239.1</ele></trkpt>
      <trkpt lat="46.41336519330096" lon="7.326239436520573">
      <ele>1239.1</ele></trkpt>
      <trkpt lat="46.413313489228564" lon="7.32625136596888">
      <ele>1239.2</ele></trkpt>
      <trkpt lat="46.41320950038975" lon="7.3262702057175595">
      <ele>1239.2</ele></trkpt>
      <trkpt lat="46.4131494138328" lon="7.32626542686852">
      <ele>1239.3</ele></trkpt>
      <trkpt lat="46.41308064368048" lon="7.326248726607961">
      <ele>1239.3</ele></trkpt>
      <trkpt lat="46.41296645000428" lon="7.326191086978791">
      <ele>1239.3</ele></trkpt>
      <trkpt lat="46.41287759956583" lon="7.326154191394654">
      <ele>1239.3</ele></trkpt>
      <trkpt lat="46.41279537623482" lon="7.326169058331648">
      <ele>1239.4</ele></trkpt>
      <trkpt lat="46.4126984808585" lon="7.326220072691246">
      <ele>1239.4</ele></trkpt>
      <trkpt lat="46.41258872070773" lon="7.326279164063952">
      <ele>1239.4</ele></trkpt>
      <trkpt lat="46.41248804839437" lon="7.32631329139258">
      <ele>1239.5</ele></trkpt>
      <trkpt lat="46.41238220514711" lon="7.326321730002159">
      <ele>1239.5</ele></trkpt>
      <trkpt lat="46.412274421432215" lon="7.326323695761151">
      <ele>1239.5</ele></trkpt>
      <trkpt lat="46.41218916077833" lon="7.326332729014963">
      <ele>1239.5</ele></trkpt>
      <trkpt lat="46.41213022711714" lon="7.3263657812439975">
      <ele>1239.5</ele></trkpt>
      <trkpt lat="46.41208124597778" lon="7.326402233307911">
      <ele>1239.6</ele></trkpt>
      <trkpt lat="46.4120224843791" lon="7.326491066172186">
      <ele>1239.6</ele></trkpt>
      <trkpt lat="46.41196088150175" lon="7.32660866011639">
      <ele>1239.6</ele></trkpt>
      <trkpt lat="46.41190102878924" lon="7.326740582353819">
      <ele>1239.6</ele></trkpt>
      <trkpt lat="46.41183180875316" lon="7.326888013231805">
      <ele>1239.7</ele></trkpt>
      <trkpt lat="46.41179207832773" lon="7.326955307808037">
      <ele>1239.7</ele></trkpt>
      <trkpt lat="46.411745414585276" lon="7.327024996558042">
      <ele>1239.7</ele></trkpt>
      <trkpt lat="46.41170267092826" lon="7.327065232569033">
      <ele>1239.8</ele></trkpt>
      <trkpt lat="46.41163543967875" lon="7.3271131270628285">
      <ele>1239.8</ele></trkpt>
      <trkpt lat="46.4115418844203" lon="7.327158201274699">
      <ele>1239.8</ele></trkpt>
      <trkpt lat="46.41142822491823" lon="7.327204305015168">
      <ele>1239.9</ele></trkpt>
      <trkpt lat="46.41132734411744" lon="7.327246259612601">
      <ele>1239.9</ele></trkpt>
      <trkpt lat="46.411248802305046" lon="7.327281951634027">
      <ele>1240.0</ele></trkpt>
      <trkpt lat="46.41120636805752" lon="7.327289230678387">
      <ele>1240.1</ele></trkpt>
      <trkpt lat="46.41117144056575" lon="7.327291825368907">
      <ele>1240.1</ele></trkpt>
      <trkpt lat="46.41113365019393" lon="7.327273773331282">
      <ele>1240.2</ele></trkpt>
      <trkpt lat="46.41109163262492" lon="7.327238159691801">
      <ele>1240.3</ele></trkpt>
      <trkpt lat="46.41104280296821" lon="7.3271909592809">
      <ele>1240.3</ele></trkpt>
      <trkpt lat="46.41099152537315" lon="7.327151788301377">
      <ele>1240.4</ele></trkpt>
      <trkpt lat="46.410927880761484" lon="7.327105489851225">
      <ele>1240.4</ele></trkpt>
      <trkpt lat="46.41085482219915" lon="7.327063762729312">
      <ele>1240.5</ele></trkpt>
      <trkpt lat="46.41076195079042" lon="7.327017511585404">
      <ele>1240.6</ele></trkpt>
      <trkpt lat="46.410635737035406" lon="7.326957530564503">
      <ele>1240.6</ele></trkpt>
      <trkpt lat="46.41052978373923" lon="7.326918186498643">
      <ele>1240.7</ele></trkpt>
      <trkpt lat="46.41040837712639" lon="7.326889187553489">
      <ele>1240.8</ele></trkpt>
      <trkpt lat="46.410313151136194" lon="7.326863581216364">
      <ele>1240.8</ele></trkpt>
      <trkpt lat="46.41026341978503" lon="7.326860029144137">
      <ele>1240.9</ele></trkpt>
      <trkpt lat="46.410172710454944" lon="7.326853557254594">
      <ele>1241.0</ele></trkpt>
      <trkpt lat="46.41009298180488" lon="7.326862317833252">
      <ele>1241.0</ele></trkpt>
      <trkpt lat="46.40998470564549" lon="7.326884909598838">
      <ele>1241.1</ele></trkpt>
      <trkpt lat="46.409923988368256" lon="7.326906467026949">
      <ele>1241.2</ele></trkpt>
      <trkpt lat="46.40982133003193" lon="7.326970247228532">
      <ele>1241.2</ele></trkpt>
      <trkpt lat="46.40976510786717" lon="7.327016504914795">
      <ele>1241.3</ele></trkpt>
      <trkpt lat="46.40972333490813" lon="7.32705589213973">
      <ele>1241.4</ele></trkpt>
      <trkpt lat="46.40969763420763" lon="7.327092307136604">
      <ele>1241.5</ele></trkpt>
      <trkpt lat="46.40968101955079" lon="7.3271291976290955">
      <ele>1241.5</ele></trkpt>
      <trkpt lat="46.40965180705133" lon="7.327198704642153">
      <ele>1241.6</ele></trkpt>
      <trkpt lat="46.409566366864006" lon="7.327446625994849">
      <ele>1241.7</ele></trkpt>
      <trkpt lat="46.409492797053275" lon="7.327663557355505">
      <ele>1241.8</ele></trkpt>
      <trkpt lat="46.409450063623794" lon="7.327778921115331">
      <ele>1241.8</ele></trkpt>
      <trkpt lat="46.40941324378235" lon="7.327842655781121">
      <ele>1241.9</ele></trkpt>
      <trkpt lat="46.409375200026325" lon="7.32788747059327">
      <ele>1242.0</ele></trkpt>
      <trkpt lat="46.40930383540801" lon="7.327922014333721">
      <ele>1242.1</ele></trkpt>
      <trkpt lat="46.4092561150355" lon="7.3279327237016965">
      <ele>1242.1</ele></trkpt>
      <trkpt lat="46.409226498912105" lon="7.327939377605909">
      <ele>1242.2</ele></trkpt>
      <trkpt lat="46.40914320899171" lon="7.327958469617343">
      <ele>1242.3</ele></trkpt>
      <trkpt lat="46.4090516232973" lon="7.328003393234728">
      <ele>1242.4</ele></trkpt>
      <trkpt lat="46.40899758696739" lon="7.328031515909158">
      <ele>1242.4</ele></trkpt>
      <trkpt lat="46.40888668483585" lon="7.328101278916648">
      <ele>1242.5</ele></trkpt>
      <trkpt lat="46.408768260124674" lon="7.328242739659526">
      <ele>1242.6</ele></trkpt>
      <trkpt lat="46.40869332035873" lon="7.328365930725393">
      <ele>1242.7</ele></trkpt>
      <trkpt lat="46.40864523035131" lon="7.328496258640134">
      <ele>1242.8</ele></trkpt>
      <trkpt lat="46.40861700400305" lon="7.328590977917488">
      <ele>1242.9</ele></trkpt>
      <trkpt lat="46.40859236314415" lon="7.328644763715545">
      <ele>1243.0</ele></trkpt>
      <trkpt lat="46.40853345249914" lon="7.328711545622572">
      <ele>1243.1</ele></trkpt>
      <trkpt lat="46.40846995581234" lon="7.328761573509713">
      <ele>1243.3</ele></trkpt>
      <trkpt lat="46.40829625094296" lon="7.328864610433751">
      <ele>1243.4</ele></trkpt>
      <trkpt lat="46.40810892083405" lon="7.328952380707984">
      <ele>1243.5</ele></trkpt>
      <trkpt lat="46.407874761046436" lon="7.3290511688019">
      <ele>1243.6</ele></trkpt>
      <trkpt lat="46.40769951514729" lon="7.329123632984919">
      <ele>1243.7</ele></trkpt>
      <trkpt lat="46.40751973596645" lon="7.3291873537778365">
      <ele>1243.8</ele></trkpt>
      <trkpt lat="46.40736862116118" lon="7.329218245028449">
      <ele>1243.9</ele></trkpt>
      <trkpt lat="46.4070286490047" lon="7.329301963482079">
      <ele>1244.0</ele></trkpt>
      <trkpt lat="46.40676271241755" lon="7.329359302100859">
      <ele>1244.1</ele></trkpt>
      <trkpt lat="46.406449947671724" lon="7.329438581570603">
      <ele>1244.2</ele></trkpt>
      <trkpt lat="46.40610392129229" lon="7.329522296390471">
      <ele>1244.4</ele></trkpt>
      <trkpt lat="46.40581834177576" lon="7.329592780581846">
      <ele>1244.5</ele></trkpt>
      <trkpt lat="46.40560528877154" lon="7.329639099910376">
      <ele>1244.6</ele></trkpt>
      <trkpt lat="46.40540583710424" lon="7.329685378577393">
      <ele>1244.7</ele></trkpt>
      <trkpt lat="46.40521998888324" lon="7.329733814289227">
      <ele>1244.8</ele></trkpt>
      <trkpt lat="46.40506437430026" lon="7.3297909407180875">
      <ele>1245.0</ele></trkpt>
      <trkpt lat="46.40491632227555" lon="7.329854592639925">
      <ele>1245.1</ele></trkpt>
      <trkpt lat="46.40478640118623" lon="7.329913838601367">
      <ele>1245.2</ele></trkpt>
      <trkpt lat="46.40468609587261" lon="7.329965976910182">
      <ele>1245.4</ele></trkpt>
      <trkpt lat="46.40465573871797" lon="7.329988001191688">
      <ele>1245.5</ele></trkpt>
      <trkpt lat="46.40461058501151" lon="7.3300207442169">
      <ele>1245.7</ele></trkpt>
      <trkpt lat="46.40451546677254" lon="7.330125797365257">
      <ele>1245.8</ele></trkpt>
      <trkpt lat="46.40438408230749" lon="7.330235304834479">
      <ele>1246.0</ele></trkpt>
      <trkpt lat="46.40422552418706" lon="7.330375450810515">
      <ele>1246.1</ele></trkpt>
      <trkpt lat="46.404032219318516" lon="7.330528759898704">
      <ele>1246.3</ele></trkpt>
      <trkpt lat="46.4039098812348" lon="7.330616388233218">
      <ele>1246.5</ele></trkpt>
      <trkpt lat="46.403662218336834" lon="7.330820062565792">
      <ele>1246.6</ele></trkpt>
      <trkpt lat="46.40347647125653" lon="7.33097553809396">
      <ele>1246.8</ele></trkpt>
      <trkpt lat="46.40336017790522" lon="7.3310631785551585">
      <ele>1246.9</ele></trkpt>
      <trkpt lat="46.40328803275963" lon="7.331110433293773">
      <ele>1247.0</ele></trkpt>
      <trkpt lat="46.40321564275055" lon="7.33116511339907">
      <ele>1247.2</ele></trkpt>
      <trkpt lat="46.403093452744486" lon="7.33127665209993">
      <ele>1247.3</ele></trkpt>
      <trkpt lat="46.402968114286836" lon="7.3313883265520765">
      <ele>1247.5</ele></trkpt>
      <trkpt lat="46.40287751487183" lon="7.331469334859493">
      <ele>1247.6</ele></trkpt>
      <trkpt lat="46.40281709380113" lon="7.331519699332123">
      <ele>1247.8</ele></trkpt>
      <trkpt lat="46.402759750820415" lon="7.331600368563839">
      <ele>1247.9</ele></trkpt>
      <trkpt lat="46.40267704337973" lon="7.331770433859938">
      <ele>1248.1</ele></trkpt>
      <trkpt lat="46.402575098153164" lon="7.331954450038656">
      <ele>1248.2</ele></trkpt>
      <trkpt lat="46.40250389430372" lon="7.332046510588153">
      <ele>1248.3</ele></trkpt>
      <trkpt lat="46.40247695047286" lon="7.332082777780436">
      <ele>1248.5</ele></trkpt>
      <trkpt lat="46.40242496168177" lon="7.332127442204727">
      <ele>1248.6</ele></trkpt>
      <trkpt lat="46.40239996902133" lon="7.332191558590146">
      <ele>1248.7</ele></trkpt>
      <trkpt lat="46.402346165941964" lon="7.332344856032528">
      <ele>1248.9</ele></trkpt>
      <trkpt lat="46.402303824379025" lon="7.33240341474862">
      <ele>1249.0</ele></trkpt>
      <trkpt lat="46.40224607188955" lon="7.332450885701225">
      <ele>1249.2</ele></trkpt>
      <trkpt lat="46.40216902092678" lon="7.332476106680883">
      <ele>1249.3</ele></trkpt>
      <trkpt lat="46.401968669928664" lon="7.332523856119064">
      <ele>1249.4</ele></trkpt>
      <trkpt lat="46.401760610835964" lon="7.3325632462222545">
      <ele>1249.6</ele></trkpt>
      <trkpt lat="46.40170860103756" lon="7.332585635233877">
      <ele>1249.7</ele></trkpt>
      <trkpt lat="46.40165659123474" lon="7.332608024202614">
      <ele>1249.8</ele></trkpt>
      <trkpt lat="46.401537168500404" lon="7.332650023404238">
      <ele>1250.0</ele></trkpt>
      <trkpt lat="46.40144665907687" lon="7.332703122658866">
      <ele>1250.1</ele></trkpt>
      <trkpt lat="46.40136195080238" lon="7.33278406300365">
      <ele>1250.2</ele></trkpt>
      <trkpt lat="46.401281113368604" lon="7.332887282786962">
      <ele>1250.4</ele></trkpt>
      <trkpt lat="46.40121765430088" lon="7.333018307952378">
      <ele>1250.5</ele></trkpt>
      <trkpt lat="46.401196555297" lon="7.333129758971294">
      <ele>1250.6</ele></trkpt>
      <trkpt lat="46.4011841186106" lon="7.333182731471084">
      <ele>1250.6</ele></trkpt>
      <trkpt lat="46.40117080679561" lon="7.3332233007587995">
      <ele>1250.7</ele></trkpt>
      <trkpt lat="46.401153479323135" lon="7.33326000291908">
      <ele>1250.8</ele></trkpt>
      <trkpt lat="46.40110900519931" lon="7.33329904625126">
      <ele>1250.8</ele></trkpt>
      <trkpt lat="46.40107181522435" lon="7.3333162303500705">
      <ele>1250.9</ele></trkpt>
      <trkpt lat="46.40100584123559" lon="7.33329681482954">
      <ele>1251.0</ele></trkpt>
      <trkpt lat="46.40093984922808" lon="7.333277373385183">
      <ele>1251.0</ele></trkpt>
      <trkpt lat="46.40087897153392" lon="7.33329215884529">
      <ele>1251.1</ele></trkpt>
      <trkpt lat="46.40082659267981" lon="7.333333830875663">
      <ele>1251.2</ele></trkpt>
      <trkpt lat="46.400718470975576" lon="7.333475837374247">
      <ele>1251.2</ele></trkpt>
      <trkpt lat="46.40065764987729" lon="7.333551736085154">
      <ele>1251.3</ele></trkpt>
      <trkpt lat="46.40059519180127" lon="7.333676541652904">
      <ele>1251.3</ele></trkpt>
      <trkpt lat="46.40057895280828" lon="7.333703684056199">
      <ele>1251.4</ele></trkpt>
      <trkpt lat="46.40054111987599" lon="7.333755235550569">
      <ele>1251.5</ele></trkpt>
      <trkpt lat="46.40052129779156" lon="7.333769603001098">
      <ele>1251.5</ele></trkpt>
      <trkpt lat="46.40049575831589" lon="7.333788116392422">
      <ele>1251.6</ele></trkpt>
      <trkpt lat="46.400451125012964" lon="7.333801114410843">
      <ele>1251.7</ele></trkpt>
      <trkpt lat="46.400438840295664" lon="7.333804700910183">
      <ele>1251.7</ele></trkpt>
      <trkpt lat="46.400429019703815" lon="7.333807554491187">
      <ele>1251.8</ele></trkpt>
      <trkpt lat="46.400415437443264" lon="7.333808789977679">
      <ele>1252.8</ele></trkpt>
      <trkpt lat="46.40036359994591" lon="7.333813467050815">
      <ele>1253.8</ele></trkpt>
      <trkpt lat="46.40030621141133" lon="7.333827087767158">
      <ele>1254.8</ele></trkpt>
      <trkpt lat="46.4002728411658" lon="7.3338406620997905">
      <ele>1255.7</ele></trkpt>
      <trkpt lat="46.40023949240275" lon="7.33386775928898">
      <ele>1256.7</ele></trkpt>
      <trkpt lat="46.4002248203697" lon="7.333887070749463">
      <ele>1257.7</ele></trkpt>
      <trkpt lat="46.4002114735934" lon="7.333909526319985">
      <ele>1258.7</ele></trkpt>
      <trkpt lat="46.400198009641365" lon="7.33399023461656">
      <ele>1259.7</ele></trkpt>
      <trkpt lat="46.40020297099472" lon="7.33404417364651">
      <ele>1260.7</ele></trkpt>
      <trkpt lat="46.400223483187965" lon="7.334095313151035">
      <ele>1261.7</ele></trkpt>
      <trkpt lat="46.40024379756465" lon="7.334117274783539">
      <ele>1262.6</ele></trkpt>
      <trkpt lat="46.40035378025422" lon="7.334158633125862">
      <ele>1263.6</ele></trkpt>
      <trkpt lat="46.40039780709516" lon="7.334229452901338">
      <ele>1264.6</ele></trkpt>
      <trkpt lat="46.400416448250134" lon="7.334261183007674">
      <ele>1265.6</ele></trkpt>
      <trkpt lat="46.400416479741864" lon="7.334295419437747">
      <ele>1266.6</ele></trkpt>
      <trkpt lat="46.40040633716923" lon="7.334310093131328">
      <ele>1267.6</ele></trkpt>
      <trkpt lat="46.40031675430884" lon="7.334373836042502">
      <ele>1268.5</ele></trkpt>
      <trkpt lat="46.400203012570806" lon="7.334578523376757">
      <ele>1269.5</ele></trkpt>
      <trkpt lat="46.40011144673648" lon="7.334785442923839">
      <ele>1270.5</ele></trkpt>
      <trkpt lat="46.39998748205674" lon="7.334976820323622">
      <ele>1271.5</ele></trkpt>
      <trkpt lat="46.39995506810242" lon="7.3349640224992605">
      <ele>1274.1</ele></trkpt>
      <trkpt lat="46.39994483613938" lon="7.334871163521561">
      <ele>1276.8</ele></trkpt>
      <trkpt lat="46.39991247097422" lon="7.33461697010385">
      <ele>1279.4</ele></trkpt>
      <trkpt lat="46.39989711353767" lon="7.334477636365648">
      <ele>1282.0</ele></trkpt>
      <trkpt lat="46.39985813116849" lon="7.334384806771796">
      <ele>1284.7</ele></trkpt>
      <trkpt lat="46.39982420427287" lon="7.334282202566281">
      <ele>1287.3</ele></trkpt>
      <trkpt lat="46.39976834150191" lon="7.33422364178932">
      <ele>1289.9</ele></trkpt>
      <trkpt lat="46.39965498323015" lon="7.334179845754199">
      <ele>1292.6</ele></trkpt>
      <trkpt lat="46.39954872722131" lon="7.3340923603752675">
      <ele>1295.2</ele></trkpt>
      <trkpt lat="46.399480661560254" lon="7.334057956462426">
      <ele>1297.8</ele></trkpt>
      <trkpt lat="46.3993198149822" lon="7.3338773483136634">
      <ele>1300.5</ele></trkpt>
      <trkpt lat="46.399260574205485" lon="7.333833461914466">
      <ele>1303.1</ele></trkpt>
      <trkpt lat="46.39927576015694" lon="7.333903087381616">
      <ele>1305.8</ele></trkpt>
      <trkpt lat="46.39928171696455" lon="7.333914674187486">
      <ele>1308.4</ele></trkpt>
      <trkpt lat="46.399301382579665" lon="7.333945179316258">
      <ele>1311.0</ele></trkpt>
      <trkpt lat="46.399317747466775" lon="7.333966667037348">
      <ele>1313.7</ele></trkpt>
      <trkpt lat="46.3993249153651" lon="7.333994166687164">
      <ele>1316.3</ele></trkpt>
      <trkpt lat="46.39933177662652" lon="7.334020821766932">
      <ele>1318.9</ele></trkpt>
      <trkpt lat="46.39934698671696" lon="7.334058200910797">
      <ele>1321.6</ele></trkpt>
      <trkpt lat="46.39938778349769" lon="7.3340989765032525">
      <ele>1324.2</ele></trkpt>
      <trkpt lat="46.39941411361586" lon="7.334128168671031">
      <ele>1324.8</ele></trkpt>
      <trkpt lat="46.3994558384837" lon="7.334180410887179">
      <ele>1325.4</ele></trkpt>
      <trkpt lat="46.39949738221553" lon="7.3342215752955155">
      <ele>1326.0</ele></trkpt>
      <trkpt lat="46.39951997953985" lon="7.334280563783407">
      <ele>1326.6</ele></trkpt>
      <trkpt lat="46.39950463496906" lon="7.334341406557804">
      <ele>1327.2</ele></trkpt>
      <trkpt lat="46.3994923965233" lon="7.334365992020581">
      <ele>1327.9</ele></trkpt>
      <trkpt lat="46.39947657606949" lon="7.334369104021192">
      <ele>1328.5</ele></trkpt>
      <trkpt lat="46.39945079528147" lon="7.334438392443614">
      <ele>1329.1</ele></trkpt>
      <trkpt lat="46.39938450296207" lon="7.334503142565691">
      <ele>1329.7</ele></trkpt>
      <trkpt lat="46.39930413778162" lon="7.334534489871713">
      <ele>1330.3</ele></trkpt>
      <trkpt lat="46.39935267526741" lon="7.3344235107283895">
      <ele>1330.9</ele></trkpt>
      <trkpt lat="46.399364531309274" lon="7.334384129125095">
      <ele>1331.5</ele></trkpt>
      <trkpt lat="46.399363038311634" lon="7.334345280244825">
      <ele>1332.1</ele></trkpt>
      <trkpt lat="46.39932947010619" lon="7.33437843629558">
      <ele>1332.7</ele></trkpt>
      <trkpt lat="46.399307953647714" lon="7.334379621835205">
      <ele>1333.4</ele></trkpt>
      <trkpt lat="46.39926300242016" lon="7.334408924914303">
      <ele>1334.0</ele></trkpt>
      <trkpt lat="46.399194031597084" lon="7.334417274915349">
      <ele>1334.6</ele></trkpt>
      <trkpt lat="46.39908006851998" lon="7.334459244754516">
      <ele>1335.2</ele></trkpt>
      <trkpt lat="46.39912681020401" lon="7.334312824537475">
      <ele>1335.8</ele></trkpt>
      <trkpt lat="46.39915809120622" lon="7.334238064826096">
      <ele>1336.4</ele></trkpt>
      <trkpt lat="46.399178371584334" lon="7.334174248334396">
      <ele>1337.8</ele></trkpt>
      <trkpt lat="46.3991864769825" lon="7.334076960661722">
      <ele>1339.2</ele></trkpt>
      <trkpt lat="46.39918509984385" lon="7.334027293572215">
      <ele>1340.6</ele></trkpt>
      <trkpt lat="46.39910652837827" lon="7.33412095914539">
      <ele>1342.0</ele></trkpt>
      <trkpt lat="46.399096285421464" lon="7.334085234909123">
      <ele>1343.4</ele></trkpt>
      <trkpt lat="46.39909961221511" lon="7.3340542304730025">
      <ele>1344.8</ele></trkpt>
      <trkpt lat="46.39908425791699" lon="7.333948289459051">
      <ele>1346.2</ele></trkpt>
      <trkpt lat="46.399042392302505" lon="7.333831425545739">
      <ele>1347.6</ele></trkpt>
      <trkpt lat="46.399001758915965" lon="7.333782614549161">
      <ele>1349.0</ele></trkpt>
      <trkpt lat="46.39896793766492" lon="7.333785124327856">
      <ele>1350.5</ele></trkpt>
      <trkpt lat="46.39895703630308" lon="7.333825518126487">
      <ele>1351.9</ele></trkpt>
      <trkpt lat="46.39895276004889" lon="7.3338413894239">
      <ele>1353.3</ele></trkpt>
      <trkpt lat="46.39891726568268" lon="7.333863458131511">
      <ele>1354.7</ele></trkpt>
      <trkpt lat="46.39887143406159" lon="7.333845187069504">
      <ele>1356.1</ele></trkpt>
      <trkpt lat="46.398734004270835" lon="7.333880311835003">
      <ele>1357.5</ele></trkpt>
      <trkpt lat="46.39860291131961" lon="7.333841752542663">
      <ele>1358.9</ele></trkpt>
      <trkpt lat="46.398367496077775" lon="7.334134759841471">
      <ele>1360.3</ele></trkpt>
      <trkpt lat="46.39826054642546" lon="7.334241584760572">
      <ele>1361.7</ele></trkpt>
      <trkpt lat="46.39820395537899" lon="7.33433010930096">
      <ele>1363.1</ele></trkpt>
      <trkpt lat="46.39817067160537" lon="7.334330173235559">
      <ele>1364.5</ele></trkpt>
      <trkpt lat="46.3981481383275" lon="7.334282108003175">
      <ele>1365.8</ele></trkpt>
      <trkpt lat="46.398153438771665" lon="7.334176779162481">
      <ele>1367.2</ele></trkpt>
      <trkpt lat="46.39823768216745" lon="7.333834656000789">
      <ele>1368.5</ele></trkpt>
      <trkpt lat="46.39826011112866" lon="7.333769601069191">
      <ele>1369.9</ele></trkpt>
      <trkpt lat="46.39826544838522" lon="7.333704579112091">
      <ele>1371.2</ele></trkpt>
      <trkpt lat="46.398220447460865" lon="7.333679961666181">
      <ele>1372.6</ele></trkpt>
      <trkpt lat="46.39818090524255" lon="7.333721645487066">
      <ele>1374.0</ele></trkpt>
      <trkpt lat="46.39801288904883" lon="7.333940408236712">
      <ele>1375.3</ele></trkpt>
      <trkpt lat="46.39793259903579" lon="7.333994561385869">
      <ele>1376.7</ele></trkpt>
      <trkpt lat="46.397889089935695" lon="7.334036577453828">
      <ele>1378.0</ele></trkpt>
      <trkpt lat="46.39786373806604" lon="7.33405372422616">
      <ele>1379.3</ele></trkpt>
      <trkpt lat="46.3978289300663" lon="7.3340494875287625">
      <ele>1380.7</ele></trkpt>
      <trkpt lat="46.39779877286388" lon="7.3340355552262695">
      <ele>1382.0</ele></trkpt>
      <trkpt lat="46.39775133025841" lon="7.334055448976037">
      <ele>1383.4</ele></trkpt>
      <trkpt lat="46.39771440784465" lon="7.334070251576437">
      <ele>1384.8</ele></trkpt>
      <trkpt lat="46.39768033660735" lon="7.334084580588311">
      <ele>1386.1</ele></trkpt>
      <trkpt lat="46.3976469450506" lon="7.33407506227233">
      <ele>1387.5</ele></trkpt>
      <trkpt lat="46.397619451254634" lon="7.3340521273678085">
      <ele>1388.8</ele></trkpt>
      <trkpt lat="46.397595746120516" lon="7.334050339717823">
      <ele>1390.2</ele></trkpt>
      <trkpt lat="46.39756220315095" lon="7.334071740869352">
      <ele>1391.5</ele></trkpt>
      <trkpt lat="46.39754242380504" lon="7.334103244176368">
      <ele>1391.0</ele></trkpt>
      <trkpt lat="46.39744768645482" lon="7.3340789825380615">
      <ele>1390.5</ele></trkpt>
      <trkpt lat="46.39741557664592" lon="7.334103488362759">
      <ele>1390.0</ele></trkpt>
      <trkpt lat="46.39734624971103" lon="7.33412560838727">
      <ele>1389.5</ele></trkpt>
      <trkpt lat="46.39730566826469" lon="7.334142797255122">
      <ele>1389.0</ele></trkpt>
      <trkpt lat="46.39725322606219" lon="7.33412578742304">
      <ele>1388.5</ele></trkpt>
      <trkpt lat="46.39720418649875" lon="7.3341405611491535">
      <ele>1388.0</ele></trkpt>
      <trkpt lat="46.3970993516358" lon="7.334170095513836">
      <ele>1387.5</ele></trkpt>
      <trkpt lat="46.39703357019856" lon="7.334154476599873">
      <ele>1387.0</ele></trkpt>
      <trkpt lat="46.39699835729486" lon="7.334111065576028">
      <ele>1386.5</ele></trkpt>
      <trkpt lat="46.39697229447867" lon="7.334040059703393">
      <ele>1386.0</ele></trkpt>
      <trkpt lat="46.39695582570401" lon="7.33396444569456">
      <ele>1385.5</ele></trkpt>
      <trkpt lat="46.39692199842921" lon="7.333931186752387">
      <ele>1385.0</ele></trkpt>
      <trkpt lat="46.396880405007586" lon="7.33392401183748">
      <ele>1384.5</ele></trkpt>
      <trkpt lat="46.39685575053726" lon="7.333907286809165">
      <ele>1384.0</ele></trkpt>
      <trkpt lat="46.396830466295626" lon="7.333861256533668">
      <ele>1383.5</ele></trkpt>
      <trkpt lat="46.39681822435821" lon="7.333833247878055">
      <ele>1383.0</ele></trkpt>
      <trkpt lat="46.396808263194124" lon="7.333810526638235">
      <ele>1382.5</ele></trkpt>
      <trkpt lat="46.39677870855064" lon="7.333776999592179">
      <ele>1382.0</ele></trkpt>
      <trkpt lat="46.396766608277346" lon="7.333766023290683">
      <ele>1381.5</ele></trkpt>
      <trkpt lat="46.39671582820131" lon="7.333873400521268">
      <ele>1381.4</ele></trkpt>
      <trkpt lat="46.39668920746013" lon="7.333928970216443">
      <ele>1381.4</ele></trkpt>
      <trkpt lat="46.39666130924072" lon="7.334003967226075">
      <ele>1381.3</ele></trkpt>
      <trkpt lat="46.396611734962825" lon="7.334112004803128">
      <ele>1381.3</ele></trkpt>
      <trkpt lat="46.396571210519326" lon="7.334152011715868">
      <ele>1381.2</ele></trkpt>
      <trkpt lat="46.396514279215644" lon="7.334203075745551">
      <ele>1381.2</ele></trkpt>
      <trkpt lat="46.39643555065024" lon="7.334292355121407">
      <ele>1381.1</ele></trkpt>
      <trkpt lat="46.39637832254811" lon="7.3343239816387085">
      <ele>1381.1</ele></trkpt>
      <trkpt lat="46.39632379301641" lon="7.334335918083689">
      <ele>1381.0</ele></trkpt>
      <trkpt lat="46.396252903940734" lon="7.334332101679751">
      <ele>1381.0</ele></trkpt>
      <trkpt lat="46.39610975123449" lon="7.334316618446781">
      <ele>1380.9</ele></trkpt>
      <trkpt lat="46.39590659045002" lon="7.334283503182274">
      <ele>1380.8</ele></trkpt>
      <trkpt lat="46.395846605887236" lon="7.334281655188347">
      <ele>1380.8</ele></trkpt>
      <trkpt lat="46.39574983482909" lon="7.334305491295347">
      <ele>1380.7</ele></trkpt>
      <trkpt lat="46.395633989560004" lon="7.334345122015504">
      <ele>1380.7</ele></trkpt>
      <trkpt lat="46.39558902428203" lon="7.3343787007231604">
      <ele>1380.6</ele></trkpt>
      <trkpt lat="46.39543919587331" lon="7.3345188861657205">
      <ele>1380.6</ele></trkpt>
      <trkpt lat="46.39537240768463" lon="7.33459227844463">
      <ele>1380.5</ele></trkpt>
      <trkpt lat="46.39527027009933" lon="7.33470873455599">
      <ele>1380.5</ele></trkpt>
      <trkpt lat="46.395214427292856" lon="7.334769922941748">
      <ele>1380.4</ele></trkpt>
      <trkpt lat="46.395120437707426" lon="7.334864676182852">
      <ele>1380.4</ele></trkpt>
      <trkpt lat="46.394995146941326" lon="7.335002849013725">
      <ele>1380.4</ele></trkpt>
      <trkpt lat="46.39487938596488" lon="7.33512523220206">
      <ele>1380.4</ele></trkpt>
      <trkpt lat="46.394786768820474" lon="7.335216042175887">
      <ele>1380.4</ele></trkpt>
      <trkpt lat="46.394714553738055" lon="7.335267405535014">
      <ele>1380.5</ele></trkpt>
      <trkpt lat="46.39463963453133" lon="7.335332581454371">
      <ele>1380.5</ele></trkpt>
      <trkpt lat="46.39458651170136" lon="7.335377992558973">
      <ele>1380.5</ele></trkpt>
      <trkpt lat="46.394551103016234" lon="7.335425346125523">
      <ele>1380.5</ele></trkpt>
      <trkpt lat="46.394465329343085" lon="7.3355535861315575">
      <ele>1380.5</ele></trkpt>
      <trkpt lat="46.39439862280235" lon="7.335648284966207">
      <ele>1380.5</ele></trkpt>
      <trkpt lat="46.39424611538737" lon="7.335841683499455">
      <ele>1380.5</ele></trkpt>
      <trkpt lat="46.39413715960934" lon="7.335960097935882">
      <ele>1380.5</ele></trkpt>
      <trkpt lat="46.3940527348461" lon="7.3360686235691">
      <ele>1380.5</ele></trkpt>
      <trkpt lat="46.39398325761651" lon="7.336123932327459">
      <ele>1380.5</ele></trkpt>
      <trkpt lat="46.393934216705645" lon="7.336167371211193">
      <ele>1380.5</ele></trkpt>
      <trkpt lat="46.393878392676044" lon="7.33625022968687">
      <ele>1380.6</ele></trkpt>
      <trkpt lat="46.39383618283681" lon="7.336307449845208">
      <ele>1380.6</ele></trkpt>
      <trkpt lat="46.39376398692255" lon="7.336370641955791">
      <ele>1380.6</ele></trkpt>
      <trkpt lat="46.39371359811171" lon="7.336435756044718">
      <ele>1380.6</ele></trkpt>
      <trkpt lat="46.393664605092106" lon="7.336522527433051">
      <ele>1380.6</ele></trkpt>
      <trkpt lat="46.393614221657536" lon="7.336583714884463">
      <ele>1380.6</ele></trkpt>
      <trkpt lat="46.39351342619424" lon="7.336684390511416">
      <ele>1380.6</ele></trkpt>
      <trkpt lat="46.39345076202673" lon="7.336733769613141">
      <ele>1380.5</ele></trkpt>
      <trkpt lat="46.3933731391221" lon="7.336834388217803">
      <ele>1380.5</ele></trkpt>
      <trkpt lat="46.39325604945202" lon="7.337002088269326">
      <ele>1380.5</ele></trkpt>
      <trkpt lat="46.39319884884073" lon="7.33706525073428">
      <ele>1380.5</ele></trkpt>
      <trkpt lat="46.393136184495916" lon="7.337114616109371">
      <ele>1380.5</ele></trkpt>
      <trkpt lat="46.3931143965735" lon="7.337144208331558">
      <ele>1380.4</ele></trkpt>
      <trkpt lat="46.3930899078276" lon="7.337191539062832">
      <ele>1380.4</ele></trkpt>
      <trkpt lat="46.393065423973034" lon="7.337264494879187">
      <ele>1380.4</ele></trkpt>
      <trkpt lat="46.39303008859699" lon="7.337384755783672">
      <ele>1380.4</ele></trkpt>
      <trkpt lat="46.393007844356674" lon="7.337497867566011">
      <ele>1380.4</ele></trkpt>
      <trkpt lat="46.392992083379944" lon="7.337577905482458">
      <ele>1380.3</ele></trkpt>
      <trkpt lat="46.39297309490266" lon="7.33768038918664">
      <ele>1380.3</ele></trkpt>
      <trkpt lat="46.392958203105565" lon="7.337787103556004">
      <ele>1380.3</ele></trkpt>
      <trkpt lat="46.39295588329825" lon="7.337849031902487">
      <ele>1380.3</ele></trkpt>
      <trkpt lat="46.39296547871646" lon="7.337947042087595">
      <ele>1380.3</ele></trkpt>
      <trkpt lat="46.392977495706276" lon="7.3380674096500575">
      <ele>1380.2</ele></trkpt>
      <trkpt lat="46.392979969618175" lon="7.338179214215168">
      <ele>1380.2</ele></trkpt>
      <trkpt lat="46.39297650782057" lon="7.338292732897232">
      <ele>1380.2</ele></trkpt>
      <trkpt lat="46.39296710764787" lon="7.338435501909659">
      <ele>1380.4</ele></trkpt>
      <trkpt lat="46.39295052661683" lon="7.338514643931777">
      <ele>1380.7</ele></trkpt>
      <trkpt lat="46.39291964543285" lon="7.338586934694114">
      <ele>1380.9</ele></trkpt>
      <trkpt lat="46.39288637117431" lon="7.33863859712768">
      <ele>1381.2</ele></trkpt>
      <trkpt lat="46.39283405165194" lon="7.338688565412203">
      <ele>1381.4</ele></trkpt>
      <trkpt lat="46.392791232819455" lon="7.338719612643191">
      <ele>1381.7</ele></trkpt>
      <trkpt lat="46.39275553830426" lon="7.338729988117084">
      <ele>1381.9</ele></trkpt>
      <trkpt lat="46.39269889755638" lon="7.33871493315614">
      <ele>1382.2</ele></trkpt>
      <trkpt lat="46.39256460695568" lon="7.338639111603466">
      <ele>1382.4</ele></trkpt>
      <trkpt lat="46.39235925994239" lon="7.338563421363625">
      <ele>1382.7</ele></trkpt>
      <trkpt lat="46.392153906152494" lon="7.338480113201249">
      <ele>1382.9</ele></trkpt>
      <trkpt lat="46.39193800390098" lon="7.338370199471748">
      <ele>1383.1</ele></trkpt>
      <trkpt lat="46.391751062913414" lon="7.33827546998872">
      <ele>1383.4</ele></trkpt>
      <trkpt lat="46.39151880328381" lon="7.338131565281322">
      <ele>1383.6</ele></trkpt>
      <trkpt lat="46.39142840712515" lon="7.33809200245786">
      <ele>1383.9</ele></trkpt>
      <trkpt lat="46.39131183539835" lon="7.338074680379702">
      <ele>1384.1</ele></trkpt>
      <trkpt lat="46.39127452158834" lon="7.338074749473368">
      <ele>1384.4</ele></trkpt>
      <trkpt lat="46.39105086584708" lon="7.338128427078069">
      <ele>1384.6</ele></trkpt>
      <trkpt lat="46.39092195861859" lon="7.338189521317568">
      <ele>1384.9</ele></trkpt>
      <trkpt lat="46.39080096969625" lon="7.338273416581411">
      <ele>1385.1</ele></trkpt>
      <trkpt lat="46.39073265776221" lon="7.33840666820405">
      <ele>1385.8</ele></trkpt>
      <trkpt lat="46.39066691087491" lon="7.338460039631645">
      <ele>1386.6</ele></trkpt>
      <trkpt lat="46.390713877579586" lon="7.338613541152826">
      <ele>1387.3</ele></trkpt>
      <trkpt lat="46.39073867452627" lon="7.338680435196">
      <ele>1388.0</ele></trkpt>
      <trkpt lat="46.39076309008371" lon="7.338722889000128">
      <ele>1388.8</ele></trkpt>
      <trkpt lat="46.39069910727507" lon="7.338828596913875">
      <ele>1389.5</ele></trkpt>
      <trkpt lat="46.39067031095368" lon="7.338908927987654">
      <ele>1390.2</ele></trkpt>
      <trkpt lat="46.39066049387949" lon="7.338977341688017">
      <ele>1390.9</ele></trkpt>
      <trkpt lat="46.39065453107778" lon="7.339030030683129">
      <ele>1391.7</ele></trkpt>
      <trkpt lat="46.390651549656354" lon="7.339056362175825">
      <ele>1392.4</ele></trkpt>
      <trkpt lat="46.39065314914778" lon="7.3390953867630095">
      <ele>1393.1</ele></trkpt>
      <trkpt lat="46.39066420780452" lon="7.339129596834021">
      <ele>1393.9</ele></trkpt>
      <trkpt lat="46.39067982226776" lon="7.339168400755917">
      <ele>1394.6</ele></trkpt>
      <trkpt lat="46.39067982226776" lon="7.339168400755917">
      <ele>1395.3</ele></trkpt>
      <trkpt lat="46.39063583697544" lon="7.339223512441947">
      <ele>1396.0</ele></trkpt>
      <trkpt lat="46.39060849039473" lon="7.339244194286795">
      <ele>1396.8</ele></trkpt>
      <trkpt lat="46.39056805072763" lon="7.339270074261281">
      <ele>1397.5</ele></trkpt>
      <trkpt lat="46.390540722217374" lon="7.339311400784995">
      <ele>1398.2</ele></trkpt>
      <trkpt lat="46.39052170413827" lon="7.3393509960119125">
      <ele>1399.0</ele></trkpt>
      <trkpt lat="46.39050150908515" lon="7.339381987050784">
      <ele>1399.7</ele></trkpt>
      <trkpt lat="46.39049182180575" lon="7.339444849015759">
      <ele>1400.8</ele></trkpt>
      <trkpt lat="46.390432371349156" lon="7.3394981944546736">
      <ele>1401.9</ele></trkpt>
      <trkpt lat="46.39033889963274" lon="7.339510624488813">
      <ele>1403.0</ele></trkpt>
      <trkpt lat="46.390251059313925" lon="7.3395026205588625">
      <ele>1404.0</ele></trkpt>
      <trkpt lat="46.39018305439606" lon="7.3394740788242165">
      <ele>1405.1</ele></trkpt>
      <trkpt lat="46.39012070587884" lon="7.339453717068701">
      <ele>1406.2</ele></trkpt>
      <trkpt lat="46.39000171188503" lon="7.339453934382018">
      <ele>1407.3</ele></trkpt>
      <trkpt lat="46.3899280307334" lon="7.339425416208851">
      <ele>1408.4</ele></trkpt>
      <trkpt lat="46.38986851765671" lon="7.339396859223459">
      <ele>1409.5</ele></trkpt>
      <trkpt lat="46.389786297964314" lon="7.339335596051634">
      <ele>1410.6</ele></trkpt>
      <trkpt lat="46.38973244851634" lon="7.339302933790606">
      <ele>1411.6</ele></trkpt>
      <trkpt lat="46.38967495651854" lon="7.339291598705092">
      <ele>1412.7</ele></trkpt>
      <trkpt lat="46.38959170230354" lon="7.339343348996781">
      <ele>1413.8</ele></trkpt>
      <trkpt lat="46.38955361788588" lon="7.339346863689847">
      <ele>1414.9</ele></trkpt>
      <trkpt lat="46.38949888258507" lon="7.339350408818106">
      <ele>1416.0</ele></trkpt>
      <trkpt lat="46.38946317597423" lon="7.339347029036042">
      <ele>1417.1</ele></trkpt>
      <trkpt lat="46.38936084790651" lon="7.33936440237221">
      <ele>1418.1</ele></trkpt>
      <trkpt lat="46.389265632311535" lon="7.339357712322322">
      <ele>1419.2</ele></trkpt>
      <trkpt lat="46.38922278619813" lon="7.339357790644805">
      <ele>1420.3</ele></trkpt>
      <trkpt lat="46.389187109653825" lon="7.3393784871078">
      <ele>1421.4</ele></trkpt>
      <trkpt lat="46.38913238940055" lon="7.339399231340909">
      <ele>1424.7</ele></trkpt>
      <trkpt lat="46.389046718201584" lon="7.339413142010201">
      <ele>1427.9</ele></trkpt>
      <trkpt lat="46.388983787572016" lon="7.339436904176373">
      <ele>1431.2</ele></trkpt>
      <trkpt lat="46.38891072342601" lon="7.339465884827806">
      <ele>1434.5</ele></trkpt>
      <trkpt lat="46.38882124714274" lon="7.339521051497144">
      <ele>1437.7</ele></trkpt>
      <trkpt lat="46.38877736908538" lon="7.339565240767538">
      <ele>1441.0</ele></trkpt>
      <trkpt lat="46.38876835835505" lon="7.339589151305743">
      <ele>1444.3</ele></trkpt>
      <trkpt lat="46.38872109060409" lon="7.339748709045174">
      <ele>1447.5</ele></trkpt>
      <trkpt lat="46.3886635024093" lon="7.339823057071282">
      <ele>1450.8</ele></trkpt>
      <trkpt lat="46.3886117092658" lon="7.339909939420953">
      <ele>1454.1</ele></trkpt>
      <trkpt lat="46.388524475078384" lon="7.34004027996152">
      <ele>1457.3</ele></trkpt>
      <trkpt lat="46.3884862835655" lon="7.340075852260166">
      <ele>1460.6</ele></trkpt>
      <trkpt lat="46.388407166705264" lon="7.340127280712766">
      <ele>1463.8</ele></trkpt>
      <trkpt lat="46.38812608195181" lon="7.340222468821283">
      <ele>1467.1</ele></trkpt>
      <trkpt lat="46.387992361642894" lon="7.340273995610466">
      <ele>1470.4</ele></trkpt>
      <trkpt lat="46.38774682596043" lon="7.340440122877016">
      <ele>1473.6</ele></trkpt>
      <trkpt lat="46.38748489879575" lon="7.340594448456405">
      <ele>1476.9</ele></trkpt>
      <trkpt lat="46.38740030772767" lon="7.34063010341241">
      <ele>1480.2</ele></trkpt>
      <trkpt lat="46.38729386167437" lon="7.340650029041894">
      <ele>1483.4</ele></trkpt>
      <trkpt lat="46.38714374871114" lon="7.340677911155576">
      <ele>1486.7</ele></trkpt>
      <trkpt lat="46.38704819605705" lon="7.3406662408205925">
      <ele>1488.4</ele></trkpt>
      <trkpt lat="46.38687893552377" lon="7.340646825739203">
      <ele>1490.1</ele></trkpt>
      <trkpt lat="46.386753304372824" lon="7.340576048734424">
      <ele>1491.8</ele></trkpt>
      <trkpt lat="46.386600337346124" lon="7.340465867855142">
      <ele>1493.5</ele></trkpt>
      <trkpt lat="46.386479389718744" lon="7.340339614263722">
      <ele>1495.2</ele></trkpt>
      <trkpt lat="46.38642702032351" lon="7.340322497712135">
      <ele>1496.9</ele></trkpt>
      <trkpt lat="46.38635796417605" lon="7.340284794231936">
      <ele>1498.6</ele></trkpt>
      <trkpt lat="46.386331742198095" lon="7.340233259811612">
      <ele>1500.3</ele></trkpt>
      <trkpt lat="46.38631712061045" lon="7.340187541173917">
      <ele>1502.0</ele></trkpt>
      <trkpt lat="46.3862819839921" lon="7.340156809142737">
      <ele>1503.7</ele></trkpt>
      <trkpt lat="46.38623393955231" lon="7.3401374880795025">
      <ele>1505.4</ele></trkpt>
      <trkpt lat="46.386166164962916" lon="7.340125378525254">
      <ele>1507.1</ele></trkpt>
      <trkpt lat="46.38611196696864" lon="7.340074376110333">
      <ele>1508.8</ele></trkpt>
      <trkpt lat="46.386015114326206" lon="7.339964355987992">
      <ele>1510.5</ele></trkpt>
      <trkpt lat="46.38598723206447" lon="7.339896809817579">
      <ele>1512.2</ele></trkpt>
      <trkpt lat="46.38595496039355" lon="7.339747258602933">
      <ele>1513.9</ele></trkpt>
      <trkpt lat="46.38592086229758" lon="7.33953578188061">
      <ele>1515.6</ele></trkpt>
      <trkpt lat="46.385913602510236" lon="7.3394016676086204">
      <ele>1517.3</ele></trkpt>
      <trkpt lat="46.385913496367635" lon="7.339280422661785">
      <ele>1519.0</ele></trkpt>
      <trkpt lat="46.385891989651334" lon="7.339179872904724">
      <ele>1520.7</ele></trkpt>
      <trkpt lat="46.38586515986565" lon="7.33911284533517">
      <ele>1521.4</ele></trkpt>
      <trkpt lat="46.38583297099182" lon="7.339058736015422">
      <ele>1522.0</ele></trkpt>
      <trkpt lat="46.38581149579781" lon="7.338994285624949">
      <ele>1522.7</ele></trkpt>
      <trkpt lat="46.38579004777127" lon="7.338960786669598">
      <ele>1523.3</ele></trkpt>
      <trkpt lat="46.385760173739904" lon="7.338951065993844">
      <ele>1524.0</ele></trkpt>
      <trkpt lat="46.3857250677864" lon="7.338955602194342">
      <ele>1524.6</ele></trkpt>
      <trkpt lat="46.38570202181021" lon="7.33897701537418">
      <ele>1525.3</ele></trkpt>
      <trkpt lat="46.38563184934338" lon="7.339071974058198">
      <ele>1525.9</ele></trkpt>
      <trkpt lat="46.385584034964175" lon="7.339120250087248">
      <ele>1526.6</ele></trkpt>
      <trkpt lat="46.385531576102444" lon="7.339144914844431">
      <ele>1527.2</ele></trkpt>
      <trkpt lat="46.38543721812329" lon="7.33921350278162">
      <ele>1527.9</ele></trkpt>
      <trkpt lat="46.38540505734944" lon="7.33925296237963">
      <ele>1528.6</ele></trkpt>
      <trkpt lat="46.38533756777335" lon="7.339360966513922">
      <ele>1529.2</ele></trkpt>
      <trkpt lat="46.385300811985125" lon="7.339392205838046">
      <ele>1529.9</ele></trkpt>
      <trkpt lat="46.385247066100185" lon="7.339416196595871">
      <ele>1530.5</ele></trkpt>
      <trkpt lat="46.385196945433904" lon="7.339429885318712">
      <ele>1531.2</ele></trkpt>
      <trkpt lat="46.38514475749963" lon="7.339476413740044">
      <ele>1531.8</ele></trkpt>
      <trkpt lat="46.38510534359162" lon="7.3395232307420235">
      <ele>1532.5</ele></trkpt>
      <trkpt lat="46.3850745448445" lon="7.339546438467175">
      <ele>1533.1</ele></trkpt>
      <trkpt lat="46.3849491656443" lon="7.339641300951523">
      <ele>1533.8</ele></trkpt>
      <trkpt lat="46.38488347343879" lon="7.339675517389127">
      <ele>1534.8</ele></trkpt>
      <trkpt lat="46.38484669312317" lon="7.339719989384158">
      <ele>1535.8</ele></trkpt>
      <trkpt lat="46.38480373550641" lon="7.339746936769704">
      <ele>1536.8</ele></trkpt>
      <trkpt lat="46.38475715976379" lon="7.339761411567071">
      <ele>1537.8</ele></trkpt>
      <trkpt lat="46.3847339923638" lon="7.339767537314976">
      <ele>1538.8</ele></trkpt>
      <trkpt lat="46.384692983583165" lon="7.33982177912762">
      <ele>1539.8</ele></trkpt>
      <trkpt lat="46.38465554827675" lon="7.339878588176696">
      <ele>1540.8</ele></trkpt>
      <trkpt lat="46.384603827917175" lon="7.3399354361051685">
      <ele>1541.8</ele></trkpt>
      <trkpt lat="46.384548547484464" lon="7.340005185443674">
      <ele>1542.8</ele></trkpt>
      <trkpt lat="46.38451287532119" lon="7.3400310533084685">
      <ele>1543.8</ele></trkpt>
      <trkpt lat="46.38448432096865" lon="7.340038839569591">
      <ele>1544.8</ele></trkpt>
      <trkpt lat="46.38443251979763" lon="7.34000280933481">
      <ele>1545.8</ele></trkpt>
      <trkpt lat="46.384378928526786" lon="7.339956487209169">
      <ele>1546.8</ele></trkpt>
      <trkpt lat="46.38434677822992" lon="7.339935903213038">
      <ele>1547.8</ele></trkpt>
      <trkpt lat="46.38431465038532" lon="7.339941122193737">
      <ele>1548.8</ele></trkpt>
      <trkpt lat="46.38426823525364" lon="7.339943780331477">
      <ele>1549.8</ele></trkpt>
      <trkpt lat="46.38425749904391" lon="7.339918022871416">
      <ele>1550.8</ele></trkpt>
      <trkpt lat="46.3842003431916" lon="7.339879415844556">
      <ele>1551.8</ele></trkpt>
      <trkpt lat="46.384155718208625" lon="7.339871762606426">
      <ele>1552.8</ele></trkpt>
      <trkpt lat="46.384093198723505" lon="7.3398306046669255">
      <ele>1553.8</ele></trkpt>
      <trkpt lat="46.384002129397345" lon="7.339792085562966">
      <ele>1555.0</ele></trkpt>
      <trkpt lat="46.3839342709762" lon="7.339756085115046">
      <ele>1556.1</ele></trkpt>
      <trkpt lat="46.383921150856345" lon="7.339740614317242">
      <ele>1557.3</ele></trkpt>
      <trkpt lat="46.38389773630668" lon="7.3396902732545835">
      <ele>1558.4</ele></trkpt>
      <trkpt lat="46.38382877926543" lon="7.339570562264155">
      <ele>1559.6</ele></trkpt>
      <trkpt lat="46.383800179884425" lon="7.33952676925126">
      <ele>1560.7</ele></trkpt>
      <trkpt lat="46.38373942331039" lon="7.339444337406601">
      <ele>1561.9</ele></trkpt>
      <trkpt lat="46.383698317677755" lon="7.339387659531474">
      <ele>1563.0</ele></trkpt>
      <trkpt lat="46.38367326016279" lon="7.339320644324711">
      <ele>1564.2</ele></trkpt>
      <trkpt lat="46.383655372149214" lon="7.339263924134867">
      <ele>1565.3</ele></trkpt>
      <trkpt lat="46.3836069403906" lon="7.339213408336594">
      <ele>1566.5</ele></trkpt>
      <trkpt lat="46.38355917758413" lon="7.339197429237075">
      <ele>1567.7</ele></trkpt>
      <trkpt lat="46.38352838570549" lon="7.339166834436472">
      <ele>1568.8</ele></trkpt>
      <trkpt lat="46.383492305368634" lon="7.33910659911291">
      <ele>1570.0</ele></trkpt>
      <trkpt lat="46.38345393455367" lon="7.339050280702689">
      <ele>1571.1</ele></trkpt>
      <trkpt lat="46.38334229377827" lon="7.3389319367311145">
      <ele>1572.3</ele></trkpt>
      <trkpt lat="46.38324029993815" lon="7.338848516108606">
      <ele>1573.4</ele></trkpt>
      <trkpt lat="46.383169178114564" lon="7.338794702102991">
      <ele>1574.6</ele></trkpt>
      <trkpt lat="46.38313239066424" lon="7.338759140269742">
      <ele>1575.7</ele></trkpt>
      <trkpt lat="46.38312548207719" lon="7.338800072895539">
      <ele>1576.9</ele></trkpt>
      <trkpt lat="46.38310833548265" lon="7.3388399064329075">
      <ele>1578.2</ele></trkpt>
      <trkpt lat="46.383089899864935" lon="7.338856292664712">
      <ele>1579.5</ele></trkpt>
      <trkpt lat="46.383057132119475" lon="7.338849853515303">
      <ele>1580.8</ele></trkpt>
      <trkpt lat="46.38300628221262" lon="7.338781014953576">
      <ele>1582.1</ele></trkpt>
      <trkpt lat="46.38295853894697" lon="7.3387464352857315">
      <ele>1583.4</ele></trkpt>
      <trkpt lat="46.38286674131221" lon="7.338698509125924">
      <ele>1584.7</ele></trkpt>
      <trkpt lat="46.38273447653443" lon="7.33857375783602">
      <ele>1586.0</ele></trkpt>
      <trkpt lat="46.3826672792342" lon="7.33846171675001">
      <ele>1587.3</ele></trkpt>
      <trkpt lat="46.382616261046834" lon="7.3384063068919785">
      <ele>1588.6</ele></trkpt>
      <trkpt lat="46.3825794095199" lon="7.338389983691452">
      <ele>1590.0</ele></trkpt>
      <trkpt lat="46.38251181457589" lon="7.338367607939422">
      <ele>1591.3</ele></trkpt>
      <trkpt lat="46.38243879094309" lon="7.338309834242531">
      <ele>1592.6</ele></trkpt>
      <trkpt lat="46.38238021346726" lon="7.338271492796839">
      <ele>1593.9</ele></trkpt>
      <trkpt lat="46.382341267519045" lon="7.338256954426139">
      <ele>1595.2</ele></trkpt>
      <trkpt lat="46.382316214330864" lon="7.338256545777038">
      <ele>1596.5</ele></trkpt>
      <trkpt lat="46.38226001140689" lon="7.3382280529465795">
      <ele>1597.8</ele></trkpt>
      <trkpt lat="46.38220396313221" lon="7.338242155922035">
      <ele>1599.1</ele></trkpt>
      <trkpt lat="46.382145144901905" lon="7.338226562483028">
      <ele>1600.4</ele></trkpt>
      <trkpt lat="46.382075005104255" lon="7.338266220438159">
      <ele>1601.7</ele></trkpt>
      <trkpt lat="46.38199616697622" lon="7.338286058746543">
      <ele>1603.0</ele></trkpt>
      <trkpt lat="46.381949008031896" lon="7.338322372476877">
      <ele>1603.1</ele></trkpt>
      <trkpt lat="46.38190708425678" lon="7.338327857241655">
      <ele>1603.1</ele></trkpt>
      <trkpt lat="46.3818901295412" lon="7.338319998517568">
      <ele>1603.2</ele></trkpt>
      <trkpt lat="46.38186132719423" lon="7.3383218714873095">
      <ele>1603.3</ele></trkpt>
      <trkpt lat="46.381836056186415" lon="7.3383294572277755">
      <ele>1603.3</ele></trkpt>
      <trkpt lat="46.381804592476044" lon="7.338343020656603">
      <ele>1603.4</ele></trkpt>
      <trkpt lat="46.38174413592753" lon="7.338377019046025">
      <ele>1603.5</ele></trkpt>
      <trkpt lat="46.38165859755016" lon="7.33841892764373">
      <ele>1603.6</ele></trkpt>
      <trkpt lat="46.38160351419021" lon="7.338445935838071">
      <ele>1603.6</ele></trkpt>
      <trkpt lat="46.38157867437528" lon="7.338432489384213">
      <ele>1603.7</ele></trkpt>
      <trkpt lat="46.38155102053097" lon="7.338400499520527">
      <ele>1603.8</ele></trkpt>
      <trkpt lat="46.38151025665823" lon="7.33838502875552">
      <ele>1603.8</ele></trkpt>
      <trkpt lat="46.38145498193849" lon="7.338368544935132">
      <ele>1603.9</ele></trkpt>
      <trkpt lat="46.381337947468715" lon="7.338275498335246">
      <ele>1604.0</ele></trkpt>
      <trkpt lat="46.38127634882685" lon="7.338248874721998">
      <ele>1604.1</ele></trkpt>
      <trkpt lat="46.38125048950215" lon="7.338201582864739">
      <ele>1604.1</ele></trkpt>
      <trkpt lat="46.381230599829124" lon="7.3381808874299015">
      <ele>1604.2</ele></trkpt>
      <trkpt lat="46.38120079730206" lon="7.338180877554923">
      <ele>1604.3</ele></trkpt>
      <trkpt lat="46.38116698809324" lon="7.33811585791275">
      <ele>1604.3</ele></trkpt>
      <trkpt lat="46.38110138863737" lon="7.338071512397344">
      <ele>1604.4</ele></trkpt>
      <trkpt lat="46.38101991823736" lon="7.338024193800783">
      <ele>1604.8</ele></trkpt>
      <trkpt lat="46.380924437126765" lon="7.337870511221865">
      <ele>1605.2</ele></trkpt>
      <trkpt lat="46.38077533547444" lon="7.33771976239993">
      <ele>1605.6</ele></trkpt>
      <trkpt lat="46.38070180696233" lon="7.337681307572238">
      <ele>1605.9</ele></trkpt>
      <trkpt lat="46.38062422298228" lon="7.337533559312509">
      <ele>1606.3</ele></trkpt>
      <trkpt lat="46.38056259254265" lon="7.337471478155318">
      <ele>1606.7</ele></trkpt>
      <trkpt lat="46.3804811118122" lon="7.337433025632066">
      <ele>1607.1</ele></trkpt>
      <trkpt lat="46.380381702427066" lon="7.33732366329207">
      <ele>1607.5</ele></trkpt>
      <trkpt lat="46.380210840549964" lon="7.33726449009086">
      <ele>1607.9</ele></trkpt>
      <trkpt lat="46.380053901167614" lon="7.337252590877096">
      <ele>1608.2</ele></trkpt>
      <trkpt lat="46.3799307694431" lon="7.337273214461924">
      <ele>1608.6</ele></trkpt>
      <trkpt lat="46.37981957853294" lon="7.337338164557884">
      <ele>1609.0</ele></trkpt>
      <trkpt lat="46.37969050115488" lon="7.337379465579078">
      <ele>1609.4</ele></trkpt>
      <trkpt lat="46.379617064845064" lon="7.337444422824865">
      <ele>1609.8</ele></trkpt>
      <trkpt lat="46.379503912135334" lon="7.337538906935906">
      <ele>1610.2</ele></trkpt>
      <trkpt lat="46.37943042309132" lon="7.337544788745813">
      <ele>1610.6</ele></trkpt>
      <trkpt lat="46.37936091427276" lon="7.337565428638397">
      <ele>1610.9</ele></trkpt>
      <trkpt lat="46.37930133356534" lon="7.337562446022911">
      <ele>1611.3</ele></trkpt>
      <trkpt lat="46.37922189774607" lon="7.337597869778823">
      <ele>1611.7</ele></trkpt>
      <trkpt lat="46.37920004734219" lon="7.3375978454326525">
      <ele>1612.1</ele></trkpt>
      <trkpt lat="46.37916390351924" lon="7.337588437296933">
      <ele>1613.0</ele></trkpt>
      <trkpt lat="46.37904143764683" lon="7.337659827668069">
      <ele>1613.9</ele></trkpt>
      <trkpt lat="46.37896186962061" lon="7.337708457029513">
      <ele>1614.9</ele></trkpt>
      <trkpt lat="46.378885793174945" lon="7.33777877290947">
      <ele>1615.8</ele></trkpt>
      <trkpt lat="46.37884980188277" lon="7.337789133898513">
      <ele>1616.7</ele></trkpt>
      <trkpt lat="46.37879901274536" lon="7.337839932097896">
      <ele>1617.6</ele></trkpt>
      <trkpt lat="46.37876125393309" lon="7.337825132838473">
      <ele>1618.6</ele></trkpt>
      <trkpt lat="46.37872753683795" lon="7.337884204754256">
      <ele>1619.5</ele></trkpt>
      <trkpt lat="46.37866000400513" lon="7.337881223575916">
      <ele>1620.4</ele></trkpt>
      <trkpt lat="46.37857263280894" lon="7.33792549953907">
      <ele>1621.3</ele></trkpt>
      <trkpt lat="46.37853884070784" lon="7.337890026730881">
      <ele>1622.3</ele></trkpt>
      <trkpt lat="46.37844350386351" lon="7.337898833942361">
      <ele>1623.2</ele></trkpt>
      <trkpt lat="46.37836009824271" lon="7.337931300561248">
      <ele>1624.1</ele></trkpt>
      <trkpt lat="46.37827385663106" lon="7.337910456411261">
      <ele>1625.0</ele></trkpt>
      <trkpt lat="46.37820461016229" lon="7.337912573433485">
      <ele>1626.0</ele></trkpt>
      <trkpt lat="46.378117260274834" lon="7.337828953472216">
      <ele>1626.9</ele></trkpt>
      <trkpt lat="46.3780701580807" lon="7.337817616083825">
      <ele>1627.8</ele></trkpt>
      <trkpt lat="46.37803627122337" lon="7.3378476121890674">
      <ele>1628.8</ele></trkpt>
      <trkpt lat="46.37799538574697" lon="7.337826983066833">
      <ele>1629.7</ele></trkpt>
      <trkpt lat="46.377939558366876" lon="7.337775824672464">
      <ele>1630.6</ele></trkpt>
      <trkpt lat="46.37793302880278" lon="7.337757016470551">
      <ele>1631.8</ele></trkpt>
      <trkpt lat="46.377880922022555" lon="7.337752408159468">
      <ele>1633.1</ele></trkpt>
      <trkpt lat="46.37782714516924" lon="7.337700752236807">
      <ele>1634.3</ele></trkpt>
      <trkpt lat="46.37778966712249" lon="7.3376678993894116">
      <ele>1635.6</ele></trkpt>
      <trkpt lat="46.377747307999485" lon="7.337649144863794">
      <ele>1636.8</ele></trkpt>
      <trkpt lat="46.37766917776629" lon="7.3376657578163185">
      <ele>1638.1</ele></trkpt>
      <trkpt lat="46.377618680334734" lon="7.337639973879899">
      <ele>1639.3</ele></trkpt>
      <trkpt lat="46.3775747187706" lon="7.337640055613712">
      <ele>1640.6</ele></trkpt>
      <trkpt lat="46.37752257636063" lon="7.337595454621801">
      <ele>1641.8</ele></trkpt>
      <trkpt lat="46.377431340210286" lon="7.33753210631116">
      <ele>1643.0</ele></trkpt>
      <trkpt lat="46.377330330590816" lon="7.337464071385641">
      <ele>1644.3</ele></trkpt>
      <trkpt lat="46.377291258443194" lon="7.337459439129312">
      <ele>1645.5</ele></trkpt>
      <trkpt lat="46.37723098063353" lon="7.3374313212745035">
      <ele>1646.8</ele></trkpt>
      <trkpt lat="46.37713320215247" lon="7.337335050690628">
      <ele>1648.0</ele></trkpt>
      <trkpt lat="46.37707942779738" lon="7.33727633837584">
      <ele>1649.3</ele></trkpt>
      <trkpt lat="46.3770060722758" lon="7.337180022725551">
      <ele>1650.5</ele></trkpt>
      <trkpt lat="46.37693922260764" lon="7.337086047670706">
      <ele>1651.8</ele></trkpt>
      <trkpt lat="46.3768577069151" lon="7.336968575347238">
      <ele>1653.0</ele></trkpt>
      <trkpt lat="46.37681367150633" lon="7.33688632053279">
      <ele>1654.3</ele></trkpt>
      <trkpt lat="46.37672731746662" lon="7.336820612600342">
      <ele>1655.5</ele></trkpt>
      <trkpt lat="46.37665232702142" lon="7.336717256797548">
      <ele>1656.9</ele></trkpt>
      <trkpt lat="46.37661969520859" lon="7.336642025539607">
      <ele>1658.3</ele></trkpt>
      <trkpt lat="46.37656430023961" lon="7.3366021503585666">
      <ele>1659.7</ele></trkpt>
      <trkpt lat="46.3765415058722" lon="7.336592770253698">
      <ele>1661.2</ele></trkpt>
      <trkpt lat="46.3764779677264" lon="7.3365505450079285">
      <ele>1662.6</ele></trkpt>
      <trkpt lat="46.37645835246738" lon="7.336475302609417">
      <ele>1664.0</ele></trkpt>
      <trkpt lat="46.37639802615654" lon="7.33638366956326">
      <ele>1665.4</ele></trkpt>
      <trkpt lat="46.37635885796911" lon="7.336282599965805">
      <ele>1666.8</ele></trkpt>
      <trkpt lat="46.376342518551695" lon="7.336219101014273">
      <ele>1668.2</ele></trkpt>
      <trkpt lat="46.37633596110099" lon="7.336169711473894">
      <ele>1669.7</ele></trkpt>
      <trkpt lat="46.37631154013626" lon="7.336172110007973">
      <ele>1671.1</ele></trkpt>
      <trkpt lat="46.37629851924433" lon="7.336167442624963">
      <ele>1672.5</ele></trkpt>
      <trkpt lat="46.37627897389038" lon="7.33616981896486">
      <ele>1673.9</ele></trkpt>
      <trkpt lat="46.3762382453673" lon="7.336144031644185">
      <ele>1675.3</ele></trkpt>
      <trkpt lat="46.37620240357134" lon="7.336120574608854">
      <ele>1676.7</ele></trkpt>
      <trkpt lat="46.376138922674265" lon="7.336141866573022">
      <ele>1678.1</ele></trkpt>
      <trkpt lat="46.37609822601646" lon="7.336151340204968">
      <ele>1679.6</ele></trkpt>
      <trkpt lat="46.37608034550911" lon="7.336184308384897">
      <ele>1681.0</ele></trkpt>
      <trkpt lat="46.37606243787425" lon="7.336177297775665">
      <ele>1682.4</ele></trkpt>
      <trkpt lat="46.3760526367512" lon="7.336142029371617">
      <ele>1683.8</ele></trkpt>
      <trkpt lat="46.37605093360329" lon="7.336069093351349">
      <ele>1685.4</ele></trkpt>
      <trkpt lat="46.376016707228" lon="7.336031518648958">
      <ele>1687.0</ele></trkpt>
      <trkpt lat="46.37599554103131" lon="7.336022148799488">
      <ele>1688.6</ele></trkpt>
      <trkpt lat="46.375964539105574" lon="7.335949281239291">
      <ele>1690.2</ele></trkpt>
      <trkpt lat="46.37593031482155" lon="7.335914059122154">
      <ele>1691.8</ele></trkpt>
      <trkpt lat="46.37588961180233" lon="7.335916488540674">
      <ele>1693.4</ele></trkpt>
      <trkpt lat="46.37582119046133" lon="7.3358860490728075">
      <ele>1695.0</ele></trkpt>
      <trkpt lat="46.375793505021676" lon="7.335869621304299">
      <ele>1696.6</ele></trkpt>
      <trkpt lat="46.375793438911955" lon="7.335796695538052">
      <ele>1698.2</ele></trkpt>
      <trkpt lat="46.37579991333993" lon="7.3357543522074184">
      <ele>1699.8</ele></trkpt>
      <trkpt lat="46.37578198126041" lon="7.335740258485624">
      <ele>1701.3</ele></trkpt>
      <trkpt lat="46.37575430436219" lon="7.33573326656654">
      <ele>1702.9</ele></trkpt>
      <trkpt lat="46.37570539412114" lon="7.335662785885494">
      <ele>1704.5</ele></trkpt>
      <trkpt lat="46.37567116761136" lon="7.335625211678121">
      <ele>1706.1</ele></trkpt>
      <trkpt lat="46.375700421426394" lon="7.335575741883336">
      <ele>1707.7</ele></trkpt>
      <trkpt lat="46.37567108636268" lon="7.335535806008197">
      <ele>1709.3</ele></trkpt>
      <trkpt lat="46.37562872735042" lon="7.335507670105405">
      <ele>1710.9</ele></trkpt>
      <trkpt lat="46.375596141835025" lon="7.335484207569745">
      <ele>1712.5</ele></trkpt>
      <trkpt lat="46.375592846465324" lon="7.335451279674991">
      <ele>1714.1</ele></trkpt>
      <trkpt lat="46.37560254716861" lon="7.335375970176928">
      <ele>1715.7</ele></trkpt>
      <trkpt lat="46.37562527349345" lon="7.335300661868276">
      <ele>1717.5</ele></trkpt>
      <trkpt lat="46.37561870706384" lon="7.3352418633449">
      <ele>1719.2</ele></trkpt>
      <trkpt lat="46.375599138960894" lon="7.335199543676814">
      <ele>1721.0</ele></trkpt>
      <trkpt lat="46.375571478768734" lon="7.335220768290221">
      <ele>1722.8</ele></trkpt>
      <trkpt lat="46.375498224527256" lon="7.335237387786394">
      <ele>1724.5</ele></trkpt>
      <trkpt lat="46.3754542368093" lon="7.3352186520434435">
      <ele>1726.3</ele></trkpt>
      <trkpt lat="46.37545258326756" lon="7.335181016257408">
      <ele>1728.1</ele></trkpt>
      <trkpt lat="46.37548346979604" lon="7.335126838441885">
      <ele>1729.8</ele></trkpt>
      <trkpt lat="46.37548994181387" lon="7.3350821298453">
      <ele>1731.6</ele></trkpt>
      <trkpt lat="46.375460614782895" lon="7.335061026842407">
      <ele>1733.3</ele></trkpt>
      <trkpt lat="46.37541338136812" lon="7.335054059602978">
      <ele>1735.1</ele></trkpt>
      <trkpt lat="46.37542311836746" lon="7.335018754555591">
      <ele>1736.9</ele></trkpt>
      <trkpt lat="46.375445850884134" lon="7.334950477639528">
      <ele>1738.6</ele></trkpt>
      <trkpt lat="46.37547507074805" lon="7.334844562323182">
      <ele>1740.4</ele></trkpt>
      <trkpt lat="46.375474991062646" lon="7.334757535401187">
      <ele>1742.2</ele></trkpt>
      <trkpt lat="46.37545869822797" lon="7.3347458043880005">
      <ele>1743.9</ele></trkpt>
      <trkpt lat="46.375421218941526" lon="7.334722351743478">
      <ele>1745.7</ele></trkpt>
      <trkpt lat="46.37539194178349" lon="7.334745932053617">
      <ele>1747.5</ele></trkpt>
      <trkpt lat="46.375356110101556" lon="7.334743648149127">
      <ele>1749.2</ele></trkpt>
      <trkpt lat="46.37534790655126" lon="7.334675443401145">
      <ele>1751.0</ele></trkpt>
      <trkpt lat="46.37536411094208" lon="7.334590724926603">
      <ele>1753.3</ele></trkpt>
      <trkpt lat="46.37539822769519" lon="7.334508324497589">
      <ele>1755.5</ele></trkpt>
      <trkpt lat="46.37542421235431" lon="7.334425939564742">
      <ele>1757.8</ele></trkpt>
      <trkpt lat="46.37543554708434" lon="7.334357697274154">
      <ele>1760.1</ele></trkpt>
      <trkpt lat="46.37541758272417" lon="7.334298920960557">
      <ele>1762.3</ele></trkpt>
      <trkpt lat="46.37539154008617" lon="7.334308380701987">
      <ele>1764.6</ele></trkpt>
      <trkpt lat="46.37534432211364" lon="7.3343084713821725">
      <ele>1766.9</ele></trkpt>
      <trkpt lat="46.37532795561329" lon="7.334216758120996">
      <ele>1769.2</ele></trkpt>
      <trkpt lat="46.375284013200336" lon="7.334247411127155">
      <ele>1771.4</ele></trkpt>
      <trkpt lat="46.37525954247109" lon="7.334195717795361">
      <ele>1773.7</ele></trkpt>
      <trkpt lat="46.37523026325657" lon="7.334216945899535">
      <ele>1776.0</ele></trkpt>
      <trkpt lat="46.37515694849029" lon="7.334167685987674">
      <ele>1778.2</ele></trkpt>
      <trkpt lat="46.375129976895934" lon="7.334135466819431">
      <ele>1780.5</ele></trkpt>
      <trkpt lat="46.375082009832994" lon="7.334123134167781">
      <ele>1782.8</ele></trkpt>
      <trkpt lat="46.375029920250306" lon="7.334137348871405">
      <ele>1785.1</ele></trkpt>
      <trkpt lat="46.374998936302504" lon="7.334095052027351">
      <ele>1787.3</ele></trkpt>
      <trkpt lat="46.37497611572274" lon="7.334057470334934">
      <ele>1789.6</ele></trkpt>
      <trkpt lat="46.37492887171423" lon="7.334029332353797">
      <ele>1791.9</ele></trkpt>
      <trkpt lat="46.37481975990033" lon="7.3340154280208925">
      <ele>1794.1</ele></trkpt>
      <trkpt lat="46.374741641051074" lon="7.334043807296025">
      <ele>1796.4</ele></trkpt>
      <trkpt lat="46.374679797427504" lon="7.3340745075632015">
      <ele>1798.0</ele></trkpt>
      <trkpt lat="46.374653746132644" lon="7.334074557705143">
      <ele>1799.6</ele></trkpt>
      <trkpt lat="46.374616310088676" lon="7.334098153731637">
      <ele>1801.3</ele></trkpt>
      <trkpt lat="46.37461302363041" lon="7.334055816908776">
      <ele>1802.9</ele></trkpt>
      <trkpt lat="46.3746292427554" lon="7.333987566150514">
      <ele>1804.5</ele></trkpt>
      <trkpt lat="46.374634092633215" lon="7.333949918440447">
      <ele>1806.1</ele></trkpt>
      <trkpt lat="46.37453807623578" lon="7.334001843134031">
      <ele>1807.7</ele></trkpt>
      <trkpt lat="46.374484380174884" lon="7.334039597816881">
      <ele>1809.4</ele></trkpt>
      <trkpt lat="46.37442904688793" lon="7.334077342579603">
      <ele>1811.0</ele></trkpt>
      <trkpt lat="46.37438679191225" lon="7.334152700299081">
      <ele>1812.6</ele></trkpt>
      <trkpt lat="46.374380197846136" lon="7.334211002791132">
      <ele>1814.2</ele></trkpt>
      <trkpt lat="46.37435701384911" lon="7.334296500050359">
      <ele>1815.8</ele></trkpt>
      <trkpt lat="46.37435183666932" lon="7.33435985545292">
      <ele>1817.5</ele></trkpt>
      <trkpt lat="46.37436261126939" lon="7.334416214060539">
      <ele>1819.1</ele></trkpt>
      <trkpt lat="46.3743186907657" lon="7.334460980624281">
      <ele>1820.7</ele></trkpt>
      <trkpt lat="46.37427963543121" lon="7.334484579343313">
      <ele>1822.3</ele></trkpt>
      <trkpt lat="46.374209622940995" lon="7.334475317047717">
      <ele>1823.9</ele></trkpt>
      <trkpt lat="46.37415916979507" lon="7.334508334070588">
      <ele>1825.6</ele></trkpt>
      <trkpt lat="46.37405008863741" lon="7.334517952640502">
      <ele>1827.2</ele></trkpt>
      <trkpt lat="46.37396379157518" lon="7.334515778660806">
      <ele>1828.8</ele></trkpt>
      <trkpt lat="46.37389704377127" lon="7.334525316053016">
      <ele>1831.3</ele></trkpt>
      <trkpt lat="46.373828704465176" lon="7.3345748466438465">
      <ele>1833.7</ele></trkpt>
      <trkpt lat="46.37379130103825" lon="7.334624304884075">
      <ele>1836.2</ele></trkpt>
      <trkpt lat="46.373752237040954" lon="7.334638493834059">
      <ele>1838.6</ele></trkpt>
      <trkpt lat="46.37358780335442" lon="7.334655288077403">
      <ele>1841.1</ele></trkpt>
      <trkpt lat="46.37349013040992" lon="7.334676646159703">
      <ele>1843.6</ele></trkpt>
      <trkpt lat="46.373389222981075" lon="7.334712124417687">
      <ele>1846.0</ele></trkpt>
      <trkpt lat="46.37331768065496" lon="7.334829878321902">
      <ele>1848.5</ele></trkpt>
      <trkpt lat="46.37327379482194" lon="7.334902884688379">
      <ele>1850.9</ele></trkpt>
      <trkpt lat="46.37326244431692" lon="7.334964067163633">
      <ele>1853.4</ele></trkpt>
      <trkpt lat="46.37326251526012" lon="7.33504169420022">
      <ele>1855.9</ele></trkpt>
      <trkpt lat="46.37327235968044" lon="7.33512400729191">
      <ele>1858.3</ele></trkpt>
      <trkpt lat="46.37329205090563" lon="7.335281576540404">
      <ele>1860.8</ele></trkpt>
      <trkpt lat="46.373341091975256" lon="7.335495533360608">
      <ele>1863.2</ele></trkpt>
      <trkpt lat="46.373382032182036" lon="7.335754213440691">
      <ele>1865.7</ele></trkpt>
      <trkpt lat="46.37339535990847" lon="7.336097630463121">
      <ele>1868.2</ele></trkpt>
      <trkpt lat="46.37341006267219" lon="7.336151706644811">
      <ele>1870.6</ele></trkpt>
      <trkpt lat="46.37344921611842" lon="7.336236317260443">
      <ele>1873.1</ele></trkpt>
      <trkpt lat="46.37350630947677" lon="7.336353827097486">
      <ele>1875.5</ele></trkpt>
      <trkpt lat="46.373501469405284" lon="7.336403235535743">
      <ele>1878.0</ele></trkpt>
      <trkpt lat="46.37347876407034" lon="7.336492667481737">
      <ele>1879.2</ele></trkpt>
      <trkpt lat="46.37347880221415" lon="7.336535022667738">
      <ele>1880.5</ele></trkpt>
      <trkpt lat="46.373399136538" lon="7.336664551333554">
      <ele>1881.7</ele></trkpt>
      <trkpt lat="46.37338614840819" lon="7.3367163142804515">
      <ele>1882.9</ele></trkpt>
      <trkpt lat="46.37340411574097" lon="7.336779793876998">
      <ele>1884.1</ele></trkpt>
      <trkpt lat="46.373407444514584" lon="7.336850357978483">
      <ele>1885.3</ele></trkpt>
      <trkpt lat="46.37342867606835" lon="7.3369326502974035">
      <ele>1886.6</ele></trkpt>
      <trkpt lat="46.373443380542504" lon="7.336989079080634">
      <ele>1887.8</ele></trkpt>
      <trkpt lat="46.37342715961123" lon="7.337057327453067">
      <ele>1889.0</ele></trkpt>
      <trkpt lat="46.373383337596216" lon="7.3372032547000146">
      <ele>1890.2</ele></trkpt>
      <trkpt lat="46.37337039338593" lon="7.337304429622772">
      <ele>1891.5</ele></trkpt>
      <trkpt lat="46.37328422931213" lon="7.337441039020332">
      <ele>1892.7</ele></trkpt>
      <trkpt lat="46.3732322079342" lon="7.337542273422105">
      <ele>1893.9</ele></trkpt>
      <trkpt lat="46.37319486251263" lon="7.337648198014749">
      <ele>1895.2</ele></trkpt>
      <trkpt lat="46.37313954330324" lon="7.3376929951770045">
      <ele>1896.4</ele></trkpt>
      <trkpt lat="46.373074933150406" lon="7.337709217643377">
      <ele>1897.6</ele></trkpt>
      <trkpt lat="46.37297592876417" lon="7.337721007245967">
      <ele>1898.8</ele></trkpt>
      <trkpt lat="46.37288152659341" lon="7.3377389224894705">
      <ele>1900.0</ele></trkpt>
      <trkpt lat="46.37282975660471" lon="7.337779203016363">
      <ele>1901.3</ele></trkpt>
      <trkpt lat="46.37278555574504" lon="7.337844019300231">
      <ele>1902.5</ele></trkpt>
      <trkpt lat="46.372736188882286" lon="7.337845306541904">
      <ele>1904.3</ele></trkpt>
      <trkpt lat="46.3727104105718" lon="7.337798269088056">
      <ele>1906.2</ele></trkpt>
      <trkpt lat="46.372768718632216" lon="7.337756014097234">
      <ele>1908.0</ele></trkpt>
      <trkpt lat="46.37285619724142" lon="7.337711222542669">
      <ele>1909.9</ele></trkpt>
      <trkpt lat="46.37282697132187" lon="7.337661683181677">
      <ele>1911.7</ele></trkpt>
      <trkpt lat="46.37271028922282" lon="7.3376619000515575">
      <ele>1913.5</ele></trkpt>
      <trkpt lat="46.37261764087072" lon="7.3376794351615535">
      <ele>1915.4</ele></trkpt>
      <trkpt lat="46.37255416952754" lon="7.337711783626061">
      <ele>1917.2</ele></trkpt>
      <trkpt lat="46.37250787962296" lon="7.337754016180595">
      <ele>1919.1</ele></trkpt>
      <trkpt lat="46.37246840908052" lon="7.337756571740251">
      <ele>1920.9</ele></trkpt>
      <trkpt lat="46.37240543564894" lon="7.337752036056356">
      <ele>1922.7</ele></trkpt>
      <trkpt lat="46.37228817715493" lon="7.33781217887273">
      <ele>1924.6</ele></trkpt>
      <trkpt lat="46.37224030104616" lon="7.337780284320549">
      <ele>1926.4</ele></trkpt>
      <trkpt lat="46.372196805131615" lon="7.337767862829356">
      <ele>1928.3</ele></trkpt>
      <trkpt lat="46.3721735579123" lon="7.337734700995837">
      <ele>1930.1</ele></trkpt>
      <trkpt lat="46.3721475150234" lon="7.33775430846239">
      <ele>1931.9</ele></trkpt>
      <trkpt lat="46.37216548484907" lon="7.337679690576187">
      <ele>1933.8</ele></trkpt>
      <trkpt lat="46.37213016847047" lon="7.337548937721991">
      <ele>1935.6</ele></trkpt>
      <trkpt lat="46.37212315532506" lon="7.337512444803748">
      <ele>1937.5</ele></trkpt>
      <trkpt lat="46.37211149230549" lon="7.337476935258337">
      <ele>1939.3</ele></trkpt>
      <trkpt lat="46.37205709634738" lon="7.337447366547116">
      <ele>1939.4</ele></trkpt>
      <trkpt lat="46.37201289689908" lon="7.337442965235293">
      <ele>1939.5</ele></trkpt>
      <trkpt lat="46.37194845188112" lon="7.337462748267451">
      <ele>1939.7</ele></trkpt>
      <trkpt lat="46.37192090021714" lon="7.337454846009404">
      <ele>1939.8</ele></trkpt>
      <trkpt lat="46.37183838244338" lon="7.337494195640876">
      <ele>1939.9</ele></trkpt>
      <trkpt lat="46.37178342450571" lon="7.3375506355773155">
      <ele>1940.0</ele></trkpt>
      <trkpt lat="46.371718371086516" lon="7.3375943321250885">
      <ele>1940.1</ele></trkpt>
      <trkpt lat="46.37167893809422" lon="7.33763903361212">
      <ele>1940.3</ele></trkpt>
      <trkpt lat="46.37163821440245" lon="7.337719320361251">
      <ele>1940.4</ele></trkpt>
      <trkpt lat="46.37162116025982" lon="7.337771634756273">
      <ele>1940.5</ele></trkpt>
      <trkpt lat="46.37158590101666" lon="7.337897137068079">
      <ele>1940.6</ele></trkpt>
      <trkpt lat="46.371511688276314" lon="7.337989649720764">
      <ele>1940.7</ele></trkpt>
      <trkpt lat="46.37147813398304" lon="7.338019381563015">
      <ele>1940.9</ele></trkpt>
      <trkpt lat="46.37146394226632" lon="7.338073899716431">
      <ele>1941.0</ele></trkpt>
      <trkpt lat="46.3714283461507" lon="7.338093719382377">
      <ele>1941.1</ele></trkpt>
      <trkpt lat="46.37140094376516" lon="7.338172993098198">
      <ele>1941.2</ele></trkpt>
      <trkpt lat="46.37131956556138" lon="7.338209376094761">
      <ele>1941.3</ele></trkpt>
      <trkpt lat="46.3711935037747" lon="7.338344830938979">
      <ele>1941.5</ele></trkpt>
      <trkpt lat="46.3711507434131" lon="7.338329977655196">
      <ele>1941.6</ele></trkpt>
      <trkpt lat="46.37111917969049" lon="7.338311828769869">
      <ele>1941.7</ele></trkpt>
      <trkpt lat="46.37108558710447" lon="7.338308537879846">
      <ele>1942.8</ele></trkpt>
      <trkpt lat="46.37105808209243" lon="7.3382821291881095">
      <ele>1943.8</ele></trkpt>
      <trkpt lat="46.37102132715523" lon="7.338161582979244">
      <ele>1944.9</ele></trkpt>
      <trkpt lat="46.37097146441421" lon="7.338161610215222">
      <ele>1945.9</ele></trkpt>
      <trkpt lat="46.370956217857" lon="7.338183081470577">
      <ele>1947.0</ele></trkpt>
      <trkpt lat="46.37091856070086" lon="7.338181435654325">
      <ele>1948.0</ele></trkpt>
      <trkpt lat="46.37085241126797" lon="7.338186418382437">
      <ele>1949.0</ele></trkpt>
      <trkpt lat="46.37080559678881" lon="7.338174873735682">
      <ele>1950.1</ele></trkpt>
      <trkpt lat="46.37078626935696" lon="7.338189737628132">
      <ele>1951.2</ele></trkpt>
      <trkpt lat="46.370763824516786" lon="7.338229520120101">
      <ele>1952.2</ele></trkpt>
      <trkpt lat="46.370755044313405" lon="7.338168053477054">
      <ele>1953.2</ele></trkpt>
      <trkpt lat="46.37073267974467" lon="7.338105533343657">
      <ele>1954.3</ele></trkpt>
      <trkpt lat="46.37071037254203" lon="7.338067159229957">
      <ele>1955.4</ele></trkpt>
      <trkpt lat="46.37064697739183" lon="7.3380232600797575">
      <ele>1956.4</ele></trkpt>
      <trkpt lat="46.37061999608907" lon="7.337999138020891">
      <ele>1957.5</ele></trkpt>
      <trkpt lat="46.370590962047245" lon="7.337962933782827">
      <ele>1958.5</ele></trkpt>
      <trkpt lat="46.37054715965651" lon="7.337949785331523">
      <ele>1959.5</ele></trkpt>
      <trkpt lat="46.37050691340405" lon="7.337960126509945">
      <ele>1960.6</ele></trkpt>
      <trkpt lat="46.37049602217434" lon="7.337962914772622">
      <ele>1961.7</ele></trkpt>
      <trkpt lat="46.37049308176268" lon="7.337964219789523">
      <ele>1962.7</ele></trkpt>
      <trkpt lat="46.37047382073968" lon="7.337972793640345">
      <ele>1963.8</ele></trkpt>
      <trkpt lat="46.370433286841404" lon="7.337912464877274">
      <ele>1964.8</ele></trkpt>
      <trkpt lat="46.370410213874415" lon="7.337832402388638">
      <ele>1965.9</ele></trkpt>
      <trkpt lat="46.37039528927644" lon="7.337780863304689">
      <ele>1966.9</ele></trkpt>
      <trkpt lat="46.370364884647095" lon="7.33761983864213">
      <ele>1968.0</ele></trkpt>
      <trkpt lat="46.37034920109969" lon="7.337514239175009">
      <ele>1969.1</ele></trkpt>
      <trkpt lat="46.37033021649421" lon="7.337429283001358">
      <ele>1970.1</ele></trkpt>
      <trkpt lat="46.37028393199806" lon="7.337356528701132">
      <ele>1971.2</ele></trkpt>
      <trkpt lat="46.37018509680068" lon="7.337265665710272">
      <ele>1972.2</ele></trkpt>
      <trkpt lat="46.37013888903269" lon="7.337268766905142">
      <ele>1973.3</ele></trkpt>
      <trkpt lat="46.37008640978253" lon="7.337320483284618">
      <ele>1974.4</ele></trkpt>
      <trkpt lat="46.37001927868992" lon="7.337445041047754">
      <ele>1975.4</ele></trkpt>
      <trkpt lat="46.37007815061485" lon="7.337490454925136">
      <ele>1976.5</ele></trkpt>
      <trkpt lat="46.370023614974244" lon="7.337596795240622">
      <ele>1977.5</ele></trkpt>
      <trkpt lat="46.369987932135146" lon="7.337630247199267">
      <ele>1978.6</ele></trkpt>
      <trkpt lat="46.36996064308768" lon="7.337654586625462">
      <ele>1979.7</ele></trkpt>
      <trkpt lat="46.369981669471926" lon="7.3376788362463214">
      <ele>1980.7</ele></trkpt>
      <trkpt lat="46.36994391674514" lon="7.337751746463557">
      <ele>1981.8</ele></trkpt>
      <trkpt lat="46.369939791379274" lon="7.337836745021789">
      <ele>1982.8</ele></trkpt>
      <trkpt lat="46.369935680324076" lon="7.337927799466391">
      <ele>1983.9</ele></trkpt>
      <trkpt lat="46.36989998478438" lon="7.337967320094309">
      <ele>1984.9</ele></trkpt>
      <trkpt lat="46.36985595287559" lon="7.338070599185627">
      <ele>1986.0</ele></trkpt>
      <trkpt lat="46.369759383895875" lon="7.338140589798775">
      <ele>1987.0</ele></trkpt>
      <trkpt lat="46.36975101333514" lon="7.338186128535655">
      <ele>1988.0</ele></trkpt>
      <trkpt lat="46.36978051230091" lon="7.338280161502114">
      <ele>1989.0</ele></trkpt>
      <trkpt lat="46.369799485546075" lon="7.338352992316471">
      <ele>1990.1</ele></trkpt>
      <trkpt lat="46.36975546668404" lon="7.338471436634941">
      <ele>1991.1</ele></trkpt>
      <trkpt lat="46.36973247115017" lon="7.338600836241159">
      <ele>1992.1</ele></trkpt>
      <trkpt lat="46.369711661188816" lon="7.338740199263528">
      <ele>1993.2</ele></trkpt>
      <trkpt lat="46.36970074952991" lon="7.338821960976093">
      <ele>1994.2</ele></trkpt>
      <trkpt lat="46.36975242174911" lon="7.338966648967332">
      <ele>1995.2</ele></trkpt>
      <trkpt lat="46.36976379295935" lon="7.3389981941951525">
      <ele>1996.2</ele></trkpt>
      <trkpt lat="46.36976360599613" lon="7.339041365614737">
      <ele>1997.3</ele></trkpt>
      <trkpt lat="46.369727912738234" lon="7.3390839263278185">
      <ele>1998.3</ele></trkpt>
      <trkpt lat="46.36955041599554" lon="7.3391818604394405">
      <ele>1999.3</ele></trkpt>
      <trkpt lat="46.36951312799451" lon="7.339211350390618">
      <ele>2000.3</ele></trkpt>
      <trkpt lat="46.36949745048125" lon="7.339223737747819">
      <ele>2001.4</ele></trkpt>
      <trkpt lat="46.36948955961253" lon="7.339273108875569">
      <ele>2002.4</ele></trkpt>
    </trkseg>
  </trk>
</gpx>