<?xml version="1.0" encoding="UTF-8"?>
<gpx version="1.1" creator="hike-planner" xmlns="http://www.topografix.com/GPX/1/1">
  <metadata><name>Rostock -> Hardergrat</name>
    <desc>Routed from OSM (ODbL); elevations from SwissTopo / Open-Elevation</desc>
  </metadata>
  <wpt lat="46.662945" lon="8.383087">
    <ele>2657.9</ele>
    <name>Rostock</name>
  </wpt>
  <wpt lat="46.651322" lon="8.522845">
    <ele>1536.5</ele>
    <name>Hardergrat</name>
  </wpt>
  <trk>
    <name>Rostock -> Hardergrat</name>
    <trkseg>
      <trkpt lat="46.662945" lon="8.383087">
        <ele>2657.9</ele>
      </trkpt>
      <trkpt lat="46.670230" lon="8.382439">
        <ele>2562.2</ele>
      </trkpt>
      <trkpt lat="46.672016" lon="8.378965">
        <ele>2562.2</ele>
      </trkpt>
      <trkpt lat="46.673972" lon="8.377827">
        <ele>2453.5</ele>
      </trkpt>
      <trkpt lat="46.677427" lon="8.376139">
        <ele>2500.9</ele>
      </trkpt>
      <trkpt lat="46.677612" lon="8.375942">
        <ele>2495.8</ele>
      </trkpt>
      <trkpt lat="46.677975" lon="8.375691">
        <ele>2477.1</ele>
      </trkpt>
      <trkpt lat="46.678059" lon="8.375822">
        <ele>2476.4</ele>
      </trkpt>
      <trkpt lat="46.678338" lon="8.375413">
        <ele>2465.3</ele>
      </trkpt>
      <trkpt lat="46.678339" lon="8.375101">
        <ele>2455.9</ele>
      </trkpt>
      <trkpt lat="46.678385" lon="8.374571">
        <ele>2437.6</ele>
      </trkpt>
      <trkpt lat="46.678265" lon="8.374258">
        <ele>2422.0</ele>
      </trkpt>
      <trkpt lat="46.678235" lon="8.373994">
        <ele>2407.8</ele>
      </trkpt>
      <trkpt lat="46.678349" lon="8.373913">
        <ele>2397.2</ele>
      </trkpt>
      <trkpt lat="46.678369" lon="8.373715">
        <ele>2390.5</ele>
      </trkpt>
      <trkpt lat="46.678302" lon="8.373634">
        <ele>2383.5</ele>
      </trkpt>
      <trkpt lat="46.678243" lon="8.373602">
        <ele>2378.3</ele>
      </trkpt>
      <trkpt lat="46.678179" lon="8.373559">
        <ele>2368.8</ele>
      </trkpt>
      <trkpt lat="46.678126" lon="8.373544">
        <ele>2365.6</ele>
      </trkpt>
      <trkpt lat="46.678070" lon="8.373348">
        <ele>2354.1</ele>
      </trkpt>
      <trkpt lat="46.678126" lon="8.373267">
        <ele>2350.6</ele>
      </trkpt>
      <trkpt lat="46.678178" lon="8.373040">
        <ele>2340.1</ele>
      </trkpt>
      <trkpt lat="46.678271" lon="8.372825">
        <ele>2327.5</ele>
      </trkpt>
      <trkpt lat="46.678488" lon="8.372965">
        <ele>2330.8</ele>
      </trkpt>
      <trkpt lat="46.678757" lon="8.373025">
        <ele>2329.9</ele>
      </trkpt>
      <trkpt lat="46.679094" lon="8.372842">
        <ele>2325.3</ele>
      </trkpt>
      <trkpt lat="46.679890" lon="8.372289">
        <ele>2293.1</ele>
      </trkpt>
      <trkpt lat="46.680401" lon="8.372227">
        <ele>2293.3</ele>
      </trkpt>
      <trkpt lat="46.680855" lon="8.372049">
        <ele>2287.1</ele>
      </trkpt>
      <trkpt lat="46.681078" lon="8.372021">
        <ele>2289.8</ele>
      </trkpt>
      <trkpt lat="46.681944" lon="8.371866">
        <ele>2288.7</ele>
      </trkpt>
      <trkpt lat="46.682247" lon="8.371866">
        <ele>2291.2</ele>
      </trkpt>
      <trkpt lat="46.682685" lon="8.371788">
        <ele>2281.8</ele>
      </trkpt>
      <trkpt lat="46.682760" lon="8.371730">
        <ele>2273.9</ele>
      </trkpt>
      <trkpt lat="46.682875" lon="8.371591">
        <ele>2267.2</ele>
      </trkpt>
      <trkpt lat="46.682958" lon="8.371429">
        <ele>2262.2</ele>
      </trkpt>
      <trkpt lat="46.682912" lon="8.371413">
        <ele>2260.2</ele>
      </trkpt>
      <trkpt lat="46.682950" lon="8.371276">
        <ele>2254.9</ele>
      </trkpt>
      <trkpt lat="46.683009" lon="8.371163">
        <ele>2251.1</ele>
      </trkpt>
      <trkpt lat="46.683060" lon="8.371050">
        <ele>2246.5</ele>
      </trkpt>
      <trkpt lat="46.683060" lon="8.370871">
        <ele>2243.9</ele>
      </trkpt>
      <trkpt lat="46.683183" lon="8.370694">
        <ele>2240.7</ele>
      </trkpt>
      <trkpt lat="46.683244" lon="8.370708">
        <ele>2238.3</ele>
      </trkpt>
      <trkpt lat="46.683517" lon="8.370779">
        <ele>2229.6</ele>
      </trkpt>
      <trkpt lat="46.683714" lon="8.370733">
        <ele>2224.1</ele>
      </trkpt>
      <trkpt lat="46.683793" lon="8.370679">
        <ele>2219.4</ele>
      </trkpt>
      <trkpt lat="46.683838" lon="8.370580">
        <ele>2213.2</ele>
      </trkpt>
      <trkpt lat="46.684031" lon="8.370815">
        <ele>2211.3</ele>
      </trkpt>
      <trkpt lat="46.684383" lon="8.371404">
        <ele>2224.2</ele>
      </trkpt>
      <trkpt lat="46.685003" lon="8.371860">
        <ele>2213.7</ele>
      </trkpt>
      <trkpt lat="46.685777" lon="8.372588">
        <ele>2196.6</ele>
      </trkpt>
      <trkpt lat="46.685926" lon="8.372698">
        <ele>2186.4</ele>
      </trkpt>
      <trkpt lat="46.686016" lon="8.372558">
        <ele>2177.8</ele>
      </trkpt>
      <trkpt lat="46.686194" lon="8.372744">
        <ele>2167.2</ele>
      </trkpt>
      <trkpt lat="46.686255" lon="8.372531">
        <ele>2155.7</ele>
      </trkpt>
      <trkpt lat="46.686270" lon="8.372072">
        <ele>2141.6</ele>
      </trkpt>
      <trkpt lat="46.686453" lon="8.372277">
        <ele>2130.1</ele>
      </trkpt>
      <trkpt lat="46.686941" lon="8.372818">
        <ele>2120.1</ele>
      </trkpt>
      <trkpt lat="46.687408" lon="8.372831">
        <ele>2118.9</ele>
      </trkpt>
      <trkpt lat="46.687726" lon="8.372602">
        <ele>2122.2</ele>
      </trkpt>
      <trkpt lat="46.687749" lon="8.372235">
        <ele>2117.4</ele>
      </trkpt>
      <trkpt lat="46.688141" lon="8.372277">
        <ele>2113.2</ele>
      </trkpt>
      <trkpt lat="46.688326" lon="8.372005">
        <ele>2108.3</ele>
      </trkpt>
      <trkpt lat="46.688360" lon="8.371486">
        <ele>2111.2</ele>
      </trkpt>
      <trkpt lat="46.688426" lon="8.370741">
        <ele>2119.8</ele>
      </trkpt>
      <trkpt lat="46.688485" lon="8.370215">
        <ele>2120.5</ele>
      </trkpt>
      <trkpt lat="46.688324" lon="8.369657">
        <ele>2109.2</ele>
      </trkpt>
      <trkpt lat="46.688348" lon="8.368942">
        <ele>2109.9</ele>
      </trkpt>
      <trkpt lat="46.688910" lon="8.369815">
        <ele>2136.6</ele>
      </trkpt>
      <trkpt lat="46.688971" lon="8.369917">
        <ele>2141.7</ele>
      </trkpt>
      <trkpt lat="46.688976" lon="8.370038">
        <ele>2147.0</ele>
      </trkpt>
      <trkpt lat="46.689047" lon="8.370474">
        <ele>2169.1</ele>
      </trkpt>
      <trkpt lat="46.689095" lon="8.370644">
        <ele>2176.5</ele>
      </trkpt>
      <trkpt lat="46.689451" lon="8.371265">
        <ele>2206.5</ele>
      </trkpt>
      <trkpt lat="46.689550" lon="8.371340">
        <ele>2211.6</ele>
      </trkpt>
      <trkpt lat="46.689808" lon="8.372559">
        <ele>2231.3</ele>
      </trkpt>
      <trkpt lat="46.689853" lon="8.372914">
        <ele>2236.7</ele>
      </trkpt>
      <trkpt lat="46.689877" lon="8.373509">
        <ele>2243.1</ele>
      </trkpt>
      <trkpt lat="46.690325" lon="8.376166">
        <ele>2308.7</ele>
      </trkpt>
      <trkpt lat="46.691246" lon="8.379533">
        <ele>2421.7</ele>
      </trkpt>
      <trkpt lat="46.692128" lon="8.382684">
        <ele>2503.0</ele>
      </trkpt>
      <trkpt lat="46.694082" lon="8.390282">
        <ele>2634.5</ele>
      </trkpt>
      <trkpt lat="46.694894" lon="8.394006">
        <ele>2712.8</ele>
      </trkpt>
      <trkpt lat="46.695437" lon="8.396375">
        <ele>2790.7</ele>
      </trkpt>
      <trkpt lat="46.696848" lon="8.399719">
        <ele>2943.7</ele>
      </trkpt>
      <trkpt lat="46.697845" lon="8.405369">
        <ele>2885.7</ele>
      </trkpt>
      <trkpt lat="46.699234" lon="8.411744">
        <ele>2807.2</ele>
      </trkpt>
      <trkpt lat="46.700811" lon="8.413129">
        <ele>2767.6</ele>
      </trkpt>
      <trkpt lat="46.701266" lon="8.413133">
        <ele>2776.4</ele>
      </trkpt>
      <trkpt lat="46.701454" lon="8.413342">
        <ele>2781.3</ele>
      </trkpt>
      <trkpt lat="46.701540" lon="8.413531">
        <ele>2783.3</ele>
      </trkpt>
      <trkpt lat="46.701628" lon="8.413536">
        <ele>2785.2</ele>
      </trkpt>
      <trkpt lat="46.701697" lon="8.413656">
        <ele>2787.8</ele>
      </trkpt>
      <trkpt lat="46.701737" lon="8.413727">
        <ele>2789.5</ele>
      </trkpt>
      <trkpt lat="46.701763" lon="8.413783">
        <ele>2792.6</ele>
      </trkpt>
      <trkpt lat="46.701822" lon="8.413924">
        <ele>2795.2</ele>
      </trkpt>
      <trkpt lat="46.701868" lon="8.414026">
        <ele>2795.4</ele>
      </trkpt>
      <trkpt lat="46.701987" lon="8.414306">
        <ele>2794.4</ele>
      </trkpt>
      <trkpt lat="46.701145" lon="8.416021">
        <ele>2751.2</ele>
      </trkpt>
      <trkpt lat="46.695340" lon="8.423218">
        <ele>2805.9</ele>
      </trkpt>
      <trkpt lat="46.692128" lon="8.433627">
        <ele>2969.4</ele>
      </trkpt>
      <trkpt lat="46.688477" lon="8.444705">
        <ele>3081.2</ele>
      </trkpt>
      <trkpt lat="46.686269" lon="8.443622">
        <ele>3071.7</ele>
      </trkpt>
      <trkpt lat="46.680197" lon="8.441932">
        <ele>2830.6</ele>
      </trkpt>
      <trkpt lat="46.678983" lon="8.441685">
        <ele>2758.8</ele>
      </trkpt>
      <trkpt lat="46.677764" lon="8.441218">
        <ele>2682.7</ele>
      </trkpt>
      <trkpt lat="46.677323" lon="8.441253">
        <ele>2661.0</ele>
      </trkpt>
      <trkpt lat="46.676508" lon="8.441364">
        <ele>2635.1</ele>
      </trkpt>
      <trkpt lat="46.676258" lon="8.441038">
        <ele>2620.7</ele>
      </trkpt>
      <trkpt lat="46.676084" lon="8.441016">
        <ele>2613.5</ele>
      </trkpt>
      <trkpt lat="46.675893" lon="8.441000">
        <ele>2603.1</ele>
      </trkpt>
      <trkpt lat="46.675461" lon="8.441165">
        <ele>2593.0</ele>
      </trkpt>
      <trkpt lat="46.675142" lon="8.441975">
        <ele>2584.6</ele>
      </trkpt>
      <trkpt lat="46.674671" lon="8.442567">
        <ele>2576.6</ele>
      </trkpt>
      <trkpt lat="46.674230" lon="8.442910">
        <ele>2582.3</ele>
      </trkpt>
      <trkpt lat="46.673694" lon="8.444000">
        <ele>2554.0</ele>
      </trkpt>
      <trkpt lat="46.673782" lon="8.445030">
        <ele>2555.0</ele>
      </trkpt>
      <trkpt lat="46.673352" lon="8.445459">
        <ele>2548.5</ele>
      </trkpt>
      <trkpt lat="46.672940" lon="8.446077">
        <ele>2550.0</ele>
      </trkpt>
      <trkpt lat="46.672740" lon="8.447502">
        <ele>2559.7</ele>
      </trkpt>
      <trkpt lat="46.672445" lon="8.448412">
        <ele>2574.3</ele>
      </trkpt>
      <trkpt lat="46.671898" lon="8.449262">
        <ele>2574.7</ele>
      </trkpt>
      <trkpt lat="46.671468" lon="8.449648">
        <ele>2573.9</ele>
      </trkpt>
      <trkpt lat="46.671226" lon="8.450523">
        <ele>2580.5</ele>
      </trkpt>
      <trkpt lat="46.670478" lon="8.451073">
        <ele>2578.1</ele>
      </trkpt>
      <trkpt lat="46.669748" lon="8.452137">
        <ele>2579.0</ele>
      </trkpt>
      <trkpt lat="46.669406" lon="8.453510">
        <ele>2581.3</ele>
      </trkpt>
      <trkpt lat="46.669288" lon="8.455244">
        <ele>2581.1</ele>
      </trkpt>
      <trkpt lat="46.668917" lon="8.456368">
        <ele>2587.7</ele>
      </trkpt>
      <trkpt lat="46.668399" lon="8.457047">
        <ele>2580.5</ele>
      </trkpt>
      <trkpt lat="46.668293" lon="8.457939">
        <ele>2579.6</ele>
      </trkpt>
      <trkpt lat="46.667940" lon="8.459819">
        <ele>2569.3</ele>
      </trkpt>
      <trkpt lat="46.667825" lon="8.460116">
        <ele>2565.3</ele>
      </trkpt>
      <trkpt lat="46.667702" lon="8.460575">
        <ele>2561.6</ele>
      </trkpt>
      <trkpt lat="46.667604" lon="8.460934">
        <ele>2558.6</ele>
      </trkpt>
      <trkpt lat="46.667439" lon="8.461518">
        <ele>2553.9</ele>
      </trkpt>
      <trkpt lat="46.666885" lon="8.462952">
        <ele>2568.9</ele>
      </trkpt>
      <trkpt lat="46.666296" lon="8.464359">
        <ele>2601.9</ele>
      </trkpt>
      <trkpt lat="46.666090" lon="8.464926">
        <ele>2603.5</ele>
      </trkpt>
      <trkpt lat="46.664912" lon="8.465509">
        <ele>2594.2</ele>
      </trkpt>
      <trkpt lat="46.663875" lon="8.465613">
        <ele>2586.9</ele>
      </trkpt>
      <trkpt lat="46.663663" lon="8.466857">
        <ele>2561.9</ele>
      </trkpt>
      <trkpt lat="46.662845" lon="8.467973">
        <ele>2544.1</ele>
      </trkpt>
      <trkpt lat="46.662132" lon="8.468720">
        <ele>2530.8</ele>
      </trkpt>
      <trkpt lat="46.661395" lon="8.469243">
        <ele>2514.9</ele>
      </trkpt>
      <trkpt lat="46.660359" lon="8.469509">
        <ele>2498.2</ele>
      </trkpt>
      <trkpt lat="46.659888" lon="8.470041">
        <ele>2505.2</ele>
      </trkpt>
      <trkpt lat="46.659334" lon="8.470771">
        <ele>2494.3</ele>
      </trkpt>
      <trkpt lat="46.658833" lon="8.471921">
        <ele>2477.5</ele>
      </trkpt>
      <trkpt lat="46.658668" lon="8.472934">
        <ele>2461.5</ele>
      </trkpt>
      <trkpt lat="46.658674" lon="8.473852">
        <ele>2460.0</ele>
      </trkpt>
      <trkpt lat="46.657914" lon="8.475989">
        <ele>2439.8</ele>
      </trkpt>
      <trkpt lat="46.657894" lon="8.476326">
        <ele>2439.2</ele>
      </trkpt>
      <trkpt lat="46.657785" lon="8.476662">
        <ele>2435.6</ele>
      </trkpt>
      <trkpt lat="46.657722" lon="8.476897">
        <ele>2430.2</ele>
      </trkpt>
      <trkpt lat="46.657331" lon="8.477708">
        <ele>2413.2</ele>
      </trkpt>
      <trkpt lat="46.657199" lon="8.477795">
        <ele>2408.5</ele>
      </trkpt>
      <trkpt lat="46.657092" lon="8.477950">
        <ele>2407.4</ele>
      </trkpt>
      <trkpt lat="46.656892" lon="8.478227">
        <ele>2407.6</ele>
      </trkpt>
      <trkpt lat="46.656764" lon="8.478391">
        <ele>2404.4</ele>
      </trkpt>
      <trkpt lat="46.656589" lon="8.478558">
        <ele>2401.0</ele>
      </trkpt>
      <trkpt lat="46.656530" lon="8.478760">
        <ele>2396.3</ele>
      </trkpt>
      <trkpt lat="46.656456" lon="8.479016">
        <ele>2380.4</ele>
      </trkpt>
      <trkpt lat="46.656527" lon="8.479517">
        <ele>2371.1</ele>
      </trkpt>
      <trkpt lat="46.656457" lon="8.479710">
        <ele>2371.1</ele>
      </trkpt>
      <trkpt lat="46.656348" lon="8.479855">
        <ele>2370.8</ele>
      </trkpt>
      <trkpt lat="46.656274" lon="8.479941">
        <ele>2370.4</ele>
      </trkpt>
      <trkpt lat="46.656326" lon="8.480003">
        <ele>2368.5</ele>
      </trkpt>
      <trkpt lat="46.656261" lon="8.480238">
        <ele>2363.6</ele>
      </trkpt>
      <trkpt lat="46.656231" lon="8.480404">
        <ele>2361.1</ele>
      </trkpt>
      <trkpt lat="46.656286" lon="8.480611">
        <ele>2358.5</ele>
      </trkpt>
      <trkpt lat="46.656388" lon="8.480890">
        <ele>2354.9</ele>
      </trkpt>
      <trkpt lat="46.656437" lon="8.481271">
        <ele>2349.9</ele>
      </trkpt>
      <trkpt lat="46.656431" lon="8.481468">
        <ele>2349.0</ele>
      </trkpt>
      <trkpt lat="46.656416" lon="8.481649">
        <ele>2347.3</ele>
      </trkpt>
      <trkpt lat="46.656385" lon="8.481908">
        <ele>2344.2</ele>
      </trkpt>
      <trkpt lat="46.656416" lon="8.482079">
        <ele>2341.2</ele>
      </trkpt>
      <trkpt lat="46.656448" lon="8.482213">
        <ele>2342.6</ele>
      </trkpt>
      <trkpt lat="46.656445" lon="8.482391">
        <ele>2341.7</ele>
      </trkpt>
      <trkpt lat="46.656477" lon="8.482524">
        <ele>2341.5</ele>
      </trkpt>
      <trkpt lat="46.656507" lon="8.482667">
        <ele>2340.7</ele>
      </trkpt>
      <trkpt lat="46.656604" lon="8.482914">
        <ele>2343.7</ele>
      </trkpt>
      <trkpt lat="46.656627" lon="8.483151">
        <ele>2345.0</ele>
      </trkpt>
      <trkpt lat="46.656683" lon="8.483375">
        <ele>2345.2</ele>
      </trkpt>
      <trkpt lat="46.656732" lon="8.483666">
        <ele>2345.2</ele>
      </trkpt>
      <trkpt lat="46.656879" lon="8.484092">
        <ele>2349.9</ele>
      </trkpt>
      <trkpt lat="46.656830" lon="8.484282">
        <ele>2346.5</ele>
      </trkpt>
      <trkpt lat="46.656748" lon="8.484278">
        <ele>2344.0</ele>
      </trkpt>
      <trkpt lat="46.656789" lon="8.484404">
        <ele>2341.8</ele>
      </trkpt>
      <trkpt lat="46.656827" lon="8.484617">
        <ele>2331.8</ele>
      </trkpt>
      <trkpt lat="46.656804" lon="8.484681">
        <ele>2329.0</ele>
      </trkpt>
      <trkpt lat="46.656840" lon="8.484855">
        <ele>2323.1</ele>
      </trkpt>
      <trkpt lat="46.656836" lon="8.484967">
        <ele>2320.9</ele>
      </trkpt>
      <trkpt lat="46.656794" lon="8.485005">
        <ele>2316.2</ele>
      </trkpt>
      <trkpt lat="46.656784" lon="8.485040">
        <ele>2315.1</ele>
      </trkpt>
      <trkpt lat="46.656779" lon="8.485127">
        <ele>2312.4</ele>
      </trkpt>
      <trkpt lat="46.656752" lon="8.485222">
        <ele>2308.1</ele>
      </trkpt>
      <trkpt lat="46.656702" lon="8.485359">
        <ele>2301.4</ele>
      </trkpt>
      <trkpt lat="46.656717" lon="8.485409">
        <ele>2297.8</ele>
      </trkpt>
      <trkpt lat="46.656689" lon="8.485507">
        <ele>2292.8</ele>
      </trkpt>
      <trkpt lat="46.656683" lon="8.485604">
        <ele>2290.7</ele>
      </trkpt>
      <trkpt lat="46.656640" lon="8.485684">
        <ele>2284.9</ele>
      </trkpt>
      <trkpt lat="46.656606" lon="8.485735">
        <ele>2282.2</ele>
      </trkpt>
      <trkpt lat="46.656604" lon="8.485826">
        <ele>2280.5</ele>
      </trkpt>
      <trkpt lat="46.656558" lon="8.485882">
        <ele>2278.0</ele>
      </trkpt>
      <trkpt lat="46.656518" lon="8.485945">
        <ele>2273.5</ele>
      </trkpt>
      <trkpt lat="46.656453" lon="8.485982">
        <ele>2269.7</ele>
      </trkpt>
      <trkpt lat="46.656434" lon="8.486021">
        <ele>2268.0</ele>
      </trkpt>
      <trkpt lat="46.656437" lon="8.486064">
        <ele>2266.6</ele>
      </trkpt>
      <trkpt lat="46.656511" lon="8.486116">
        <ele>2259.7</ele>
      </trkpt>
      <trkpt lat="46.656422" lon="8.486131">
        <ele>2257.5</ele>
      </trkpt>
      <trkpt lat="46.656486" lon="8.486211">
        <ele>2255.0</ele>
      </trkpt>
      <trkpt lat="46.656524" lon="8.486270">
        <ele>2253.1</ele>
      </trkpt>
      <trkpt lat="46.656466" lon="8.486264">
        <ele>2252.0</ele>
      </trkpt>
      <trkpt lat="46.656472" lon="8.486294">
        <ele>2250.6</ele>
      </trkpt>
      <trkpt lat="46.656505" lon="8.486347">
        <ele>2248.7</ele>
      </trkpt>
      <trkpt lat="46.656483" lon="8.486377">
        <ele>2247.0</ele>
      </trkpt>
      <trkpt lat="46.656487" lon="8.486450">
        <ele>2244.2</ele>
      </trkpt>
      <trkpt lat="46.656479" lon="8.486478">
        <ele>2243.5</ele>
      </trkpt>
      <trkpt lat="46.656477" lon="8.486617">
        <ele>2239.6</ele>
      </trkpt>
      <trkpt lat="46.656467" lon="8.486762">
        <ele>2235.7</ele>
      </trkpt>
      <trkpt lat="46.656510" lon="8.486901">
        <ele>2234.7</ele>
      </trkpt>
      <trkpt lat="46.656493" lon="8.487009">
        <ele>2232.7</ele>
      </trkpt>
      <trkpt lat="46.656463" lon="8.486965">
        <ele>2230.5</ele>
      </trkpt>
      <trkpt lat="46.656437" lon="8.487087">
        <ele>2228.9</ele>
      </trkpt>
      <trkpt lat="46.656399" lon="8.487123">
        <ele>2226.3</ele>
      </trkpt>
      <trkpt lat="46.656341" lon="8.487237">
        <ele>2220.9</ele>
      </trkpt>
      <trkpt lat="46.656307" lon="8.487160">
        <ele>2218.1</ele>
      </trkpt>
      <trkpt lat="46.656291" lon="8.487206">
        <ele>2218.1</ele>
      </trkpt>
      <trkpt lat="46.656236" lon="8.487294">
        <ele>2213.8</ele>
      </trkpt>
      <trkpt lat="46.656206" lon="8.487285">
        <ele>2211.2</ele>
      </trkpt>
      <trkpt lat="46.656167" lon="8.487377">
        <ele>2208.4</ele>
      </trkpt>
      <trkpt lat="46.656130" lon="8.487484">
        <ele>2206.1</ele>
      </trkpt>
      <trkpt lat="46.656075" lon="8.487619">
        <ele>2202.0</ele>
      </trkpt>
      <trkpt lat="46.656047" lon="8.487629">
        <ele>2199.5</ele>
      </trkpt>
      <trkpt lat="46.656021" lon="8.487602">
        <ele>2198.2</ele>
      </trkpt>
      <trkpt lat="46.655977" lon="8.487635">
        <ele>2195.0</ele>
      </trkpt>
      <trkpt lat="46.655942" lon="8.487651">
        <ele>2192.7</ele>
      </trkpt>
      <trkpt lat="46.655907" lon="8.487630">
        <ele>2189.9</ele>
      </trkpt>
      <trkpt lat="46.655880" lon="8.487661">
        <ele>2188.8</ele>
      </trkpt>
      <trkpt lat="46.655846" lon="8.487654">
        <ele>2185.9</ele>
      </trkpt>
      <trkpt lat="46.655796" lon="8.487669">
        <ele>2183.0</ele>
      </trkpt>
      <trkpt lat="46.655746" lon="8.487651">
        <ele>2180.6</ele>
      </trkpt>
      <trkpt lat="46.655697" lon="8.487622">
        <ele>2177.2</ele>
      </trkpt>
      <trkpt lat="46.655660" lon="8.487657">
        <ele>2174.9</ele>
      </trkpt>
      <trkpt lat="46.655609" lon="8.487666">
        <ele>2171.2</ele>
      </trkpt>
      <trkpt lat="46.655478" lon="8.488279">
        <ele>2162.5</ele>
      </trkpt>
      <trkpt lat="46.655412" lon="8.488338">
        <ele>2157.7</ele>
      </trkpt>
      <trkpt lat="46.655268" lon="8.487680">
        <ele>2149.8</ele>
      </trkpt>
      <trkpt lat="46.655177" lon="8.487729">
        <ele>2145.3</ele>
      </trkpt>
      <trkpt lat="46.655066" lon="8.488339">
        <ele>2135.8</ele>
      </trkpt>
      <trkpt lat="46.655043" lon="8.488603">
        <ele>2132.8</ele>
      </trkpt>
      <trkpt lat="46.654981" lon="8.488789">
        <ele>2129.6</ele>
      </trkpt>
      <trkpt lat="46.654893" lon="8.489055">
        <ele>2123.0</ele>
      </trkpt>
      <trkpt lat="46.654821" lon="8.489028">
        <ele>2118.7</ele>
      </trkpt>
      <trkpt lat="46.654740" lon="8.489095">
        <ele>2112.6</ele>
      </trkpt>
      <trkpt lat="46.654682" lon="8.489076">
        <ele>2109.6</ele>
      </trkpt>
      <trkpt lat="46.654599" lon="8.489181">
        <ele>2104.4</ele>
      </trkpt>
      <trkpt lat="46.654487" lon="8.489277">
        <ele>2097.2</ele>
      </trkpt>
      <trkpt lat="46.654337" lon="8.489509">
        <ele>2087.5</ele>
      </trkpt>
      <trkpt lat="46.654179" lon="8.489583">
        <ele>2079.8</ele>
      </trkpt>
      <trkpt lat="46.654102" lon="8.489589">
        <ele>2077.1</ele>
      </trkpt>
      <trkpt lat="46.654021" lon="8.489720">
        <ele>2073.6</ele>
      </trkpt>
      <trkpt lat="46.654025" lon="8.489828">
        <ele>2072.6</ele>
      </trkpt>
      <trkpt lat="46.654001" lon="8.489929">
        <ele>2072.1</ele>
      </trkpt>
      <trkpt lat="46.653938" lon="8.490042">
        <ele>2069.8</ele>
      </trkpt>
      <trkpt lat="46.653945" lon="8.490146">
        <ele>2069.7</ele>
      </trkpt>
      <trkpt lat="46.653885" lon="8.490360">
        <ele>2066.1</ele>
      </trkpt>
      <trkpt lat="46.653883" lon="8.490519">
        <ele>2063.4</ele>
      </trkpt>
      <trkpt lat="46.653828" lon="8.490630">
        <ele>2062.2</ele>
      </trkpt>
      <trkpt lat="46.653765" lon="8.490821">
        <ele>2057.8</ele>
      </trkpt>
      <trkpt lat="46.653691" lon="8.490630">
        <ele>2052.4</ele>
      </trkpt>
      <trkpt lat="46.653673" lon="8.490562">
        <ele>2050.6</ele>
      </trkpt>
      <trkpt lat="46.653654" lon="8.490667">
        <ele>2050.1</ele>
      </trkpt>
      <trkpt lat="46.653605" lon="8.490850">
        <ele>2046.0</ele>
      </trkpt>
      <trkpt lat="46.653597" lon="8.491049">
        <ele>2044.6</ele>
      </trkpt>
      <trkpt lat="46.653509" lon="8.491125">
        <ele>2042.3</ele>
      </trkpt>
      <trkpt lat="46.653479" lon="8.491387">
        <ele>2040.7</ele>
      </trkpt>
      <trkpt lat="46.653438" lon="8.491524">
        <ele>2038.4</ele>
      </trkpt>
      <trkpt lat="46.653408" lon="8.491694">
        <ele>2036.6</ele>
      </trkpt>
      <trkpt lat="46.653365" lon="8.491842">
        <ele>2032.7</ele>
      </trkpt>
      <trkpt lat="46.653322" lon="8.492008">
        <ele>2028.5</ele>
      </trkpt>
      <trkpt lat="46.653214" lon="8.492171">
        <ele>2021.1</ele>
      </trkpt>
      <trkpt lat="46.653103" lon="8.492165">
        <ele>2015.7</ele>
      </trkpt>
      <trkpt lat="46.653033" lon="8.492235">
        <ele>2011.5</ele>
      </trkpt>
      <trkpt lat="46.652998" lon="8.492273">
        <ele>2008.8</ele>
      </trkpt>
      <trkpt lat="46.652951" lon="8.492279">
        <ele>2006.1</ele>
      </trkpt>
      <trkpt lat="46.652908" lon="8.492418">
        <ele>2001.0</ele>
      </trkpt>
      <trkpt lat="46.652771" lon="8.492367">
        <ele>1995.1</ele>
      </trkpt>
      <trkpt lat="46.652697" lon="8.492423">
        <ele>1992.3</ele>
      </trkpt>
      <trkpt lat="46.652578" lon="8.492467">
        <ele>1987.8</ele>
      </trkpt>
      <trkpt lat="46.652478" lon="8.492498">
        <ele>1985.7</ele>
      </trkpt>
      <trkpt lat="46.652451" lon="8.492584">
        <ele>1983.3</ele>
      </trkpt>
      <trkpt lat="46.652297" lon="8.492520">
        <ele>1976.6</ele>
      </trkpt>
      <trkpt lat="46.652140" lon="8.492433">
        <ele>1975.1</ele>
      </trkpt>
      <trkpt lat="46.652004" lon="8.492380">
        <ele>1972.8</ele>
      </trkpt>
      <trkpt lat="46.651874" lon="8.492463">
        <ele>1969.8</ele>
      </trkpt>
      <trkpt lat="46.651780" lon="8.492343">
        <ele>1966.6</ele>
      </trkpt>
      <trkpt lat="46.651655" lon="8.492454">
        <ele>1965.3</ele>
      </trkpt>
      <trkpt lat="46.651515" lon="8.492540">
        <ele>1964.5</ele>
      </trkpt>
      <trkpt lat="46.651481" lon="8.492692">
        <ele>1962.1</ele>
      </trkpt>
      <trkpt lat="46.651394" lon="8.492655">
        <ele>1958.2</ele>
      </trkpt>
      <trkpt lat="46.651257" lon="8.492538">
        <ele>1956.5</ele>
      </trkpt>
      <trkpt lat="46.651074" lon="8.492602">
        <ele>1954.4</ele>
      </trkpt>
      <trkpt lat="46.650988" lon="8.492546">
        <ele>1952.9</ele>
      </trkpt>
      <trkpt lat="46.650888" lon="8.492575">
        <ele>1949.6</ele>
      </trkpt>
      <trkpt lat="46.650841" lon="8.492815">
        <ele>1948.5</ele>
      </trkpt>
      <trkpt lat="46.650853" lon="8.493078">
        <ele>1945.7</ele>
      </trkpt>
      <trkpt lat="46.650853" lon="8.493306">
        <ele>1943.1</ele>
      </trkpt>
      <trkpt lat="46.650879" lon="8.493668">
        <ele>1940.9</ele>
      </trkpt>
      <trkpt lat="46.650916" lon="8.493940">
        <ele>1938.4</ele>
      </trkpt>
      <trkpt lat="46.650842" lon="8.494226">
        <ele>1934.5</ele>
      </trkpt>
      <trkpt lat="46.650704" lon="8.494253">
        <ele>1931.6</ele>
      </trkpt>
      <trkpt lat="46.650624" lon="8.494408">
        <ele>1931.6</ele>
      </trkpt>
      <trkpt lat="46.650652" lon="8.494678">
        <ele>1931.9</ele>
      </trkpt>
      <trkpt lat="46.650632" lon="8.495139">
        <ele>1932.2</ele>
      </trkpt>
      <trkpt lat="46.650558" lon="8.495340">
        <ele>1927.6</ele>
      </trkpt>
      <trkpt lat="46.650477" lon="8.495525">
        <ele>1922.3</ele>
      </trkpt>
      <trkpt lat="46.650477" lon="8.495625">
        <ele>1919.4</ele>
      </trkpt>
      <trkpt lat="46.650482" lon="8.495797">
        <ele>1915.3</ele>
      </trkpt>
      <trkpt lat="46.650514" lon="8.496006">
        <ele>1912.7</ele>
      </trkpt>
      <trkpt lat="46.650528" lon="8.496160">
        <ele>1910.5</ele>
      </trkpt>
      <trkpt lat="46.650556" lon="8.496437">
        <ele>1905.5</ele>
      </trkpt>
      <trkpt lat="46.650566" lon="8.496578">
        <ele>1901.8</ele>
      </trkpt>
      <trkpt lat="46.650487" lon="8.496623">
        <ele>1899.3</ele>
      </trkpt>
      <trkpt lat="46.650586" lon="8.496928">
        <ele>1896.4</ele>
      </trkpt>
      <trkpt lat="46.650719" lon="8.496993">
        <ele>1895.9</ele>
      </trkpt>
      <trkpt lat="46.650717" lon="8.497125">
        <ele>1894.1</ele>
      </trkpt>
      <trkpt lat="46.650717" lon="8.497298">
        <ele>1891.5</ele>
      </trkpt>
      <trkpt lat="46.650696" lon="8.497368">
        <ele>1889.0</ele>
      </trkpt>
      <trkpt lat="46.650646" lon="8.497366">
        <ele>1885.5</ele>
      </trkpt>
      <trkpt lat="46.650640" lon="8.497434">
        <ele>1883.4</ele>
      </trkpt>
      <trkpt lat="46.650644" lon="8.497485">
        <ele>1881.7</ele>
      </trkpt>
      <trkpt lat="46.650638" lon="8.497545">
        <ele>1878.9</ele>
      </trkpt>
      <trkpt lat="46.650620" lon="8.497628">
        <ele>1875.7</ele>
      </trkpt>
      <trkpt lat="46.650607" lon="8.497846">
        <ele>1870.3</ele>
      </trkpt>
      <trkpt lat="46.650606" lon="8.497992">
        <ele>1868.1</ele>
      </trkpt>
      <trkpt lat="46.650580" lon="8.498127">
        <ele>1865.9</ele>
      </trkpt>
      <trkpt lat="46.650566" lon="8.498216">
        <ele>1862.1</ele>
      </trkpt>
      <trkpt lat="46.650568" lon="8.498300">
        <ele>1860.6</ele>
      </trkpt>
      <trkpt lat="46.650517" lon="8.498284">
        <ele>1857.4</ele>
      </trkpt>
      <trkpt lat="46.650464" lon="8.498240">
        <ele>1855.6</ele>
      </trkpt>
      <trkpt lat="46.650470" lon="8.498445">
        <ele>1850.9</ele>
      </trkpt>
      <trkpt lat="46.650386" lon="8.498369">
        <ele>1847.6</ele>
      </trkpt>
      <trkpt lat="46.650319" lon="8.498328">
        <ele>1845.5</ele>
      </trkpt>
      <trkpt lat="46.650335" lon="8.498453">
        <ele>1843.5</ele>
      </trkpt>
      <trkpt lat="46.650117" lon="8.498229">
        <ele>1839.3</ele>
      </trkpt>
      <trkpt lat="46.650034" lon="8.498063">
        <ele>1837.6</ele>
      </trkpt>
      <trkpt lat="46.649860" lon="8.497914">
        <ele>1834.4</ele>
      </trkpt>
      <trkpt lat="46.649607" lon="8.497665">
        <ele>1829.0</ele>
      </trkpt>
      <trkpt lat="46.649542" lon="8.497646">
        <ele>1827.1</ele>
      </trkpt>
      <trkpt lat="46.649672" lon="8.498019">
        <ele>1821.9</ele>
      </trkpt>
      <trkpt lat="46.649612" lon="8.498003">
        <ele>1820.7</ele>
      </trkpt>
      <trkpt lat="46.649455" lon="8.497867">
        <ele>1818.0</ele>
      </trkpt>
      <trkpt lat="46.649515" lon="8.498010">
        <ele>1815.1</ele>
      </trkpt>
      <trkpt lat="46.649675" lon="8.498421">
        <ele>1810.2</ele>
      </trkpt>
      <trkpt lat="46.649723" lon="8.498640">
        <ele>1806.6</ele>
      </trkpt>
      <trkpt lat="46.649589" lon="8.498563">
        <ele>1804.7</ele>
      </trkpt>
      <trkpt lat="46.649488" lon="8.498401">
        <ele>1802.5</ele>
      </trkpt>
      <trkpt lat="46.649470" lon="8.498456">
        <ele>1800.7</ele>
      </trkpt>
      <trkpt lat="46.649509" lon="8.498943">
        <ele>1795.0</ele>
      </trkpt>
      <trkpt lat="46.649416" lon="8.498843">
        <ele>1792.1</ele>
      </trkpt>
      <trkpt lat="46.649269" lon="8.498879">
        <ele>1790.0</ele>
      </trkpt>
      <trkpt lat="46.649228" lon="8.499062">
        <ele>1784.4</ele>
      </trkpt>
      <trkpt lat="46.648972" lon="8.499410">
        <ele>1782.8</ele>
      </trkpt>
      <trkpt lat="46.648757" lon="8.499484">
        <ele>1780.6</ele>
      </trkpt>
      <trkpt lat="46.648533" lon="8.499204">
        <ele>1777.3</ele>
      </trkpt>
      <trkpt lat="46.648302" lon="8.499133">
        <ele>1774.6</ele>
      </trkpt>
      <trkpt lat="46.648082" lon="8.499389">
        <ele>1771.2</ele>
      </trkpt>
      <trkpt lat="46.648082" lon="8.499651">
        <ele>1768.8</ele>
      </trkpt>
      <trkpt lat="46.648267" lon="8.500063">
        <ele>1764.9</ele>
      </trkpt>
      <trkpt lat="46.648300" lon="8.500507">
        <ele>1761.2</ele>
      </trkpt>
      <trkpt lat="46.648354" lon="8.500868">
        <ele>1757.7</ele>
      </trkpt>
      <trkpt lat="46.648284" lon="8.500970">
        <ele>1756.5</ele>
      </trkpt>
      <trkpt lat="46.648164" lon="8.500928">
        <ele>1754.9</ele>
      </trkpt>
      <trkpt lat="46.648026" lon="8.500429">
        <ele>1752.5</ele>
      </trkpt>
      <trkpt lat="46.647894" lon="8.500210">
        <ele>1749.9</ele>
      </trkpt>
      <trkpt lat="46.647373" lon="8.499733">
        <ele>1745.6</ele>
      </trkpt>
      <trkpt lat="46.647243" lon="8.499391">
        <ele>1745.2</ele>
      </trkpt>
      <trkpt lat="46.646394" lon="8.499326">
        <ele>1737.1</ele>
      </trkpt>
      <trkpt lat="46.644902" lon="8.499846">
        <ele>1723.8</ele>
      </trkpt>
      <trkpt lat="46.645960" lon="8.500549">
        <ele>1690.4</ele>
      </trkpt>
      <trkpt lat="46.646458" lon="8.500980">
        <ele>1672.2</ele>
      </trkpt>
      <trkpt lat="46.647109" lon="8.501389">
        <ele>1656.9</ele>
      </trkpt>
      <trkpt lat="46.647160" lon="8.501923">
        <ele>1650.7</ele>
      </trkpt>
      <trkpt lat="46.647146" lon="8.502222">
        <ele>1644.7</ele>
      </trkpt>
      <trkpt lat="46.647075" lon="8.502371">
        <ele>1638.4</ele>
      </trkpt>
      <trkpt lat="46.646980" lon="8.502786">
        <ele>1631.2</ele>
      </trkpt>
      <trkpt lat="46.647707" lon="8.504400">
        <ele>1618.4</ele>
      </trkpt>
      <trkpt lat="46.647863" lon="8.506701">
        <ele>1599.2</ele>
      </trkpt>
      <trkpt lat="46.648763" lon="8.508296">
        <ele>1588.9</ele>
      </trkpt>
      <trkpt lat="46.649079" lon="8.509352">
        <ele>1580.3</ele>
      </trkpt>
      <trkpt lat="46.649086" lon="8.511937">
        <ele>1571.9</ele>
      </trkpt>
      <trkpt lat="46.649644" lon="8.512323">
        <ele>1558.2</ele>
      </trkpt>
      <trkpt lat="46.650052" lon="8.512666">
        <ele>1552.7</ele>
      </trkpt>
      <trkpt lat="46.650081" lon="8.515256">
        <ele>1546.4</ele>
      </trkpt>
      <trkpt lat="46.650213" lon="8.517753">
        <ele>1542.8</ele>
      </trkpt>
      <trkpt lat="46.649902" lon="8.519061">
        <ele>1540.7</ele>
      </trkpt>
      <trkpt lat="46.650739" lon="8.520498">
        <ele>1539.2</ele>
      </trkpt>
      <trkpt lat="46.651322" lon="8.522845">
        <ele>1536.5</ele>
      </trkpt>
    </trkseg>
  </trk>
</gpx>
