<?xml version="1.0" encoding="UTF-8"?>
<gpx version="1.1" creator="hike-planner" xmlns="http://www.topografix.com/GPX/1/1">
  <metadata><name>Oeschinen -> Blümlisalp</name>
    <desc>Routed from OSM (ODbL); elevations from SwissTopo / Open-Elevation</desc>
  </metadata>
  <wpt lat="46.452694" lon="7.878823">
    <ele>2506.7</ele>
    <name>Oeschinen</name>
  </wpt>
  <wpt lat="46.455360" lon="7.885472">
    <ele>2496.4</ele>
    <name>Blümlisalp</name>
  </wpt>
  <trk>
    <name>Oeschinen -> Blümlisalp</name>
    <trkseg>
      <trkpt lat="46.452694" lon="7.878823">
        <ele>2506.7</ele>
      </trkpt>
      <trkpt lat="46.453085" lon="7.880414">
        <ele>2505.3</ele>
      </trkpt>
      <trkpt lat="46.453438" lon="7.882101">
        <ele>2500.8</ele>
      </trkpt>
      <trkpt lat="46.453830" lon="7.882726">
        <ele>2500.1</ele>
      </trkpt>
      <trkpt lat="46.454234" lon="7.883598">
        <ele>2507.3</ele>
      </trkpt>
      <trkpt lat="46.455240" lon="7.885304">
        <ele>2493.5</ele>
      </trkpt>
      <trkpt lat="46.455360" lon="7.885472">
        <ele>2496.4</ele>
      </trkpt>
    </trkseg>
  </trk>
</gpx>
