<?xml version='1.0' encoding='utf-8'?>
<gpx xmlns="http://www.topografix.com/GPX/1/1" xmlns:xsi="http://www.w3.org/2001/XMLSchema-instance" xsi:schemaLocation="http://www.topografix.com/GPX/1/1 http://www.topografix.com/GPX/1/1/gpx.xsd" version="1.1" creator="gpx.py -- https://github.com/tkrajina/gpxpy">
  <trk>
    <name>doldenhornhuette-sac</name>
    <trkseg>
      <trkpt lat="46.49517018533391" lon="7.67166292370028">
      <ele>1170.8</ele></trkpt>
      <trkpt lat="46.495291325091685" lon="7.67171346300961">
      <ele>1170.8</ele></trkpt>
      <trkpt lat="46.49535171521084" lon="7.671738653821974">
      <ele>1170.8</ele></trkpt>
      <trkpt lat="46.49548564478455" lon="7.671794536919849">
      <ele>1170.8</ele></trkpt>
      <trkpt lat="46.49556318519704" lon="7.671830639091859">
      <ele>1170.8</ele></trkpt>
      <trkpt lat="46.49559844638547" lon="7.671835883857838">
      <ele>1170.8</ele></trkpt>
      <trkpt lat="46.49563901641589" lon="7.671836058410871">
      <ele>1170.9</ele></trkpt>
      <trkpt lat="46.49569195604345" lon="7.6718184148613675">
      <ele>1170.9</ele></trkpt>
      <trkpt lat="46.49572019465156" lon="7.671813417228567">
      <ele>1170.9</ele></trkpt>
      <trkpt lat="46.495750170148234" lon="7.6718212183589">
      <ele>1170.9</ele></trkpt>
      <trkpt lat="46.49577659469611" lon="7.671836650345011">
      <ele>1170.9</ele></trkpt>
      <trkpt lat="46.495794172093895" lon="7.671867388636083">
      <ele>1170.9</ele></trkpt>
      <trkpt lat="46.49583129446738" lon="7.671829239560562">
      <ele>1170.9</ele></trkpt>
      <trkpt lat="46.495871867485874" lon="7.67181918887786">
      <ele>1170.9</ele></trkpt>
      <trkpt lat="46.49593063556759" lon="7.671836974442602">
      <ele>1170.9</ele></trkpt>
      <trkpt lat="46.49589696972294" lon="7.672079982112322">
      <ele>1171.0</ele></trkpt>
      <trkpt lat="46.49589856763685" lon="7.672121007225076">
      <ele>1171.0</ele></trkpt>
      <trkpt lat="46.49591182563793" lon="7.672152430461442">
      <ele>1171.0</ele></trkpt>
      <trkpt lat="46.495918426933834" lon="7.672183812004003">
      <ele>1171.0</ele></trkpt>
      <trkpt lat="46.49591833270605" lon="7.672229662415528">
      <ele>1171.0</ele></trkpt>
      <trkpt lat="46.495913207198214" lon="7.672289949776072">
      <ele>1171.0</ele></trkpt>
      <trkpt lat="46.495885202819096" lon="7.672565897699864">
      <ele>1171.2</ele></trkpt>
      <trkpt lat="46.49588661133877" lon="7.672620182258492">
      <ele>1171.5</ele></trkpt>
      <trkpt lat="46.495899088633756" lon="7.67267682018098">
      <ele>1171.8</ele></trkpt>
      <trkpt lat="46.49591097958172" lon="7.672721133191369">
      <ele>1172.0</ele></trkpt>
      <trkpt lat="46.4959506419124" lon="7.6728780700930805">
      <ele>1172.2</ele></trkpt>
      <trkpt lat="46.49598398199689" lon="7.673029717453886">
      <ele>1172.5</ele></trkpt>
      <trkpt lat="46.49599318761645" lon="7.673093648905657">
      <ele>1172.8</ele></trkpt>
      <trkpt lat="46.495994777117204" lon="7.673129854533128">
      <ele>1173.0</ele></trkpt>
      <trkpt lat="46.49599634579203" lon="7.673180505706662">
      <ele>1173.2</ele></trkpt>
      <trkpt lat="46.495989361322906" lon="7.673334883529238">
      <ele>1173.5</ele></trkpt>
      <trkpt lat="46.49598408073998" lon="7.673469951409572">
      <ele>1173.8</ele></trkpt>
      <trkpt lat="46.4959871089178" lon="7.67361955301922">
      <ele>1174.0</ele></trkpt>
      <trkpt lat="46.495996898439245" lon="7.673718513538538">
      <ele>1174.2</ele></trkpt>
      <trkpt lat="46.49601334963767" lon="7.67381506717058">
      <ele>1174.5</ele></trkpt>
      <trkpt lat="46.49603483020574" lon="7.6739068491880635">
      <ele>1174.8</ele></trkpt>
      <trkpt lat="46.496076209958176" lon="7.674037300225801">
      <ele>1175.0</ele></trkpt>
      <trkpt lat="46.496091026663144" lon="7.674119388309641">
      <ele>1175.2</ele></trkpt>
      <trkpt lat="46.496097571383274" lon="7.6741821492112665">
      <ele>1175.5</ele></trkpt>
      <trkpt lat="46.49610527415499" lon="7.674306787932583">
      <ele>1175.8</ele></trkpt>
      <trkpt lat="46.496214414446236" lon="7.674300020105542">
      <ele>1176.0</ele></trkpt>
      <trkpt lat="46.49627439291579" lon="7.674297871104538">
      <ele>1176.7</ele></trkpt>
      <trkpt lat="46.496257639757616" lon="7.674520592965785">
      <ele>1177.4</ele></trkpt>
      <trkpt lat="46.49623722583761" lon="7.674725557497897">
      <ele>1178.0</ele></trkpt>
      <trkpt lat="46.49617291167855" lon="7.675207794395465">
      <ele>1178.7</ele></trkpt>
      <trkpt lat="46.49612799503651" lon="7.675575500519372">
      <ele>1179.4</ele></trkpt>
      <trkpt lat="46.496083077204766" lon="7.675943206033689">
      <ele>1180.1</ele></trkpt>
      <trkpt lat="46.496050690865154" lon="7.676292873011813">
      <ele>1180.8</ele></trkpt>
      <trkpt lat="46.49601830344974" lon="7.676642539571931">
      <ele>1181.4</ele></trkpt>
      <trkpt lat="46.49600469910885" lon="7.676772764117702">
      <ele>1182.1</ele></trkpt>
      <trkpt lat="46.495987846083885" lon="7.676869185341835">
      <ele>1182.8</ele></trkpt>
      <trkpt lat="46.4959676870763" lon="7.676946300737908">
      <ele>1183.5</ele></trkpt>
      <trkpt lat="46.49593029930843" lon="7.677058692337043">
      <ele>1184.2</ele></trkpt>
      <trkpt lat="46.495794178604044" lon="7.677452149243994">
      <ele>1184.8</ele></trkpt>
      <trkpt lat="46.495641628569935" lon="7.677897790927099">
      <ele>1185.5</ele></trkpt>
      <trkpt lat="46.49547896057922" lon="7.678401284588759">
      <ele>1186.2</ele></trkpt>
      <trkpt lat="46.49540679421362" lon="7.678654262736414">
      <ele>1186.9</ele></trkpt>
      <trkpt lat="46.49539218102309" lon="7.678715900657611">
      <ele>1187.6</ele></trkpt>
      <trkpt lat="46.49531768928793" lon="7.679030218529265">
      <ele>1188.2</ele></trkpt>
      <trkpt lat="46.49526895548957" lon="7.679227822896759">
      <ele>1188.9</ele></trkpt>
      <trkpt lat="46.495248756901205" lon="7.679327118893909">
      <ele>1189.6</ele></trkpt>
      <trkpt lat="46.49524363662403" lon="7.679387404877791">
      <ele>1190.7</ele></trkpt>
      <trkpt lat="46.4952258437317" lon="7.679527260269572">
      <ele>1191.9</ele></trkpt>
      <trkpt lat="46.495212365242104" lon="7.679592328537847">
      <ele>1193.0</ele></trkpt>
      <trkpt lat="46.49518628762304" lon="7.679799775992562">
      <ele>1194.2</ele></trkpt>
      <trkpt lat="46.4951835700553" lon="7.679821386442766">
      <ele>1195.3</ele></trkpt>
      <trkpt lat="46.495141211006796" lon="7.680146864441607">
      <ele>1196.5</ele></trkpt>
      <trkpt lat="46.4950958257632" lon="7.680528573003743">
      <ele>1197.6</ele></trkpt>
      <trkpt lat="46.495016770959325" lon="7.6810141807844365">
      <ele>1198.8</ele></trkpt>
      <trkpt lat="46.49493771408037" lon="7.6814997871483115">
      <ele>1199.9</ele></trkpt>
      <trkpt lat="46.49472192932121" lon="7.681790559954018">
      <ele>1201.0</ele></trkpt>
      <trkpt lat="46.49450614381687" lon="7.682081330444463">
      <ele>1202.2</ele></trkpt>
      <trkpt lat="46.49450114130531" lon="7.6824573323041205">
      <ele>1203.3</ele></trkpt>
      <trkpt lat="46.494473354534904" lon="7.682581876574598">
      <ele>1204.5</ele></trkpt>
      <trkpt lat="46.494462699562206" lon="7.68267597661411">
      <ele>1205.6</ele></trkpt>
      <trkpt lat="46.49445678901311" lon="7.682722242467175">
      <ele>1206.8</ele></trkpt>
      <trkpt lat="46.49443979617262" lon="7.682881376023261">
      <ele>1207.9</ele></trkpt>
      <trkpt lat="46.49443110459445" lon="7.683045392378856">
      <ele>1209.1</ele></trkpt>
      <trkpt lat="46.494415563960466" lon="7.6832986281255575">
      <ele>1210.2</ele></trkpt>
      <trkpt lat="46.494407092432645" lon="7.683368549538874">
      <ele>1211.4</ele></trkpt>
      <trkpt lat="46.49438345135316" lon="7.68351077174628">
      <ele>1212.5</ele></trkpt>
      <trkpt lat="46.49437786398611" lon="7.683657347783988">
      <ele>1213.8</ele></trkpt>
      <trkpt lat="46.49438257056486" lon="7.683756609864905">
      <ele>1215.0</ele></trkpt>
      <trkpt lat="46.494384397737186" lon="7.683843693177881">
      <ele>1216.2</ele></trkpt>
      <trkpt lat="46.494374028775134" lon="7.684017340446123">
      <ele>1217.5</ele></trkpt>
      <trkpt lat="46.49436029992003" lon="7.684205443682519">
      <ele>1218.8</ele></trkpt>
      <trkpt lat="46.49434988487931" lon="7.6843959845799965">
      <ele>1220.0</ele></trkpt>
      <trkpt lat="46.49431561879471" lon="7.684837299820509">
      <ele>1221.2</ele></trkpt>
      <trkpt lat="46.49429238181266" lon="7.685045392520788">
      <ele>1222.5</ele></trkpt>
      <trkpt lat="46.49428200578629" lon="7.68522144894187">
      <ele>1223.8</ele></trkpt>
      <trkpt lat="46.49427507308008" lon="7.68534444241881">
      <ele>1225.0</ele></trkpt>
      <trkpt lat="46.49427469066609" lon="7.685520544248202">
      <ele>1226.2</ele></trkpt>
      <trkpt lat="46.49428092646277" lon="7.685718402632948">
      <ele>1227.5</ele></trkpt>
      <trkpt lat="46.49429240637137" lon="7.685800476011611">
      <ele>1228.8</ele></trkpt>
      <trkpt lat="46.49430885999796" lon="7.685899466083553">
      <ele>1230.0</ele></trkpt>
      <trkpt lat="46.494330354856714" lon="7.685971933405238">
      <ele>1231.2</ele></trkpt>
      <trkpt lat="46.49436839764909" lon="7.6860999646709125">
      <ele>1232.5</ele></trkpt>
      <trkpt lat="46.49441138553181" lon="7.686249732123092">
      <ele>1233.8</ele></trkpt>
      <trkpt lat="46.49446103370765" lon="7.686401926942839">
      <ele>1235.0</ele></trkpt>
      <trkpt lat="46.4944791878051" lon="7.68648404428558">
      <ele>1236.2</ele></trkpt>
      <trkpt lat="46.494478972050096" lon="7.686582958654687">
      <ele>1237.5</ele></trkpt>
      <trkpt lat="46.49449030918402" lon="7.686730159188015">
      <ele>1238.8</ele></trkpt>
      <trkpt lat="46.49450491340814" lon="7.686913572522607">
      <ele>1240.0</ele></trkpt>
      <trkpt lat="46.494512928560006" lon="7.6870535288358735">
      <ele>1241.3</ele></trkpt>
      <trkpt lat="46.49450942615851" lon="7.687133124451716">
      <ele>1242.6</ele></trkpt>
      <trkpt lat="46.49449917511334" lon="7.6872464641429765">
      <ele>1243.8</ele></trkpt>
      <trkpt lat="46.49448046050732" lon="7.687424892266108">
      <ele>1245.1</ele></trkpt>
      <trkpt lat="46.494470154748846" lon="7.687567187189297">
      <ele>1246.4</ele></trkpt>
      <trkpt lat="46.49447000677367" lon="7.687634736545423">
      <ele>1247.7</ele></trkpt>
      <trkpt lat="46.494476508630534" lon="7.687709545589564">
      <ele>1248.9</ele></trkpt>
      <trkpt lat="46.494491242468285" lon="7.687824927739375">
      <ele>1250.2</ele></trkpt>
      <trkpt lat="46.494509310881966" lon="7.687945639681597">
      <ele>1251.5</ele></trkpt>
      <trkpt lat="46.494517402596784" lon="7.688054231181114">
      <ele>1252.7</ele></trkpt>
      <trkpt lat="46.49453024306684" lon="7.6882738085951985">
      <ele>1254.0</ele></trkpt>
      <trkpt lat="46.494534894753066" lon="7.688433053438258">
      <ele>1255.3</ele></trkpt>
      <trkpt lat="46.49453785181283" lon="7.688601942373058">
      <ele>1256.6</ele></trkpt>
      <trkpt lat="46.494532700080406" lon="7.688674288157085">
      <ele>1257.8</ele></trkpt>
      <trkpt lat="46.494502250585384" lon="7.688886449800005">
      <ele>1259.1</ele></trkpt>
      <trkpt lat="46.49447174918466" lon="7.6891179016746065">
      <ele>1260.4</ele></trkpt>
      <trkpt lat="46.49445296940959" lon="7.68932046494461">
      <ele>1261.6</ele></trkpt>
      <trkpt lat="46.49443421960397" lon="7.689513363328858">
      <ele>1262.9</ele></trkpt>
      <trkpt lat="46.49441207879354" lon="7.689730382027254">
      <ele>1264.2</ele></trkpt>
      <trkpt lat="46.4943967152848" lon="7.689896776023401">
      <ele>1265.6</ele></trkpt>
      <trkpt lat="46.4943847156278" lon="7.690051097921233">
      <ele>1266.9</ele></trkpt>
      <trkpt lat="46.49437257319945" lon="7.690265752917709">
      <ele>1268.3</ele></trkpt>
      <trkpt lat="46.49437571459308" lon="7.69035019839548">
      <ele>1269.6</ele></trkpt>
      <trkpt lat="46.494383061898354" lon="7.6904202051831305">
      <ele>1270.9</ele></trkpt>
      <trkpt lat="46.494399463404726" lon="7.690540896989597">
      <ele>1272.3</ele></trkpt>
      <trkpt lat="46.49440265807752" lon="7.690601219648968">
      <ele>1273.6</ele></trkpt>
      <trkpt lat="46.49439923346133" lon="7.690644617535987">
      <ele>1275.0</ele></trkpt>
      <trkpt lat="46.49439243035446" lon="7.6907024839994085">
      <ele>1276.3</ele></trkpt>
      <trkpt lat="46.494382323891216" lon="7.690753105963093">
      <ele>1277.6</ele></trkpt>
      <trkpt lat="46.49436220729182" lon="7.690810910454082">
      <ele>1279.0</ele></trkpt>
      <trkpt lat="46.4942767675595" lon="7.691025223892414">
      <ele>1280.3</ele></trkpt>
      <trkpt lat="46.494251543821775" lon="7.691126431098648">
      <ele>1281.7</ele></trkpt>
      <trkpt lat="46.494199439200784" lon="7.69133364387557">
      <ele>1283.0</ele></trkpt>
      <trkpt lat="46.49416407620247" lon="7.691499943473651">
      <ele>1284.3</ele></trkpt>
      <trkpt lat="46.494110260105444" lon="7.691724041481586">
      <ele>1285.7</ele></trkpt>
      <trkpt lat="46.494086691044984" lon="7.691837317276553">
      <ele>1287.0</ele></trkpt>
      <trkpt lat="46.494081560505926" lon="7.6918951910743925">
      <ele>1288.4</ele></trkpt>
      <trkpt lat="46.49408142610071" lon="7.69195549790436">
      <ele>1289.7</ele></trkpt>
      <trkpt lat="46.49409440789609" lon="7.692112371030171">
      <ele>1291.2</ele></trkpt>
      <trkpt lat="46.49409761248595" lon="7.692167874104895">
      <ele>1292.7</ele></trkpt>
      <trkpt lat="46.494095819133264" lon="7.692225763497179">
      <ele>1294.2</ele></trkpt>
      <trkpt lat="46.494082266953306" lon="7.692324614746479">
      <ele>1295.7</ele></trkpt>
      <trkpt lat="46.49405198488562" lon="7.6924547396601906">
      <ele>1297.2</ele></trkpt>
      <trkpt lat="46.49398639538256" lon="7.692729449681867">
      <ele>1298.6</ele></trkpt>
      <trkpt lat="46.49396116298265" lon="7.692837871557732">
      <ele>1300.1</ele></trkpt>
      <trkpt lat="46.49389913313727" lon="7.693008863678372">
      <ele>1301.6</ele></trkpt>
      <trkpt lat="46.49385387983377" lon="7.69313170145329">
      <ele>1303.1</ele></trkpt>
      <trkpt lat="46.49383364318586" lon="7.693242556027313">
      <ele>1304.6</ele></trkpt>
      <trkpt lat="46.493823423880826" lon="7.693339012528033">
      <ele>1306.1</ele></trkpt>
      <trkpt lat="46.493813164836446" lon="7.693457168964408">
      <ele>1307.6</ele></trkpt>
      <trkpt lat="46.49380299220724" lon="7.6935367448161065">
      <ele>1309.1</ele></trkpt>
      <trkpt lat="46.493782811106456" lon="7.693618657185798">
      <ele>1310.6</ele></trkpt>
      <trkpt lat="46.493757686078446" lon="7.693678859118616">
      <ele>1312.0</ele></trkpt>
      <trkpt lat="46.493719207955735" lon="7.693748636859216">
      <ele>1313.5</ele></trkpt>
      <trkpt lat="46.4935687137265" lon="7.693991565778045">
      <ele>1315.0</ele></trkpt>
      <trkpt lat="46.49346337391854" lon="7.6941599415080635">
      <ele>1316.5</ele></trkpt>
      <trkpt lat="46.493388075768216" lon="7.694301925960957">
      <ele>1318.0</ele></trkpt>
      <trkpt lat="46.49335454263317" lon="7.69440068112573">
      <ele>1319.5</ele></trkpt>
      <trkpt lat="46.49334689917338" lon="7.694463361366593">
      <ele>1321.0</ele></trkpt>
      <trkpt lat="46.49333681279407" lon="7.6945043170631005">
      <ele>1322.6</ele></trkpt>
      <trkpt lat="46.49330666402757" lon="7.6945741460332595">
      <ele>1324.1</ele></trkpt>
      <trkpt lat="46.49323636149307" lon="7.694718549734931">
      <ele>1325.6</ele></trkpt>
      <trkpt lat="46.49313420566515" lon="7.694954473442782">
      <ele>1327.2</ele></trkpt>
      <trkpt lat="46.493093926513524" lon="7.695084547326534">
      <ele>1328.7</ele></trkpt>
      <trkpt lat="46.493082112232656" lon="7.695149643132755">
      <ele>1330.2</ele></trkpt>
      <trkpt lat="46.49307679484086" lon="7.695289520881193">
      <ele>1331.7</ele></trkpt>
      <trkpt lat="46.493071638851134" lon="7.695361864078695">
      <ele>1333.3</ele></trkpt>
      <trkpt lat="46.49305316227854" lon="7.695429324858251">
      <ele>1334.8</ele></trkpt>
      <trkpt lat="46.493021294240876" lon="7.695523267318516">
      <ele>1336.3</ele></trkpt>
      <trkpt lat="46.49297942663432" lon="7.6956195588797085">
      <ele>1337.9</ele></trkpt>
      <trkpt lat="46.4929092264636" lon="7.695718125556541">
      <ele>1339.4</ele></trkpt>
      <trkpt lat="46.49289215713524" lon="7.695747976243823">
      <ele>1340.9</ele></trkpt>
      <trkpt lat="46.4927982681667" lon="7.695605349304237">
      <ele>1342.4</ele></trkpt>
      <trkpt lat="46.492764082279464" lon="7.695562634383143">
      <ele>1344.0</ele></trkpt>
      <trkpt lat="46.49273840806957" lon="7.6955430011648325">
      <ele>1345.5</ele></trkpt>
      <trkpt lat="46.49270658878454" lon="7.695535764730362">
      <ele>1347.0</ele></trkpt>
      <trkpt lat="46.492612305287345" lon="7.695531775067441">
      <ele>1348.6</ele></trkpt>
      <trkpt lat="46.49256332043508" lon="7.695533314307618">
      <ele>1350.1</ele></trkpt>
      <trkpt lat="46.49253024873618" lon="7.695534928965257">
      <ele>1351.3</ele></trkpt>
      <trkpt lat="46.49249350684694" lon="7.695536526225993">
      <ele>1352.5</ele></trkpt>
      <trkpt lat="46.492466545080475" lon="7.695545268453462">
      <ele>1353.7</ele></trkpt>
      <trkpt lat="46.492445689269665" lon="7.695562896598356">
      <ele>1354.9</ele></trkpt>
      <trkpt lat="46.49243339418459" lon="7.6955858925249885">
      <ele>1356.0</ele></trkpt>
      <trkpt lat="46.492423537907" lon="7.695612429770765">
      <ele>1357.2</ele></trkpt>
      <trkpt lat="46.4924197825244" lon="7.695646107568119">
      <ele>1358.4</ele></trkpt>
      <trkpt lat="46.492419702311146" lon="7.695681574185252">
      <ele>1359.6</ele></trkpt>
      <trkpt lat="46.49242697950649" lon="7.695713519879648">
      <ele>1360.8</ele></trkpt>
      <trkpt lat="46.492445268244026" lon="7.695749060608447">
      <ele>1362.0</ele></trkpt>
      <trkpt lat="46.49246954648064" lon="7.6958449354499425">
      <ele>1363.2</ele></trkpt>
      <trkpt lat="46.492469430117666" lon="7.695896344507976">
      <ele>1364.4</ele></trkpt>
      <trkpt lat="46.49245708583643" lon="7.695937067134513">
      <ele>1365.6</ele></trkpt>
      <trkpt lat="46.49243622191372" lon="7.695958250905682">
      <ele>1366.8</ele></trkpt>
      <trkpt lat="46.49241049156291" lon="7.695963442943742">
      <ele>1368.0</ele></trkpt>
      <trkpt lat="46.4923786482391" lon="7.695966834560827">
      <ele>1369.1</ele></trkpt>
      <trkpt lat="46.49231617195171" lon="7.6959754079470315">
      <ele>1370.3</ele></trkpt>
      <trkpt lat="46.49229652740709" lon="7.695998368830183">
      <ele>1371.5</ele></trkpt>
      <trkpt lat="46.49229155352647" lon="7.696033799103254">
      <ele>1372.7</ele></trkpt>
      <trkpt lat="46.49229636677917" lon="7.696069288877101">
      <ele>1373.9</ele></trkpt>
      <trkpt lat="46.492309741723155" lon="7.696113676288107">
      <ele>1375.9</ele></trkpt>
      <trkpt lat="46.49232186817194" lon="7.6961651563863125">
      <ele>1378.0</ele></trkpt>
      <trkpt lat="46.49233033243693" lon="7.696213076318331">
      <ele>1380.0</ele></trkpt>
      <trkpt lat="46.492327781160654" lon="7.696259159491841">
      <ele>1382.1</ele></trkpt>
      <trkpt lat="46.49231549303191" lon="7.696275056648195">
      <ele>1384.1</ele></trkpt>
      <trkpt lat="46.492297107997075" lon="7.6962820678554085">
      <ele>1386.1</ele></trkpt>
      <trkpt lat="46.49226767929923" lon="7.696299654910305">
      <ele>1388.2</ele></trkpt>
      <trkpt lat="46.49222965771399" lon="7.696326071071153">
      <ele>1390.2</ele></trkpt>
      <trkpt lat="46.49222462341223" lon="7.696388097880578">
      <ele>1392.3</ele></trkpt>
      <trkpt lat="46.49222697770648" lon="7.696428890117817">
      <ele>1394.3</ele></trkpt>
      <trkpt lat="46.49222687712544" lon="7.696473226486199">
      <ele>1396.3</ele></trkpt>
      <trkpt lat="46.492212066672835" lon="7.696526349817938">
      <ele>1398.4</ele></trkpt>
      <trkpt lat="46.492196084196436" lon="7.69655285763541">
      <ele>1400.4</ele></trkpt>
      <trkpt lat="46.492101535084856" lon="7.696665893663654">
      <ele>1402.5</ele></trkpt>
      <trkpt lat="46.49204870193942" lon="7.6967418768009885">
      <ele>1404.5</ele></trkpt>
      <trkpt lat="46.49202165147446" lon="7.69678962744025">
      <ele>1406.5</ele></trkpt>
      <trkpt lat="46.49198483305045" lon="7.696824905778795">
      <ele>1408.6</ele></trkpt>
      <trkpt lat="46.49196031892446" lon="7.69683720170537">
      <ele>1410.6</ele></trkpt>
      <trkpt lat="46.491929509322844" lon="7.696848842438137">
      <ele>1412.7</ele></trkpt>
      <trkpt lat="46.49186502998022" lon="7.696816481151117">
      <ele>1414.7</ele></trkpt>
      <trkpt lat="46.491815431538285" lon="7.696779241376884">
      <ele>1417.3</ele></trkpt>
      <trkpt lat="46.491746027545666" lon="7.696709032741944">
      <ele>1420.0</ele></trkpt>
      <trkpt lat="46.49167127484501" lon="7.696637170729356">
      <ele>1422.6</ele></trkpt>
      <trkpt lat="46.491637438734124" lon="7.696559421039463">
      <ele>1425.2</ele></trkpt>
      <trkpt lat="46.49162643254934" lon="7.696494010315689">
      <ele>1427.9</ele></trkpt>
      <trkpt lat="46.4916416366101" lon="7.696425989067172">
      <ele>1430.5</ele></trkpt>
      <trkpt lat="46.491677414748054" lon="7.69638527439591">
      <ele>1433.1</ele></trkpt>
      <trkpt lat="46.49171318206124" lon="7.696349326697082">
      <ele>1435.8</ele></trkpt>
      <trkpt lat="46.49171275119157" lon="7.696289410559349">
      <ele>1438.4</ele></trkpt>
      <trkpt lat="46.49170122543646" lon="7.696211063705637">
      <ele>1441.1</ele></trkpt>
      <trkpt lat="46.4916936643832" lon="7.696098011609989">
      <ele>1443.7</ele></trkpt>
      <trkpt lat="46.49166596753914" lon="7.696018233460857">
      <ele>1446.3</ele></trkpt>
      <trkpt lat="46.49161443723292" lon="7.696122877317216">
      <ele>1449.0</ele></trkpt>
      <trkpt lat="46.49157608807809" lon="7.696067574326411">
      <ele>1451.6</ele></trkpt>
      <trkpt lat="46.4915177995366" lon="7.6959509082902775">
      <ele>1454.2</ele></trkpt>
      <trkpt lat="46.49148400790943" lon="7.695849324175571">
      <ele>1456.9</ele></trkpt>
      <trkpt lat="46.491466624156146" lon="7.695894867359619">
      <ele>1459.5</ele></trkpt>
      <trkpt lat="46.49144640548898" lon="7.69596083287114">
      <ele>1462.1</ele></trkpt>
      <trkpt lat="46.49143287794951" lon="7.696027507392401">
      <ele>1464.8</ele></trkpt>
      <trkpt lat="46.491395630601595" lon="7.695974241742572">
      <ele>1467.4</ele></trkpt>
      <trkpt lat="46.49138974685485" lon="7.695863243159583">
      <ele>1467.9</ele></trkpt>
      <trkpt lat="46.49140333285763" lon="7.6957706887949495">
      <ele>1468.5</ele></trkpt>
      <trkpt lat="46.49141869202473" lon="7.695633897781464">
      <ele>1469.0</ele></trkpt>
      <trkpt lat="46.49142623185401" lon="7.695505926456054">
      <ele>1469.6</ele></trkpt>
      <trkpt lat="46.49143301405503" lon="7.695462377834882">
      <ele>1470.1</ele></trkpt>
      <trkpt lat="46.49145267009396" lon="7.695382525118201">
      <ele>1470.6</ele></trkpt>
      <trkpt lat="46.49146879552538" lon="7.695320486498992">
      <ele>1471.2</ele></trkpt>
      <trkpt lat="46.491360642589264" lon="7.695275833582784">
      <ele>1471.7</ele></trkpt>
      <trkpt lat="46.49140427341827" lon="7.695091701192832">
      <ele>1472.3</ele></trkpt>
      <trkpt lat="46.49141373821169" lon="7.695003386208127">
      <ele>1472.8</ele></trkpt>
      <trkpt lat="46.49137960968351" lon="7.694895249855509">
      <ele>1473.3</ele></trkpt>
      <trkpt lat="46.491341150436796" lon="7.694880532457619">
      <ele>1473.9</ele></trkpt>
      <trkpt lat="46.49129610617031" lon="7.694810038232365">
      <ele>1474.4</ele></trkpt>
      <trkpt lat="46.491210390335304" lon="7.6946247087265185">
      <ele>1475.0</ele></trkpt>
      <trkpt lat="46.49113914416103" lon="7.69430526801323">
      <ele>1475.5</ele></trkpt>
      <trkpt lat="46.491092892899815" lon="7.69367074931758">
      <ele>1476.0</ele></trkpt>
      <trkpt lat="46.49106670214575" lon="7.693315704507558">
      <ele>1476.6</ele></trkpt>
      <trkpt lat="46.49104051028242" lon="7.692960660040514">
      <ele>1477.1</ele></trkpt>
      <trkpt lat="46.49100259833259" lon="7.692616631944396">
      <ele>1477.7</ele></trkpt>
      <trkpt lat="46.490992010285765" lon="7.6925241074834325">
      <ele>1478.2</ele></trkpt>
      <trkpt lat="46.49093838595652" lon="7.6923675609510616">
      <ele>1478.6</ele></trkpt>
      <trkpt lat="46.490799501120605" lon="7.692122048733075">
      <ele>1479.0</ele></trkpt>
      <trkpt lat="46.49072982471602" lon="7.692011352748872">
      <ele>1479.4</ele></trkpt>
      <trkpt lat="46.4905894588267" lon="7.691788276740202">
      <ele>1479.8</ele></trkpt>
      <trkpt lat="46.490536243775324" lon="7.691726226883024">
      <ele>1480.2</ele></trkpt>
      <trkpt lat="46.490491546927984" lon="7.691676590190726">
      <ele>1480.6</ele></trkpt>
      <trkpt lat="46.49045112085815" lon="7.691623873682875">
      <ele>1481.0</ele></trkpt>
      <trkpt lat="46.49039580811678" lon="7.691546380345631">
      <ele>1481.4</ele></trkpt>
      <trkpt lat="46.49035113659348" lon="7.691481284000143">
      <ele>1481.8</ele></trkpt>
      <trkpt lat="46.49029583751499" lon="7.691397604397549">
      <ele>1482.2</ele></trkpt>
      <trkpt lat="46.4902576050967" lon="7.691317091315319">
      <ele>1482.6</ele></trkpt>
      <trkpt lat="46.49019615722703" lon="7.69112215469843">
      <ele>1483.0</ele></trkpt>
      <trkpt lat="46.49017708895337" lon="7.6910602779837784">
      <ele>1483.4</ele></trkpt>
      <trkpt lat="46.490156012184094" lon="7.690942777666799">
      <ele>1483.8</ele></trkpt>
      <trkpt lat="46.49014567261838" lon="7.6907944204407634">
      <ele>1484.2</ele></trkpt>
      <trkpt lat="46.49014161905794" lon="7.6906955332003815">
      <ele>1484.6</ele></trkpt>
      <trkpt lat="46.49014184514943" lon="7.690593579079882">
      <ele>1485.0</ele></trkpt>
      <trkpt lat="46.490135634225176" lon="7.690510128800644">
      <ele>1485.4</ele></trkpt>
      <trkpt lat="46.49012298885364" lon="7.690435922037409">
      <ele>1485.8</ele></trkpt>
      <trkpt lat="46.490095419816996" lon="7.690361632981565">
      <ele>1486.2</ele></trkpt>
      <trkpt lat="46.49006352777016" lon="7.690305870681328">
      <ele>1486.7</ele></trkpt>
      <trkpt lat="46.490012473355904" lon="7.69023457257269">
      <ele>1487.2</ele></trkpt>
      <trkpt lat="46.489953005182564" lon="7.690107621472241">
      <ele>1487.8</ele></trkpt>
      <trkpt lat="46.48992117452647" lon="7.690024052727119">
      <ele>1488.3</ele></trkpt>
      <trkpt lat="46.48989784858245" lon="7.689959070200978">
      <ele>1488.8</ele></trkpt>
      <trkpt lat="46.489880925302984" lon="7.6898910176111634">
      <ele>1489.4</ele></trkpt>
      <trkpt lat="46.48984060765152" lon="7.689788876131617">
      <ele>1489.9</ele></trkpt>
      <trkpt lat="46.489806633347875" lon="7.689714558125415">
      <ele>1490.4</ele></trkpt>
      <trkpt lat="46.4897662929078" lon="7.689618590345085">
      <ele>1490.9</ele></trkpt>
      <trkpt lat="46.48973442993852" lon="7.6895535686631575">
      <ele>1491.5</ele></trkpt>
      <trkpt lat="46.48970258740154" lon="7.68947927383983">
      <ele>1492.0</ele></trkpt>
      <trkpt lat="46.4896643604348" lon="7.6893956762626585">
      <ele>1492.5</ele></trkpt>
      <trkpt lat="46.48961762387685" lon="7.6892996793958694">
      <ele>1493.0</ele></trkpt>
      <trkpt lat="46.489585781202564" lon="7.689225371857576">
      <ele>1493.5</ele></trkpt>
      <trkpt lat="46.48955615210652" lon="7.689114020560077">
      <ele>1494.1</ele></trkpt>
      <trkpt lat="46.48955001959593" lon="7.688990404844347">
      <ele>1494.6</ele></trkpt>
      <trkpt lat="46.48957978593614" lon="7.6887985513260775">
      <ele>1495.1</ele></trkpt>
      <trkpt lat="46.48957895930149" lon="7.688753157876786">
      <ele>1495.7</ele></trkpt>
      <trkpt lat="46.48954484000336" lon="7.688548154616811">
      <ele>1496.2</ele></trkpt>
      <trkpt lat="46.489535401221275" lon="7.68836917059086">
      <ele>1496.7</ele></trkpt>
      <trkpt lat="46.489530593337484" lon="7.68813355235856">
      <ele>1497.4</ele></trkpt>
      <trkpt lat="46.489513727024374" lon="7.688051343686096">
      <ele>1498.0</ele></trkpt>
      <trkpt lat="46.489479205277334" lon="7.687980020284128">
      <ele>1498.7</ele></trkpt>
      <trkpt lat="46.48946660690068" lon="7.687887737563372">
      <ele>1499.4</ele></trkpt>
      <trkpt lat="46.48945270231708" lon="7.687841385427575">
      <ele>1500.0</ele></trkpt>
      <trkpt lat="46.489316139750436" lon="7.687697530246741">
      <ele>1500.7</ele></trkpt>
      <trkpt lat="46.48926534327389" lon="7.687573449649481">
      <ele>1501.4</ele></trkpt>
      <trkpt lat="46.48918591356375" lon="7.687338375951182">
      <ele>1502.0</ele></trkpt>
      <trkpt lat="46.48915152998878" lon="7.687273592209634">
      <ele>1502.7</ele></trkpt>
      <trkpt lat="46.489029586046975" lon="7.687079728409017">
      <ele>1503.3</ele></trkpt>
      <trkpt lat="46.48895570742351" lon="7.687029103625274">
      <ele>1504.0</ele></trkpt>
      <trkpt lat="46.48889736361647" lon="7.686995247072171">
      <ele>1504.7</ele></trkpt>
      <trkpt lat="46.48877917572826" lon="7.686963656144822">
      <ele>1505.3</ele></trkpt>
      <trkpt lat="46.488701425785344" lon="7.686930935147503">
      <ele>1506.0</ele></trkpt>
      <trkpt lat="46.488661324083886" lon="7.686901681754356">
      <ele>1506.7</ele></trkpt>
      <trkpt lat="46.48865485004646" lon="7.686863322288638">
      <ele>1507.3</ele></trkpt>
      <trkpt lat="46.48858745475101" lon="7.686727303114237">
      <ele>1508.0</ele></trkpt>
      <trkpt lat="46.48858199707931" lon="7.686664254783921">
      <ele>1508.7</ele></trkpt>
      <trkpt lat="46.48854430231316" lon="7.686628513670614">
      <ele>1509.3</ele></trkpt>
      <trkpt lat="46.48851213083029" lon="7.686596913464301">
      <ele>1510.0</ele></trkpt>
      <trkpt lat="46.488485485562464" lon="7.686547495661151">
      <ele>1511.9</ele></trkpt>
      <trkpt lat="46.488340914747255" lon="7.686445117156838">
      <ele>1513.8</ele></trkpt>
      <trkpt lat="46.4882761977719" lon="7.686421378160142">
      <ele>1515.7</ele></trkpt>
      <trkpt lat="46.4882761977719" lon="7.686421378160142">
      <ele>1517.6</ele></trkpt>
      <trkpt lat="46.48814421363896" lon="7.686619246677365">
      <ele>1519.5</ele></trkpt>
      <trkpt lat="46.488033182215766" lon="7.6867666904014875">
      <ele>1521.4</ele></trkpt>
      <trkpt lat="46.48796058846689" lon="7.686864988076536">
      <ele>1523.3</ele></trkpt>
      <trkpt lat="46.487864563426946" lon="7.686966264809036">
      <ele>1525.2</ele></trkpt>
      <trkpt lat="46.48783250115485" lon="7.68702468625177">
      <ele>1527.1</ele></trkpt>
      <trkpt lat="46.48778119069778" lon="7.6871230807786555">
      <ele>1529.0</ele></trkpt>
      <trkpt lat="46.48771030815611" lon="7.687409397458767">
      <ele>1530.9</ele></trkpt>
      <trkpt lat="46.48764594680207" lon="7.687634114636769">
      <ele>1532.8</ele></trkpt>
      <trkpt lat="46.487568941985906" lon="7.687803278735661">
      <ele>1534.7</ele></trkpt>
      <trkpt lat="46.487435275473544" lon="7.688016527674557">
      <ele>1536.6</ele></trkpt>
      <trkpt lat="46.48736208753554" lon="7.688135032725703">
      <ele>1538.5</ele></trkpt>
      <trkpt lat="46.48735333497433" lon="7.688159516163661">
      <ele>1540.4</ele></trkpt>
      <trkpt lat="46.48733618004716" lon="7.688221052543156">
      <ele>1542.3</ele></trkpt>
      <trkpt lat="46.487320432870234" lon="7.688284653118255">
      <ele>1544.2</ele></trkpt>
      <trkpt lat="46.487320238818384" lon="7.688372966221847">
      <ele>1546.1</ele></trkpt>
      <trkpt lat="46.48732576605251" lon="7.688440767247902">
      <ele>1548.0</ele></trkpt>
      <trkpt lat="46.48732567574661" lon="7.688481843719635">
      <ele>1549.1</ele></trkpt>
      <trkpt lat="46.48731993631441" lon="7.68851057369037">
      <ele>1550.2</ele></trkpt>
      <trkpt lat="46.487301432192275" lon="7.688539231786412">
      <ele>1551.2</ele></trkpt>
      <trkpt lat="46.48727157562723" lon="7.688567850546303">
      <ele>1552.3</ele></trkpt>
      <trkpt lat="46.48723745512709" lon="7.688600552086263">
      <ele>1553.4</ele></trkpt>
      <trkpt lat="46.48720616816299" lon="7.688637382146441">
      <ele>1554.5</ele></trkpt>
      <trkpt lat="46.487160663566804" lon="7.688688511731893">
      <ele>1555.6</ele></trkpt>
      <trkpt lat="46.487127959803004" lon="7.688723277408986">
      <ele>1556.6</ele></trkpt>
      <trkpt lat="46.487098085103256" lon="7.688760113840404">
      <ele>1557.7</ele></trkpt>
      <trkpt lat="46.487053961100806" lon="7.688825627733802">
      <ele>1558.8</ele></trkpt>
      <trkpt lat="46.48701978623676" lon="7.6888829825378355">
      <ele>1559.9</ele></trkpt>
      <trkpt lat="46.48698991597723" lon="7.688921863543631">
      <ele>1561.0</ele></trkpt>
      <trkpt lat="46.48696432778867" lon="7.688944341448234">
      <ele>1562.0</ele></trkpt>
      <trkpt lat="46.48694020163384" lon="7.688948332497994">
      <ele>1563.1</ele></trkpt>
      <trkpt lat="46.48690624381453" lon="7.688911214598808">
      <ele>1564.2</ele></trkpt>
      <trkpt lat="46.48689494570317" lon="7.688886508686226">
      <ele>1565.3</ele></trkpt>
      <trkpt lat="46.48687940621858" lon="7.688855636049715">
      <ele>1566.4</ele></trkpt>
      <trkpt lat="46.486861082868465" lon="7.688802154580715">
      <ele>1567.4</ele></trkpt>
      <trkpt lat="46.48684701442562" lon="7.6887486797556335">
      <ele>1568.5</ele></trkpt>
      <trkpt lat="46.486835770444394" lon="7.688703448918878">
      <ele>1569.6</ele></trkpt>
      <trkpt lat="46.48682308259594" lon="7.688664371615417">
      <ele>1571.7</ele></trkpt>
      <trkpt lat="46.48681183860979" lon="7.688619127792634">
      <ele>1573.7</ele></trkpt>
      <trkpt lat="46.48678922864828" lon="7.688575902339906">
      <ele>1575.8</ele></trkpt>
      <trkpt lat="46.48675814497998" lon="7.688520304504897">
      <ele>1577.9</ele></trkpt>
      <trkpt lat="46.48668744521811" lon="7.688415229871615">
      <ele>1579.9</ele></trkpt>
      <trkpt lat="46.4866365353454" lon="7.688343118170055">
      <ele>1582.0</ele></trkpt>
      <trkpt lat="46.48657853696411" lon="7.688266858515602">
      <ele>1584.1</ele></trkpt>
      <trkpt lat="46.48656255050387" lon="7.688443410425776">
      <ele>1586.1</ele></trkpt>
      <trkpt lat="46.48654075203554" lon="7.688677447451838">
      <ele>1588.2</ele></trkpt>
      <trkpt lat="46.4864359996664" lon="7.688574273752347">
      <ele>1590.2</ele></trkpt>
      <trkpt lat="46.48631998055203" lon="7.688436132518484">
      <ele>1592.3</ele></trkpt>
      <trkpt lat="46.486240761860635" lon="7.688335135026768">
      <ele>1594.4</ele></trkpt>
      <trkpt lat="46.48613789619489" lon="7.688126403095126">
      <ele>1596.4</ele></trkpt>
      <trkpt lat="46.486126410195894" lon="7.688105252235823">
      <ele>1598.5</ele></trkpt>
      <trkpt lat="46.48610342682704" lon="7.68805992905133">
      <ele>1600.6</ele></trkpt>
      <trkpt lat="46.48609293018277" lon="7.6880101572338635">
      <ele>1602.6</ele></trkpt>
      <trkpt lat="46.48607949506879" lon="7.688004052552878">
      <ele>1604.7</ele></trkpt>
      <trkpt lat="46.48607659570146" lon="7.688017609643887">
      <ele>1606.8</ele></trkpt>
      <trkpt lat="46.48607169295665" lon="7.6880914300079235">
      <ele>1608.8</ele></trkpt>
      <trkpt lat="46.48606775597854" lon="7.688163757108533">
      <ele>1610.9</ele></trkpt>
      <trkpt lat="46.48604619719964" lon="7.688464981120837">
      <ele>1613.5</ele></trkpt>
      <trkpt lat="46.48600753916068" lon="7.688454384224035">
      <ele>1616.1</ele></trkpt>
      <trkpt lat="46.48582470963505" lon="7.688225932028323">
      <ele>1618.7</ele></trkpt>
      <trkpt lat="46.48579692838703" lon="7.688182084647301">
      <ele>1621.3</ele></trkpt>
      <trkpt lat="46.48577390108376" lon="7.688160880786146">
      <ele>1623.9</ele></trkpt>
      <trkpt lat="46.48574898324373" lon="7.688132140737058">
      <ele>1626.4</ele></trkpt>
      <trkpt lat="46.48572502412254" lon="7.688092843182064">
      <ele>1629.0</ele></trkpt>
      <trkpt lat="46.48570681087054" lon="7.688079202059811">
      <ele>1631.6</ele></trkpt>
      <trkpt lat="46.48569621699508" lon="7.688094221332157">
      <ele>1634.2</ele></trkpt>
      <trkpt lat="46.485700979063495" lon="7.6881213708902685">
      <ele>1636.8</ele></trkpt>
      <trkpt lat="46.48570574587627" lon="7.6881545502881075">
      <ele>1639.4</ele></trkpt>
      <trkpt lat="46.48571047062024" lon="7.688202784497229">
      <ele>1642.0</ele></trkpt>
      <trkpt lat="46.48571037042758" lon="7.688281158589962">
      <ele>1644.6</ele></trkpt>
      <trkpt lat="46.48571212902935" lon="7.688389664267839">
      <ele>1647.2</ele></trkpt>
      <trkpt lat="46.48564557935277" lon="7.688606391632817">
      <ele>1649.8</ele></trkpt>
      <trkpt lat="46.48569918622928" lon="7.688724161556475">
      <ele>1652.3</ele></trkpt>
      <trkpt lat="46.4857164264229" lon="7.6887588962434705">
      <ele>1654.9</ele></trkpt>
      <trkpt lat="46.485750878808375" lon="7.688832897685935">
      <ele>1657.5</ele></trkpt>
      <trkpt lat="46.48575853727332" lon="7.68886006070616">
      <ele>1660.1</ele></trkpt>
      <trkpt lat="46.4857247532612" lon="7.688984994134628">
      <ele>1662.7</ele></trkpt>
      <trkpt lat="46.48578227875045" lon="7.68904702965021">
      <ele>1664.2</ele></trkpt>
      <trkpt lat="46.48579660153049" lon="7.689095243233908">
      <ele>1665.6</ele></trkpt>
      <trkpt lat="46.485823641019145" lon="7.68913671740086">
      <ele>1667.1</ele></trkpt>
      <trkpt lat="46.48585493961218" lon="7.689188538842144">
      <ele>1668.6</ele></trkpt>
      <trkpt lat="46.485903342661416" lon="7.689259062879149">
      <ele>1670.0</ele></trkpt>
      <trkpt lat="46.48594032600444" lon="7.689323322065375">
      <ele>1671.5</ele></trkpt>
      <trkpt lat="46.48601869283392" lon="7.689406383240975">
      <ele>1673.0</ele></trkpt>
      <trkpt lat="46.486112336815616" lon="7.689679722879368">
      <ele>1674.5</ele></trkpt>
      <trkpt lat="46.486173461866336" lon="7.689806125204502">
      <ele>1675.9</ele></trkpt>
      <trkpt lat="46.486191864180476" lon="7.6898806396099575">
      <ele>1677.4</ele></trkpt>
      <trkpt lat="46.48620022665689" lon="7.689975775775106">
      <ele>1678.9</ele></trkpt>
      <trkpt lat="46.48619438183377" lon="7.690035708745016">
      <ele>1680.3</ele></trkpt>
      <trkpt lat="46.48615253151776" lon="7.690231934531062">
      <ele>1681.8</ele></trkpt>
      <trkpt lat="46.48613531257308" lon="7.690269062637897">
      <ele>1683.3</ele></trkpt>
      <trkpt lat="46.48611243178935" lon="7.690283425486957">
      <ele>1684.8</ele></trkpt>
      <trkpt lat="46.48609245751254" lon="7.690273005170929">
      <ele>1686.2</ele></trkpt>
      <trkpt lat="46.486062630940474" lon="7.690202566184723">
      <ele>1687.7</ele></trkpt>
      <trkpt lat="46.48604698432756" lon="7.690171484771288">
      <ele>1689.2</ele></trkpt>
      <trkpt lat="46.48603559198354" lon="7.690156962875152">
      <ele>1690.6</ele></trkpt>
      <trkpt lat="46.486014072865125" lon="7.690202340848935">
      <ele>1692.1</ele></trkpt>
      <trkpt lat="46.48600215395479" lon="7.690425572190648">
      <ele>1693.8</ele></trkpt>
      <trkpt lat="46.485991880354945" lon="7.690551643315105">
      <ele>1695.4</ele></trkpt>
      <trkpt lat="46.485967660905665" lon="7.690524650431892">
      <ele>1697.1</ele></trkpt>
      <trkpt lat="46.48593349777115" lon="7.690474872500171">
      <ele>1698.8</ele></trkpt>
      <trkpt lat="46.48592063392632" lon="7.6904789541839556">
      <ele>1700.5</ele></trkpt>
      <trkpt lat="46.485914885083005" lon="7.690495467202414">
      <ele>1702.1</ele></trkpt>
      <trkpt lat="46.48591621916191" lon="7.690538880413417">
      <ele>1703.8</ele></trkpt>
      <trkpt lat="46.48588045616199" lon="7.690565594524994">
      <ele>1705.5</ele></trkpt>
      <trkpt lat="46.48585476956843" lon="7.690559276019288">
      <ele>1707.2</ele></trkpt>
      <trkpt lat="46.48584051668337" lon="7.6905447408005">
      <ele>1708.8</ele></trkpt>
      <trkpt lat="46.48581771837647" lon="7.690521883011125">
      <ele>1710.5</ele></trkpt>
      <trkpt lat="46.485797821874264" lon="7.690480441339308">
      <ele>1712.2</ele></trkpt>
      <trkpt lat="46.4857821568285" lon="7.6904617711869685">
      <ele>1713.9</ele></trkpt>
      <trkpt lat="46.48575643375745" lon="7.690467850818641">
      <ele>1715.5</ele></trkpt>
      <trkpt lat="46.48571050255619" lon="7.690573074546118">
      <ele>1717.2</ele></trkpt>
      <trkpt lat="46.48568015366953" lon="7.690734201642182">
      <ele>1718.9</ele></trkpt>
      <trkpt lat="46.485664346505935" lon="7.690779605657493">
      <ele>1720.6</ele></trkpt>
      <trkpt lat="46.485637133277464" lon="7.690816699788357">
      <ele>1722.2</ele></trkpt>
      <trkpt lat="46.485621413454055" lon="7.690818684349326">
      <ele>1723.9</ele></trkpt>
      <trkpt lat="46.485605734707185" lon="7.690806213201946">
      <ele>1725.6</ele></trkpt>
      <trkpt lat="46.48558864404341" lon="7.6907854526579955">
      <ele>1727.5</ele></trkpt>
      <trkpt lat="46.48555018535055" lon="7.690741867056563">
      <ele>1729.5</ele></trkpt>
      <trkpt lat="46.485540191274744" lon="7.690741820579622">
      <ele>1731.4</ele></trkpt>
      <trkpt lat="46.48550830153105" lon="7.690770258439959">
      <ele>1733.3</ele></trkpt>
      <trkpt lat="46.48546696115281" lon="7.690805085816731">
      <ele>1735.2</ele></trkpt>
      <trkpt lat="46.48542707406025" lon="7.690825503120741">
      <ele>1737.2</ele></trkpt>
      <trkpt lat="46.48534878062392" lon="7.690839555661561">
      <ele>1739.1</ele></trkpt>
      <trkpt lat="46.485300347596535" lon="7.690864048484528">
      <ele>1741.0</ele></trkpt>
      <trkpt lat="46.485268946981556" lon="7.6909071656271015">
      <ele>1743.0</ele></trkpt>
      <trkpt lat="46.48524749987474" lon="7.690952386718915">
      <ele>1744.9</ele></trkpt>
      <trkpt lat="46.48524458867838" lon="7.690983264306673">
      <ele>1746.8</ele></trkpt>
      <trkpt lat="46.485244396492845" lon="7.691069789852468">
      <ele>1748.8</ele></trkpt>
      <trkpt lat="46.48524145777597" lon="7.691113039386388">
      <ele>1750.7</ele></trkpt>
      <trkpt lat="46.48523572697625" lon="7.691129487098973">
      <ele>1752.6</ele></trkpt>
      <trkpt lat="46.485218625925974" lon="7.69114176650335">
      <ele>1754.5</ele></trkpt>
      <trkpt lat="46.48517312239724" lon="7.691127137843935">
      <ele>1756.5</ele></trkpt>
      <trkpt lat="46.48513475724854" lon="7.691102241088172">
      <ele>1758.4</ele></trkpt>
      <trkpt lat="46.48510636850155" lon="7.691069147130642">
      <ele>1760.3</ele></trkpt>
      <trkpt lat="46.48507941004018" lon="7.691036059867004">
      <ele>1762.3</ele></trkpt>
      <trkpt lat="46.48504540010793" lon="7.690974106451388">
      <ele>1764.2</ele></trkpt>
      <trkpt lat="46.48502130252205" lon="7.6909327889068795">
      <ele>1766.7</ele></trkpt>
      <trkpt lat="46.48495889915201" lon="7.690839799516809">
      <ele>1769.2</ele></trkpt>
      <trkpt lat="46.484924875551265" lon="7.690779903959523">
      <ele>1771.7</ele></trkpt>
      <trkpt lat="46.48489227308455" lon="7.690724130404506">
      <ele>1774.2</ele></trkpt>
      <trkpt lat="46.48486957385745" lon="7.690693120905144">
      <ele>1776.7</ele></trkpt>
      <trkpt lat="46.48482412952605" lon="7.690655832721532">
      <ele>1779.2</ele></trkpt>
      <trkpt lat="46.4846919556024" lon="7.690583122324148">
      <ele>1781.7</ele></trkpt>
      <trkpt lat="46.48453847156736" lon="7.690497941351318">
      <ele>1784.2</ele></trkpt>
      <trkpt lat="46.48438926045669" lon="7.6904086784484615">
      <ele>1786.7</ele></trkpt>
      <trkpt lat="46.4841127630799" lon="7.690216777091687">
      <ele>1789.2</ele></trkpt>
      <trkpt lat="46.48394946519423" lon="7.690159734168835">
      <ele>1791.7</ele></trkpt>
      <trkpt lat="46.48391872067819" lon="7.690162599823531">
      <ele>1794.2</ele></trkpt>
      <trkpt lat="46.48388316950506" lon="7.690179000030907">
      <ele>1796.7</ele></trkpt>
      <trkpt lat="46.483750137867695" lon="7.690261976679597">
      <ele>1799.2</ele></trkpt>
      <trkpt lat="46.48362567601102" lon="7.690277273860044">
      <ele>1801.7</ele></trkpt>
      <trkpt lat="46.4835805385824" lon="7.69028007262253">
      <ele>1804.2</ele></trkpt>
      <trkpt lat="46.48354304128125" lon="7.690310033411726">
      <ele>1806.7</ele></trkpt>
      <trkpt lat="46.483476707056454" lon="7.690366986808147">
      <ele>1809.2</ele></trkpt>
      <trkpt lat="46.48346037239072" lon="7.690374451171127">
      <ele>1811.7</ele></trkpt>
      <trkpt lat="46.48340243790099" lon="7.690355246998793">
      <ele>1814.2</ele></trkpt>
      <trkpt lat="46.48333578716363" lon="7.690412941021173">
      <ele>1815.5</ele></trkpt>
      <trkpt lat="46.48332626505745" lon="7.690484066313301">
      <ele>1816.7</ele></trkpt>
      <trkpt lat="46.483331305713016" lon="7.690519199158697">
      <ele>1818.0</ele></trkpt>
      <trkpt lat="46.483345518224425" lon="7.690547889281626">
      <ele>1819.2</ele></trkpt>
      <trkpt lat="46.4833647833349" lon="7.690573855090729">
      <ele>1820.5</ele></trkpt>
      <trkpt lat="46.48338489114812" lon="7.690588950798418">
      <ele>1821.8</ele></trkpt>
      <trkpt lat="46.483394084259544" lon="7.690609439319434">
      <ele>1823.0</ele></trkpt>
      <trkpt lat="46.483399043001874" lon="7.690657151866166">
      <ele>1824.3</ele></trkpt>
      <trkpt lat="46.48341327675572" lon="7.690672194260396">
      <ele>1825.5</ele></trkpt>
      <trkpt lat="46.483419114505175" lon="7.690692667206004">
      <ele>1826.8</ele></trkpt>
      <trkpt lat="46.48338762183575" lon="7.691069009903578">
      <ele>1828.1</ele></trkpt>
      <trkpt lat="46.48339730584529" lon="7.691160019263108">
      <ele>1829.3</ele></trkpt>
      <trkpt lat="46.48340051855622" lon="7.691236347848875">
      <ele>1830.6</ele></trkpt>
      <trkpt lat="46.48341127817512" lon="7.69132499212348">
      <ele>1831.8</ele></trkpt>
      <trkpt lat="46.48341954651458" lon="7.69139315296516">
      <ele>1833.1</ele></trkpt>
      <trkpt lat="46.48344207871247" lon="7.6914627607659565">
      <ele>1834.4</ele></trkpt>
      <trkpt lat="46.48345377817924" lon="7.691492806870496">
      <ele>1835.6</ele></trkpt>
      <trkpt lat="46.48348306969651" lon="7.691536530875613">
      <ele>1836.9</ele></trkpt>
      <trkpt lat="46.483511488138966" lon="7.691596633573533">
      <ele>1838.1</ele></trkpt>
      <trkpt lat="46.48354831743458" lon="7.6916567625665255">
      <ele>1839.4</ele></trkpt>
      <trkpt lat="46.48355495215203" lon="7.691694950451695">
      <ele>1839.9</ele></trkpt>
      <trkpt lat="46.483581742878386" lon="7.69173459984469">
      <ele>1840.5</ele></trkpt>
      <trkpt lat="46.4835909358122" lon="7.691755075611629">
      <ele>1841.0</ele></trkpt>
      <trkpt lat="46.48358995615975" lon="7.691831397950064">
      <ele>1841.5</ele></trkpt>
      <trkpt lat="46.48360658353061" lon="7.691918676623676">
      <ele>1842.1</ele></trkpt>
      <trkpt lat="46.483616609701194" lon="7.691948715099768">
      <ele>1842.6</ele></trkpt>
      <trkpt lat="46.48361901274369" lon="7.692008696575929">
      <ele>1843.1</ele></trkpt>
      <trkpt lat="46.48362645619747" lon="7.692071423397318">
      <ele>1843.6</ele></trkpt>
      <trkpt lat="46.483644848108646" lon="7.692105577181356">
      <ele>1844.2</ele></trkpt>
      <trkpt lat="46.483648933169285" lon="7.692169629695182">
      <ele>1844.7</ele></trkpt>
      <trkpt lat="46.48366313298676" lon="7.69220785309921">
      <ele>1845.2</ele></trkpt>
      <trkpt lat="46.483679784371716" lon="7.6922842450006055">
      <ele>1845.8</ele></trkpt>
      <trkpt lat="46.48369647867862" lon="7.692329304115349">
      <ele>1846.3</ele></trkpt>
      <trkpt lat="46.483696362488395" lon="7.692397452270752">
      <ele>1846.8</ele></trkpt>
      <trkpt lat="46.48370469423195" lon="7.692432913492727">
      <ele>1847.3</ele></trkpt>
      <trkpt lat="46.48370967072776" lon="7.692464282855413">
      <ele>1847.9</ele></trkpt>
      <trkpt lat="46.483723891883365" lon="7.692488884546724">
      <ele>1848.4</ele></trkpt>
      <trkpt lat="46.48372719521723" lon="7.692520233067246">
      <ele>1848.9</ele></trkpt>
      <trkpt lat="46.48373805781653" lon="7.692550275639694">
      <ele>1849.5</ele></trkpt>
      <trkpt lat="46.48375979873308" lon="7.6925912432930375">
      <ele>1850.0</ele></trkpt>
      <trkpt lat="46.483767297115946" lon="7.6926171809488535">
      <ele>1850.2</ele></trkpt>
      <trkpt lat="46.48377054541801" lon="7.692677153560983">
      <ele>1850.3</ele></trkpt>
      <trkpt lat="46.483763712239124" lon="7.692747992109555">
      <ele>1850.5</ele></trkpt>
      <trkpt lat="46.48376115372105" lon="7.692769780434302">
      <ele>1850.6</ele></trkpt>
      <trkpt lat="46.48375606087406" lon="7.692806559243398">
      <ele>1850.8</ele></trkpt>
      <trkpt lat="46.48373330941084" lon="7.692851433613935">
      <ele>1850.9</ele></trkpt>
      <trkpt lat="46.48373159033723" lon="7.6928759606637085">
      <ele>1851.1</ele></trkpt>
      <trkpt lat="46.483725575347165" lon="7.692954968321558">
      <ele>1851.2</ele></trkpt>
      <trkpt lat="46.48372631399588" lon="7.693006763786022">
      <ele>1851.4</ele></trkpt>
      <trkpt lat="46.48372292783597" lon="7.693028548200142">
      <ele>1851.5</ele></trkpt>
      <trkpt lat="46.483694286605676" lon="7.6930883841357405">
      <ele>1851.7</ele></trkpt>
      <trkpt lat="46.48368079485822" lon="7.693123756042059">
      <ele>1851.9</ele></trkpt>
      <trkpt lat="46.48368159464822" lon="7.6931442057035575">
      <ele>1852.0</ele></trkpt>
      <trkpt lat="46.483688256346284" lon="7.693170126447852">
      <ele>1852.2</ele></trkpt>
      <trkpt lat="46.48370164685881" lon="7.69319200263397">
      <ele>1852.3</ele></trkpt>
      <trkpt lat="46.483732659575665" lon="7.693218024722449">
      <ele>1852.5</ele></trkpt>
      <trkpt lat="46.48374017616957" lon="7.693235771143552">
      <ele>1852.6</ele></trkpt>
      <trkpt lat="46.48374349759481" lon="7.693258954455566">
      <ele>1852.8</ele></trkpt>
      <trkpt lat="46.48374427276387" lon="7.693294393368841">
      <ele>1852.9</ele></trkpt>
      <trkpt lat="46.483746739428476" lon="7.693321661857122">
      <ele>1853.1</ele></trkpt>
      <trkpt lat="46.48375424374573" lon="7.693344877852713">
      <ele>1853.7</ele></trkpt>
      <trkpt lat="46.48376089588691" lon="7.693383066174017">
      <ele>1854.3</ele></trkpt>
      <trkpt lat="46.48376662586328" lon="7.693459407242465">
      <ele>1855.0</ele></trkpt>
      <trkpt lat="46.483772462964026" lon="7.69348395678639">
      <ele>1855.6</ele></trkpt>
      <trkpt lat="46.483781664901485" lon="7.693496267610611">
      <ele>1856.2</ele></trkpt>
      <trkpt lat="46.48382693552247" lon="7.693522356946608">
      <ele>1856.8</ele></trkpt>
      <trkpt lat="46.48384032596716" lon="7.693544233275737">
      <ele>1857.4</ele></trkpt>
      <trkpt lat="46.48384867278362" lon="7.693568807686944">
      <ele>1858.1</ele></trkpt>
      <trkpt lat="46.48385447009047" lon="7.693611081276696">
      <ele>1858.7</ele></trkpt>
      <trkpt lat="46.48385522664251" lon="7.693658774741365">
      <ele>1859.3</ele></trkpt>
      <trkpt lat="46.48386603389555" lon="7.693713339503542">
      <ele>1859.9</ele></trkpt>
      <trkpt lat="46.48388019631212" lon="7.693771996250992">
      <ele>1860.5</ele></trkpt>
      <trkpt lat="46.483890206914275" lon="7.693804743918047">
      <ele>1861.2</ele></trkpt>
      <trkpt lat="46.48391280512931" lon="7.693840298689796">
      <ele>1861.8</ele></trkpt>
      <trkpt lat="46.483931171643164" lon="7.693893531731281">
      <ele>1862.4</ele></trkpt>
      <trkpt lat="46.48395790346089" lon="7.693959058788999">
      <ele>1863.0</ele></trkpt>
      <trkpt lat="46.48397708505268" lon="7.694021841571435">
      <ele>1863.6</ele></trkpt>
      <trkpt lat="46.484015561735056" lon="7.694092880707046">
      <ele>1864.3</ele></trkpt>
      <trkpt lat="46.484029693093895" lon="7.694169261811591">
      <ele>1864.9</ele></trkpt>
      <trkpt lat="46.48405391496007" lon="7.694234790314285">
      <ele>1865.5</ele></trkpt>
      <trkpt lat="46.484077328181655" lon="7.694279882027819">
      <ele>1865.9</ele></trkpt>
      <trkpt lat="46.48409231461418" lon="7.694343999664247">
      <ele>1866.3</ele></trkpt>
      <trkpt lat="46.48411316283299" lon="7.694413601618562">
      <ele>1866.8</ele></trkpt>
      <trkpt lat="46.48413911910105" lon="7.694451881417046">
      <ele>1867.2</ele></trkpt>
      <trkpt lat="46.48416755752557" lon="7.694502427598625">
      <ele>1867.6</ele></trkpt>
      <trkpt lat="46.484180923020595" lon="7.694539293653548">
      <ele>1868.0</ele></trkpt>
      <trkpt lat="46.48420772547399" lon="7.694565309891187">
      <ele>1868.4</ele></trkpt>
      <trkpt lat="46.48423370359558" lon="7.694585878646809">
      <ele>1868.9</ele></trkpt>
      <trkpt lat="46.48425970038143" lon="7.694594166811525">
      <ele>1869.3</ele></trkpt>
      <trkpt lat="46.48427308756853" lon="7.694617397959053">
      <ele>1869.7</ele></trkpt>
      <trkpt lat="46.48428646864799" lon="7.694643337876706">
      <ele>1870.1</ele></trkpt>
      <trkpt lat="46.484287261784104" lon="7.694670611819865">
      <ele>1870.5</ele></trkpt>
      <trkpt lat="46.484309026690106" lon="7.69469660437974">
      <ele>1871.0</ele></trkpt>
      <trkpt lat="46.484312326333026" lon="7.694729320775934">
      <ele>1871.4</ele></trkpt>
      <trkpt lat="46.484331504222965" lon="7.6947975478514525">
      <ele>1871.8</ele></trkpt>
      <trkpt lat="46.484338955553376" lon="7.694852110484916">
      <ele>1872.2</ele></trkpt>
      <trkpt lat="46.48434810753187" lon="7.694898476662735">
      <ele>1872.6</ele></trkpt>
      <trkpt lat="46.48435979075676" lon="7.69493532196237">
      <ele>1873.1</ele></trkpt>
      <trkpt lat="46.48438068471195" lon="7.694984491556231">
      <ele>1873.5</ele></trkpt>
      <trkpt lat="46.48438905606901" lon="7.694994064007586">
      <ele>1873.9</ele></trkpt>
      <trkpt lat="46.484420942296424" lon="7.694995569187987">
      <ele>1874.5</ele></trkpt>
      <trkpt lat="46.48444525024982" lon="7.6950147629117644">
      <ele>1875.1</ele></trkpt>
      <trkpt lat="46.48448375751902" lon="7.695064002903276">
      <ele>1875.6</ele></trkpt>
      <trkpt lat="46.484525641892766" lon="7.695099623782811">
      <ele>1876.2</ele></trkpt>
      <trkpt lat="46.48456081174054" lon="7.695148861139338">
      <ele>1876.8</ele></trkpt>
      <trkpt lat="46.48459682812799" lon="7.695181732539884">
      <ele>1877.4</ele></trkpt>
      <trkpt lat="46.48466218664205" lon="7.6952392653681825">
      <ele>1877.9</ele></trkpt>
      <trkpt lat="46.484685608700644" lon="7.695280268807689">
      <ele>1878.5</ele></trkpt>
      <trkpt lat="46.484701523742515" lon="7.695299423017259">
      <ele>1879.1</ele></trkpt>
      <trkpt lat="46.484737552412945" lon="7.695326837971915">
      <ele>1879.7</ele></trkpt>
      <trkpt lat="46.48476933937078" lon="7.695384225152413">
      <ele>1880.2</ele></trkpt>
      <trkpt lat="46.48479363211234" lon="7.695406140938143">
      <ele>1880.8</ele></trkpt>
      <trkpt lat="46.48485646866327" lon="7.695465029729828">
      <ele>1881.4</ele></trkpt>
      <trkpt lat="46.48490423267171" lon="7.695506135729927">
      <ele>1882.0</ele></trkpt>
      <trkpt lat="46.48493688105194" lon="7.695548524579053">
      <ele>1882.5</ele></trkpt>
      <trkpt lat="46.484961963583004" lon="7.6955990822214755">
      <ele>1883.1</ele></trkpt>
      <trkpt lat="46.484960234920806" lon="7.695623609697287">
      <ele>1883.7</ele></trkpt>
      <trkpt lat="46.48496775091485" lon="7.6956454331083775">
      <ele>1884.2</ele></trkpt>
      <trkpt lat="46.48498866025483" lon="7.69568369017177">
      <ele>1884.8</ele></trkpt>
      <trkpt lat="46.485016286175984" lon="7.695723346551806">
      <ele>1885.4</ele></trkpt>
      <trkpt lat="46.48505145320408" lon="7.695765760589069">
      <ele>1885.9</ele></trkpt>
      <trkpt lat="46.48507986608272" lon="7.695831310927872">
      <ele>1886.3</ele></trkpt>
      <trkpt lat="46.48510664613694" lon="7.6958750397025675">
      <ele>1886.8</ele></trkpt>
      <trkpt lat="46.48515857722018" lon="7.695927079494991">
      <ele>1887.2</ele></trkpt>
      <trkpt lat="46.485189543007124" lon="7.695973550105857">
      <ele>1887.7</ele></trkpt>
      <trkpt lat="46.48522974129349" lon="7.696018710186422">
      <ele>1888.1</ele></trkpt>
      <trkpt lat="46.48525907449734" lon="7.696039295958065">
      <ele>1888.6</ele></trkpt>
      <trkpt lat="46.485311042862726" lon="7.696070876684256">
      <ele>1889.0</ele></trkpt>
      <trkpt lat="46.48535460857991" lon="7.69611467246519">
      <ele>1889.5</ele></trkpt>
      <trkpt lat="46.48538309308438" lon="7.696136621749519">
      <ele>1889.9</ele></trkpt>
      <trkpt lat="46.485403174968695" lon="7.696170773030207">
      <ele>1890.4</ele></trkpt>
      <trkpt lat="46.48541320366077" lon="7.696191267235063">
      <ele>1890.8</ele></trkpt>
      <trkpt lat="46.485429143530105" lon="7.696195432278561">
      <ele>1891.2</ele></trkpt>
      <trkpt lat="46.48544594472335" lon="7.696188687894521">
      <ele>1891.7</ele></trkpt>
      <trkpt lat="46.48548878011446" lon="7.696165735963147">
      <ele>1892.2</ele></trkpt>
      <trkpt lat="46.48551230746332" lon="7.69615219929869">
      <ele>1892.6</ele></trkpt>
      <trkpt lat="46.48553243953946" lon="7.6961522949311405">
      <ele>1893.1</ele></trkpt>
      <trkpt lat="46.48556349196065" lon="7.696156531762039">
      <ele>1893.5</ele></trkpt>
      <trkpt lat="46.485618908830745" lon="7.696139070248346">
      <ele>1894.0</ele></trkpt>
      <trkpt lat="46.485662534225774" lon="7.6961406449215035">
      <ele>1894.4</ele></trkpt>
      <trkpt lat="46.485696102365864" lon="7.69614623511157">
      <ele>1895.1</ele></trkpt>
      <trkpt lat="46.48575894521865" lon="7.696194238234788">
      <ele>1895.7</ele></trkpt>
      <trkpt lat="46.485827686376105" lon="7.696239521563015">
      <ele>1896.4</ele></trkpt>
      <trkpt lat="46.48585363303237" lon="7.696277803403739">
      <ele>1897.1</ele></trkpt>
      <trkpt lat="46.485912287274644" lon="7.696320330100652">
      <ele>1897.7</ele></trkpt>
      <trkpt lat="46.48597090979305" lon="7.6963887342792425">
      <ele>1898.4</ele></trkpt>
      <trkpt lat="46.48604463272213" lon="7.696458577883607">
      <ele>1899.1</ele></trkpt>
      <trkpt lat="46.486057192755915" lon="7.696469551263986">
      <ele>1899.7</ele></trkpt>
      <trkpt lat="46.48613096514274" lon="7.696517581027826">
      <ele>1900.4</ele></trkpt>
      <trkpt lat="46.48620050588633" lon="7.696575150021254">
      <ele>1901.1</ele></trkpt>
      <trkpt lat="46.48627593001887" lon="7.696628644761493">
      <ele>1901.7</ele></trkpt>
      <trkpt lat="46.486301055682816" lon="7.69665603555022">
      <ele>1902.4</ele></trkpt>
      <trkpt lat="46.48632536306405" lon="7.696679320064395">
      <ele>1903.0</ele></trkpt>
      <trkpt lat="46.486363029946226" lon="7.696729913394281">
      <ele>1903.7</ele></trkpt>
      <trkpt lat="46.4863772409179" lon="7.696758593726502">
      <ele>1904.4</ele></trkpt>
      <trkpt lat="46.48640233873872" lon="7.696798226608972">
      <ele>1905.0</ele></trkpt>
      <trkpt lat="46.486444209277735" lon="7.696851575059022">
      <ele>1905.7</ele></trkpt>
      <trkpt lat="46.486471806908035" lon="7.696903501143819">
      <ele>1906.4</ele></trkpt>
      <trkpt lat="46.48651192957555" lon="7.696993632951294">
      <ele>1907.0</ele></trkpt>
      <trkpt lat="46.48654795161679" lon="7.6970237848658325">
      <ele>1907.7</ele></trkpt>
      <trkpt lat="46.486562165898356" lon="7.697047021539002">
      <ele>1908.9</ele></trkpt>
      <trkpt lat="46.48664006394073" lon="7.697135966259901">
      <ele>1910.1</ele></trkpt>
      <trkpt lat="46.48667937242957" lon="7.697204306165064">
      <ele>1911.2</ele></trkpt>
      <trkpt lat="46.48668940407636" lon="7.6972234205574965">
      <ele>1912.4</ele></trkpt>
      <trkpt lat="46.486749646142336" lon="7.697319105862822">
      <ele>1913.6</ele></trkpt>
      <trkpt lat="46.48679149129991" lon="7.697387445123763">
      <ele>1914.8</ele></trkpt>
    </trkseg>
  </trk>
</gpx>