<?xml version='1.0' encoding='utf-8'?>
<gpx xmlns="http://www.topografix.com/GPX/1/1" xmlns:xsi="http://www.w3.org/2001/XMLSchema-instance" xsi:schemaLocation="http://www.topografix.com/GPX/1/1 http://www.topografix.com/GPX/1/1/gpx.xsd" version="1.1" creator="gpx.py -- https://github.com/tkrajina/gpxpy">
  <trk>
    <name>stockhorn-be</name>
    <trkseg>
      <trkpt lat="46.71750087643089" lon="7.553811872419672">
      <ele>693.0</ele></trkpt>
      <trkpt lat="46.717187842787126" lon="7.553579284908777">
      <ele>694.3</ele></trkpt>
      <trkpt lat="46.717054118435414" lon="7.553451504866816">
      <ele>695.7</ele></trkpt>
      <trkpt lat="46.716983729886266" lon="7.553387699140326">
      <ele>697.0</ele></trkpt>
      <trkpt lat="46.71691522610017" lon="7.55334602740203">
      <ele>698.3</ele></trkpt>
      <trkpt lat="46.716823862668306" lon="7.553315372096995">
      <ele>699.7</ele></trkpt>
      <trkpt lat="46.716652540551024" lon="7.553273482208784">
      <ele>701.0</ele></trkpt>
      <trkpt lat="46.71658592430985" lon="7.553251184889849">
      <ele>702.3</ele></trkpt>
      <trkpt lat="46.71650788592235" lon="7.553217798552165">
      <ele>703.7</ele></trkpt>
      <trkpt lat="46.716431788567334" lon="7.553159500990503">
      <ele>705.0</ele></trkpt>
      <trkpt lat="46.71637285742159" lon="7.553062500126174">
      <ele>706.4</ele></trkpt>
      <trkpt lat="46.71630825844904" lon="7.552921176017056">
      <ele>707.7</ele></trkpt>
      <trkpt lat="46.71625693798532" lon="7.552832470697148">
      <ele>709.0</ele></trkpt>
      <trkpt lat="46.71619418210544" lon="7.55275483229045">
      <ele>710.4</ele></trkpt>
      <trkpt lat="46.71611429811245" lon="7.552668826622094">
      <ele>711.7</ele></trkpt>
      <trkpt lat="46.71604200556121" lon="7.552610538293852">
      <ele>713.0</ele></trkpt>
      <trkpt lat="46.715962071691536" lon="7.552574389579238">
      <ele>714.4</ele></trkpt>
      <trkpt lat="46.71589353444124" lon="7.552565939846463">
      <ele>715.7</ele></trkpt>
      <trkpt lat="46.71584211423759" lon="7.552576896004727">
      <ele>717.0</ele></trkpt>
      <trkpt lat="46.71580400596193" lon="7.552607276132453">
      <ele>718.4</ele></trkpt>
      <trkpt lat="46.71576396022951" lon="7.5526680865139655">
      <ele>719.7</ele></trkpt>
      <trkpt lat="46.715626611592086" lon="7.552925252060725">
      <ele>721.5</ele></trkpt>
      <trkpt lat="46.71552934447074" lon="7.553085627037354">
      <ele>723.4</ele></trkpt>
      <trkpt lat="46.715456876514196" lon="7.553193438341133">
      <ele>725.2</ele></trkpt>
      <trkpt lat="46.71539779603597" lon="7.553254207479258">
      <ele>727.0</ele></trkpt>
      <trkpt lat="46.71534063580679" lon="7.553292851392494">
      <ele>728.9</ele></trkpt>
      <trkpt lat="46.7152415753003" lon="7.5533396849997985">
      <ele>730.7</ele></trkpt>
      <trkpt lat="46.71498058797184" lon="7.553474794932814">
      <ele>732.5</ele></trkpt>
      <trkpt lat="46.71489487260294" lon="7.553507832217952">
      <ele>734.4</ele></trkpt>
      <trkpt lat="46.714812967260855" lon="7.553527027293596">
      <ele>736.2</ele></trkpt>
      <trkpt lat="46.71469492858783" lon="7.553526776058656">
      <ele>738.0</ele></trkpt>
      <trkpt lat="46.714523592572455" lon="7.553498737262599">
      <ele>739.9</ele></trkpt>
      <trkpt lat="46.71423804741111" lon="7.55343721028855">
      <ele>741.7</ele></trkpt>
      <trkpt lat="46.713847803983285" lon="7.553339509051335">
      <ele>743.6</ele></trkpt>
      <trkpt lat="46.713750714474" lon="7.553322693277617">
      <ele>745.4</ele></trkpt>
      <trkpt lat="46.71365552987989" lon="7.553316945851323">
      <ele>747.2</ele></trkpt>
      <trkpt lat="46.71351986040723" lon="7.553316304511878">
      <ele>749.1</ele></trkpt>
      <trkpt lat="46.713269000327074" lon="7.553318884184413">
      <ele>750.9</ele></trkpt>
      <trkpt lat="46.71309001103461" lon="7.553315744430939">
      <ele>752.7</ele></trkpt>
      <trkpt lat="46.71294342003642" lon="7.553307128398905">
      <ele>754.6</ele></trkpt>
      <trkpt lat="46.712793005305095" lon="7.553290199704985">
      <ele>756.4</ele></trkpt>
      <trkpt lat="46.71265785247485" lon="7.5532677584200565">
      <ele>758.8</ele></trkpt>
      <trkpt lat="46.71238753303185" lon="7.553200748197156">
      <ele>761.2</ele></trkpt>
      <trkpt lat="46.71229046569877" lon="7.553161805253879">
      <ele>763.6</ele></trkpt>
      <trkpt lat="46.71223147968134" lon="7.553128462110903">
      <ele>766.0</ele></trkpt>
      <trkpt lat="46.71215347177206" lon="7.553064620199411">
      <ele>768.4</ele></trkpt>
      <trkpt lat="46.71192796618961" lon="7.553120305141393">
      <ele>770.8</ele></trkpt>
      <trkpt lat="46.711702460575054" lon="7.553175989618138">
      <ele>773.2</ele></trkpt>
      <trkpt lat="46.71151198651063" lon="7.5532420205905435">
      <ele>775.6</ele></trkpt>
      <trkpt lat="46.711369122066536" lon="7.553302607266967">
      <ele>778.0</ele></trkpt>
      <trkpt lat="46.711007170449136" lon="7.553490078233035">
      <ele>780.4</ele></trkpt>
      <trkpt lat="46.7109157345503" lon="7.553531405185835">
      <ele>782.8</ele></trkpt>
      <trkpt lat="46.71085094947008" lon="7.553575548118697">
      <ele>785.2</ele></trkpt>
      <trkpt lat="46.71080139713177" lon="7.55362526829632">
      <ele>787.6</ele></trkpt>
      <trkpt lat="46.710732790154694" lon="7.553686037573938">
      <ele>790.0</ele></trkpt>
      <trkpt lat="46.710669886924954" lon="7.553755096964455">
      <ele>792.4</ele></trkpt>
      <trkpt lat="46.710614630142466" lon="7.553788196137445">
      <ele>794.8</ele></trkpt>
      <trkpt lat="46.710547974847" lon="7.553804662438836">
      <ele>797.2</ele></trkpt>
      <trkpt lat="46.710456586328036" lon="7.55379893567929">
      <ele>799.6</ele></trkpt>
      <trkpt lat="46.710374706647634" lon="7.55380153343793">
      <ele>802.0</ele></trkpt>
      <trkpt lat="46.710243313658346" lon="7.553815089099617">
      <ele>804.4</ele></trkpt>
      <trkpt lat="46.71015952476076" lon="7.553828746273912">
      <ele>806.0</ele></trkpt>
      <trkpt lat="46.710075733061714" lon="7.553845175815218">
      <ele>807.7</ele></trkpt>
      <trkpt lat="46.71001862012955" lon="7.553836749769309">
      <ele>809.3</ele></trkpt>
      <trkpt lat="46.70995202567295" lon="7.553784023429064">
      <ele>810.9</ele></trkpt>
      <trkpt lat="46.70990828810737" lon="7.55372302872954">
      <ele>812.6</ele></trkpt>
      <trkpt lat="46.709891235450364" lon="7.553639937894484">
      <ele>814.2</ele></trkpt>
      <trkpt lat="46.70988371449411" lon="7.553551361823962">
      <ele>815.8</ele></trkpt>
      <trkpt lat="46.70989715382767" lon="7.553435132454057">
      <ele>817.5</ele></trkpt>
      <trkpt lat="46.70992009701851" lon="7.553341050165803">
      <ele>819.1</ele></trkpt>
      <trkpt lat="46.709950648820104" lon="7.553266377736372">
      <ele>820.8</ele></trkpt>
      <trkpt lat="46.71003071039288" lon="7.553175201959529">
      <ele>822.4</ele></trkpt>
      <trkpt lat="46.71016034897139" lon="7.553009393381741">
      <ele>824.0</ele></trkpt>
      <trkpt lat="46.710209917683166" lon="7.552943064885818">
      <ele>825.7</ele></trkpt>
      <trkpt lat="46.71022900823286" lon="7.5528960656557995">
      <ele>827.3</ele></trkpt>
      <trkpt lat="46.71022524195064" lon="7.552857296071592">
      <ele>828.9</ele></trkpt>
      <trkpt lat="46.71020241835892" lon="7.552832335216433">
      <ele>830.6</ele></trkpt>
      <trkpt lat="46.71016051532217" lon="7.552843310100162">
      <ele>832.2</ele></trkpt>
      <trkpt lat="46.710088159102774" lon="7.552848701857924">
      <ele>833.8</ele></trkpt>
      <trkpt lat="46.709964381939216" lon="7.5528567441390715">
      <ele>835.5</ele></trkpt>
      <trkpt lat="46.70985774116909" lon="7.552864822643203">
      <ele>837.1</ele></trkpt>
      <trkpt lat="46.70978345575021" lon="7.552892337152946">
      <ele>839.1</ele></trkpt>
      <trkpt lat="46.70969963158961" lon="7.552950288518285">
      <ele>841.2</ele></trkpt>
      <trkpt lat="46.70962907009371" lon="7.55304978830182">
      <ele>843.2</ele></trkpt>
      <trkpt lat="46.70952795383476" lon="7.553262720884575">
      <ele>845.3</ele></trkpt>
      <trkpt lat="46.7094401331397" lon="7.553483985024477">
      <ele>847.3</ele></trkpt>
      <trkpt lat="46.709354200144205" lon="7.553732923943425">
      <ele>849.4</ele></trkpt>
      <trkpt lat="46.70930833265513" lon="7.553901666467111">
      <ele>851.4</ele></trkpt>
      <trkpt lat="46.70929492642864" lon="7.553984678329984">
      <ele>853.5</ele></trkpt>
      <trkpt lat="46.709266306991765" lon="7.554042745489771">
      <ele>855.5</ele></trkpt>
      <trkpt lat="46.70922054832372" lon="7.554103548301748">
      <ele>857.5</ele></trkpt>
      <trkpt lat="46.709169069083025" lon="7.554172642798075">
      <ele>859.6</ele></trkpt>
      <trkpt lat="46.70914043553298" lon="7.554244545375354">
      <ele>861.6</ele></trkpt>
      <trkpt lat="46.709115571109805" lon="7.554360748425062">
      <ele>863.7</ele></trkpt>
      <trkpt lat="46.70910593817086" lon="7.554465907666148">
      <ele>865.7</ele></trkpt>
      <trkpt lat="46.70907726787485" lon="7.5545737983507735">
      <ele>867.8</ele></trkpt>
      <trkpt lat="46.70903526952634" lon="7.554687204995427">
      <ele>869.8</ele></trkpt>
      <trkpt lat="46.708991394480975" lon="7.55476184669747">
      <ele>871.9</ele></trkpt>
      <trkpt lat="46.708943740204376" lon="7.554819872154074">
      <ele>873.9</ele></trkpt>
      <trkpt lat="46.708867504435275" lon="7.554880595242752">
      <ele>876.0</ele></trkpt>
      <trkpt lat="46.70884629638144" lon="7.554903800720009">
      <ele>878.0</ele></trkpt>
      <trkpt lat="46.708774107885915" lon="7.5549828141101045">
      <ele>879.9</ele></trkpt>
      <trkpt lat="46.70868452147082" lon="7.555071192199549">
      <ele>881.9</ele></trkpt>
      <trkpt lat="46.70861968541041" lon="7.555173472043685">
      <ele>883.8</ele></trkpt>
      <trkpt lat="46.70856626786784" lon="7.555281307911642">
      <ele>885.8</ele></trkpt>
      <trkpt lat="46.70845176744221" lon="7.555532950424355">
      <ele>887.7</ele></trkpt>
      <trkpt lat="46.70837735649377" lon="7.555682259641756">
      <ele>889.6</ele></trkpt>
      <trkpt lat="46.708339164520886" lon="7.555784582911339">
      <ele>891.6</ele></trkpt>
      <trkpt lat="46.70831431559421" lon="7.555884175767695">
      <ele>893.5</ele></trkpt>
      <trkpt lat="46.70830660490285" lon="7.555964438743692">
      <ele>895.5</ele></trkpt>
      <trkpt lat="46.70831033073213" lon="7.556050245064715">
      <ele>897.4</ele></trkpt>
      <trkpt lat="46.70830836430658" lon="7.556116671966232">
      <ele>899.3</ele></trkpt>
      <trkpt lat="46.708291165190886" lon="7.55617753412521">
      <ele>901.3</ele></trkpt>
      <trkpt lat="46.70825491932218" lon="7.556232810110306">
      <ele>903.2</ele></trkpt>
      <trkpt lat="46.70819202022678" lon="7.556296344892271">
      <ele>905.2</ele></trkpt>
      <trkpt lat="46.70814246427233" lon="7.556357123229528">
      <ele>907.1</ele></trkpt>
      <trkpt lat="46.708098570970805" lon="7.556448383109578">
      <ele>909.0</ele></trkpt>
      <trkpt lat="46.70803176614899" lon="7.556600465944196">
      <ele>911.0</ele></trkpt>
      <trkpt lat="46.707985931653326" lon="7.5567332273568235">
      <ele>912.9</ele></trkpt>
      <trkpt lat="46.70795728214354" lon="7.55681897542577">
      <ele>914.9</ele></trkpt>
      <trkpt lat="46.70787904393618" lon="7.5569793492518675">
      <ele>916.8</ele></trkpt>
      <trkpt lat="46.707800834996654" lon="7.557128646559737">
      <ele>918.8</ele></trkpt>
      <trkpt lat="46.70775122032737" lon="7.55722818340408">
      <ele>920.9</ele></trkpt>
      <trkpt lat="46.70771691588712" lon="7.55725855097922">
      <ele>922.9</ele></trkpt>
      <trkpt lat="46.70766359138019" lon="7.557275041408366">
      <ele>925.0</ele></trkpt>
      <trkpt lat="46.70756266528925" lon="7.557280351113844">
      <ele>927.0</ele></trkpt>
      <trkpt lat="46.70744267596129" lon="7.5573133024767305">
      <ele>929.0</ele></trkpt>
      <trkpt lat="46.707320779935685" lon="7.557354553246103">
      <ele>931.1</ele></trkpt>
      <trkpt lat="46.7072026771028" lon="7.557398584441531">
      <ele>933.1</ele></trkpt>
      <trkpt lat="46.70705979308314" lon="7.557475775731722">
      <ele>935.2</ele></trkpt>
      <trkpt lat="46.70699312247522" lon="7.557497767801327">
      <ele>937.2</ele></trkpt>
      <trkpt lat="46.706899810111096" lon="7.55751694197395">
      <ele>939.2</ele></trkpt>
      <trkpt lat="46.70681980852739" lon="7.5575472082358335">
      <ele>941.3</ele></trkpt>
      <trkpt lat="46.70675504528681" lon="7.557577507980003">
      <ele>943.3</ele></trkpt>
      <trkpt lat="46.70669787777781" lon="7.55762167252414">
      <ele>945.4</ele></trkpt>
      <trkpt lat="46.70663496346367" lon="7.557699038865126">
      <ele>947.4</ele></trkpt>
      <trkpt lat="46.70656439780628" lon="7.557798526793507">
      <ele>949.4</ele></trkpt>
      <trkpt lat="46.706507163686595" lon="7.557906347532661">
      <ele>951.5</ele></trkpt>
      <trkpt lat="46.70646140006198" lon="7.557969903109434">
      <ele>953.5</ele></trkpt>
      <trkpt lat="46.70638899177434" lon="7.558033399652325">
      <ele>955.6</ele></trkpt>
      <trkpt lat="46.70630516146832" lon="7.55807750442675">
      <ele>957.6</ele></trkpt>
      <trkpt lat="46.70623465666128" lon="7.558127169916225">
      <ele>959.6</ele></trkpt>
      <trkpt lat="46.70619270379859" lon="7.558185202068085">
      <ele>961.6</ele></trkpt>
      <trkpt lat="46.70613548381958" lon="7.558279186773556">
      <ele>963.5</ele></trkpt>
      <trkpt lat="46.706074368605336" lon="7.558458957315174">
      <ele>965.5</ele></trkpt>
      <trkpt lat="46.70603047680986" lon="7.558555730260519">
      <ele>967.5</ele></trkpt>
      <trkpt lat="46.70597324779038" lon="7.558658017809959">
      <ele>969.5</ele></trkpt>
      <trkpt lat="46.705910318205774" lon="7.558749216728362">
      <ele>971.4</ele></trkpt>
      <trkpt lat="46.70584930116983" lon="7.558826584852229">
      <ele>973.4</ele></trkpt>
      <trkpt lat="46.70573492432043" lon="7.558953641869356">
      <ele>975.4</ele></trkpt>
      <trkpt lat="46.705651073443" lon="7.559025427290986">
      <ele>977.4</ele></trkpt>
      <trkpt lat="46.70556914395203" lon="7.5590750654554215">
      <ele>979.3</ele></trkpt>
      <trkpt lat="46.705491051914876" lon="7.559102560743993">
      <ele>981.3</ele></trkpt>
      <trkpt lat="46.70530246086352" lon="7.55918795953944">
      <ele>983.3</ele></trkpt>
      <trkpt lat="46.705163453838956" lon="7.559195952566153">
      <ele>985.2</ele></trkpt>
      <trkpt lat="46.70504923456812" lon="7.559173546402564">
      <ele>987.2</ele></trkpt>
      <trkpt lat="46.70497119513769" lon="7.55915122109448">
      <ele>989.2</ele></trkpt>
      <trkpt lat="46.704900800940976" lon="7.559095712494978">
      <ele>991.2</ele></trkpt>
      <trkpt lat="46.704855206100376" lon="7.558998742513146">
      <ele>993.1</ele></trkpt>
      <trkpt lat="46.70476772820569" lon="7.558901666321564">
      <ele>995.1</ele></trkpt>
      <trkpt lat="46.70467450284568" lon="7.558829500744841">
      <ele>997.1</ele></trkpt>
      <trkpt lat="46.70461362888656" lon="7.558779545248843">
      <ele>998.6</ele></trkpt>
      <trkpt lat="46.70454512406965" lon="7.55874064834228">
      <ele>1000.1</ele></trkpt>
      <trkpt lat="46.70444994205672" lon="7.558715526690007">
      <ele>1001.6</ele></trkpt>
      <trkpt lat="46.704330016369724" lon="7.558687577984652">
      <ele>1003.1</ele></trkpt>
      <trkpt lat="46.70425956079886" lon="7.558690193437779">
      <ele>1004.6</ele></trkpt>
      <trkpt lat="46.7042081574242" lon="7.558684534906967">
      <ele>1006.1</ele></trkpt>
      <trkpt lat="46.704132045305954" lon="7.558642849393174">
      <ele>1007.6</ele></trkpt>
      <trkpt lat="46.70402737513559" lon="7.558590038273319">
      <ele>1009.1</ele></trkpt>
      <trkpt lat="46.70383710435613" lon="7.558459523197066">
      <ele>1010.6</ele></trkpt>
      <trkpt lat="46.70375913740199" lon="7.558368014984312">
      <ele>1012.0</ele></trkpt>
      <trkpt lat="46.70369258302873" lon="7.558287607601233">
      <ele>1013.5</ele></trkpt>
      <trkpt lat="46.70365074037251" lon="7.558240467869721">
      <ele>1015.0</ele></trkpt>
      <trkpt lat="46.7036126653794" lon="7.558237611439329">
      <ele>1016.5</ele></trkpt>
      <trkpt lat="46.70357267753084" lon="7.558240294939113">
      <ele>1018.0</ele></trkpt>
      <trkpt lat="46.703545980083454" lon="7.5582734484576894">
      <ele>1019.5</ele></trkpt>
      <trkpt lat="46.70350597192524" lon="7.558295497203066">
      <ele>1021.0</ele></trkpt>
      <trkpt lat="46.70345455691175" lon="7.5583009143280115">
      <ele>1022.5</ele></trkpt>
      <trkpt lat="46.70338413646331" lon="7.558278620900321">
      <ele>1024.0</ele></trkpt>
      <trkpt lat="46.70330423621335" lon="7.5582120188199">
      <ele>1025.5</ele></trkpt>
      <trkpt lat="46.703233835754254" lon="7.558162044198793">
      <ele>1027.0</ele></trkpt>
      <trkpt lat="46.70312914507223" lon="7.558128600030055">
      <ele>1028.2</ele></trkpt>
      <trkpt lat="46.703030172607356" lon="7.55809794069675">
      <ele>1029.5</ele></trkpt>
      <trkpt lat="46.70296928353391" lon="7.558053518540104">
      <ele>1030.8</ele></trkpt>
      <trkpt lat="46.70292740923109" lon="7.55804512285312">
      <ele>1032.0</ele></trkpt>
      <trkpt lat="46.70285310801751" lon="7.558086473819466">
      <ele>1033.2</ele></trkpt>
      <trkpt lat="46.70275782150681" lon="7.558160990404046">
      <ele>1034.5</ele></trkpt>
      <trkpt lat="46.702708299031514" lon="7.55818025888282">
      <ele>1035.8</ele></trkpt>
      <trkpt lat="46.702654971180294" lon="7.558191202795571">
      <ele>1037.0</ele></trkpt>
      <trkpt lat="46.70261881772138" lon="7.558174516694972">
      <ele>1038.2</ele></trkpt>
      <trkpt lat="46.7026055240904" lon="7.558138516224253">
      <ele>1039.5</ele></trkpt>
      <trkpt lat="46.70262460812748" lon="7.558099802304008">
      <ele>1040.8</ele></trkpt>
      <trkpt lat="46.702685583822955" lon="7.558052891060124">
      <ele>1042.0</ele></trkpt>
      <trkpt lat="46.702771329569835" lon="7.557992187347245">
      <ele>1043.2</ele></trkpt>
      <trkpt lat="46.7028628018831" lon="7.557917662019771">
      <ele>1044.5</ele></trkpt>
      <trkpt lat="46.70291044360923" lon="7.5578817960316815">
      <ele>1045.8</ele></trkpt>
      <trkpt lat="46.70295804453212" lon="7.557876357063067">
      <ele>1047.0</ele></trkpt>
      <trkpt lat="46.70311608046953" lon="7.557882250203767">
      <ele>1048.2</ele></trkpt>
      <trkpt lat="46.70322653222999" lon="7.557860343790512">
      <ele>1049.5</ele></trkpt>
      <trkpt lat="46.703369352953544" lon="7.557844052894996">
      <ele>1050.8</ele></trkpt>
      <trkpt lat="46.70341697442511" lon="7.557827551749153">
      <ele>1052.0</ele></trkpt>
      <trkpt lat="46.70345892999782" lon="7.557766763309297">
      <ele>1054.0</ele></trkpt>
      <trkpt lat="46.70351805050931" lon="7.557670014832251">
      <ele>1056.0</ele></trkpt>
      <trkpt lat="46.70356571813242" lon="7.557609238743307">
      <ele>1057.9</ele></trkpt>
      <trkpt lat="46.70361906036073" lon="7.55758444675853">
      <ele>1059.9</ele></trkpt>
      <trkpt lat="46.70367808553564" lon="7.557579032624393">
      <ele>1061.9</ele></trkpt>
      <trkpt lat="46.70377518316835" lon="7.5575875497338565">
      <ele>1063.8</ele></trkpt>
      <trkpt lat="46.70394653565844" lon="7.557599002584532">
      <ele>1065.8</ele></trkpt>
      <trkpt lat="46.70406458666787" lon="7.557604793837592">
      <ele>1067.8</ele></trkpt>
      <trkpt lat="46.704114103259386" lon="7.55759106855311">
      <ele>1069.8</ele></trkpt>
      <trkpt lat="46.704161739112024" lon="7.557560732580711">
      <ele>1071.8</ele></trkpt>
      <trkpt lat="46.704239848105445" lon="7.557516616157555">
      <ele>1073.7</ele></trkpt>
      <trkpt lat="46.70430272194661" lon="7.557478010311332">
      <ele>1075.7</ele></trkpt>
      <trkpt lat="46.70439985706085" lon="7.557450542110615">
      <ele>1077.7</ele></trkpt>
      <trkpt lat="46.70446840555911" lon="7.557447920836237">
      <ele>1079.7</ele></trkpt>
      <trkpt lat="46.70461691527556" lon="7.5574537919228915">
      <ele>1081.6</ele></trkpt>
      <trkpt lat="46.70470452451064" lon="7.5574346059026976">
      <ele>1083.6</ele></trkpt>
      <trkpt lat="46.70480930758771" lon="7.5573794850971545">
      <ele>1085.6</ele></trkpt>
      <trkpt lat="46.70486837017686" lon="7.55733809815632">
      <ele>1087.5</ele></trkpt>
      <trkpt lat="46.70491033988155" lon="7.55726346005801">
      <ele>1089.5</ele></trkpt>
      <trkpt lat="46.70495998872168" lon="7.557122411646399">
      <ele>1091.5</ele></trkpt>
      <trkpt lat="46.70500005124177" lon="7.557047769071158">
      <ele>1093.4</ele></trkpt>
      <trkpt lat="46.70503059648796" lon="7.556973105524705">
      <ele>1095.4</ele></trkpt>
      <trkpt lat="46.70507443531788" lon="7.556926140295758">
      <ele>1097.3</ele></trkpt>
      <trkpt lat="46.70513732903743" lon="7.556868154227739">
      <ele>1099.2</ele></trkpt>
      <trkpt lat="46.70516785982419" lon="7.556807338099883">
      <ele>1101.2</ele></trkpt>
      <trkpt lat="46.705194605158745" lon="7.556718818125412">
      <ele>1103.1</ele></trkpt>
      <trkpt lat="46.7052328637989" lon="7.556552833316393">
      <ele>1105.0</ele></trkpt>
      <trkpt lat="46.70527483541812" lon="7.55646713158551">
      <ele>1107.0</ele></trkpt>
      <trkpt lat="46.70535110592212" lon="7.556364884563154">
      <ele>1108.9</ele></trkpt>
      <trkpt lat="46.705385458669824" lon="7.5562874562685876">
      <ele>1110.8</ele></trkpt>
      <trkpt lat="46.70542368488841" lon="7.556143608682104">
      <ele>1112.8</ele></trkpt>
      <trkpt lat="46.705456130878204" lon="7.556074492530462">
      <ele>1114.7</ele></trkpt>
      <trkpt lat="46.705511422069335" lon="7.5559998815980345">
      <ele>1116.7</ele></trkpt>
      <trkpt lat="46.70567342535197" lon="7.5558479987252065">
      <ele>1118.6</ele></trkpt>
      <trkpt lat="46.70578395058227" lon="7.5557541278873295">
      <ele>1120.5</ele></trkpt>
      <trkpt lat="46.70583542226521" lon="7.55569335580615">
      <ele>1122.5</ele></trkpt>
      <trkpt lat="46.705862170045215" lon="7.555610378590733">
      <ele>1124.4</ele></trkpt>
      <trkpt lat="46.70587749018189" lon="7.555521832151211">
      <ele>1126.3</ele></trkpt>
      <trkpt lat="46.705871868744595" lon="7.555433253433552">
      <ele>1128.3</ele></trkpt>
      <trkpt lat="46.70589672344352" lon="7.555336437089513">
      <ele>1130.2</ele></trkpt>
      <trkpt lat="46.70593503325577" lon="7.555109552329494">
      <ele>1132.0</ele></trkpt>
      <trkpt lat="46.70594657049302" lon="7.55499885907612">
      <ele>1133.9</ele></trkpt>
      <trkpt lat="46.70594482987329" lon="7.5548355568565295">
      <ele>1135.8</ele></trkpt>
      <trkpt lat="46.70595450539244" lon="7.554688886254427">
      <ele>1137.6</ele></trkpt>
      <trkpt lat="46.70597181340485" lon="7.554520080501438">
      <ele>1139.5</ele></trkpt>
      <trkpt lat="46.705994892235154" lon="7.55429316222138">
      <ele>1141.3</ele></trkpt>
      <trkpt lat="46.70601404725712" lon="7.554174194508513">
      <ele>1143.2</ele></trkpt>
      <trkpt lat="46.70603324475766" lon="7.554021999537728">
      <ele>1145.0</ele></trkpt>
      <trkpt lat="46.70608098315027" lon="7.553889244696379">
      <ele>1146.9</ele></trkpt>
      <trkpt lat="46.70614204090629" lon="7.553759290235198">
      <ele>1148.7</ele></trkpt>
      <trkpt lat="46.7061669220889" lon="7.553634789778195">
      <ele>1150.5</ele></trkpt>
      <trkpt lat="46.70616893446655" lon="7.553521303253429">
      <ele>1152.4</ele></trkpt>
      <trkpt lat="46.706148068197535" lon="7.55344652676926">
      <ele>1154.2</ele></trkpt>
      <trkpt lat="46.706125258656385" lon="7.5534077195934906">
      <ele>1156.1</ele></trkpt>
      <trkpt lat="46.70609859945309" lon="7.553413207341986">
      <ele>1158.0</ele></trkpt>
      <trkpt lat="46.70608142405569" lon="7.553451929465654">
      <ele>1159.8</ele></trkpt>
      <trkpt lat="46.706081354411886" lon="7.553521116886106">
      <ele>1161.7</ele></trkpt>
      <trkpt lat="46.70607556422617" lon="7.553598595679484">
      <ele>1163.5</ele></trkpt>
      <trkpt lat="46.706041196546884" lon="7.553692646811858">
      <ele>1165.4</ele></trkpt>
      <trkpt lat="46.70601259400361" lon="7.553734103574966">
      <ele>1167.2</ele></trkpt>
      <trkpt lat="46.705959219106795" lon="7.553792114534108">
      <ele>1169.6</ele></trkpt>
      <trkpt lat="46.70587153224572" lon="7.553888797566376">
      <ele>1171.9</ele></trkpt>
      <trkpt lat="46.705644671211445" lon="7.554167859652692">
      <ele>1174.3</ele></trkpt>
      <trkpt lat="46.70549217393714" lon="7.554341906061773">
      <ele>1176.7</ele></trkpt>
      <trkpt lat="46.70544831032807" lon="7.55440548061133">
      <ele>1179.0</ele></trkpt>
      <trkpt lat="46.705360550403185" lon="7.554582423839891">
      <ele>1181.4</ele></trkpt>
      <trkpt lat="46.705253779995864" lon="7.554717821544813">
      <ele>1183.8</ele></trkpt>
      <trkpt lat="46.705177573505665" lon="7.554767478187033">
      <ele>1186.2</ele></trkpt>
      <trkpt lat="46.70511090621668" lon="7.554786713756172">
      <ele>1188.5</ele></trkpt>
      <trkpt lat="46.704990934490425" lon="7.554803062427372">
      <ele>1190.9</ele></trkpt>
      <trkpt lat="46.704899503710294" lon="7.554838838264043">
      <ele>1193.3</ele></trkpt>
      <trkpt lat="46.704790925217644" lon="7.554885665637176">
      <ele>1195.6</ele></trkpt>
      <trkpt lat="46.70470141272743" lon="7.554910382927435">
      <ele>1198.0</ele></trkpt>
      <trkpt lat="46.70462710984967" lon="7.5549544986201465">
      <ele>1200.4</ele></trkpt>
      <trkpt lat="46.70457754275671" lon="7.555018059359494">
      <ele>1202.8</ele></trkpt>
      <trkpt lat="46.704487888449535" lon="7.55517285685067">
      <ele>1205.1</ele></trkpt>
      <trkpt lat="46.70444776207791" lon="7.555311154269057">
      <ele>1207.5</ele></trkpt>
      <trkpt lat="46.70438287761264" lon="7.55546047333188">
      <ele>1209.9</ele></trkpt>
      <trkpt lat="46.70432756926515" lon="7.555543386504145">
      <ele>1212.2</ele></trkpt>
      <trkpt lat="46.70417130973002" lon="7.555664838025944">
      <ele>1214.6</ele></trkpt>
      <trkpt lat="46.70410464844842" lon="7.555686831174738">
      <ele>1216.4</ele></trkpt>
      <trkpt lat="46.70405515479786" lon="7.555678420629699">
      <ele>1218.2</ele></trkpt>
      <trkpt lat="46.70401329972093" lon="7.555642344844015">
      <ele>1220.0</ele></trkpt>
      <trkpt lat="46.70393533617633" lon="7.555545309288817">
      <ele>1221.7</ele></trkpt>
      <trkpt lat="46.703798400826116" lon="7.555392783017144">
      <ele>1223.5</ele></trkpt>
      <trkpt lat="46.703629124434066" lon="7.555206988038498">
      <ele>1225.3</ele></trkpt>
      <trkpt lat="46.7035112405484" lon="7.555046201411571">
      <ele>1227.1</ele></trkpt>
      <trkpt lat="46.703421846584035" lon="7.554954674067783">
      <ele>1228.9</ele></trkpt>
      <trkpt lat="46.703341933108646" lon="7.55489915203867">
      <ele>1230.7</ele></trkpt>
      <trkpt lat="46.70327342132616" lon="7.554865792016325">
      <ele>1232.4</ele></trkpt>
      <trkpt lat="46.70321248871083" lon="7.554862888780325">
      <ele>1234.2</ele></trkpt>
      <trkpt lat="46.703149629844944" lon="7.554887662775196">
      <ele>1236.0</ele></trkpt>
      <trkpt lat="46.703090565309616" lon="7.554931823129834">
      <ele>1237.8</ele></trkpt>
      <trkpt lat="46.70305432338127" lon="7.554992625668143">
      <ele>1239.6</ele></trkpt>
      <trkpt lat="46.702970378915964" lon="7.5551585062826705">
      <ele>1241.4</ele></trkpt>
      <trkpt lat="46.70290744927742" lon="7.555252476248814">
      <ele>1243.2</ele></trkpt>
      <trkpt lat="46.70284072813039" lon="7.555324287599827">
      <ele>1244.9</ele></trkpt>
      <trkpt lat="46.70277784650077" lon="7.555371211012554">
      <ele>1246.7</ele></trkpt>
      <trkpt lat="46.702695941746185" lon="7.555407005023493">
      <ele>1248.5</ele></trkpt>
      <trkpt lat="46.70263881189314" lon="7.555415184490802">
      <ele>1250.3</ele></trkpt>
      <trkpt lat="46.702572178474504" lon="7.555401206369363">
      <ele>1252.1</ele></trkpt>
      <trkpt lat="46.70251509676382" lon="7.5553623399184335">
      <ele>1253.9</ele></trkpt>
      <trkpt lat="46.70246185743476" lon="7.555295800835471">
      <ele>1255.7</ele></trkpt>
      <trkpt lat="46.702437174903714" lon="7.555215476510221">
      <ele>1257.4</ele></trkpt>
      <trkpt lat="46.70241634133648" lon="7.555118567657246">
      <ele>1259.2</ele></trkpt>
      <trkpt lat="46.702378418216945" lon="7.554957957104829">
      <ele>1261.0</ele></trkpt>
      <trkpt lat="46.702343019201834" lon="7.5548625207922875">
      <ele>1262.8</ele></trkpt>
      <trkpt lat="46.70228599802623" lon="7.554737500442964">
      <ele>1264.6</ele></trkpt>
      <trkpt lat="46.70221136382389" lon="7.554470494609139">
      <ele>1266.4</ele></trkpt>
      <trkpt lat="46.70216015393583" lon="7.554273885918712">
      <ele>1268.2</ele></trkpt>
      <trkpt lat="46.70213175865548" lon="7.554110525094599">
      <ele>1269.9</ele></trkpt>
      <trkpt lat="46.70210911441475" lon="7.553908447089575">
      <ele>1271.7</ele></trkpt>
      <trkpt lat="46.70206930549922" lon="7.553734000413775">
      <ele>1273.5</ele></trkpt>
      <trkpt lat="46.70205366702762" lon="7.553631193740058">
      <ele>1275.3</ele></trkpt>
      <trkpt lat="46.70203332030647" lon="7.553531868261285">
      <ele>1277.1</ele></trkpt>
      <trkpt lat="46.702001030403245" lon="7.553465376133813">
      <ele>1278.9</ele></trkpt>
      <trkpt lat="46.70197677615697" lon="7.553440899573845">
      <ele>1280.6</ele></trkpt>
      <trkpt lat="46.70195156935692" lon="7.553415453426542">
      <ele>1282.4</ele></trkpt>
      <trkpt lat="46.70188308772933" lon="7.553351669646499">
      <ele>1284.2</ele></trkpt>
      <trkpt lat="46.70185075749525" lon="7.553307301368979">
      <ele>1286.0</ele></trkpt>
      <trkpt lat="46.70184511764457" lon="7.553235348333781">
      <ele>1287.4</ele></trkpt>
      <trkpt lat="46.701862359653724" lon="7.553130206077394">
      <ele>1288.8</ele></trkpt>
      <trkpt lat="46.70188340176956" lon="7.553038918703066">
      <ele>1290.3</ele></trkpt>
      <trkpt lat="46.70189301954003" lon="7.552947607070406">
      <ele>1291.7</ele></trkpt>
      <trkpt lat="46.70189313318659" lon="7.552834125488882">
      <ele>1293.1</ele></trkpt>
      <trkpt lat="46.70188751243303" lon="7.552742781598828">
      <ele>1294.5</ele></trkpt>
      <trkpt lat="46.701866680892564" lon="7.55262373797105">
      <ele>1296.0</ele></trkpt>
      <trkpt lat="46.70182311663976" lon="7.552388405902679">
      <ele>1297.4</ele></trkpt>
      <trkpt lat="46.70178521594512" lon="7.552219483119007">
      <ele>1298.8</ele></trkpt>
      <trkpt lat="46.701756737894485" lon="7.552136394319764">
      <ele>1300.2</ele></trkpt>
      <trkpt lat="46.70170731754007" lon="7.5520449587353955">
      <ele>1301.7</ele></trkpt>
      <trkpt lat="46.70164647283938" lon="7.551953499341691">
      <ele>1303.1</ele></trkpt>
      <trkpt lat="46.70156662929999" lon="7.551826029970574">
      <ele>1304.5</ele></trkpt>
      <trkpt lat="46.70154578187326" lon="7.55174019879888">
      <ele>1306.0</ele></trkpt>
      <trkpt lat="46.70151738845138" lon="7.551571297226033">
      <ele>1307.4</ele></trkpt>
      <trkpt lat="46.701500347871004" lon="7.551474412438844">
      <ele>1308.8</ele></trkpt>
      <trkpt lat="46.701468057941426" lon="7.55138853146296">
      <ele>1310.2</ele></trkpt>
      <trkpt lat="46.701441510126806" lon="7.551272236257511">
      <ele>1311.7</ele></trkpt>
      <trkpt lat="46.70141502112046" lon="7.551114427107477">
      <ele>1313.1</ele></trkpt>
      <trkpt lat="46.70139414698738" lon="7.5510368992302155">
      <ele>1314.5</ele></trkpt>
      <trkpt lat="46.70133717276376" lon="7.550887329785179">
      <ele>1315.7</ele></trkpt>
      <trkpt lat="46.701302987055534" lon="7.550798686593107">
      <ele>1316.9</ele></trkpt>
      <trkpt lat="46.7012840396399" lon="7.550710075143665">
      <ele>1318.1</ele></trkpt>
      <trkpt lat="46.701270799866194" lon="7.550607655004847">
      <ele>1319.2</ele></trkpt>
      <trkpt lat="46.70125372592091" lon="7.550543955992073">
      <ele>1320.4</ele></trkpt>
      <trkpt lat="46.70121570856224" lon="7.5504913014775745">
      <ele>1321.6</ele></trkpt>
      <trkpt lat="46.701152959133545" lon="7.550405384641446">
      <ele>1322.8</ele></trkpt>
      <trkpt lat="46.70109482651732" lon="7.550262090260371">
      <ele>1324.0</ele></trkpt>
      <trkpt lat="46.70107226113531" lon="7.5502392534485585">
      <ele>1325.2</ele></trkpt>
      <trkpt lat="46.70104152725966" lon="7.550226193131596">
      <ele>1326.3</ele></trkpt>
      <trkpt lat="46.70097870076194" lon="7.550246486790376">
      <ele>1327.5</ele></trkpt>
      <trkpt lat="46.70094128892819" lon="7.5502643748054465">
      <ele>1328.7</ele></trkpt>
      <trkpt lat="46.70091162313917" lon="7.550253748702957">
      <ele>1329.9</ele></trkpt>
      <trkpt lat="46.70087935559749" lon="7.550226825531466">
      <ele>1331.1</ele></trkpt>
      <trkpt lat="46.70082680042465" lon="7.550156712345493">
      <ele>1332.3</ele></trkpt>
      <trkpt lat="46.70077748122237" lon="7.550089024883587">
      <ele>1333.5</ele></trkpt>
      <trkpt lat="46.700729046886124" lon="7.550054759496283">
      <ele>1334.6</ele></trkpt>
      <trkpt lat="46.70063355469782" lon="7.550022881371494">
      <ele>1335.8</ele></trkpt>
      <trkpt lat="46.7005455618148" lon="7.55000323098971">
      <ele>1337.0</ele></trkpt>
      <trkpt lat="46.70045938024945" lon="7.549952622567862">
      <ele>1338.2</ele></trkpt>
      <trkpt lat="46.70040988017712" lon="7.549913465225024">
      <ele>1338.9</ele></trkpt>
      <trkpt lat="46.70040301504456" lon="7.549887392427241">
      <ele>1339.6</ele></trkpt>
      <trkpt lat="46.70040045637566" lon="7.549863760473365">
      <ele>1340.3</ele></trkpt>
      <trkpt lat="46.700405600509065" lon="7.549818949668386">
      <ele>1341.0</ele></trkpt>
      <trkpt lat="46.700393901334614" lon="7.549787166195781">
      <ele>1341.7</ele></trkpt>
      <trkpt lat="46.70037618125477" lon="7.549767595546683">
      <ele>1342.3</ele></trkpt>
      <trkpt lat="46.70025495102536" lon="7.549672891856596">
      <ele>1343.0</ele></trkpt>
      <trkpt lat="46.700194064036744" lon="7.549622950754976">
      <ele>1343.7</ele></trkpt>
      <trkpt lat="46.70014839924117" lon="7.549589646324226">
      <ele>1344.4</ele></trkpt>
      <trkpt lat="46.70002471283516" lon="7.549522971181523">
      <ele>1345.1</ele></trkpt>
      <trkpt lat="46.69995811364204" lon="7.549473018736279">
      <ele>1345.8</ele></trkpt>
      <trkpt lat="46.699902946764084" lon="7.549414787267884">
      <ele>1346.5</ele></trkpt>
      <trkpt lat="46.69984590062394" lon="7.5493371619104295">
      <ele>1347.2</ele></trkpt>
      <trkpt lat="46.69979647990769" lon="7.549262337302325">
      <ele>1347.9</ele></trkpt>
      <trkpt lat="46.69975272377636" lon="7.549217975940786">
      <ele>1348.5</ele></trkpt>
      <trkpt lat="46.69969945134734" lon="7.549181897741765">
      <ele>1349.2</ele></trkpt>
      <trkpt lat="46.69962330164938" lon="7.549156834155734">
      <ele>1349.9</ele></trkpt>
      <trkpt lat="46.699503378923936" lon="7.549123378520865">
      <ele>1350.6</ele></trkpt>
      <trkpt lat="46.6993929877814" lon="7.54908439879939">
      <ele>1351.3</ele></trkpt>
      <trkpt lat="46.69931877017083" lon="7.54904273441709">
      <ele>1352.0</ele></trkpt>
      <trkpt lat="46.699259801609664" lon="7.548990040028425">
      <ele>1352.9</ele></trkpt>
      <trkpt lat="46.69918373748585" lon="7.548876408451207">
      <ele>1353.8</ele></trkpt>
      <trkpt lat="46.69910769925357" lon="7.548754474766006">
      <ele>1354.8</ele></trkpt>
      <trkpt lat="46.69906398296789" lon="7.548668602091311">
      <ele>1355.7</ele></trkpt>
      <trkpt lat="46.69901839525329" lon="7.548555033420758">
      <ele>1356.6</ele></trkpt>
      <trkpt lat="46.698969024628255" lon="7.548427637249195">
      <ele>1357.5</ele></trkpt>
      <trkpt lat="46.69889680327745" lon="7.548283590004033">
      <ele>1358.5</ele></trkpt>
      <trkpt lat="46.69884549773035" lon="7.548175541014207">
      <ele>1359.4</ele></trkpt>
      <trkpt lat="46.69880179959669" lon="7.54807029255856">
      <ele>1360.3</ele></trkpt>
      <trkpt lat="46.69875998558761" lon="7.5479982447241145">
      <ele>1361.2</ele></trkpt>
      <trkpt lat="46.69867441222326" lon="7.547884609432767">
      <ele>1362.2</ele></trkpt>
      <trkpt lat="46.69855649572812" lon="7.547737699545745">
      <ele>1363.1</ele></trkpt>
      <trkpt lat="46.69850999662627" lon="7.547682613704231">
      <ele>1364.0</ele></trkpt>
      <trkpt lat="46.698477876745216" lon="7.547632316144204">
      <ele>1365.0</ele></trkpt>
      <trkpt lat="46.698465086085456" lon="7.547612482279242">
      <ele>1365.9</ele></trkpt>
      <trkpt lat="46.698452928382984" lon="7.5475986378744535">
      <ele>1366.8</ele></trkpt>
      <trkpt lat="46.69843983055953" lon="7.547580176241136">
      <ele>1367.7</ele></trkpt>
      <trkpt lat="46.698418615277276" lon="7.5475653852805396">
      <ele>1368.7</ele></trkpt>
      <trkpt lat="46.698394133488065" lon="7.547561204318247">
      <ele>1369.6</ele></trkpt>
      <trkpt lat="46.69836684596732" lon="7.547574956042855">
      <ele>1370.5</ele></trkpt>
      <trkpt lat="46.69833067390272" lon="7.547604379328559">
      <ele>1371.7</ele></trkpt>
      <trkpt lat="46.69829355864018" lon="7.547632401691246">
      <ele>1373.0</ele></trkpt>
      <trkpt lat="46.69824677736205" lon="7.547665477429812">
      <ele>1374.2</ele></trkpt>
      <trkpt lat="46.69819858038559" lon="7.547692692851779">
      <ele>1375.4</ele></trkpt>
      <trkpt lat="46.698162384634394" lon="7.547709224418366">
      <ele>1376.7</ele></trkpt>
      <trkpt lat="46.698120509551956" lon="7.547700837501062">
      <ele>1377.9</ele></trkpt>
      <trkpt lat="46.698084372002576" lon="7.5476564810907">
      <ele>1379.1</ele></trkpt>
      <trkpt lat="46.69802928716006" lon="7.54752077410762">
      <ele>1380.4</ele></trkpt>
      <trkpt lat="46.697960907768476" lon="7.54734628782181">
      <ele>1381.6</ele></trkpt>
      <trkpt lat="46.697915297647235" lon="7.547254870721959">
      <ele>1382.8</ele></trkpt>
      <trkpt lat="46.697877244977114" lon="7.547218813219922">
      <ele>1384.1</ele></trkpt>
      <trkpt lat="46.697843011647144" lon="7.5471772329470355">
      <ele>1385.3</ele></trkpt>
      <trkpt lat="46.69782211226067" lon="7.54713290773395">
      <ele>1386.6</ele></trkpt>
      <trkpt lat="46.697814572005974" lon="7.54704986976205">
      <ele>1387.8</ele></trkpt>
      <trkpt lat="46.697816578936624" lon="7.54694471590597">
      <ele>1389.0</ele></trkpt>
      <trkpt lat="46.697826148700315" lon="7.546889390900483">
      <ele>1390.3</ele></trkpt>
      <trkpt lat="46.697881495399514" lon="7.546759423897279">
      <ele>1391.5</ele></trkpt>
      <trkpt lat="46.69790631279871" lon="7.546684752926511">
      <ele>1392.7</ele></trkpt>
      <trkpt lat="46.69793116271535" lon="7.546585175052325">
      <ele>1394.0</ele></trkpt>
      <trkpt lat="46.697938839485666" lon="7.5465243155742865">
      <ele>1395.2</ele></trkpt>
      <trkpt lat="46.697933179685755" lon="7.546468946880956">
      <ele>1397.5</ele></trkpt>
      <trkpt lat="46.69791043309783" lon="7.546360971597583">
      <ele>1399.8</ele></trkpt>
      <trkpt lat="46.69788200297739" lon="7.546222547697449">
      <ele>1402.0</ele></trkpt>
      <trkpt lat="46.697861143771725" lon="7.546125650454432">
      <ele>1404.3</ele></trkpt>
      <trkpt lat="46.697851678684145" lon="7.546070274311766">
      <ele>1406.6</ele></trkpt>
      <trkpt lat="46.697853630020475" lon="7.546023236253991">
      <ele>1408.9</ele></trkpt>
      <trkpt lat="46.69781595125981" lon="7.545943106400301">
      <ele>1411.2</ele></trkpt>
      <trkpt lat="46.69778169426113" lon="7.545907070504869">
      <ele>1413.4</ele></trkpt>
      <trkpt lat="46.69765790420064" lon="7.545948335870654">
      <ele>1415.7</ele></trkpt>
      <trkpt lat="46.6975892986307" lon="7.546011858804359">
      <ele>1418.0</ele></trkpt>
      <trkpt lat="46.697503598316395" lon="7.546031051548188">
      <ele>1420.3</ele></trkpt>
      <trkpt lat="46.69737031088935" lon="7.546022484238858">
      <ele>1422.6</ele></trkpt>
      <trkpt lat="46.69727512315878" lon="7.546019536251738">
      <ele>1424.8</ele></trkpt>
      <trkpt lat="46.69715708712786" lon="7.545997153650493">
      <ele>1427.1</ele></trkpt>
      <trkpt lat="46.69708093648323" lon="7.545991458747292">
      <ele>1429.4</ele></trkpt>
      <trkpt lat="46.6969171512324" lon="7.546024341693084">
      <ele>1431.7</ele></trkpt>
      <trkpt lat="46.69682761334335" lon="7.546068459083917">
      <ele>1434.0</ele></trkpt>
      <trkpt lat="46.69663520712067" lon="7.546184305687493">
      <ele>1436.2</ele></trkpt>
      <trkpt lat="46.69652282063342" lon="7.546228350908117">
      <ele>1438.5</ele></trkpt>
      <trkpt lat="46.69645426189781" lon="7.5462420598074385">
      <ele>1440.8</ele></trkpt>
      <trkpt lat="46.69635141728372" lon="7.54626951966883">
      <ele>1443.3</ele></trkpt>
      <trkpt lat="46.69616855044879" lon="7.546352175454136">
      <ele>1445.7</ele></trkpt>
      <trkpt lat="46.696029411990104" lon="7.546509636043966">
      <ele>1448.2</ele></trkpt>
      <trkpt lat="46.69603327611316" lon="7.546437684310173">
      <ele>1450.7</ele></trkpt>
      <trkpt lat="46.69606381820189" lon="7.546368570559739">
      <ele>1453.2</ele></trkpt>
      <trkpt lat="46.69608297543671" lon="7.54623853515098">
      <ele>1455.6</ele></trkpt>
      <trkpt lat="46.69613450209047" lon="7.546114107473211">
      <ele>1458.1</ele></trkpt>
      <trkpt lat="46.69620701555451" lon="7.545950995885152">
      <ele>1460.6</ele></trkpt>
      <trkpt lat="46.69630621245072" lon="7.5457464004107955">
      <ele>1463.0</ele></trkpt>
      <trkpt lat="46.69639393800777" lon="7.545591593855221">
      <ele>1465.5</ele></trkpt>
      <trkpt lat="46.696462647011096" lon="7.545417386394953">
      <ele>1468.0</ele></trkpt>
      <trkpt lat="46.6965294188988" lon="7.545284685088692">
      <ele>1470.4</ele></trkpt>
      <trkpt lat="46.69662475908195" lon="7.545143737709362">
      <ele>1472.9</ele></trkpt>
      <trkpt lat="46.696653381770574" lon="7.545077377339713">
      <ele>1475.4</ele></trkpt>
      <trkpt lat="46.6965296049988" lon="7.545085435433988">
      <ele>1477.8</ele></trkpt>
      <trkpt lat="46.69644201710479" lon="7.545093564837815">
      <ele>1480.3</ele></trkpt>
      <trkpt lat="46.69634294043925" lon="7.5451514838967695">
      <ele>1482.8</ele></trkpt>
      <trkpt lat="46.696287709222226" lon="7.545179065871499">
      <ele>1485.3</ele></trkpt>
      <trkpt lat="46.69613723618937" lon="7.54522303772132">
      <ele>1487.7</ele></trkpt>
      <trkpt lat="46.6960648530393" lon="7.5452671635305615">
      <ele>1490.2</ele></trkpt>
      <trkpt lat="46.69613929175688" lon="7.545073605342362">
      <ele>1493.4</ele></trkpt>
      <trkpt lat="46.69620794839338" lon="7.544954753557551">
      <ele>1496.6</ele></trkpt>
      <trkpt lat="46.696259458188344" lon="7.544846928421773">
      <ele>1499.8</ele></trkpt>
      <trkpt lat="46.696331954461726" lon="7.544681003792757">
      <ele>1503.0</ele></trkpt>
      <trkpt lat="46.696419704245436" lon="7.544517919563824">
      <ele>1506.2</ele></trkpt>
      <trkpt lat="46.69646358033015" lon="7.544415595919806">
      <ele>1509.4</ele></trkpt>
      <trkpt lat="46.6965151254797" lon="7.544269044212705">
      <ele>1512.6</ele></trkpt>
      <trkpt lat="46.696549464929355" lon="7.544197151250594">
      <ele>1515.8</ele></trkpt>
      <trkpt lat="46.69661046185699" lon="7.544130853721776">
      <ele>1519.0</ele></trkpt>
      <trkpt lat="46.696660060030126" lon="7.544036868823316">
      <ele>1522.2</ele></trkpt>
      <trkpt lat="46.69672103377844" lon="7.543976088242726">
      <ele>1525.3</ele></trkpt>
      <trkpt lat="46.696757301834765" lon="7.543890379147443">
      <ele>1528.5</ele></trkpt>
      <trkpt lat="46.69680502713439" lon="7.543749336026368">
      <ele>1531.7</ele></trkpt>
      <trkpt lat="46.69686033205278" lon="7.543660878862657">
      <ele>1534.9</ele></trkpt>
      <trkpt lat="46.696877555048616" lon="7.543566830185256">
      <ele>1538.1</ele></trkpt>
      <trkpt lat="46.69689861729857" lon="7.5434257347215805">
      <ele>1541.3</ele></trkpt>
      <trkpt lat="46.696936808402604" lon="7.543312337450094">
      <ele>1544.5</ele></trkpt>
      <trkpt lat="46.696961680003284" lon="7.543234958633104">
      <ele>1547.7</ele></trkpt>
      <trkpt lat="46.696961680003284" lon="7.543234958633104">
      <ele>1550.9</ele></trkpt>
      <trkpt lat="46.69658678021337" lon="7.543015122539919">
      <ele>1554.1</ele></trkpt>
      <trkpt lat="46.696281798552526" lon="7.542819864414126">
      <ele>1571.4</ele></trkpt>
      <trkpt lat="46.69597681654889" lon="7.5426246084939885">
      <ele>1588.7</ele></trkpt>
      <trkpt lat="46.69578590030135" lon="7.542362761479729">
      <ele>1606.1</ele></trkpt>
      <trkpt lat="46.69559498344941" lon="7.542100916317044">
      <ele>1623.4</ele></trkpt>
      <trkpt lat="46.695347770182714" lon="7.541920677048361">
      <ele>1640.7</ele></trkpt>
      <trkpt lat="46.69510055662567" lon="7.541740439429996">
      <ele>1658.0</ele></trkpt>
      <trkpt lat="46.69494313541959" lon="7.54174013885701">
      <ele>1675.3</ele></trkpt>
      <trkpt lat="46.694942824721025" lon="7.542083324556371">
      <ele>1692.7</ele></trkpt>
      <trkpt lat="46.694942512989996" lon="7.542426510251772">
      <ele>1710.0</ele></trkpt>
      <trkpt lat="46.69491945753738" lon="7.543047469445241">
      <ele>1727.3</ele></trkpt>
      <trkpt lat="46.69480656403069" lon="7.543537516065966">
      <ele>1744.6</ele></trkpt>
      <trkpt lat="46.69468972305805" lon="7.543916426464477">
      <ele>1761.9</ele></trkpt>
      <trkpt lat="46.69454095286393" lon="7.54428873591787">
      <ele>1779.3</ele></trkpt>
      <trkpt lat="46.69444630014493" lon="7.544504265850841">
      <ele>1796.6</ele></trkpt>
      <trkpt lat="46.69447299500753" lon="7.54481808579594">
      <ele>1813.9</ele></trkpt>
      <trkpt lat="46.694378487507066" lon="7.544876731287037">
      <ele>1831.2</ele></trkpt>
      <trkpt lat="46.69432473344588" lon="7.544641300469355">
      <ele>1848.5</ele></trkpt>
      <trkpt lat="46.69429812890194" lon="7.544229429591275">
      <ele>1865.9</ele></trkpt>
      <trkpt lat="46.69432555008785" lon="7.5437588330879715">
      <ele>1883.2</ele></trkpt>
      <trkpt lat="46.69442041757302" lon="7.543307977277436">
      <ele>1900.5</ele></trkpt>
      <trkpt lat="46.69442072298791" lon="7.542974600115951">
      <ele>1902.7</ele></trkpt>
      <trkpt lat="46.694299695423645" lon="7.5425233267918985">
      <ele>1904.9</ele></trkpt>
      <trkpt lat="46.694205510205066" lon="7.542228989930663">
      <ele>1907.1</ele></trkpt>
      <trkpt lat="46.69400353793364" lon="7.541757955172396">
      <ele>1909.3</ele></trkpt>
      <trkpt lat="46.69372048061614" lon="7.541424041214179">
      <ele>1911.5</ele></trkpt>
      <trkpt lat="46.69338343170585" lon="7.541109638401222">
      <ele>1913.7</ele></trkpt>
      <trkpt lat="46.69319463186357" lon="7.540991620071594">
      <ele>1915.9</ele></trkpt>
      <trkpt lat="46.692992549313125" lon="7.540638258180225">
      <ele>1918.1</ele></trkpt>
      <trkpt lat="46.69265542826285" lon="7.540402303634617">
      <ele>1920.3</ele></trkpt>
      <trkpt lat="46.69245871374362" lon="7.540351541119246">
      <ele>1922.5</ele></trkpt>
      <trkpt lat="46.69245871374362" lon="7.540351541119246">
      <ele>1924.7</ele></trkpt>
      <trkpt lat="46.692445306739096" lon="7.540325408768908">
      <ele>1926.9</ele></trkpt>
      <trkpt lat="46.6924065385125" lon="7.54029239143013">
      <ele>1929.1</ele></trkpt>
      <trkpt lat="46.69235095928944" lon="7.5402777364050895">
      <ele>1931.3</ele></trkpt>
      <trkpt lat="46.692215737799884" lon="7.5402080637184135">
      <ele>1933.5</ele></trkpt>
      <trkpt lat="46.69219064760647" lon="7.540149344468061">
      <ele>1935.7</ele></trkpt>
      <trkpt lat="46.692165483048626" lon="7.540143845685083">
      <ele>1937.9</ele></trkpt>
      <trkpt lat="46.692151814779216" lon="7.540158540289462">
      <ele>1940.1</ele></trkpt>
      <trkpt lat="46.692117130536786" lon="7.54020629640761">
      <ele>1942.3</ele></trkpt>
      <trkpt lat="46.69209510049881" lon="7.5402063203378855">
      <ele>1944.5</ele></trkpt>
      <trkpt lat="46.69207370293958" lon="7.540203207921299">
      <ele>1945.6</ele></trkpt>
      <trkpt lat="46.69203711089816" lon="7.540150755349391">
      <ele>1946.6</ele></trkpt>
      <trkpt lat="46.69199813567332" lon="7.5401380142975825">
      <ele>1947.7</ele></trkpt>
      <trkpt lat="46.691948518207134" lon="7.540146104759728">
      <ele>1948.8</ele></trkpt>
      <trkpt lat="46.69191070589892" lon="7.540170990095572">
      <ele>1949.8</ele></trkpt>
      <trkpt lat="46.6918752674562" lon="7.540166622441063">
      <ele>1950.9</ele></trkpt>
      <trkpt lat="46.69185162858461" lon="7.540185324700777">
      <ele>1952.0</ele></trkpt>
      <trkpt lat="46.6918315221586" lon="7.54023746127431">
      <ele>1953.1</ele></trkpt>
      <trkpt lat="46.691805525232525" lon="7.5402373339253534">
      <ele>1954.1</ele></trkpt>
      <trkpt lat="46.69178901979618" lon="7.5401954300540375">
      <ele>1955.2</ele></trkpt>
      <trkpt lat="46.69179495833651" lon="7.540143214583065">
      <ele>1956.3</ele></trkpt>
      <trkpt lat="46.69182335759125" lon="7.540061849270888">
      <ele>1957.3</ele></trkpt>
      <trkpt lat="46.69182692657078" lon="7.540013773447701">
      <ele>1958.4</ele></trkpt>
      <trkpt lat="46.69184940926977" lon="7.539970007983243">
      <ele>1959.5</ele></trkpt>
      <trkpt lat="46.691875429040884" lon="7.53992415743339">
      <ele>1960.6</ele></trkpt>
      <trkpt lat="46.69191441227803" lon="7.5399076408759385">
      <ele>1961.6</ele></trkpt>
      <trkpt lat="46.691958143556356" lon="7.53988277952434">
      <ele>1962.7</ele></trkpt>
      <trkpt lat="46.6918849307898" lon="7.5398301410021595">
      <ele>1963.8</ele></trkpt>
      <trkpt lat="46.69190267227692" lon="7.539807231084968">
      <ele>1964.8</ele></trkpt>
      <trkpt lat="46.691965297723826" lon="7.539778300110847">
      <ele>1965.9</ele></trkpt>
      <trkpt lat="46.69199958954699" lon="7.539736674378466">
      <ele>1967.3</ele></trkpt>
      <trkpt lat="46.69196533135223" lon="7.539730217524561">
      <ele>1968.8</ele></trkpt>
      <trkpt lat="46.69190630648218" lon="7.539665121006935">
      <ele>1970.2</ele></trkpt>
      <trkpt lat="46.69184370539482" lon="7.539656427995563">
      <ele>1971.7</ele></trkpt>
      <trkpt lat="46.69177874773913" lon="7.53963728527175">
      <ele>1973.1</ele></trkpt>
      <trkpt lat="46.691733845269184" lon="7.539664210080269">
      <ele>1974.6</ele></trkpt>
      <trkpt lat="46.69169602618028" lon="7.5396765586567955">
      <ele>1976.0</ele></trkpt>
      <trkpt lat="46.69167120900126" lon="7.539695232717817">
      <ele>1977.5</ele></trkpt>
      <trkpt lat="46.69163104235395" lon="7.539697118495531">
      <ele>1978.9</ele></trkpt>
      <trkpt lat="46.691576691170546" lon="7.53971773740564">
      <ele>1980.3</ele></trkpt>
      <trkpt lat="46.69154005551112" lon="7.539744716743105">
      <ele>1981.8</ele></trkpt>
      <trkpt lat="46.69150929835637" lon="7.5398072654277035">
      <ele>1983.2</ele></trkpt>
      <trkpt lat="46.691516367974195" lon="7.539838653712662">
      <ele>1984.7</ele></trkpt>
      <trkpt lat="46.69149390756621" lon="7.539857358200412">
      <ele>1986.1</ele></trkpt>
      <trkpt lat="46.69147732507508" lon="7.539932522578285">
      <ele>1987.6</ele></trkpt>
      <trkpt lat="46.69145835042266" lon="7.540047384876323">
      <ele>1989.0</ele></trkpt>
      <trkpt lat="46.69144652419432" lon="7.5400745020431525">
      <ele>1990.5</ele></trkpt>
      <trkpt lat="46.69143473975372" lon="7.540024266845439">
      <ele>1991.9</ele></trkpt>
      <trkpt lat="46.691445458671076" lon="7.539896826034725">
      <ele>1993.4</ele></trkpt>
      <trkpt lat="46.69144195184557" lon="7.539844540869898">
      <ele>1994.8</ele></trkpt>
      <trkpt lat="46.691464465233" lon="7.539725501825637">
      <ele>1996.4</ele></trkpt>
      <trkpt lat="46.691472760379554" lon="7.53967329102626">
      <ele>1998.1</ele></trkpt>
      <trkpt lat="46.69149527676199" lon="7.539570998269934">
      <ele>1999.7</ele></trkpt>
      <trkpt lat="46.69152013855127" lon="7.539491692026335">
      <ele>2001.3</ele></trkpt>
      <trkpt lat="46.69153198335168" lon="7.539433225826368">
      <ele>2003.0</ele></trkpt>
      <trkpt lat="46.69155914968284" lon="7.5394333680432055">
      <ele>2004.6</ele></trkpt>
      <trkpt lat="46.6916135192926" lon="7.539391832156907">
      <ele>2006.2</ele></trkpt>
      <trkpt lat="46.691672628098374" lon="7.539331532238783">
      <ele>2007.8</ele></trkpt>
      <trkpt lat="46.6916950978605" lon="7.539291936871304">
      <ele>2009.5</ele></trkpt>
      <trkpt lat="46.6916814582627" lon="7.539253869095914">
      <ele>2011.1</ele></trkpt>
      <trkpt lat="46.69172231236102" lon="7.539227276329141">
      <ele>2012.7</ele></trkpt>
      <trkpt lat="46.69175305282769" lon="7.539173093751057">
      <ele>2014.4</ele></trkpt>
      <trkpt lat="46.69178618854986" lon="7.539085461764557">
      <ele>2016.0</ele></trkpt>
      <trkpt lat="46.69178385994912" lon="7.539022746261101">
      <ele>2017.6</ele></trkpt>
      <trkpt lat="46.69180160697758" lon="7.538983128835032">
      <ele>2019.2</ele></trkpt>
      <trkpt lat="46.69182998113264" lon="7.5389498323128">
      <ele>2020.9</ele></trkpt>
      <trkpt lat="46.691843042640414" lon="7.538847468742075">
      <ele>2022.5</ele></trkpt>
      <trkpt lat="46.69185963543261" lon="7.538759753446685">
      <ele>2024.1</ele></trkpt>
      <trkpt lat="46.691906968187915" lon="7.53862831347073">
      <ele>2025.8</ele></trkpt>
      <trkpt lat="46.69193067501356" lon="7.53850093450848">
      <ele>2027.4</ele></trkpt>
      <trkpt lat="46.69196504556387" lon="7.538327610314377">
      <ele>2029.4</ele></trkpt>
      <trkpt lat="46.69197218005493" lon="7.538244034444525">
      <ele>2031.4</ele></trkpt>
      <trkpt lat="46.69199114365128" lon="7.5381500742068726">
      <ele>2033.5</ele></trkpt>
      <trkpt lat="46.69202546791305" lon="7.538049919407878">
      <ele>2035.5</ele></trkpt>
      <trkpt lat="46.69205743719625" lon="7.537937210009277">
      <ele>2037.5</ele></trkpt>
      <trkpt lat="46.692075200409846" lon="7.537857876074379">
      <ele>2039.5</ele></trkpt>
      <trkpt lat="46.692185251681764" lon="7.5375469778359605">
      <ele>2041.5</ele></trkpt>
      <trkpt lat="46.69223374865284" lon="7.537451083913685">
      <ele>2043.6</ele></trkpt>
      <trkpt lat="46.69228933764992" lon="7.537340587035615">
      <ele>2045.6</ele></trkpt>
      <trkpt lat="46.69232364856481" lon="7.53725504690364">
      <ele>2047.6</ele></trkpt>
      <trkpt lat="46.692368573992816" lon="7.5371904822727345">
      <ele>2049.6</ele></trkpt>
      <trkpt lat="46.69239932250946" lon="7.537125852458985">
      <ele>2051.6</ele></trkpt>
      <trkpt lat="46.69241703271223" lon="7.5371593781720065">
      <ele>2053.7</ele></trkpt>
      <trkpt lat="46.69241463615847" lon="7.5372053651429">
      <ele>2055.7</ele></trkpt>
      <trkpt lat="46.692418144204694" lon="7.537257638004967">
      <ele>2057.7</ele></trkpt>
      <trkpt lat="46.69241929540593" lon="7.537309906567415">
      <ele>2059.7</ele></trkpt>
      <trkpt lat="46.69244052805871" lon="7.537368539252698">
      <ele>2061.7</ele></trkpt>
      <trkpt lat="46.69244048818016" lon="7.537424989070612">
      <ele>2063.8</ele></trkpt>
      <trkpt lat="46.69248876898098" lon="7.537661440279093">
      <ele>2065.8</ele></trkpt>
      <trkpt lat="46.69248992906931" lon="7.537703263473304">
      <ele>2067.8</ele></trkpt>
      <trkpt lat="46.6925158696147" lon="7.537778638696149">
      <ele>2069.5</ele></trkpt>
      <trkpt lat="46.69253706747996" lon="7.53787698792868">
      <ele>2071.1</ele></trkpt>
      <trkpt lat="46.69258071602539" lon="7.537988007239938">
      <ele>2072.8</ele></trkpt>
      <trkpt lat="46.692613722932265" lon="7.538088522425253">
      <ele>2074.4</ele></trkpt>
      <trkpt lat="46.692643222026184" lon="7.53814719700777">
      <ele>2076.1</ele></trkpt>
      <trkpt lat="46.69267032607803" lon="7.538239308516119">
      <ele>2077.7</ele></trkpt>
      <trkpt lat="46.69272814396534" lon="7.538348315135165">
      <ele>2079.4</ele></trkpt>
      <trkpt lat="46.692727020763584" lon="7.538254238124781">
      <ele>2081.0</ele></trkpt>
      <trkpt lat="46.69272945446239" lon="7.538145551806071">
      <ele>2082.7</ele></trkpt>
      <trkpt lat="46.69275544055697" lon="7.538147782920752">
      <ele>2084.3</ele></trkpt>
      <trkpt lat="46.69276957534051" lon="7.538206390140696">
      <ele>2086.0</ele></trkpt>
      <trkpt lat="46.69288170737829" lon="7.538357475430861">
      <ele>2087.6</ele></trkpt>
      <trkpt lat="46.69291123585518" lon="7.5383618179920875">
      <ele>2089.2</ele></trkpt>
      <trkpt lat="46.69292775279982" lon="7.538401617396507">
      <ele>2090.9</ele></trkpt>
      <trkpt lat="46.69294547965381" lon="7.538374536164978">
      <ele>2092.6</ele></trkpt>
      <trkpt lat="46.69293842777073" lon="7.538332688652506">
      <ele>2094.2</ele></trkpt>
      <trkpt lat="46.69295854415822" lon="7.538278445522654">
      <ele>2095.9</ele></trkpt>
      <trkpt lat="46.69297634434772" lon="7.538136384814574">
      <ele>2097.5</ele></trkpt>
      <trkpt lat="46.69297874865885" lon="7.538071611106569">
      <ele>2099.2</ele></trkpt>
      <trkpt lat="46.692984691704766" lon="7.538013106009867">
      <ele>2100.8</ele></trkpt>
      <trkpt lat="46.693002438391986" lon="7.537973474297704">
      <ele>2101.8</ele></trkpt>
      <trkpt lat="46.69300838137618" lon="7.537914982237835">
      <ele>2102.9</ele></trkpt>
      <trkpt lat="46.69301905423374" lon="7.537848145018892">
      <ele>2103.9</ele></trkpt>
      <trkpt lat="46.69303445866222" lon="7.537781342607245">
      <ele>2104.9</ele></trkpt>
      <trkpt lat="46.693035673493526" lon="7.537729077780552">
      <ele>2106.0</ele></trkpt>
      <trkpt lat="46.69304397853669" lon="7.537674773446794">
      <ele>2107.0</ele></trkpt>
      <trkpt lat="46.69307697003987" lon="7.537596511747681">
      <ele>2108.0</ele></trkpt>
      <trkpt lat="46.69310425402706" lon="7.537616563922758">
      <ele>2109.0</ele></trkpt>
      <trkpt lat="46.69311012950564" lon="7.53766676316332">
      <ele>2110.1</ele></trkpt>
      <trkpt lat="46.69313255126288" lon="7.537712874676552">
      <ele>2111.1</ele></trkpt>
      <trkpt lat="46.693150221417774" lon="7.537781934271353">
      <ele>2112.1</ele></trkpt>
      <trkpt lat="46.693150183165066" lon="7.537836280028249">
      <ele>2113.2</ele></trkpt>
      <trkpt lat="46.69316434548466" lon="7.537853079129391">
      <ele>2114.2</ele></trkpt>
      <trkpt lat="46.693173817812436" lon="7.537842677085475">
      <ele>2115.2</ele></trkpt>
      <trkpt lat="46.6931738325375" lon="7.53780505205622">
      <ele>2116.2</ele></trkpt>
      <trkpt lat="46.69318921341716" lon="7.537754970197032">
      <ele>2117.3</ele></trkpt>
      <trkpt lat="46.693202290179286" lon="7.537633791252674">
      <ele>2118.3</ele></trkpt>
      <trkpt lat="46.69321605589512" lon="7.537568606646035">
      <ele>2119.3</ele></trkpt>
      <trkpt lat="46.69323488354515" lon="7.537516687649737">
      <ele>2120.4</ele></trkpt>
      <trkpt lat="46.69323629485362" lon="7.537465926418111">
      <ele>2121.4</ele></trkpt>
      <trkpt lat="46.693247359132044" lon="7.537424621801277">
      <ele>2123.2</ele></trkpt>
      <trkpt lat="46.69325657501818" lon="7.537346708395532">
      <ele>2124.9</ele></trkpt>
      <trkpt lat="46.69328569322109" lon="7.537305436726401">
      <ele>2126.7</ele></trkpt>
      <trkpt lat="46.69330934158528" lon="7.537399961159803">
      <ele>2128.4</ele></trkpt>
      <trkpt lat="46.69333545299445" lon="7.537267771743562">
      <ele>2130.2</ele></trkpt>
      <trkpt lat="46.69334649206868" lon="7.537234729338099">
      <ele>2131.9</ele></trkpt>
      <trkpt lat="46.69336130949861" lon="7.537243031841943">
      <ele>2133.7</ele></trkpt>
      <trkpt lat="46.69338479068478" lon="7.537406047540606">
      <ele>2135.4</ele></trkpt>
      <trkpt lat="46.693394345936106" lon="7.537455652376895">
      <ele>2137.2</ele></trkpt>
      <trkpt lat="46.69341313017837" lon="7.5374226372156805">
      <ele>2138.9</ele></trkpt>
      <trkpt lat="46.69341573951854" lon="7.537421896805662">
      <ele>2140.7</ele></trkpt>
      <trkpt lat="46.69342215354074" lon="7.537411253722559">
      <ele>2142.5</ele></trkpt>
      <trkpt lat="46.69343868178945" lon="7.537417611479749">
      <ele>2144.2</ele></trkpt>
      <trkpt lat="46.693443522331286" lon="7.537489197197015">
      <ele>2146.0</ele></trkpt>
      <trkpt lat="46.69344448667414" lon="7.537568028948655">
      <ele>2147.7</ele></trkpt>
      <trkpt lat="46.69349161741636" lon="7.537649303792547">
      <ele>2149.5</ele></trkpt>
      <trkpt lat="46.69356013267984" lon="7.5377673386642385">
      <ele>2151.2</ele></trkpt>
      <trkpt lat="46.6935844503877" lon="7.53758483241289">
      <ele>2153.0</ele></trkpt>
      <trkpt lat="46.69369126295574" lon="7.5377880668032775">
      <ele>2154.7</ele></trkpt>
      <trkpt lat="46.69369248721643" lon="7.537701129235332">
      <ele>2156.5</ele></trkpt>
      <trkpt lat="46.6937184714126" lon="7.537715910700015">
      <ele>2157.7</ele></trkpt>
      <trkpt lat="46.693736141553366" lon="7.537784984118547">
      <ele>2159.0</ele></trkpt>
      <trkpt lat="46.69373582187836" lon="7.537794682739269">
      <ele>2160.2</ele></trkpt>
      <trkpt lat="46.69373373011631" lon="7.537858138828641">
      <ele>2161.5</ele></trkpt>
      <trkpt lat="46.693739609128926" lon="7.537904155176578">
      <ele>2162.7</ele></trkpt>
      <trkpt lat="46.69375021620046" lon="7.537943931109494">
      <ele>2163.9</ele></trkpt>
      <trkpt lat="46.69376912479178" lon="7.537933572467087">
      <ele>2165.2</ele></trkpt>
      <trkpt lat="46.69378450573843" lon="7.537883477018956">
      <ele>2166.4</ele></trkpt>
      <trkpt lat="46.69380935180039" lon="7.53782090067463">
      <ele>2167.7</ele></trkpt>
      <trkpt lat="46.6938173592837" lon="7.537806786861361">
      <ele>2168.9</ele></trkpt>
      <trkpt lat="46.693864809738805" lon="7.5379236164506">
      <ele>2170.1</ele></trkpt>
      <trkpt lat="46.693863589148094" lon="7.538003048800858">
      <ele>2171.4</ele></trkpt>
      <trkpt lat="46.69389434369163" lon="7.537921683579465">
      <ele>2172.6</ele></trkpt>
      <trkpt lat="46.693915647389886" lon="7.537856982707181">
      <ele>2173.9</ele></trkpt>
      <trkpt lat="46.69392481751002" lon="7.53782274040724">
      <ele>2175.1</ele></trkpt>
      <trkpt lat="46.69393577272486" lon="7.537781833878736">
      <ele>2176.3</ele></trkpt>
      <trkpt lat="46.69393818039056" lon="7.537723321226382">
      <ele>2177.6</ele></trkpt>
      <trkpt lat="46.69392758231166" lon="7.537673099475053">
      <ele>2178.8</ele></trkpt>
      <trkpt lat="46.6939228925069" lon="7.537614534597204">
      <ele>2180.1</ele></trkpt>
      <trkpt lat="46.693964192074255" lon="7.537675376043158">
      <ele>2181.3</ele></trkpt>
      <trkpt lat="46.693968940098806" lon="7.5376461392717005">
      <ele>2182.5</ele></trkpt>
      <trkpt lat="46.693958329372435" lon="7.537600087938022">
      <ele>2183.7</ele></trkpt>
      <trkpt lat="46.69394089092404" lon="7.537564535225613">
      <ele>2184.9</ele></trkpt>
      <trkpt lat="46.693929767911285" lon="7.5374763993416725">
      <ele>2186.1</ele></trkpt>
      <trkpt lat="46.69392456914901" lon="7.537402955886502">
      <ele>2187.3</ele></trkpt>
      <trkpt lat="46.693913672985616" lon="7.537344639853897">
      <ele>2188.5</ele></trkpt>
      <trkpt lat="46.69395834259229" lon="7.537314849810717">
      <ele>2189.7</ele></trkpt>
    </trkseg>
  </trk>
</gpx>