<?xml version='1.0' encoding='utf-8'?>
<gpx xmlns="http://www.topografix.com/GPX/1/1" xmlns:xsi="http://www.w3.org/2001/XMLSchema-instance" xsi:schemaLocation="http://www.topografix.com/GPX/1/1 http://www.topografix.com/GPX/1/1/gpx.xsd" version="1.1" creator="extract_sac_gpx.py">
  <metadata>
    <name>Vom Säntis</name>
  <desc>Elevations from SwissTopo height API (sampled + interpolated)</desc></metadata>
  <wpt lat="47.24923205748936" lon="9.342576473305481">
    <ele>2502</ele>
    <name>Säntis, Bergstation</name>
    <type>start</type>
  </wpt>
  <wpt lat="47.242793286735505" lon="9.365344039276113">
    <ele>2119</ele>
    <name>Rotsteinpass</name>
    <type>traverse</type>
  </wpt>
  <wpt lat="47.24305449018079" lon="9.365200687111027">
    <ele>2120</ele>
    <name>Berggasthaus Rotsteinpass</name>
    <type>hut</type>
  </wpt>
  <trk>
    <name>Vom Säntis</name>
    <trkseg>
      <trkpt lat="47.24898069877822" lon="9.342842059051408">
      <ele>2472.9</ele></trkpt>
      <trkpt lat="47.24892581843746" lon="9.342787102467064">
      <ele>2472.0</ele></trkpt>
      <trkpt lat="47.248909851867275" lon="9.34280158333133">
      <ele>2471.1</ele></trkpt>
      <trkpt lat="47.248877632465124" lon="9.342835344494405">
      <ele>2470.2</ele></trkpt>
      <trkpt lat="47.248837729179385" lon="9.342867483932013">
      <ele>2469.3</ele></trkpt>
      <trkpt lat="47.24882908225138" lon="9.342878948776459">
      <ele>2468.4</ele></trkpt>
      <trkpt lat="47.24882042410537" lon="9.34289816945499">
      <ele>2467.5</ele></trkpt>
      <trkpt lat="47.248798351174365" lon="9.342921734763415">
      <ele>2466.6</ele></trkpt>
      <trkpt lat="47.24878551026407" lon="9.342930552752692">
      <ele>2465.7</ele></trkpt>
      <trkpt lat="47.24877155089897" lon="9.342934640128814">
      <ele>2464.8</ele></trkpt>
      <trkpt lat="47.24875007793677" lon="9.342954566696323">
      <ele>2463.9</ele></trkpt>
      <trkpt lat="47.248725089185434" lon="9.342983617237005">
      <ele>2463.1</ele></trkpt>
      <trkpt lat="47.24871355900059" lon="9.342999141444754">
      <ele>2462.2</ele></trkpt>
      <trkpt lat="47.248708160932274" lon="9.342990413188504">
      <ele>2461.3</ele></trkpt>
      <trkpt lat="47.24870097259028" lon="9.342970786184273">
      <ele>2460.4</ele></trkpt>
      <trkpt lat="47.24869965182341" lon="9.342951077674023">
      <ele>2459.5</ele></trkpt>
      <trkpt lat="47.24869818338348" lon="9.342933226978754">
      <ele>2458.6</ele></trkpt>
      <trkpt lat="47.248690655518445" lon="9.342921621580915">
      <ele>2457.7</ele></trkpt>
      <trkpt lat="47.24868205516083" lon="9.34292319127028">
      <ele>2456.8</ele></trkpt>
      <trkpt lat="47.248672462277376" lon="9.342939630195618">
      <ele>2455.9</ele></trkpt>
      <trkpt lat="47.24865459453448" lon="9.342958086441596">
      <ele>2455.0</ele></trkpt>
      <trkpt lat="47.248645827506586" lon="9.342984438350122">
      <ele>2454.5</ele></trkpt>
      <trkpt lat="47.248630744575145" lon="9.342991181159343">
      <ele>2453.9</ele></trkpt>
      <trkpt lat="47.248617962027" lon="9.342989390903242">
      <ele>2453.4</ele></trkpt>
      <trkpt lat="47.24860960522877" lon="9.343003442618203">
      <ele>2452.9</ele></trkpt>
      <trkpt lat="47.24858962872065" lon="9.343024281313312">
      <ele>2452.3</ele></trkpt>
      <trkpt lat="47.24858301335989" lon="9.343030956016783">
      <ele>2451.8</ele></trkpt>
      <trkpt lat="47.24857410827805" lon="9.34303136526505">
      <ele>2451.3</ele></trkpt>
      <trkpt lat="47.248571101274635" lon="9.343042912182344">
      <ele>2450.8</ele></trkpt>
      <trkpt lat="47.24856462282184" lon="9.343097371017148">
      <ele>2450.2</ele></trkpt>
      <trkpt lat="47.24855590758534" lon="9.343141271952051">
      <ele>2449.7</ele></trkpt>
      <trkpt lat="47.24854371544662" lon="9.343164726873189">
      <ele>2449.2</ele></trkpt>
      <trkpt lat="47.24853035059847" lon="9.343165505619979">
      <ele>2448.6</ele></trkpt>
      <trkpt lat="47.24851923856147" lon="9.34316063012595">
      <ele>2448.1</ele></trkpt>
      <trkpt lat="47.24851299274328" lon="9.343164543191655">
      <ele>2447.6</ele></trkpt>
      <trkpt lat="47.248510294097024" lon="9.343184650072963">
      <ele>2447.1</ele></trkpt>
      <trkpt lat="47.248508021169" lon="9.343205128889881">
      <ele>2446.5</ele></trkpt>
      <trkpt lat="47.24850376601507" lon="9.343213803639665">
      <ele>2446.0</ele></trkpt>
      <trkpt lat="47.24849381677731" lon="9.343211519759368">
      <ele>2445.5</ele></trkpt>
      <trkpt lat="47.248484008685566" lon="9.34319960843856">
      <ele>2444.9</ele></trkpt>
      <trkpt lat="47.24848058106936" lon="9.343203397354696">
      <ele>2444.4</ele></trkpt>
      <trkpt lat="47.248475910529095" lon="9.343231758272335">
      <ele>2443.9</ele></trkpt>
      <trkpt lat="47.248469453379954" lon="9.34325662003244">
      <ele>2443.3</ele></trkpt>
      <trkpt lat="47.24846823768832" lon="9.343293151007398">
      <ele>2442.8</ele></trkpt>
      <trkpt lat="47.24845845940128" lon="9.34328651283209">
      <ele>2442.2</ele></trkpt>
      <trkpt lat="47.24844041406784" lon="9.343266723384064">
      <ele>2441.7</ele></trkpt>
      <trkpt lat="47.24843137488486" lon="9.343254562002613">
      <ele>2441.1</ele></trkpt>
      <trkpt lat="47.24841980856772" lon="9.343223283432232">
      <ele>2440.6</ele></trkpt>
      <trkpt lat="47.248414237349785" lon="9.343232651183492">
      <ele>2440.0</ele></trkpt>
      <trkpt lat="47.24840129080409" lon="9.343290856396829">
      <ele>2439.5</ele></trkpt>
      <trkpt lat="47.24839305798463" lon="9.343303392906064">
      <ele>2438.9</ele></trkpt>
      <trkpt lat="47.248384439939066" lon="9.34330603216749">
      <ele>2438.4</ele></trkpt>
      <trkpt lat="47.24837681446698" lon="9.343293802280956">
      <ele>2437.9</ele></trkpt>
      <trkpt lat="47.24836713605001" lon="9.343274046929066">
      <ele>2437.3</ele></trkpt>
      <trkpt lat="47.248363610787166" lon="9.343277211328191">
      <ele>2436.8</ele></trkpt>
      <trkpt lat="47.24835104982795" lon="9.343310457206133">
      <ele>2436.2</ele></trkpt>
      <trkpt lat="47.24834302074324" lon="9.343317200354704">
      <ele>2435.7</ele></trkpt>
      <trkpt lat="47.24833052556093" lon="9.343324695965762">
      <ele>2435.1</ele></trkpt>
      <trkpt lat="47.24831829661311" lon="9.343329148810513">
      <ele>2434.6</ele></trkpt>
      <trkpt lat="47.248311139968436" lon="9.343335909847923">
      <ele>2434.0</ele></trkpt>
      <trkpt lat="47.24830500669514" lon="9.34334607674721">
      <ele>2433.5</ele></trkpt>
      <trkpt lat="47.24829678232087" lon="9.34335157087799">
      <ele>2433.6</ele></trkpt>
      <trkpt lat="47.248278502075244" lon="9.343354156285478">
      <ele>2433.7</ele></trkpt>
      <trkpt lat="47.24826233960386" lon="9.343360345134974">
      <ele>2433.7</ele></trkpt>
      <trkpt lat="47.2482544086991" lon="9.343374755429952">
      <ele>2433.8</ele></trkpt>
      <trkpt lat="47.24824445410886" lon="9.343379870737657">
      <ele>2433.9</ele></trkpt>
      <trkpt lat="47.24823586531419" lon="9.343380740452385">
      <ele>2434.0</ele></trkpt>
      <trkpt lat="47.24822434654297" lon="9.34338849547536">
      <ele>2434.1</ele></trkpt>
      <trkpt lat="47.24821294855521" lon="9.343395475222927">
      <ele>2434.1</ele></trkpt>
      <trkpt lat="47.248204295141285" lon="9.343400253738055">
      <ele>2434.2</ele></trkpt>
      <trkpt lat="47.24819319030112" lon="9.343409093781633">
      <ele>2434.3</ele></trkpt>
      <trkpt lat="47.248185876527714" lon="9.343411753098474">
      <ele>2434.4</ele></trkpt>
      <trkpt lat="47.2481760877504" lon="9.343419900127087">
      <ele>2434.5</ele></trkpt>
      <trkpt lat="47.24816267348343" lon="9.343431287235024">
      <ele>2434.5</ele></trkpt>
      <trkpt lat="47.24813804644819" lon="9.34343681745213">
      <ele>2434.6</ele></trkpt>
      <trkpt lat="47.248114430757994" lon="9.343440494243241">
      <ele>2434.7</ele></trkpt>
      <trkpt lat="47.24809593420759" lon="9.34343657101597">
      <ele>2434.8</ele></trkpt>
      <trkpt lat="47.248082095507385" lon="9.343432813886105">
      <ele>2434.9</ele></trkpt>
      <trkpt lat="47.2480639182607" lon="9.343428624573438">
      <ele>2434.9</ele></trkpt>
      <trkpt lat="47.24805619902724" lon="9.343429142103206">
      <ele>2435.0</ele></trkpt>
      <trkpt lat="47.24804779115089" lon="9.343432674104067">
      <ele>2435.1</ele></trkpt>
      <trkpt lat="47.24803572725838" lon="9.3434331291987">
      <ele>2435.6</ele></trkpt>
      <trkpt lat="47.24803056094663" lon="9.343437596004792">
      <ele>2436.1</ele></trkpt>
      <trkpt lat="47.24802652410364" lon="9.34343905084651">
      <ele>2436.6</ele></trkpt>
      <trkpt lat="47.24801351605575" lon="9.34344817974066">
      <ele>2437.0</ele></trkpt>
      <trkpt lat="47.248001320175035" lon="9.343446278183887">
      <ele>2437.5</ele></trkpt>
      <trkpt lat="47.247993150003424" lon="9.343443595261327">
      <ele>2438.0</ele></trkpt>
      <trkpt lat="47.24797761340258" lon="9.343446212393108">
      <ele>2438.5</ele></trkpt>
      <trkpt lat="47.247970168256785" lon="9.34345464115335">
      <ele>2439.0</ele></trkpt>
      <trkpt lat="47.247952489108826" lon="9.343468214850352">
      <ele>2439.5</ele></trkpt>
      <trkpt lat="47.247930604546255" lon="9.343481466802888">
      <ele>2439.9</ele></trkpt>
      <trkpt lat="47.24791362941704" lon="9.343498170671985">
      <ele>2440.4</ele></trkpt>
      <trkpt lat="47.24790644595989" lon="9.34352179063152">
      <ele>2440.9</ele></trkpt>
      <trkpt lat="47.247893556510164" lon="9.343553676716388">
      <ele>2441.4</ele></trkpt>
      <trkpt lat="47.24788179498689" lon="9.343576657726098">
      <ele>2441.9</ele></trkpt>
      <trkpt lat="47.247864669907216" lon="9.343600253450452">
      <ele>2442.4</ele></trkpt>
      <trkpt lat="47.247840188864835" lon="9.343628515318692">
      <ele>2442.9</ele></trkpt>
      <trkpt lat="47.24782495591174" lon="9.343662286515697">
      <ele>2443.3</ele></trkpt>
      <trkpt lat="47.24779719464454" lon="9.343691950856627">
      <ele>2443.8</ele></trkpt>
      <trkpt lat="47.247782051664025" lon="9.34370286655735">
      <ele>2444.3</ele></trkpt>
      <trkpt lat="47.24775763087684" lon="9.343718776243124">
      <ele>2444.8</ele></trkpt>
      <trkpt lat="47.24774830327014" lon="9.343735488467495">
      <ele>2444.1</ele></trkpt>
      <trkpt lat="47.24773301956959" lon="9.343762532305963">
      <ele>2443.4</ele></trkpt>
      <trkpt lat="47.247716971560166" lon="9.343798798027608">
      <ele>2442.7</ele></trkpt>
      <trkpt lat="47.24770092285604" lon="9.34381660503187">
      <ele>2442.0</ele></trkpt>
      <trkpt lat="47.24768704761007" lon="9.343859131930783">
      <ele>2441.2</ele></trkpt>
      <trkpt lat="47.24767782095456" lon="9.343880075893415">
      <ele>2440.5</ele></trkpt>
      <trkpt lat="47.247668785747365" lon="9.343900868120615">
      <ele>2439.8</ele></trkpt>
      <trkpt lat="47.24765669173763" lon="9.343930892878937">
      <ele>2439.1</ele></trkpt>
      <trkpt lat="47.247636759369946" lon="9.343979519507824">
      <ele>2438.4</ele></trkpt>
      <trkpt lat="47.24761927248298" lon="9.344020635822055">
      <ele>2437.7</ele></trkpt>
      <trkpt lat="47.24760746059946" lon="9.344046112085525">
      <ele>2437.0</ele></trkpt>
      <trkpt lat="47.24760105120802" lon="9.34407895573798">
      <ele>2436.3</ele></trkpt>
      <trkpt lat="47.24759084903949" lon="9.34410991996579">
      <ele>2435.6</ele></trkpt>
      <trkpt lat="47.247579711608545" lon="9.344149016484444">
      <ele>2434.9</ele></trkpt>
      <trkpt lat="47.24757137049943" lon="9.344192031311229">
      <ele>2434.2</ele></trkpt>
      <trkpt lat="47.247560001164125" lon="9.34422393162973">
      <ele>2433.4</ele></trkpt>
      <trkpt lat="47.24754982889482" lon="9.344262877552342">
      <ele>2432.7</ele></trkpt>
      <trkpt lat="47.24753767425344" lon="9.344296018279788">
      <ele>2432.0</ele></trkpt>
      <trkpt lat="47.247524402326675" lon="9.344318376933323">
      <ele>2431.3</ele></trkpt>
      <trkpt lat="47.24749967016987" lon="9.344349298371915">
      <ele>2430.6</ele></trkpt>
      <trkpt lat="47.24747161777889" lon="9.344383497075274">
      <ele>2429.4</ele></trkpt>
      <trkpt lat="47.24745279172603" lon="9.344387529262367">
      <ele>2428.2</ele></trkpt>
      <trkpt lat="47.247434267693656" lon="9.344404851302198">
      <ele>2426.9</ele></trkpt>
      <trkpt lat="47.24735894949453" lon="9.344496888160934">
      <ele>2425.7</ele></trkpt>
      <trkpt lat="47.247298132561454" lon="9.344644540309229">
      <ele>2424.5</ele></trkpt>
      <trkpt lat="47.247281346948206" lon="9.344670988344001">
      <ele>2423.2</ele></trkpt>
      <trkpt lat="47.24722958762661" lon="9.34471436946271">
      <ele>2422.0</ele></trkpt>
      <trkpt lat="47.24720065925928" lon="9.344763440765187">
      <ele>2420.8</ele></trkpt>
      <trkpt lat="47.24716417373756" lon="9.344789634984972">
      <ele>2419.6</ele></trkpt>
      <trkpt lat="47.24715558122257" lon="9.344835322642828">
      <ele>2418.3</ele></trkpt>
      <trkpt lat="47.247134331385865" lon="9.3448825273306">
      <ele>2417.1</ele></trkpt>
      <trkpt lat="47.24712468154663" lon="9.3449148982114">
      <ele>2415.9</ele></trkpt>
      <trkpt lat="47.24709909366394" lon="9.344931730046975">
      <ele>2414.7</ele></trkpt>
      <trkpt lat="47.247086405543456" lon="9.344962842945284">
      <ele>2413.4</ele></trkpt>
      <trkpt lat="47.24707580025168" lon="9.344976285196632">
      <ele>2412.2</ele></trkpt>
      <trkpt lat="47.24706073704158" lon="9.344974214930803">
      <ele>2411.0</ele></trkpt>
      <trkpt lat="47.24705565581575" lon="9.34497951695889">
      <ele>2409.8</ele></trkpt>
      <trkpt lat="47.247052567540315" lon="9.344999226131453">
      <ele>2408.5</ele></trkpt>
      <trkpt lat="47.24704329030612" lon="9.345031914137623">
      <ele>2407.3</ele></trkpt>
      <trkpt lat="47.24703091375276" lon="9.345048001799016">
      <ele>2406.1</ele></trkpt>
      <trkpt lat="47.247020500388345" lon="9.345079750757971">
      <ele>2405.2</ele></trkpt>
      <trkpt lat="47.247015368999726" lon="9.345096784050217">
      <ele>2404.2</ele></trkpt>
      <trkpt lat="47.246998585085834" lon="9.345113335396938">
      <ele>2403.2</ele></trkpt>
      <trkpt lat="47.24699083720398" lon="9.345136789259914">
      <ele>2402.3</ele></trkpt>
      <trkpt lat="47.24696880088332" lon="9.345139081382833">
      <ele>2401.3</ele></trkpt>
      <trkpt lat="47.24695710868565" lon="9.345149696855877">
      <ele>2400.4</ele></trkpt>
      <trkpt lat="47.246952280401004" lon="9.345188647926888">
      <ele>2399.4</ele></trkpt>
      <trkpt lat="47.246930978050266" lon="9.345211287654449">
      <ele>2398.5</ele></trkpt>
      <trkpt lat="47.2469249007225" lon="9.34524633595542">
      <ele>2397.5</ele></trkpt>
      <trkpt lat="47.246895318548916" lon="9.34528053207757">
      <ele>2396.6</ele></trkpt>
      <trkpt lat="47.24688636346478" lon="9.345306796765835">
      <ele>2395.7</ele></trkpt>
      <trkpt lat="47.24687357527252" lon="9.345323834164894">
      <ele>2394.7</ele></trkpt>
      <trkpt lat="47.246874370222486" lon="9.345341039284765">
      <ele>2393.8</ele></trkpt>
      <trkpt lat="47.246846698725065" lon="9.345357096183534">
      <ele>2392.8</ele></trkpt>
      <trkpt lat="47.24684082362173" lon="9.345400581445487">
      <ele>2391.8</ele></trkpt>
      <trkpt lat="47.24682830661049" lon="9.345445811539376">
      <ele>2390.9</ele></trkpt>
      <trkpt lat="47.24681113287867" lon="9.345476671551635">
      <ele>2389.9</ele></trkpt>
      <trkpt lat="47.24678702209609" lon="9.345495035590039">
      <ele>2389.0</ele></trkpt>
      <trkpt lat="47.24677112227663" lon="9.345520682321794">
      <ele>2388.0</ele></trkpt>
      <trkpt lat="47.24674690464526" lon="9.34554604532314">
      <ele>2387.1</ele></trkpt>
      <trkpt lat="47.24672847725276" lon="9.345580348694595">
      <ele>2386.6</ele></trkpt>
      <trkpt lat="47.24669908929636" lon="9.345629984038272">
      <ele>2386.1</ele></trkpt>
      <trkpt lat="47.24667471817564" lon="9.34566407515957">
      <ele>2385.6</ele></trkpt>
      <trkpt lat="47.246649131251004" lon="9.345699866938265">
      <ele>2385.1</ele></trkpt>
      <trkpt lat="47.24660193199386" lon="9.345747122160917">
      <ele>2384.6</ele></trkpt>
      <trkpt lat="47.24657877663265" lon="9.345779512482341">
      <ele>2384.1</ele></trkpt>
      <trkpt lat="47.246563552230775" lon="9.345836642836808">
      <ele>2383.6</ele></trkpt>
      <trkpt lat="47.24655461840998" lon="9.345873029040272">
      <ele>2383.1</ele></trkpt>
      <trkpt lat="47.24653076896538" lon="9.345947345132512">
      <ele>2382.6</ele></trkpt>
      <trkpt lat="47.24651434832728" lon="9.346004445890479">
      <ele>2382.1</ele></trkpt>
      <trkpt lat="47.2464814570736" lon="9.34605046753952">
      <ele>2381.6</ele></trkpt>
      <trkpt lat="47.24643677627905" lon="9.346089065380532">
      <ele>2381.1</ele></trkpt>
      <trkpt lat="47.24641695933808" lon="9.346135553778428">
      <ele>2380.6</ele></trkpt>
      <trkpt lat="47.24638786125961" lon="9.346239397645638">
      <ele>2380.1</ele></trkpt>
      <trkpt lat="47.246347136088474" lon="9.346327089779182">
      <ele>2379.6</ele></trkpt>
      <trkpt lat="47.24631734286593" lon="9.346401179903935">
      <ele>2379.1</ele></trkpt>
      <trkpt lat="47.24630071952323" lon="9.346470508063486">
      <ele>2378.6</ele></trkpt>
      <trkpt lat="47.246292509527834" lon="9.346534891215704">
      <ele>2378.1</ele></trkpt>
      <trkpt lat="47.24628517725678" lon="9.34661853023691">
      <ele>2377.6</ele></trkpt>
      <trkpt lat="47.246273281676444" lon="9.346689771244117">
      <ele>2377.1</ele></trkpt>
      <trkpt lat="47.24624833180096" lon="9.346758788624221">
      <ele>2376.8</ele></trkpt>
      <trkpt lat="47.24624059362197" lon="9.346795217178784">
      <ele>2376.6</ele></trkpt>
      <trkpt lat="47.246238083996076" lon="9.346842442317842">
      <ele>2376.3</ele></trkpt>
      <trkpt lat="47.24623709054698" lon="9.346872003344542">
      <ele>2376.1</ele></trkpt>
      <trkpt lat="47.24621974278777" lon="9.346928013382959">
      <ele>2375.8</ele></trkpt>
      <trkpt lat="47.24620957769952" lon="9.346981135355042">
      <ele>2375.5</ele></trkpt>
      <trkpt lat="47.24619554748938" lon="9.347051956397037">
      <ele>2375.3</ele></trkpt>
      <trkpt lat="47.24617777557226" lon="9.347090114016158">
      <ele>2375.0</ele></trkpt>
      <trkpt lat="47.24614914656691" lon="9.347137344017327">
      <ele>2374.8</ele></trkpt>
      <trkpt lat="47.246110570735624" lon="9.347181060751252">
      <ele>2374.5</ele></trkpt>
      <trkpt lat="47.246104540887" lon="9.347156718929172">
      <ele>2374.2</ele></trkpt>
      <trkpt lat="47.246097713828206" lon="9.34713759407122">
      <ele>2374.0</ele></trkpt>
      <trkpt lat="47.24608716954514" lon="9.347127783489249">
      <ele>2373.7</ele></trkpt>
      <trkpt lat="47.246077092613135" lon="9.347132668908184">
      <ele>2373.5</ele></trkpt>
      <trkpt lat="47.24606681573124" lon="9.347149081858918">
      <ele>2373.2</ele></trkpt>
      <trkpt lat="47.2460463305791" lon="9.347221759647903">
      <ele>2372.9</ele></trkpt>
      <trkpt lat="47.246024278202086" lon="9.347259777379694">
      <ele>2372.7</ele></trkpt>
      <trkpt lat="47.24600526724365" lon="9.347286369086568">
      <ele>2372.4</ele></trkpt>
      <trkpt lat="47.245969248178994" lon="9.347305006824728">
      <ele>2372.2</ele></trkpt>
      <trkpt lat="47.24593165048192" lon="9.347376029164678">
      <ele>2371.9</ele></trkpt>
      <trkpt lat="47.245903836076906" lon="9.347416985472709">
      <ele>2371.1</ele></trkpt>
      <trkpt lat="47.24586139519247" lon="9.347478387547088">
      <ele>2370.3</ele></trkpt>
      <trkpt lat="47.245846760213816" lon="9.347499890051658">
      <ele>2369.5</ele></trkpt>
      <trkpt lat="47.24583074757551" lon="9.347518198708467">
      <ele>2368.7</ele></trkpt>
      <trkpt lat="47.24581274227925" lon="9.347526989118823">
      <ele>2367.9</ele></trkpt>
      <trkpt lat="47.24579333353267" lon="9.34753468557443">
      <ele>2367.2</ele></trkpt>
      <trkpt lat="47.24578106442023" lon="9.347542637156927">
      <ele>2366.4</ele></trkpt>
      <trkpt lat="47.245777025747216" lon="9.347570807478391">
      <ele>2365.6</ele></trkpt>
      <trkpt lat="47.245776087796315" lon="9.347627416457264">
      <ele>2364.8</ele></trkpt>
      <trkpt lat="47.24576597445826" lon="9.347677395113307">
      <ele>2364.0</ele></trkpt>
      <trkpt lat="47.24576105165654" lon="9.347716024637846">
      <ele>2363.2</ele></trkpt>
      <trkpt lat="47.245763701174944" lon="9.347771691590504">
      <ele>2362.4</ele></trkpt>
      <trkpt lat="47.24577096060377" lon="9.347807611891954">
      <ele>2361.6</ele></trkpt>
      <trkpt lat="47.24577189491091" lon="9.347837016935138">
      <ele>2360.8</ele></trkpt>
      <trkpt lat="47.24576296977381" lon="9.347858723380932">
      <ele>2360.1</ele></trkpt>
      <trkpt lat="47.24574858634746" lon="9.347864498512699">
      <ele>2359.3</ele></trkpt>
      <trkpt lat="47.24571872022779" lon="9.34785714187697">
      <ele>2358.5</ele></trkpt>
      <trkpt lat="47.245709336343644" lon="9.347863095691203">
      <ele>2357.7</ele></trkpt>
      <trkpt lat="47.24570953449749" lon="9.347877742338007">
      <ele>2356.9</ele></trkpt>
      <trkpt lat="47.24571560131364" lon="9.34789767237837">
      <ele>2356.1</ele></trkpt>
      <trkpt lat="47.2457233303725" lon="9.34792479664262">
      <ele>2355.3</ele></trkpt>
      <trkpt lat="47.24573761607272" lon="9.347962923542388">
      <ele>2354.5</ele></trkpt>
      <trkpt lat="47.245727828094886" lon="9.348001947268656">
      <ele>2353.7</ele></trkpt>
      <trkpt lat="47.245709374534115" lon="9.348012267352404">
      <ele>2352.9</ele></trkpt>
      <trkpt lat="47.245683607294694" lon="9.348006774784189">
      <ele>2352.1</ele></trkpt>
      <trkpt lat="47.245674489093176" lon="9.348033613965717">
      <ele>2351.3</ele></trkpt>
      <trkpt lat="47.24567989508095" lon="9.348065728830546">
      <ele>2350.5</ele></trkpt>
      <trkpt lat="47.24566362883175" lon="9.348078161807074">
      <ele>2349.7</ele></trkpt>
      <trkpt lat="47.24564169069199" lon="9.348068009911707">
      <ele>2348.9</ele></trkpt>
      <trkpt lat="47.24563301323145" lon="9.348086712651194">
      <ele>2348.1</ele></trkpt>
      <trkpt lat="47.24562414825648" lon="9.348099357318848">
      <ele>2347.3</ele></trkpt>
      <trkpt lat="47.24562322521139" lon="9.348125736278325">
      <ele>2346.5</ele></trkpt>
      <trkpt lat="47.245602853909965" lon="9.348129077570043">
      <ele>2345.7</ele></trkpt>
      <trkpt lat="47.24560795483831" lon="9.34816222529154">
      <ele>2344.9</ele></trkpt>
      <trkpt lat="47.2455921428146" lon="9.348194480110326">
      <ele>2344.1</ele></trkpt>
      <trkpt lat="47.245572757802684" lon="9.348198570109448">
      <ele>2343.3</ele></trkpt>
      <trkpt lat="47.24556417832471" lon="9.348248272994013">
      <ele>2342.5</ele></trkpt>
      <trkpt lat="47.245565944438496" lon="9.348305110540672">
      <ele>2341.7</ele></trkpt>
      <trkpt lat="47.24556832514253" lon="9.348331924678197">
      <ele>2340.9</ele></trkpt>
      <trkpt lat="47.24556530071383" lon="9.348349917777533">
      <ele>2340.1</ele></trkpt>
      <trkpt lat="47.24557874327016" lon="9.34838950756164">
      <ele>2339.8</ele></trkpt>
      <trkpt lat="47.24557445089226" lon="9.348459024001876">
      <ele>2339.4</ele></trkpt>
      <trkpt lat="47.245569033706914" lon="9.348497609225026">
      <ele>2339.1</ele></trkpt>
      <trkpt lat="47.24555737006684" lon="9.348519508249721">
      <ele>2338.8</ele></trkpt>
      <trkpt lat="47.24555466183464" lon="9.348550447745057">
      <ele>2338.4</ele></trkpt>
      <trkpt lat="47.24554575479942" lon="9.34857322485329">
      <ele>2338.1</ele></trkpt>
      <trkpt lat="47.24552290254323" lon="9.348589452000233">
      <ele>2337.8</ele></trkpt>
      <trkpt lat="47.24548398189773" lon="9.348586091756745">
      <ele>2337.4</ele></trkpt>
      <trkpt lat="47.245446539625796" lon="9.348588531831362">
      <ele>2337.1</ele></trkpt>
      <trkpt lat="47.24539641291854" lon="9.3486315697103">
      <ele>2336.8</ele></trkpt>
      <trkpt lat="47.245390867437514" lon="9.348686573374556">
      <ele>2336.4</ele></trkpt>
      <trkpt lat="47.2453618746223" lon="9.348749736351497">
      <ele>2336.1</ele></trkpt>
      <trkpt lat="47.24534767656289" lon="9.348780687675779">
      <ele>2335.7</ele></trkpt>
      <trkpt lat="47.2453331569531" lon="9.34880335645191">
      <ele>2335.4</ele></trkpt>
      <trkpt lat="47.24531619135298" lon="9.348842770489133">
      <ele>2335.1</ele></trkpt>
      <trkpt lat="47.24529489465437" lon="9.348858511364678">
      <ele>2334.7</ele></trkpt>
      <trkpt lat="47.24527733936711" lon="9.348885193843858">
      <ele>2334.4</ele></trkpt>
      <trkpt lat="47.24526549568651" lon="9.34891034971565">
      <ele>2334.1</ele></trkpt>
      <trkpt lat="47.24524920958467" lon="9.348960873252246">
      <ele>2333.7</ele></trkpt>
      <trkpt lat="47.24523581093619" lon="9.349009808820773">
      <ele>2333.4</ele></trkpt>
      <trkpt lat="47.245222141785675" lon="9.34904032969585">
      <ele>2333.7</ele></trkpt>
      <trkpt lat="47.245203166422215" lon="9.349060407902652">
      <ele>2333.9</ele></trkpt>
      <trkpt lat="47.24518708216681" lon="9.349083562298183">
      <ele>2334.2</ele></trkpt>
      <trkpt lat="47.24518299045025" lon="9.349102428721872">
      <ele>2334.4</ele></trkpt>
      <trkpt lat="47.24516485445534" lon="9.349116379898412">
      <ele>2334.7</ele></trkpt>
      <trkpt lat="47.24515329381953" lon="9.349115239760314">
      <ele>2335.0</ele></trkpt>
      <trkpt lat="47.24512267926386" lon="9.34911666844967">
      <ele>2335.2</ele></trkpt>
      <trkpt lat="47.245105322183846" lon="9.349127053673767">
      <ele>2335.5</ele></trkpt>
      <trkpt lat="47.24509043419573" lon="9.349155112974776">
      <ele>2335.7</ele></trkpt>
      <trkpt lat="47.245070076180696" lon="9.349189662125111">
      <ele>2336.0</ele></trkpt>
      <trkpt lat="47.24507193398422" lon="9.349222495449276">
      <ele>2336.3</ele></trkpt>
      <trkpt lat="47.245055063587515" lon="9.349242595972502">
      <ele>2336.5</ele></trkpt>
      <trkpt lat="47.2450305729555" lon="9.349259411497746">
      <ele>2336.8</ele></trkpt>
      <trkpt lat="47.245016083702474" lon="9.349280786279158">
      <ele>2337.0</ele></trkpt>
      <trkpt lat="47.244997619493994" lon="9.349317239599621">
      <ele>2337.3</ele></trkpt>
      <trkpt lat="47.24498193537828" lon="9.349337963843139">
      <ele>2337.6</ele></trkpt>
      <trkpt lat="47.24495447045069" lon="9.349358345970622">
      <ele>2337.8</ele></trkpt>
      <trkpt lat="47.24493026269295" lon="9.349383059342623">
      <ele>2338.1</ele></trkpt>
      <trkpt lat="47.244912109134134" lon="9.349406747278824">
      <ele>2338.3</ele></trkpt>
      <trkpt lat="47.24489832821692" lon="9.349408738281202">
      <ele>2338.6</ele></trkpt>
      <trkpt lat="47.24487712186868" lon="9.349409261352527">
      <ele>2338.1</ele></trkpt>
      <trkpt lat="47.244846975372624" lon="9.349430749813529">
      <ele>2337.5</ele></trkpt>
      <trkpt lat="47.244832078123345" lon="9.349469127444491">
      <ele>2337.0</ele></trkpt>
      <trkpt lat="47.24483192588897" lon="9.34951465190627">
      <ele>2336.4</ele></trkpt>
      <trkpt lat="47.24482431118958" lon="9.349589690152957">
      <ele>2335.9</ele></trkpt>
      <trkpt lat="47.24481230885666" lon="9.349608128091488">
      <ele>2335.4</ele></trkpt>
      <trkpt lat="47.244797408166875" lon="9.349642370050566">
      <ele>2334.8</ele></trkpt>
      <trkpt lat="47.24478917966379" lon="9.349673587223316">
      <ele>2334.3</ele></trkpt>
      <trkpt lat="47.24478586469536" lon="9.34968358931876">
      <ele>2333.7</ele></trkpt>
      <trkpt lat="47.24477768545535" lon="9.349731905062084">
      <ele>2333.2</ele></trkpt>
      <trkpt lat="47.244769058215724" lon="9.349752987263141">
      <ele>2332.7</ele></trkpt>
      <trkpt lat="47.24476562050789" lon="9.34977743930073">
      <ele>2332.1</ele></trkpt>
      <trkpt lat="47.24472913709607" lon="9.349802889120882">
      <ele>2331.6</ele></trkpt>
      <trkpt lat="47.244701032187315" lon="9.349826590746716">
      <ele>2331.0</ele></trkpt>
      <trkpt lat="47.2446732109105" lon="9.349864109406873">
      <ele>2330.5</ele></trkpt>
      <trkpt lat="47.24466114029736" lon="9.349892084108836">
      <ele>2330.0</ele></trkpt>
      <trkpt lat="47.24465009788083" lon="9.34994485553004">
      <ele>2329.4</ele></trkpt>
      <trkpt lat="47.244643088645525" lon="9.349996397153246">
      <ele>2328.9</ele></trkpt>
      <trkpt lat="47.24463243501339" lon="9.350036577869535">
      <ele>2328.3</ele></trkpt>
      <trkpt lat="47.24461897740325" lon="9.350076565753461">
      <ele>2327.8</ele></trkpt>
      <trkpt lat="47.24462187348131" lon="9.350137366887498">
      <ele>2327.2</ele></trkpt>
      <trkpt lat="47.24461935106281" lon="9.350183651954776">
      <ele>2326.5</ele></trkpt>
      <trkpt lat="47.2446269357511" lon="9.350212937672133">
      <ele>2325.9</ele></trkpt>
      <trkpt lat="47.24463308351406" lon="9.350257788972973">
      <ele>2325.2</ele></trkpt>
      <trkpt lat="47.24464188110986" lon="9.350267114616152">
      <ele>2324.6</ele></trkpt>
      <trkpt lat="47.24464884789177" lon="9.35030544191951">
      <ele>2323.9</ele></trkpt>
      <trkpt lat="47.244650039672045" lon="9.350346944928498">
      <ele>2323.2</ele></trkpt>
      <trkpt lat="47.244641008098114" lon="9.350394556124993">
      <ele>2322.6</ele></trkpt>
      <trkpt lat="47.2446501733153" lon="9.35045058740207">
      <ele>2322.0</ele></trkpt>
      <trkpt lat="47.244634765127245" lon="9.350501841586034">
      <ele>2321.3</ele></trkpt>
      <trkpt lat="47.244606908419364" lon="9.350577264797634">
      <ele>2320.7</ele></trkpt>
      <trkpt lat="47.244590809582355" lon="9.350631097016743">
      <ele>2320.0</ele></trkpt>
      <trkpt lat="47.244578769458656" lon="9.350707099441019">
      <ele>2319.4</ele></trkpt>
      <trkpt lat="47.24455906707074" lon="9.350786685565526">
      <ele>2318.7</ele></trkpt>
      <trkpt lat="47.24453015337364" lon="9.350850430634514">
      <ele>2318.1</ele></trkpt>
      <trkpt lat="47.24452195439073" lon="9.350922672795711">
      <ele>2317.4</ele></trkpt>
      <trkpt lat="47.244505683556675" lon="9.350986857131907">
      <ele>2316.8</ele></trkpt>
      <trkpt lat="47.24448952030664" lon="9.351044558035024">
      <ele>2316.1</ele></trkpt>
      <trkpt lat="47.24448551605994" lon="9.351092824604876">
      <ele>2315.5</ele></trkpt>
      <trkpt lat="47.244483758277426" lon="9.351143972605236">
      <ele>2314.8</ele></trkpt>
      <trkpt lat="47.24446792656186" lon="9.351228308115754">
      <ele>2314.6</ele></trkpt>
      <trkpt lat="47.24447402183037" lon="9.351285511047596">
      <ele>2314.4</ele></trkpt>
      <trkpt lat="47.24448716411087" lon="9.351368056500759">
      <ele>2314.2</ele></trkpt>
      <trkpt lat="47.24450899311451" lon="9.351431913724733">
      <ele>2314.0</ele></trkpt>
      <trkpt lat="47.24453019235231" lon="9.351483844144731">
      <ele>2313.8</ele></trkpt>
      <trkpt lat="47.24453127574729" lon="9.351515592524905">
      <ele>2313.6</ele></trkpt>
      <trkpt lat="47.24452638844671" lon="9.351544418575344">
      <ele>2313.4</ele></trkpt>
      <trkpt lat="47.24453350471898" lon="9.351606229639733">
      <ele>2313.2</ele></trkpt>
      <trkpt lat="47.24455262815808" lon="9.351682383300734">
      <ele>2313.0</ele></trkpt>
      <trkpt lat="47.244567832470096" lon="9.351788111210514">
      <ele>2312.8</ele></trkpt>
      <trkpt lat="47.24459006521336" lon="9.351849314277995">
      <ele>2312.6</ele></trkpt>
      <trkpt lat="47.244627593117976" lon="9.351939247156318">
      <ele>2312.4</ele></trkpt>
      <trkpt lat="47.244637958101265" lon="9.351983668387488">
      <ele>2312.2</ele></trkpt>
      <trkpt lat="47.24463195041073" lon="9.352009521184558">
      <ele>2312.0</ele></trkpt>
      <trkpt lat="47.24462412438111" lon="9.352050053832272">
      <ele>2311.8</ele></trkpt>
      <trkpt lat="47.24461535635343" lon="9.352070377467196">
      <ele>2311.6</ele></trkpt>
      <trkpt lat="47.24461631437175" lon="9.352123208337865">
      <ele>2311.4</ele></trkpt>
      <trkpt lat="47.24457229670697" lon="9.35216671214031">
      <ele>2311.2</ele></trkpt>
      <trkpt lat="47.244553640119285" lon="9.352204399261948">
      <ele>2311.0</ele></trkpt>
      <trkpt lat="47.2445409509005" lon="9.352240331483182">
      <ele>2310.8</ele></trkpt>
      <trkpt lat="47.244538703971706" lon="9.352291105262601">
      <ele>2309.6</ele></trkpt>
      <trkpt lat="47.244521825329926" lon="9.35233821033992">
      <ele>2308.4</ele></trkpt>
      <trkpt lat="47.2445281685856" lon="9.352362576507282">
      <ele>2307.1</ele></trkpt>
      <trkpt lat="47.244535820675466" lon="9.352409979028051">
      <ele>2305.9</ele></trkpt>
      <trkpt lat="47.24453986733404" lon="9.35248593637181">
      <ele>2304.7</ele></trkpt>
      <trkpt lat="47.24454840300567" lon="9.352531058420208">
      <ele>2303.5</ele></trkpt>
      <trkpt lat="47.24454428277774" lon="9.352578686607922">
      <ele>2302.2</ele></trkpt>
      <trkpt lat="47.24453355845958" lon="9.352630107931349">
      <ele>2301.0</ele></trkpt>
      <trkpt lat="47.24450974413108" lon="9.352701499687596">
      <ele>2299.8</ele></trkpt>
      <trkpt lat="47.244483202855484" lon="9.352757229555733">
      <ele>2298.6</ele></trkpt>
      <trkpt lat="47.24444847173428" lon="9.35283204836854">
      <ele>2297.3</ele></trkpt>
      <trkpt lat="47.24442415102207" lon="9.352879758537533">
      <ele>2296.1</ele></trkpt>
      <trkpt lat="47.244421140021814" lon="9.352916394065915">
      <ele>2294.9</ele></trkpt>
      <trkpt lat="47.244424994174864" lon="9.35296763738346">
      <ele>2293.7</ele></trkpt>
      <trkpt lat="47.244412502398035" lon="9.353023619487557">
      <ele>2292.4</ele></trkpt>
      <trkpt lat="47.24440022551939" lon="9.353080203821484">
      <ele>2291.2</ele></trkpt>
      <trkpt lat="47.24438107838759" lon="9.353126817658733">
      <ele>2290.0</ele></trkpt>
      <trkpt lat="47.24435786694844" lon="9.353163535129605">
      <ele>2288.8</ele></trkpt>
      <trkpt lat="47.24433507034468" lon="9.353211563941578">
      <ele>2287.5</ele></trkpt>
      <trkpt lat="47.24432208613112" lon="9.353285800837432">
      <ele>2286.3</ele></trkpt>
      <trkpt lat="47.24430229808565" lon="9.35339587656468">
      <ele>2286.7</ele></trkpt>
      <trkpt lat="47.24428107473009" lon="9.353466713159252">
      <ele>2287.2</ele></trkpt>
      <trkpt lat="47.24425648558058" lon="9.353509987167083">
      <ele>2287.6</ele></trkpt>
      <trkpt lat="47.244249052451266" lon="9.353533885957717">
      <ele>2288.1</ele></trkpt>
      <trkpt lat="47.2442426546515" lon="9.353581022592438">
      <ele>2288.5</ele></trkpt>
      <trkpt lat="47.24423322977661" lon="9.353632186140949">
      <ele>2289.0</ele></trkpt>
      <trkpt lat="47.24422190329022" lon="9.353708979348607">
      <ele>2289.4</ele></trkpt>
      <trkpt lat="47.24421856761164" lon="9.353732655046874">
      <ele>2289.9</ele></trkpt>
      <trkpt lat="47.244213577471086" lon="9.353735158240182">
      <ele>2290.3</ele></trkpt>
      <trkpt lat="47.24420237855765" lon="9.353715506504802">
      <ele>2290.8</ele></trkpt>
      <trkpt lat="47.244198499654466" lon="9.353720982656764">
      <ele>2291.2</ele></trkpt>
      <trkpt lat="47.244194015818174" lon="9.353747153935364">
      <ele>2291.6</ele></trkpt>
      <trkpt lat="47.244192293777886" lon="9.353792833022059">
      <ele>2292.1</ele></trkpt>
      <trkpt lat="47.24418916582964" lon="9.353873830904101">
      <ele>2292.5</ele></trkpt>
      <trkpt lat="47.244194069351096" lon="9.353958802957285">
      <ele>2293.0</ele></trkpt>
      <trkpt lat="47.244191069942445" lon="9.354017450311122">
      <ele>2293.4</ele></trkpt>
      <trkpt lat="47.2442153006109" lon="9.354062857633581">
      <ele>2293.9</ele></trkpt>
      <trkpt lat="47.244213765578834" lon="9.354144361876674">
      <ele>2294.3</ele></trkpt>
      <trkpt lat="47.24421366383235" lon="9.3541818678361">
      <ele>2294.8</ele></trkpt>
      <trkpt lat="47.244210652866315" lon="9.354217935036234">
      <ele>2295.2</ele></trkpt>
      <trkpt lat="47.24420640214597" lon="9.354238737253286">
      <ele>2295.2</ele></trkpt>
      <trkpt lat="47.244209546593545" lon="9.3542936676775">
      <ele>2295.2</ele></trkpt>
      <trkpt lat="47.24420623492637" lon="9.354316974256102">
      <ele>2295.2</ele></trkpt>
      <trkpt lat="47.24421362970896" lon="9.354359241216914">
      <ele>2295.2</ele></trkpt>
      <trkpt lat="47.24421281627338" lon="9.354404913257799">
      <ele>2295.1</ele></trkpt>
      <trkpt lat="47.244214693574435" lon="9.35444135393938">
      <ele>2295.1</ele></trkpt>
      <trkpt lat="47.2442025801472" lon="9.354492936179676">
      <ele>2295.1</ele></trkpt>
      <trkpt lat="47.244179075928066" lon="9.354529378204571">
      <ele>2295.1</ele></trkpt>
      <trkpt lat="47.24415782527077" lon="9.354550416267267">
      <ele>2295.1</ele></trkpt>
      <trkpt lat="47.2441223193627" lon="9.354577073522277">
      <ele>2295.1</ele></trkpt>
      <trkpt lat="47.244100685453375" lon="9.354602761717015">
      <ele>2295.1</ele></trkpt>
      <trkpt lat="47.24409072514584" lon="9.354626041164163">
      <ele>2295.1</ele></trkpt>
      <trkpt lat="47.24409471038047" lon="9.354634732415084">
      <ele>2295.1</ele></trkpt>
      <trkpt lat="47.244136688581165" lon="9.354678755030635">
      <ele>2295.1</ele></trkpt>
      <trkpt lat="47.24415542954394" lon="9.354702046590281">
      <ele>2295.1</ele></trkpt>
      <trkpt lat="47.24418193978093" lon="9.354755357623903">
      <ele>2295.0</ele></trkpt>
      <trkpt lat="47.244201318730916" lon="9.354787894272611">
      <ele>2295.0</ele></trkpt>
      <trkpt lat="47.24419181519765" lon="9.354792904350028">
      <ele>2295.0</ele></trkpt>
      <trkpt lat="47.24412866897554" lon="9.354752508791902">
      <ele>2295.0</ele></trkpt>
      <trkpt lat="47.244098782962645" lon="9.354731763799565">
      <ele>2295.0</ele></trkpt>
      <trkpt lat="47.24406621464775" lon="9.354743543609125">
      <ele>2294.0</ele></trkpt>
      <trkpt lat="47.2440770303058" lon="9.354760261867074">
      <ele>2293.0</ele></trkpt>
      <trkpt lat="47.244075634624664" lon="9.354767901322829">
      <ele>2292.0</ele></trkpt>
      <trkpt lat="47.24405379221917" lon="9.354759058400237">
      <ele>2291.0</ele></trkpt>
      <trkpt lat="47.24401317893405" lon="9.354790394362487">
      <ele>2289.9</ele></trkpt>
      <trkpt lat="47.24401020526429" lon="9.354798241450853">
      <ele>2288.9</ele></trkpt>
      <trkpt lat="47.24401629724174" lon="9.354806849723811">
      <ele>2287.9</ele></trkpt>
      <trkpt lat="47.24406229006893" lon="9.354808023836256">
      <ele>2286.9</ele></trkpt>
      <trkpt lat="47.24406505326074" lon="9.35481661841311">
      <ele>2285.9</ele></trkpt>
      <trkpt lat="47.244043939161884" lon="9.354838638921212">
      <ele>2284.9</ele></trkpt>
      <trkpt lat="47.24403658753105" lon="9.354854375213694">
      <ele>2283.9</ele></trkpt>
      <trkpt lat="47.24405054062254" lon="9.354875037573034">
      <ele>2282.9</ele></trkpt>
      <trkpt lat="47.244096659761766" lon="9.354904860400952">
      <ele>2281.9</ele></trkpt>
      <trkpt lat="47.24412613596044" lon="9.354911295143609">
      <ele>2280.9</ele></trkpt>
      <trkpt lat="47.2441273668021" lon="9.354918975972272">
      <ele>2279.9</ele></trkpt>
      <trkpt lat="47.24410745690981" lon="9.354933508688596">
      <ele>2278.8</ele></trkpt>
      <trkpt lat="47.24410315129465" lon="9.354951653184527">
      <ele>2277.8</ele></trkpt>
      <trkpt lat="47.244105840584716" lon="9.354977672065852">
      <ele>2276.8</ele></trkpt>
      <trkpt lat="47.24412846792637" lon="9.35497664727528">
      <ele>2275.8</ele></trkpt>
      <trkpt lat="47.24414194682843" lon="9.354988493336016">
      <ele>2274.8</ele></trkpt>
      <trkpt lat="47.24414469087412" lon="9.355017169864418">
      <ele>2273.8</ele></trkpt>
      <trkpt lat="47.24415204916776" lon="9.355052419869937">
      <ele>2272.9</ele></trkpt>
      <trkpt lat="47.244161003969715" lon="9.355083102872422">
      <ele>2271.9</ele></trkpt>
      <trkpt lat="47.24415083449694" lon="9.355091365641076">
      <ele>2270.9</ele></trkpt>
      <trkpt lat="47.24414586357482" lon="9.355104610952234">
      <ele>2269.9</ele></trkpt>
      <trkpt lat="47.244149738631386" lon="9.35512370954866">
      <ele>2269.0</ele></trkpt>
      <trkpt lat="47.24415439812682" lon="9.355144870977185">
      <ele>2268.0</ele></trkpt>
      <trkpt lat="47.24415015603493" lon="9.355173257245433">
      <ele>2267.0</ele></trkpt>
      <trkpt lat="47.2441304734831" lon="9.355198460311916">
      <ele>2266.0</ele></trkpt>
      <trkpt lat="47.24412210046762" lon="9.355213393627466">
      <ele>2265.1</ele></trkpt>
      <trkpt lat="47.24413252411656" lon="9.35523095673225">
      <ele>2264.1</ele></trkpt>
      <trkpt lat="47.24415763088334" lon="9.355252878199632">
      <ele>2263.1</ele></trkpt>
      <trkpt lat="47.244183996634064" lon="9.355262398911238">
      <ele>2262.1</ele></trkpt>
      <trkpt lat="47.24419180253113" lon="9.355287504810937">
      <ele>2261.2</ele></trkpt>
      <trkpt lat="47.24420613795114" lon="9.355319252941154">
      <ele>2260.2</ele></trkpt>
      <trkpt lat="47.244194463668855" lon="9.35532981346289">
      <ele>2259.2</ele></trkpt>
      <trkpt lat="47.24417043182038" lon="9.355330893409983">
      <ele>2258.2</ele></trkpt>
      <trkpt lat="47.24415609403608" lon="9.355353909994953">
      <ele>2257.2</ele></trkpt>
      <trkpt lat="47.24414021588145" lon="9.355348914182509">
      <ele>2256.3</ele></trkpt>
      <trkpt lat="47.244133074749506" lon="9.355355779359238">
      <ele>2255.3</ele></trkpt>
      <trkpt lat="47.244145923890834" lon="9.355377895264269">
      <ele>2254.0</ele></trkpt>
      <trkpt lat="47.24418304156257" lon="9.35540525521619">
      <ele>2252.7</ele></trkpt>
      <trkpt lat="47.24421168942487" lon="9.355433355064982">
      <ele>2251.4</ele></trkpt>
      <trkpt lat="47.24423087150004" lon="9.35545662311937">
      <ele>2250.1</ele></trkpt>
      <trkpt lat="47.244235120255865" lon="9.355481918526372">
      <ele>2248.8</ele></trkpt>
      <trkpt lat="47.24420851972569" lon="9.355515170586457">
      <ele>2247.5</ele></trkpt>
      <trkpt lat="47.244155176609354" lon="9.355556143439374">
      <ele>2246.2</ele></trkpt>
      <trkpt lat="47.244145160587664" lon="9.355580596630706">
      <ele>2244.9</ele></trkpt>
      <trkpt lat="47.244159125176935" lon="9.35560110109237">
      <ele>2243.6</ele></trkpt>
      <trkpt lat="47.2441862341182" lon="9.355619487648767">
      <ele>2242.3</ele></trkpt>
      <trkpt lat="47.24423286430836" lon="9.355626696920803">
      <ele>2241.0</ele></trkpt>
      <trkpt lat="47.24425247371519" lon="9.355623199105757">
      <ele>2239.7</ele></trkpt>
      <trkpt lat="47.24425296908096" lon="9.355632901480867">
      <ele>2238.4</ele></trkpt>
      <trkpt lat="47.24422187749391" lon="9.355682996502987">
      <ele>2237.1</ele></trkpt>
      <trkpt lat="47.24419229754681" lon="9.355728759245052">
      <ele>2235.8</ele></trkpt>
      <trkpt lat="47.24419592368387" lon="9.355751455922094">
      <ele>2234.5</ele></trkpt>
      <trkpt lat="47.24420577795081" lon="9.35576754537621">
      <ele>2233.2</ele></trkpt>
      <trkpt lat="47.24426374084596" lon="9.355796618232084">
      <ele>2231.9</ele></trkpt>
      <trkpt lat="47.2442859484444" lon="9.355801894193865">
      <ele>2230.6</ele></trkpt>
      <trkpt lat="47.24429134737252" lon="9.355815379514457">
      <ele>2229.3</ele></trkpt>
      <trkpt lat="47.244271338790014" lon="9.355840161134495">
      <ele>2228.0</ele></trkpt>
      <trkpt lat="47.24425597468717" lon="9.355864290264062">
      <ele>2226.7</ele></trkpt>
      <trkpt lat="47.244255263247595" lon="9.355877305249392">
      <ele>2225.5</ele></trkpt>
      <trkpt lat="47.24423780000856" lon="9.355896193023204">
      <ele>2224.2</ele></trkpt>
      <trkpt lat="47.24425650710283" lon="9.355948537649583">
      <ele>2222.9</ele></trkpt>
      <trkpt lat="47.24429376016079" lon="9.356029386262898">
      <ele>2221.6</ele></trkpt>
      <trkpt lat="47.24430212119898" lon="9.356087080555412">
      <ele>2220.3</ele></trkpt>
      <trkpt lat="47.244332282369655" lon="9.356148041295743">
      <ele>2219.1</ele></trkpt>
      <trkpt lat="47.2443068511872" lon="9.356183462245443">
      <ele>2217.8</ele></trkpt>
      <trkpt lat="47.2443201596587" lon="9.35624878591132">
      <ele>2216.5</ele></trkpt>
      <trkpt lat="47.244290358929796" lon="9.356298609892143">
      <ele>2215.2</ele></trkpt>
      <trkpt lat="47.244267006706224" lon="9.356300480114882">
      <ele>2213.9</ele></trkpt>
      <trkpt lat="47.244247885902524" lon="9.356304351954241">
      <ele>2212.7</ele></trkpt>
      <trkpt lat="47.24424183120761" lon="9.356335672308063">
      <ele>2211.4</ele></trkpt>
      <trkpt lat="47.24426169316775" lon="9.356384028813096">
      <ele>2210.1</ele></trkpt>
      <trkpt lat="47.24427219391539" lon="9.35643532593042">
      <ele>2208.8</ele></trkpt>
      <trkpt lat="47.24426006095252" lon="9.356522078201746">
      <ele>2207.5</ele></trkpt>
      <trkpt lat="47.24425947273252" lon="9.356603352256966">
      <ele>2206.3</ele></trkpt>
      <trkpt lat="47.24425570530651" lon="9.35664914288416">
      <ele>2205.0</ele></trkpt>
      <trkpt lat="47.24423497997037" lon="9.35674830999081">
      <ele>2203.7</ele></trkpt>
      <trkpt lat="47.24423039979322" lon="9.356780766643281">
      <ele>2202.6</ele></trkpt>
      <trkpt lat="47.24423778108072" lon="9.356847027011623">
      <ele>2201.6</ele></trkpt>
      <trkpt lat="47.24422465470823" lon="9.356886430314315">
      <ele>2200.5</ele></trkpt>
      <trkpt lat="47.24422017251256" lon="9.356940558598394">
      <ele>2199.4</ele></trkpt>
      <trkpt lat="47.244209436826466" lon="9.356954719792345">
      <ele>2198.4</ele></trkpt>
      <trkpt lat="47.24419377442388" lon="9.357026468096068">
      <ele>2197.3</ele></trkpt>
      <trkpt lat="47.24421801156144" lon="9.35709302991571">
      <ele>2196.2</ele></trkpt>
      <trkpt lat="47.24422031484053" lon="9.357154087282536">
      <ele>2195.2</ele></trkpt>
      <trkpt lat="47.24422919325925" lon="9.357183380665758">
      <ele>2194.1</ele></trkpt>
      <trkpt lat="47.244227020700414" lon="9.357213889061093">
      <ele>2193.1</ele></trkpt>
      <trkpt lat="47.244234049627856" lon="9.357272658689094">
      <ele>2192.0</ele></trkpt>
      <trkpt lat="47.24422523881377" lon="9.357317105433744">
      <ele>2190.9</ele></trkpt>
      <trkpt lat="47.24422585243845" lon="9.357376424174655">
      <ele>2189.9</ele></trkpt>
      <trkpt lat="47.244221439968854" lon="9.357430673842549">
      <ele>2188.8</ele></trkpt>
      <trkpt lat="47.24420914082589" lon="9.357427959557718">
      <ele>2187.7</ele></trkpt>
      <trkpt lat="47.244195738041604" lon="9.357426143703725">
      <ele>2186.7</ele></trkpt>
      <trkpt lat="47.24418563790164" lon="9.357401060764053">
      <ele>2185.6</ele></trkpt>
      <trkpt lat="47.24417100472803" lon="9.35735102880925">
      <ele>2184.5</ele></trkpt>
      <trkpt lat="47.244151015873804" lon="9.35730977564861">
      <ele>2183.5</ele></trkpt>
      <trkpt lat="47.24410106257337" lon="9.357250891373198">
      <ele>2182.4</ele></trkpt>
      <trkpt lat="47.24409138633236" lon="9.357240872482562">
      <ele>2181.7</ele></trkpt>
      <trkpt lat="47.24408801262153" lon="9.357270029644727">
      <ele>2181.0</ele></trkpt>
      <trkpt lat="47.24409828907982" lon="9.357320724177649">
      <ele>2180.3</ele></trkpt>
      <trkpt lat="47.24409533181956" lon="9.35738916309006">
      <ele>2179.6</ele></trkpt>
      <trkpt lat="47.24409552655981" lon="9.357418527694215">
      <ele>2178.9</ele></trkpt>
      <trkpt lat="47.24406072610898" lon="9.357470853327007">
      <ele>2178.2</ele></trkpt>
      <trkpt lat="47.24403958014203" lon="9.357526087209344">
      <ele>2177.5</ele></trkpt>
      <trkpt lat="47.24401904657333" lon="9.35756994089521">
      <ele>2176.8</ele></trkpt>
      <trkpt lat="47.24399458209998" lon="9.35759213063198">
      <ele>2176.1</ele></trkpt>
      <trkpt lat="47.24395908462456" lon="9.357652807559182">
      <ele>2175.4</ele></trkpt>
      <trkpt lat="47.24393637065708" lon="9.357703862729856">
      <ele>2174.6</ele></trkpt>
      <trkpt lat="47.24393390070984" lon="9.35775869714347">
      <ele>2173.9</ele></trkpt>
      <trkpt lat="47.24394683914478" lon="9.357793249459952">
      <ele>2173.2</ele></trkpt>
      <trkpt lat="47.243982104103175" lon="9.357896686470967">
      <ele>2172.5</ele></trkpt>
      <trkpt lat="47.24399015686478" lon="9.35796472806069">
      <ele>2171.8</ele></trkpt>
      <trkpt lat="47.24398624004809" lon="9.35806967734026">
      <ele>2171.1</ele></trkpt>
      <trkpt lat="47.2439875971977" lon="9.35812916788975">
      <ele>2170.4</ele></trkpt>
      <trkpt lat="47.24401847981596" lon="9.358205085210008">
      <ele>2169.7</ele></trkpt>
      <trkpt lat="47.24406282540193" lon="9.358296482304379">
      <ele>2169.0</ele></trkpt>
      <trkpt lat="47.244084559553535" lon="9.358347985141263">
      <ele>2168.3</ele></trkpt>
      <trkpt lat="47.24409634729974" lon="9.358394347740864">
      <ele>2167.2</ele></trkpt>
      <trkpt lat="47.24411870064983" lon="9.358443785367964">
      <ele>2166.1</ele></trkpt>
      <trkpt lat="47.24412886018447" lon="9.358529541307817">
      <ele>2165.0</ele></trkpt>
      <trkpt lat="47.24412724739336" lon="9.358615521571668">
      <ele>2163.9</ele></trkpt>
      <trkpt lat="47.2441204598358" lon="9.358688618857697">
      <ele>2162.8</ele></trkpt>
      <trkpt lat="47.24410555176148" lon="9.358751211171205">
      <ele>2161.7</ele></trkpt>
      <trkpt lat="47.2440989267646" lon="9.358783779066336">
      <ele>2160.6</ele></trkpt>
      <trkpt lat="47.24410304164607" lon="9.35882084200927">
      <ele>2159.5</ele></trkpt>
      <trkpt lat="47.24411715711254" lon="9.358884622890264">
      <ele>2158.4</ele></trkpt>
      <trkpt lat="47.24412711569078" lon="9.358932214693057">
      <ele>2157.2</ele></trkpt>
      <trkpt lat="47.244131896838375" lon="9.358972485774652">
      <ele>2156.1</ele></trkpt>
      <trkpt lat="47.244135447783464" lon="9.359002354226128">
      <ele>2155.0</ele></trkpt>
      <trkpt lat="47.24413900661223" lon="9.35903228902663">
      <ele>2153.9</ele></trkpt>
      <trkpt lat="47.24413381781102" lon="9.359123888080171">
      <ele>2152.8</ele></trkpt>
      <trkpt lat="47.24412059551848" lon="9.359241860634786">
      <ele>2151.7</ele></trkpt>
      <trkpt lat="47.24411728991727" lon="9.359335443130155">
      <ele>2150.6</ele></trkpt>
      <trkpt lat="47.24412260149623" lon="9.359427538592765">
      <ele>2149.5</ele></trkpt>
      <trkpt lat="47.24413231709646" lon="9.359481595782587">
      <ele>2148.4</ele></trkpt>
      <trkpt lat="47.24408162223418" lon="9.359482904228887">
      <ele>2147.3</ele></trkpt>
      <trkpt lat="47.24407853204034" lon="9.359472897137898">
      <ele>2146.2</ele></trkpt>
      <trkpt lat="47.24405881271037" lon="9.35940904676465">
      <ele>2145.3</ele></trkpt>
      <trkpt lat="47.24403474427416" lon="9.359356191198087">
      <ele>2144.3</ele></trkpt>
      <trkpt lat="47.24401960286862" lon="9.359345869734158">
      <ele>2143.4</ele></trkpt>
      <trkpt lat="47.244005281995705" lon="9.359408297901505">
      <ele>2142.5</ele></trkpt>
      <trkpt lat="47.243993017559994" lon="9.359461247538693">
      <ele>2141.5</ele></trkpt>
      <trkpt lat="47.24399177680999" lon="9.359545378035785">
      <ele>2140.6</ele></trkpt>
      <trkpt lat="47.2439916762084" lon="9.359616165542768">
      <ele>2139.7</ele></trkpt>
      <trkpt lat="47.2439648394795" lon="9.359748762860246">
      <ele>2138.8</ele></trkpt>
      <trkpt lat="47.24395500914557" lon="9.359830549716884">
      <ele>2137.8</ele></trkpt>
      <trkpt lat="47.243938389760515" lon="9.359919649762983">
      <ele>2136.9</ele></trkpt>
      <trkpt lat="47.24393253066557" lon="9.35999205337805">
      <ele>2136.0</ele></trkpt>
      <trkpt lat="47.24395510278535" lon="9.360081202145585">
      <ele>2135.0</ele></trkpt>
      <trkpt lat="47.24399145658416" lon="9.36027243557421">
      <ele>2134.1</ele></trkpt>
      <trkpt lat="47.24400499962964" lon="9.360318703144255">
      <ele>2133.2</ele></trkpt>
      <trkpt lat="47.24403695615932" lon="9.360427783540656">
      <ele>2132.2</ele></trkpt>
      <trkpt lat="47.244043343700774" lon="9.360459101747898">
      <ele>2131.3</ele></trkpt>
      <trkpt lat="47.24405744865608" lon="9.36052831288189">
      <ele>2130.4</ele></trkpt>
      <trkpt lat="47.24406032500035" lon="9.36059158413417">
      <ele>2129.5</ele></trkpt>
      <trkpt lat="47.24404345939913" lon="9.360632846949333">
      <ele>2128.5</ele></trkpt>
      <trkpt lat="47.2440308886563" lon="9.3607068192358">
      <ele>2127.6</ele></trkpt>
      <trkpt lat="47.24399933724519" lon="9.360770318264564">
      <ele>2127.5</ele></trkpt>
      <trkpt lat="47.24397148362257" lon="9.360843529142596">
      <ele>2127.4</ele></trkpt>
      <trkpt lat="47.24393768877228" lon="9.360929857287118">
      <ele>2127.3</ele></trkpt>
      <trkpt lat="47.24392890614789" lon="9.361005960728253">
      <ele>2127.2</ele></trkpt>
      <trkpt lat="47.243927212670684" lon="9.361118771780724">
      <ele>2127.1</ele></trkpt>
      <trkpt lat="47.24389400101914" lon="9.36122998605975">
      <ele>2127.0</ele></trkpt>
      <trkpt lat="47.2438359180591" lon="9.361341890496615">
      <ele>2126.9</ele></trkpt>
      <trkpt lat="47.243783106219766" lon="9.361421522083354">
      <ele>2126.8</ele></trkpt>
      <trkpt lat="47.24376466353256" lon="9.361439738471462">
      <ele>2126.7</ele></trkpt>
      <trkpt lat="47.24374853743182" lon="9.36143128357203">
      <ele>2126.6</ele></trkpt>
      <trkpt lat="47.243734085282185" lon="9.361418489275504">
      <ele>2126.4</ele></trkpt>
      <trkpt lat="47.24373248942973" lon="9.361417070981313">
      <ele>2126.3</ele></trkpt>
      <trkpt lat="47.243705186285766" lon="9.361441640576022">
      <ele>2126.2</ele></trkpt>
      <trkpt lat="47.243700907426145" lon="9.361474292369964">
      <ele>2126.1</ele></trkpt>
      <trkpt lat="47.2437087052835" lon="9.361530526580324">
      <ele>2126.0</ele></trkpt>
      <trkpt lat="47.243722309886614" lon="9.361576849308456">
      <ele>2125.9</ele></trkpt>
      <trkpt lat="47.243717644694755" lon="9.361666603409528">
      <ele>2125.8</ele></trkpt>
      <trkpt lat="47.243719554805544" lon="9.36175052982078">
      <ele>2125.7</ele></trkpt>
      <trkpt lat="47.24371598583732" lon="9.361889948287157">
      <ele>2125.6</ele></trkpt>
      <trkpt lat="47.24371547324907" lon="9.361934666244144">
      <ele>2125.5</ele></trkpt>
      <trkpt lat="47.24369597857853" lon="9.361958763610414">
      <ele>2125.8</ele></trkpt>
      <trkpt lat="47.243666738903606" lon="9.361999619845877">
      <ele>2126.2</ele></trkpt>
      <trkpt lat="47.243642575805126" lon="9.362013943845433">
      <ele>2126.5</ele></trkpt>
      <trkpt lat="47.243613384442085" lon="9.362028192487136">
      <ele>2126.8</ele></trkpt>
      <trkpt lat="47.24359128333975" lon="9.362058048906885">
      <ele>2127.1</ele></trkpt>
      <trkpt lat="47.24357458897935" lon="9.362080938998965">
      <ele>2127.4</ele></trkpt>
      <trkpt lat="47.24356018765776" lon="9.362092588842248">
      <ele>2127.8</ele></trkpt>
      <trkpt lat="47.24354201384976" lon="9.362096849387303">
      <ele>2128.1</ele></trkpt>
      <trkpt lat="47.24352794203128" lon="9.362094691200138">
      <ele>2128.4</ele></trkpt>
      <trkpt lat="47.243504305904466" lon="9.36207367846192">
      <ele>2128.8</ele></trkpt>
      <trkpt lat="47.24348378271628" lon="9.362070997330372">
      <ele>2129.1</ele></trkpt>
      <trkpt lat="47.24346923202816" lon="9.362108299697864">
      <ele>2129.4</ele></trkpt>
      <trkpt lat="47.24346495836666" lon="9.362197750350166">
      <ele>2129.7</ele></trkpt>
      <trkpt lat="47.24347793148238" lon="9.362304508941218">
      <ele>2130.1</ele></trkpt>
      <trkpt lat="47.24347822109627" lon="9.362348053286434">
      <ele>2130.4</ele></trkpt>
      <trkpt lat="47.24347053606315" lon="9.362392314573558">
      <ele>2130.7</ele></trkpt>
      <trkpt lat="47.24347608270175" lon="9.362437858292411">
      <ele>2131.0</ele></trkpt>
      <trkpt lat="47.24348803568145" lon="9.362484465098476">
      <ele>2131.3</ele></trkpt>
      <trkpt lat="47.243513102627126" lon="9.362534014882883">
      <ele>2131.7</ele></trkpt>
      <trkpt lat="47.24349811224362" lon="9.362600870039843">
      <ele>2132.0</ele></trkpt>
      <trkpt lat="47.243478883387425" lon="9.362649987178472">
      <ele>2131.7</ele></trkpt>
      <trkpt lat="47.24343258545045" lon="9.3627414253929">
      <ele>2131.3</ele></trkpt>
      <trkpt lat="47.24337057061079" lon="9.362860782597226">
      <ele>2131.0</ele></trkpt>
      <trkpt lat="47.24335999782718" lon="9.362992271607927">
      <ele>2130.6</ele></trkpt>
      <trkpt lat="47.24335792351587" lon="9.363087905247538">
      <ele>2130.3</ele></trkpt>
      <trkpt lat="47.24335693356571" lon="9.363133702316887">
      <ele>2130.0</ele></trkpt>
      <trkpt lat="47.243349937063584" lon="9.363247140266735">
      <ele>2129.6</ele></trkpt>
      <trkpt lat="47.24334810160774" lon="9.363276761697117">
      <ele>2129.3</ele></trkpt>
      <trkpt lat="47.24334630537427" lon="9.36339720441829">
      <ele>2128.9</ele></trkpt>
      <trkpt lat="47.24332798061618" lon="9.363535971271826">
      <ele>2128.6</ele></trkpt>
      <trkpt lat="47.24331157053369" lon="9.363674833457013">
      <ele>2128.3</ele></trkpt>
      <trkpt lat="47.24330316319858" lon="9.363789211322493">
      <ele>2127.9</ele></trkpt>
      <trkpt lat="47.24327514018312" lon="9.363937048625944">
      <ele>2127.6</ele></trkpt>
      <trkpt lat="47.2432411528692" lon="9.364099891105855">
      <ele>2127.2</ele></trkpt>
      <trkpt lat="47.24321587842929" lon="9.364255516583006">
      <ele>2126.9</ele></trkpt>
      <trkpt lat="47.243172974472685" lon="9.364375824764288">
      <ele>2126.6</ele></trkpt>
      <trkpt lat="47.24311295080901" lon="9.36448953052622">
      <ele>2126.2</ele></trkpt>
      <trkpt lat="47.24304393001874" lon="9.364629586726794">
      <ele>2125.9</ele></trkpt>
      <trkpt lat="47.242988538097144" lon="9.364753077275578">
      <ele>2125.5</ele></trkpt>
      <trkpt lat="47.242893825914436" lon="9.364884199976906">
      <ele>2125.2</ele></trkpt>
      <trkpt lat="47.2428879574635" lon="9.364931683618103">
      <ele>2124.6</ele></trkpt>
      <trkpt lat="47.242880757764304" lon="9.365006586947349">
      <ele>2124.1</ele></trkpt>
      <trkpt lat="47.24288664151222" lon="9.365081948857089">
      <ele>2123.5</ele></trkpt>
      <trkpt lat="47.24290604014104" lon="9.365194382160261">
      <ele>2122.9</ele></trkpt>
    </trkseg>
  </trk>
</gpx>